{"type":"FeatureCollection","features":[{"type":"Feature","properties":{"fid":38,"objectid":1885,"lccode":"07","liqcode":"2010600070000000","mappers":"JSPerez ","project":"READY","province":"Surigao del Sur","otherinfo":null,"datemapped":2007,"publishdate":null,"globalid":"{FDA7F772-DEDF-47F9-B8FA-912035EE9393}","st_area(shape)":0.04086090170713132,"st_perimeter(shape)":12.6212836285462,"liqcodepk":"201060007000000000079","creator":"SNOOPYPC","createdate":"2019-02-19T15:21:28","editor":"LENOVO","modifydate":"2019-03-10T17:50:55","codemove":"na"},"geometry":{"type":"Polygon","coordinates":[]}},{"type":"Feature","properties":{"fid":81,"objectid":1916,"lccode":"05","liqcode":"2010600050000000","mappers":"JSPerez","project":"READY","province":"Surigao del Sur","otherinfo":null,"datemapped":2007,"publishdate":null,"globalid":"{436AF97F-3789-427C-9D93-46719D182001}","st_area(shape)":0.0045057935314115815,"st_perimeter(shape)":1.4887365100085943,"liqcodepk":"201060005000000000114","creator":"SNOOPYPC","createdate":"2019-02-19T15:21:28","editor":"LENOVO","modifydate":"2019-03-10T17:50:55","codemove":"na"},"geometry":{"type":"Polygon","coordinates":[]}},{"type":"Feature","properties":{"fid":86,"objectid":1945,"lccode":"06","liqcode":"2010600060000000","mappers":"JSPerez","project":"READY","province":"Surigao del Sur","otherinfo":null,"datemapped":2007,"publishdate":null,"globalid":"{E4D44F91-040C-4614-A92C-CD665C28A96D}","st_area(shape)":0.00901660285265909,"st_perimeter(shape)":4.024381446086732,"liqcodepk":"201060006000000000145","creator":"SNOOPYPC","createdate":"2019-02-19T15:21:28","editor":"LENOVO","modifydate":"2019-03-10T17:50:55","codemove":"na"},"geometry":{"type":"Polygon","coordinates":[]}},{"type":"Feature","properties":{"fid":89,"objectid":1949,"lccode":"01","liqcode":"2010600010000000","mappers":"DJLBuhay, MITAbigania, KLPapiona, KMVitto","project":"MELP","province":"Agusan del Sur","otherinfo":null,"datemapped":2018,"publishdate":null,"globalid":"{1E6CEE5B-C387-4818-8ED8-6D59425E2C9E}","st_area(shape)":0.13568303251391492,"st_perimeter(shape)":20.45926534020769,"liqcodepk":"201060001000000000548","creator":null,"createdate":"2019-06-04T13:29:47","editor":"SDE","modifydate":"2019-06-04T10:20:42","codemove":"na"},"geometry":{"type":"MultiPolygon","coordinates":[[[[125.94116617400003,8.00019443900004],[125.94094579999589,8.00045630927527],[125.94130369320615,8.00093021289788],[125.94116617400003,8.00019443900004]]],[[[125.95340088200008,8.008725509000046],[125.95376763900003,8.007189888000028],[125.95434751300003,8.005913610000048],[125.95416787100011,8.004939690000068],[125.9547726300001,8.003673349000053],[125.95408012400003,8.000733560000072],[125.95256064400009,8.00017074400006],[125.95139631100005,8.000982152000061],[125.95086579900011,8.001903772000048],[125.9499060170001,8.001815001000068],[125.94964322700002,8.002619985000024],[125.94832117600005,8.002839738000032],[125.948077838,8.003682826000045],[125.94661404500003,8.00362242600005],[125.94544277500006,8.002707247000044],[125.94497294000008,8.004068235000032],[125.94515283400006,8.005080408000026],[125.94487764316088,8.005328868823687],[125.94649723053871,8.00708463053112],[125.94981351655392,8.010037769393993],[125.95153045276737,8.01128808929323],[125.95340088200008,8.008725509000046]]],[[[126.01701678700009,7.9526051350000575],[126.016429506,7.955907692000038],[126.01553782100008,7.956917982000051],[126.01547321600003,7.957922282000026],[126.01396967900007,7.95886530100006],[126.0127457230001,7.958694904000026],[126.01248591000001,7.957585395000025],[126.01129374300001,7.956841143000075],[126.01085152900009,7.9553744370000485],[126.01167339300002,7.954651469000051],[126.011517818,7.953039286000035],[126.0084229910001,7.955173791000047],[126.00272997700007,7.959290081000059],[125.99786373700012,7.962695216000041],[125.99318020400007,7.971476785000052],[125.9887946130001,7.981690305000027],[125.98682793700006,7.98822952900002],[125.98666790500009,7.992883070000063],[125.98613254500003,7.995474377000049],[125.98085713600007,7.998212945000031],[125.97263615700001,7.9982952500000675],[125.97428356100012,8.00328842400006],[125.97438284000009,8.005080330000055],[125.97410527600003,8.006487739000022],[125.97351111000012,8.007883082000033],[125.97230918700008,8.008795199000074],[125.97111791200008,8.00919096100006],[125.97006191400011,8.010388847000057],[125.96812904900004,8.009700008000038],[125.96758660700006,8.010291882000047],[125.96687224800009,8.008991969000023],[125.9670680710001,8.00821614800003],[125.9660427020001,8.00767853900004],[125.96560542000009,8.006892913000058],[125.9647271230001,8.006798818000048],[125.96349526300003,8.007553378000067],[125.96218216800003,8.007017816000028],[125.96221768300006,8.005956319000063],[125.96268097100005,8.004361141000059],[125.96187492000003,8.004309544000025],[125.9615806810001,8.003476438000062],[125.96168590100002,8.001438051000035],[125.96243791200006,8.000978537000037],[125.9614617220001,8.000274438000076],[125.96053317200007,8.002025913000068],[125.9597868500001,8.00244355600006],[125.9603225310001,8.004507081000042],[125.96105769200005,8.006036325000025],[125.96076399700007,8.00787409000003],[125.96180698900004,8.00886094400005],[125.96220192700002,8.01042607900007],[125.96356385700004,8.010416325000051],[125.96425910100004,8.011061473000039],[125.96473423300004,8.01334355700004],[125.96624638800006,8.015209003000052],[125.96603628300011,8.01599926800003],[125.96660554700007,8.01679589300005],[125.96636405000005,8.018219780000038],[125.96680098583285,8.01855645996906],[125.96978756247805,8.019279295383797],[125.97419097822291,8.019897910364215],[125.97863401089424,8.02008328279867],[125.9830738570954,8.019833632023582],[125.98746774517632,8.019151368246416],[125.99177334767204,8.018043069105337],[125.99594918940204,8.016519416049787],[125.99995504728197,8.014595091165194],[126.00375233798276,8.012288635447554],[126.00730448969173,8.009622269905671],[126.01057729438915,8.006621681227228],[126.01353923724412,8.003315774086014],[126.0161617999602,7.999736392488135],[126.01841973515532,7.9959180128520355],[126.02029130914443,7.991897411787802],[126.02175851080085,7.987713311782646],[126.022807224503,7.983406008210172],[126.02342736552022,7.979016981258079],[126.02361297655636,7.974588496511822],[126.02336228454317,7.970163198038134],[126.02267771715938,7.9657836978822685],[126.02175546186618,7.962223939646072],[126.02065905400002,7.962075909000018],[126.02070929900003,7.960749058000034],[126.01926862200004,7.960448803000077],[126.01887118099998,7.958551580000061],[126.0194926570001,7.9582961160000405],[126.01953354000011,7.957327842000037],[126.01848673200004,7.956985205000022],[126.01873365287632,7.954632808929485],[126.01810726852067,7.953337048446861],[126.01735026496833,7.952098518950649],[126.01701678700009,7.9526051350000575]]],[[[125.95119705600008,7.996962762000068],[125.94963828600011,7.996938007000038],[125.94898696000007,7.99806604300005],[125.94820607300005,7.997844530000065],[125.9478634520001,7.998552081000072],[125.94895056200004,7.999679696000045],[125.95058076200007,7.999632236000023],[125.95166170300001,7.998226263000049],[125.95119705600008,7.996962762000068]]]]}},{"type":"Feature","properties":{"fid":195,"objectid":2253,"lccode":"01","liqcode":"<Null>","mappers":"DJLBuhay, MJVReyes, MITAbigania, KLPapiona, KMVitto","project":"MELP","province":"Davao Oriental","otherinfo":null,"datemapped":2018,"publishdate":null,"globalid":"{106618BF-C9C2-442C-8DFA-3A2107C26CAB}","st_area(shape)":0.03977934253941522,"st_perimeter(shape)":14.106801890447542,"liqcodepk":null,"creator":null,"createdate":null,"editor":null,"modifydate":null,"codemove":null},"geometry":{"type":"Polygon","coordinates":[]}},{"type":"Feature","properties":{"fid":204,"objectid":3530,"lccode":"01","liqcode":null,"mappers":"DJLBuhay, MJVReyes, MITAbigania, KLPapiona, KMVitto","project":"MELP","province":"Davao de Oro","otherinfo":null,"datemapped":2020,"publishdate":2021,"globalid":"{B133662C-BB56-4B68-925E-E0332BEC485E}","st_area(shape)":0.05410125761039176,"st_perimeter(shape)":8.444321327772833,"liqcodepk":null,"creator":null,"createdate":null,"editor":null,"modifydate":null,"codemove":null},"geometry":{"type":"MultiPolygon","coordinates":[[[[125.9343906380001,7.984524710000075],[125.9370861010001,7.98457249300003],[125.93739739800003,7.983843648000061],[125.93638436400012,7.983009479000029],[125.93516778500008,7.983218899000066],[125.93454104500006,7.982754860000058],[125.93376511686078,7.982986092124502],[125.93393061918623,7.9840462592436],[125.93410809382905,7.984731802791291],[125.9343906380001,7.984524710000075]]],[[[126.000561327,7.938925321000055],[126.00008437300006,7.939272940000022],[125.99851009700001,7.939054849000057],[125.99824743100011,7.939859823000064],[125.99971177900011,7.940786181000019],[125.99956432400006,7.941609445000041],[125.99974970600012,7.943367230000035],[125.99911305900002,7.945494249000037],[125.99841456200011,7.949667656000033],[125.997613225,7.950247071000038],[125.99707514000012,7.951642006000043],[125.9957511020001,7.952875308000045],[125.99495753900011,7.953206093000062],[125.99437264300003,7.95453922400003],[125.9935312660001,7.954889474000023],[125.99299806000012,7.956738499000041],[125.99207224600002,7.957347492000055],[125.99193270500008,7.95794125100002],[125.99265024800003,7.959025971000076],[125.99229118900006,7.959764722000045],[125.99062639700003,7.961621916000071],[125.99058920700008,7.963104066000028],[125.98936317900007,7.963313683000022],[125.98906449600008,7.964443981000044],[125.98849139900007,7.964763612000069],[125.98830311200004,7.966404604000043],[125.98779950800008,7.967214908000072],[125.98720160700009,7.969121742000025],[125.98604280200004,7.969837529000074],[125.98518990500008,7.971249082000039],[125.98534813100002,7.971907621000072],[125.98403858200004,7.972837387000026],[125.9825630270001,7.9756731760000426],[125.98185711600001,7.975534855000036],[125.98115713100005,7.976213921000067],[125.98027922100003,7.97616288100005],[125.97976790200006,7.977070042000036],[125.97896451200008,7.9773769870000715],[125.97715825800005,7.976271395000028],[125.97684917100004,7.977956291000052],[125.97747014400012,7.978946127000029],[125.97771139100007,7.980474092000065],[125.97710703500003,7.981778689000066],[125.97769062700003,7.982902641000069],[125.97750404000011,7.985112490000062],[125.97683623600007,7.986264576000053],[125.97703333300001,7.987654229000041],[125.97574756600011,7.988896814000043],[125.97597343500001,7.99028626000006],[125.97542164500008,7.991566581000029],[125.97540337500003,7.993015150000076],[125.97502244500004,7.994050445000027],[125.97419326300009,7.9947734680000595],[125.97410503900007,7.996495021000046],[125.97335873600002,7.996744195000075],[125.97246260600004,7.99815606800007],[125.98067224300006,7.998101632000044],[125.98099617800007,7.997935132000065],[125.9861668210001,7.995229017000043],[125.98688988100002,7.987590265000051],[125.98876316200004,7.981422125000052],[125.99361083300005,7.970334527000032],[125.9979647250001,7.962415644000032],[126.01182394600005,7.952687255000056],[126.01177804900009,7.951655070000073],[126.0127101160001,7.950596667000069],[126.01306543000011,7.949351243000024],[126.01294142400002,7.948128420000044],[126.01360638300004,7.947263163000061],[126.01244773000008,7.94618169100005],[126.01127911100002,7.946362253000073],[126.00968020200004,7.945398687000024],[126.00926533300002,7.943738188000056],[126.00811213300005,7.943402366000042],[126.0066943370001,7.943603838000057],[126.0052613700001,7.941721246000039],[126.0039105520001,7.940583764000051],[126.00289119100013,7.940189593000071],[126.00314550800009,7.938237428000036],[126.00233099900004,7.937000455000028],[126.00232423648092,7.936664447862042],[126.00128922521506,7.936056077473653],[126.000561327,7.938925321000055]]]]}}]}