{"type":"FeatureCollection","features":[{"type":"Feature","properties":{"fid":31,"objectid":1877,"lccode":"07","liqcode":"2010600070000000","mappers":"PJDelosReyes, ACPidlaoan","project":"READY","province":"Ilocos Sur","otherinfo":null,"datemapped":2012,"publishdate":null,"globalid":"{9BD19C39-D43F-480F-8D4D-C2FF10071B57}","st_area(shape)":0.01783800115070572,"st_perimeter(shape)":3.398456363100086,"liqcodepk":"201060007000000000070","creator":"SNOOPYPC","createdate":"2019-02-19T15:21:28","editor":"LENOVO","modifydate":"2019-03-10T17:50:55","codemove":"na"},"geometry":{"type":"MultiPolygon","coordinates":[[[[120.38160235200007,17.69036633600007],[120.38210858100003,17.692414676000055],[120.38134737900009,17.69392803400006],[120.3805325190001,17.694683302000048],[120.38107072300011,17.69516441900004],[120.38388328700013,17.693018526000056],[120.38623136500007,17.69231460900005],[120.38642903800006,17.69130406600004],[120.3882771520001,17.689142831000023],[120.39024988500012,17.68733862000005],[120.39188833300011,17.68685391200006],[120.39457172400012,17.687182677000067],[120.3958219430001,17.687910119000037],[120.39818704000005,17.69103352600007],[120.39847249000003,17.693098787000054],[120.39845808300004,17.696670502000075],[120.39799296900001,17.698068310000053],[120.3973942760001,17.698469676000055],[120.3974583790001,17.69938564800003],[120.39862492500002,17.701159285000077],[120.399556533,17.70192457400003],[120.40016233600011,17.70156943300003],[120.40133638600004,17.699614137000026],[120.40226791600003,17.69909499000005],[120.40340134800012,17.699960356000076],[120.40266909300009,17.702041057000024],[120.40239868100002,17.70349445400006],[120.40317304400004,17.70362875600006],[120.4041473010001,17.70271161200003],[120.4047665600001,17.702706431000024],[120.40726355500011,17.70385994800006],[120.408144289,17.704952116000072],[120.40952882700003,17.70571006700004],[120.41115756900003,17.705554386000074],[120.41299183700005,17.706530704000045],[120.41529380500002,17.708407796000078],[120.41776276700013,17.711536011000078],[120.41924693100009,17.71373892800005],[120.41995103400008,17.716843921000077],[120.4201996290001,17.71691355400003],[120.42297318400007,17.715554937000036],[120.42584960200008,17.714755645000025],[120.42815531900008,17.71379379600006],[120.43325107100007,17.712903896000057],[120.43579347700008,17.711386207000032],[120.43618381400006,17.710662623000072],[120.43732124300003,17.70695441500004],[120.43732246200011,17.70604804700002],[120.43719424500013,17.704664584000053],[120.43773901200007,17.704051633000063],[120.44132438400005,17.702769762000056],[120.44356051700005,17.70148796300003],[120.44390682600012,17.700845950000033],[120.44407296400006,17.700537948000033],[120.44361086900004,17.699238720000043],[120.44189758800007,17.69884440200008],[120.44089021200013,17.69886667800006],[120.43698165600004,17.698815731000025],[120.4359649790001,17.69863966500003],[120.43259118200002,17.698227022000022],[120.42859289500007,17.69735982300006],[120.42617616400001,17.697044746000074],[120.4228495000001,17.69703653700003],[120.42073841500007,17.69732775700004],[120.41851386500002,17.69650133400006],[120.41631248000012,17.69406317200002],[120.41343324900004,17.691208575000076],[120.41277467400003,17.690739318000055],[120.41095780800003,17.688554118000066],[120.40746677100003,17.685850853000034],[120.40491567700008,17.684612589000043],[120.40323540600002,17.683226339000047],[120.39951748300007,17.68089197000006],[120.39887950900003,17.680281276000073],[120.39477901700002,17.677569762000076],[120.39308865813742,17.676803811104655],[120.39089812594003,17.678316613554966],[120.38743052133101,17.681246537589313],[120.3855897672732,17.68313995603318],[120.38649206600009,17.68387699500005],[120.3870113820001,17.684691022000038],[120.38827424200007,17.685233666000045],[120.3899859500001,17.684441506000038],[120.39179511200007,17.684571880000078],[120.3921954540001,17.685002289000064],[120.39240109900005,17.686326452000056],[120.39160021200009,17.686582372000032],[120.38906986800009,17.68644882800004],[120.38721595400013,17.686849385000077],[120.38562456600005,17.68444161700006],[120.38494429710464,17.683803878385202],[120.38427908688872,17.68448809702181],[120.3814741704206,17.688010089785145],[120.38046158883748,17.689579568253976],[120.38160235200007,17.69036633600007]],[[120.39717560400005,17.685670629000068],[120.3930787160001,17.68334439700004],[120.3920311390001,17.681665325000036],[120.39277886200013,17.680892672000027],[120.39426370500007,17.681907472000038],[120.39721541100005,17.68290764500006],[120.39877799400007,17.682432885000022],[120.3993383080001,17.683290136000043],[120.3987919010001,17.68403541200007],[120.39947426000003,17.68539007900006],[120.4015926950001,17.68707352800004],[120.40213447100008,17.68845982900007],[120.40171052000007,17.689025603000065],[120.40071376300011,17.688941544000045],[120.39862122500006,17.686910257000026],[120.39717560400005,17.685670629000068]]],[[[120.4406286960001,17.753838421000065],[120.44190915600005,17.75017218000005],[120.4420710290001,17.748199807000045],[120.4416932370001,17.74644955800005],[120.4419714390001,17.745735703000037],[120.4447085270001,17.744693004000048],[120.44641728400006,17.743809514000077],[120.44716637500005,17.74182852300004],[120.44707269500009,17.740613821000068],[120.44662775200005,17.740050001000046],[120.44487363400003,17.739247629000033],[120.44225956600008,17.738469515000077],[120.44089406300009,17.737645634000046],[120.43856365100008,17.73577282600007],[120.43660912600001,17.73477300500003],[120.43600056700008,17.734667622000075],[120.43617433100007,17.736742526000057],[120.43612271500001,17.74004574500003],[120.43557763600006,17.742297344000065],[120.43467177700005,17.744242996000022],[120.43394245200011,17.74742221300005],[120.43284184100003,17.749711852000075],[120.43039410900008,17.753248848000055],[120.42962155900011,17.754624556000067],[120.42667194300009,17.755838763000046],[120.425540393,17.755994734000073],[120.42376328300008,17.756958561000033],[120.42266972500009,17.757228966000067],[120.42163076100007,17.756455921000054],[120.41875651500006,17.756550987000026],[120.4216220080001,17.758449137000067],[120.42209788249025,17.758675772435517],[120.42425287806758,17.75860272586628],[120.42883620478148,17.758012693618696],[120.43333707176924,17.75699493813389],[120.4377121012919,17.755559264175673],[120.4401759936585,17.7544818051779],[120.4406286960001,17.753838421000065]]]]}},{"type":"Feature","properties":{"fid":58,"objectid":1907,"lccode":"05","liqcode":"2010600050000000","mappers":"PJDelosReyes, ACPidlaoan","project":"READY","province":"Ilocos Sur","otherinfo":null,"datemapped":2012,"publishdate":null,"globalid":"{7D41ABB3-20BB-4A8A-A22A-9DDDC45B8904}","st_area(shape)":0.029120699274048492,"st_perimeter(shape)":9.226907297832456,"liqcodepk":"201060005000000000102","creator":"SNOOPYPC","createdate":"2019-02-19T15:21:28","editor":"LENOVO","modifydate":"2019-03-10T17:50:55","codemove":"na"},"geometry":{"type":"MultiPolygon","coordinates":[[[[120.40483770200001,17.672670681000056],[120.40550834900012,17.675270143000034],[120.40570561900006,17.678256229000052],[120.40596974300003,17.67904770500007],[120.40897123600007,17.681752928000037],[120.4103269420001,17.68315074900005],[120.41132895500004,17.683473832000054],[120.41358420600011,17.683270825000015],[120.41712983100003,17.684241594000067],[120.41924842000003,17.684436640000058],[120.42059014500002,17.684905720000078],[120.42137236600001,17.685748225000054],[120.42144880600006,17.686864636000053],[120.42216609200013,17.68729319100004],[120.42379980300007,17.68713690600003],[120.42535576800003,17.68749129100007],[120.42735003800009,17.68883651800008],[120.42909215300006,17.68777929200007],[120.43003875200009,17.68680898900004],[120.43051094700003,17.684778918000067],[120.43193112400002,17.683628873000025],[120.43550984200012,17.685015295000028],[120.43646751400001,17.686113858000056],[120.43642130700005,17.68872360400007],[120.43570805900005,17.689512331000063],[120.43420975400012,17.69040087900004],[120.43381936700005,17.691781904000038],[120.43515674200012,17.694216295000047],[120.43485496000005,17.69592850700008],[120.43508803800013,17.697728696000066],[120.4359649790001,17.69863966500003],[120.43698165600004,17.698815731000025],[120.44089021200013,17.69886667800006],[120.44109411800002,17.697998976000065],[120.4445809250001,17.69701742200004],[120.44609538200008,17.697037112000032],[120.448903459,17.69757301700002],[120.45152414400003,17.695662479000077],[120.45082559500007,17.694336376000024],[120.45118259200001,17.693584054000038],[120.45270698900005,17.691917264000033],[120.45423053900005,17.690958824000056],[120.45440374400005,17.689154959000064],[120.4536952210001,17.688968710000037],[120.4500515420001,17.688979087000064],[120.448210463,17.687560844000075],[120.4480926970001,17.684133120000066],[120.44725497700006,17.68197979200005],[120.44584904900012,17.680496393000055],[120.44527910300008,17.679001634000034],[120.44359268700009,17.675473892000074],[120.44426030952887,17.67480124529486],[120.44304839989186,17.67408332722855],[120.43889702502166,17.67213459097425],[120.43456647759622,17.670585228486402],[120.43009844098437,17.669450147496413],[120.42553591818476,17.668740267987868],[120.42092281870299,17.66846241746897],[120.41630353682952,17.66861926556456],[120.4117225253366,17.669209298544704],[120.40722386865272,17.670226834026018],[120.4047103334553,17.67105180314875],[120.40483770200001,17.672670681000056]],[[120.41962104299999,17.669384202000057],[120.4219169920001,17.669316691000066],[120.42649036700004,17.67049441400007],[120.43041484300011,17.671752231000028],[120.43216751700004,17.672147764000044],[120.43415082400008,17.672923274000027],[120.43668137200007,17.674921364000053],[120.43843846400013,17.675995565000047],[120.44231837000008,17.67878292100005],[120.44226366400005,17.67937662700007],[120.43825818300003,17.68120525800003],[120.43721068400009,17.68132470400008],[120.43590324700007,17.67986600400007],[120.43485433100012,17.679111542000044],[120.43245033500013,17.67797567900004],[120.427958568,17.67624915100004],[120.42663826500008,17.675380220000022],[120.42294269200009,17.67397001300003],[120.42109641500006,17.671701273000057],[120.4191525330001,17.669786189000032],[120.41962104299999,17.669384202000057]]],[[[120.464855725,17.708457187000025],[120.46438191200002,17.70799073600006],[120.465146364,17.70650881000006],[120.4666047565764,17.705403695629094],[120.465541990431,17.701091728821023],[120.46475270335381,17.698884163744093],[120.46326711200003,17.699626051000052],[120.46158476900007,17.699933183000038],[120.45865188800008,17.69951313200005],[120.45483412400004,17.700050187000045],[120.45310965800002,17.700054476000048],[120.44954270000005,17.69924402700008],[120.44802923300006,17.699411017000042],[120.44390682600012,17.700845950000033],[120.44356051700005,17.70148796300003],[120.44132438400005,17.702769762000056],[120.43773901200007,17.704051633000063],[120.43719424500013,17.704664584000053],[120.43732246200011,17.70604804700002],[120.43835412000011,17.706687974000033],[120.43940814100006,17.708194483000053],[120.43906504500002,17.70950516100004],[120.43946274000007,17.71087868400002],[120.43893367300007,17.712879952000037],[120.43834104200006,17.71348532700006],[120.43665476500009,17.714058725000026],[120.43448802000012,17.715167780000055],[120.43411019700011,17.715660457000073],[120.43430987400006,17.717262463000058],[120.43563080900002,17.718257169000026],[120.43711179500009,17.717778895000038],[120.43863502400006,17.71824303000005],[120.43921415600006,17.719245821000072],[120.43884232900008,17.721920031000028],[120.44147156300006,17.72428412800002],[120.44255471300005,17.72429824800003],[120.44466904200009,17.72372379200004],[120.44840339900009,17.723559917000042],[120.4515406390001,17.723813152000048],[120.45597342100007,17.72390606500005],[120.45933685600005,17.723843452000036],[120.46110721600009,17.724078833000025],[120.46384014800005,17.724184965000063],[120.46592602997913,17.724581939806185],[120.4663574258959,17.723020949927616],[120.46709738507498,17.71864684343298],[120.46738638829879,17.71422428468076],[120.46722168484263,17.709795871489746],[120.46704364439208,17.70852821494303],[120.464855725,17.708457187000025]]],[[[120.46005796200006,17.73757260700006],[120.45883271800007,17.737663374000025],[120.45621102200005,17.73945652700007],[120.4536467260001,17.73981422500003],[120.45316038200008,17.740110040000044],[120.45229717900008,17.743443205000062],[120.45224280900004,17.744665376000057],[120.45122006600002,17.74616598100005],[120.44869021500006,17.748012393000067],[120.44747110300011,17.748381434000063],[120.44705334600006,17.749266324000075],[120.44486959300002,17.749579545000074],[120.44450336900002,17.750258216000077],[120.44435967400013,17.752002925000053],[120.4445105517867,17.752276772365075],[120.44591761739142,17.75149338571783],[120.44966903466013,17.748902358571943],[120.45313723908626,17.7459713895565],[120.45628882139935,17.74272872062349],[120.45909342810957,17.739205596477678],[120.46013017065418,17.737597748786506],[120.46005796200006,17.73757260700006]]],[[[120.46414632300002,17.72868633000007],[120.45977722400005,17.729302607000022],[120.45463628400012,17.729625511000048],[120.45344859000011,17.729999635000066],[120.45185887500008,17.73004987400003],[120.4506501090001,17.730523034000043],[120.45150602200012,17.731206046000068],[120.45177255500005,17.73268015800005],[120.45123898500002,17.733695105000034],[120.44931094300013,17.734305362000043],[120.4483327370001,17.735287787000058],[120.44820768500006,17.736259187000023],[120.4484387760001,17.73827479500005],[120.44931770500011,17.739068191000058],[120.45072200100003,17.739428584000052],[120.45217312800003,17.73910531300004],[120.45459661400002,17.738212697000048],[120.45650346000001,17.737135555000066],[120.45759290900001,17.73615443700003],[120.45904368700009,17.73585340900007],[120.46092954756332,17.73635799670066],[120.46152405390158,17.735435963054442],[120.46355730152875,17.73145613997297],[120.4647532375391,17.72838426136201],[120.46414632300002,17.72868633000007]]]]}},{"type":"Feature","properties":{"fid":72,"objectid":1936,"lccode":"06","liqcode":"2010600060000000","mappers":"PJDelosReyes, ACPidlaoan","project":"READY","province":"Ilocos Sur","otherinfo":null,"datemapped":2012,"publishdate":null,"globalid":"{33CDE2C7-9AFF-4DEC-86B5-45B4892EBDFF}","st_area(shape)":0.017363484289297154,"st_perimeter(shape)":5.7193106480781575,"liqcodepk":"201060006000000000135","creator":"SNOOPYPC","createdate":"2019-02-19T15:21:28","editor":"LENOVO","modifydate":"2019-03-10T17:50:55","codemove":"na"},"geometry":{"type":"MultiPolygon","coordinates":[[[[120.39477901700002,17.677569762000076],[120.39887950900003,17.680281276000073],[120.39951748300007,17.68089197000006],[120.40323540600002,17.683226339000047],[120.40491567700008,17.684612589000043],[120.40746677100003,17.685850853000034],[120.41095780800003,17.688554118000066],[120.41277467400003,17.690739318000055],[120.41343324900004,17.691208575000076],[120.41631248000012,17.69406317200002],[120.41851386500002,17.69650133400006],[120.42073841500007,17.69732775700004],[120.4228495000001,17.69703653700003],[120.42617616400001,17.697044746000074],[120.42859289500007,17.69735982300006],[120.43259118200002,17.698227022000022],[120.4359649790001,17.69863966500003],[120.43508803800013,17.697728696000066],[120.43485496000005,17.69592850700008],[120.43515674200012,17.694216295000047],[120.43381936700005,17.691781904000038],[120.43420975400012,17.69040087900004],[120.43570805900005,17.689512331000063],[120.43642130700005,17.68872360400007],[120.43646751400001,17.686113858000056],[120.43550984200012,17.685015295000028],[120.43193112400002,17.683628873000025],[120.43051094700003,17.684778918000067],[120.43003875200009,17.68680898900004],[120.42909215300006,17.68777929200007],[120.42735003800009,17.68883651800008],[120.42535576800003,17.68749129100007],[120.42379980300007,17.68713690600003],[120.42216609200013,17.68729319100004],[120.42144880600006,17.686864636000053],[120.42137236600001,17.685748225000054],[120.42059014500002,17.684905720000078],[120.41924842000003,17.684436640000058],[120.41712983100003,17.684241594000067],[120.41358420600011,17.683270825000015],[120.41132895500004,17.683473832000054],[120.4103269420001,17.68315074900005],[120.40897123600007,17.681752928000037],[120.40596974300003,17.67904770500007],[120.40570561900006,17.678256229000052],[120.40550834900012,17.675270143000034],[120.40483770200001,17.672670681000056],[120.4047103334553,17.67105180314875],[120.402850859576,17.67166207569933],[120.39864558355525,17.673501207556438],[120.39464851449576,17.675726526712673],[120.39308865813742,17.676803811104655],[120.39477901700002,17.677569762000076]]],[[[120.3987919010001,17.68403541200007],[120.3993383080001,17.683290136000043],[120.39877799400007,17.682432885000022],[120.39721541100005,17.68290764500006],[120.39426370500007,17.681907472000038],[120.39277886200013,17.680892672000027],[120.3920311390001,17.681665325000036],[120.3930787160001,17.68334439700004],[120.39717560400005,17.685670629000068],[120.39862122500006,17.686910257000026],[120.40071376300011,17.688941544000045],[120.40171052000007,17.689025603000065],[120.40213447100008,17.68845982900007],[120.4015926950001,17.68707352800004],[120.39947426000003,17.68539007900006],[120.3987919010001,17.68403541200007]]],[[[120.39160021200009,17.686582372000032],[120.39240109900005,17.686326452000056],[120.3921954540001,17.685002289000064],[120.39179511200007,17.684571880000078],[120.3899859500001,17.684441506000038],[120.38827424200007,17.685233666000045],[120.3870113820001,17.684691022000038],[120.38649206600009,17.68387699500005],[120.3855897672732,17.68313995603318],[120.38494429710464,17.683803878385202],[120.38562456600005,17.68444161700006],[120.38721595400013,17.686849385000077],[120.38906986800009,17.68644882800004],[120.39160021200009,17.686582372000032]]],[[[120.39845808300004,17.696670502000075],[120.39847249000003,17.693098787000054],[120.39818704000005,17.69103352600007],[120.3958219430001,17.687910119000037],[120.39457172400012,17.687182677000067],[120.39188833300011,17.68685391200006],[120.39024988500012,17.68733862000005],[120.3882771520001,17.689142831000023],[120.38642903800006,17.69130406600004],[120.38623136500007,17.69231460900005],[120.38698845600004,17.692359981000028],[120.38982836000004,17.69341062200004],[120.3933442140001,17.695163279000038],[120.39674062400002,17.697483056000067],[120.3973942760001,17.698469676000055],[120.39799296900001,17.698068310000053],[120.39845808300004,17.696670502000075]]],[[[120.46038441300004,17.697616188000044],[120.45893996200004,17.69683333300003],[120.45686049700011,17.697037500000018],[120.45598406900001,17.69673287100005],[120.4541225500001,17.69561473100003],[120.45286949500006,17.695395236000024],[120.45152414400003,17.695662479000077],[120.448903459,17.69757301700002],[120.4471408080001,17.698971834000076],[120.44451421100005,17.699841819000024],[120.44407296400006,17.700537948000033],[120.44390682600012,17.700845950000033],[120.44802923300006,17.699411017000042],[120.44954270000005,17.69924402700008],[120.45310965800002,17.700054476000048],[120.45483412400004,17.700050187000045],[120.45865188800008,17.69951313200005],[120.46158476900007,17.699933183000038],[120.46326711200003,17.699626051000052],[120.46475270335381,17.698884163744093],[120.4640432408861,17.69689982169319],[120.46378124719133,17.69634982960638],[120.46233175300006,17.697249280000047],[120.46038441300004,17.697616188000044]]],[[[120.44435967400013,17.752002925000053],[120.44450336900002,17.750258216000077],[120.44486959300002,17.749579545000074],[120.44705334600006,17.749266324000075],[120.44747110300011,17.748381434000063],[120.44869021500006,17.748012393000067],[120.45122006600002,17.74616598100005],[120.45224280900004,17.744665376000057],[120.45229717900008,17.743443205000062],[120.45316038200008,17.740110040000044],[120.4536467260001,17.73981422500003],[120.45621102200005,17.73945652700007],[120.45883271800007,17.737663374000025],[120.46005796200006,17.73757260700006],[120.46013017065418,17.737597748786506],[120.46092954756332,17.73635799670066],[120.45904368700009,17.73585340900007],[120.45759290900001,17.73615443700003],[120.45650346000001,17.737135555000066],[120.45459661400002,17.738212697000048],[120.45217312800003,17.73910531300004],[120.45072200100003,17.739428584000052],[120.44931770500011,17.739068191000058],[120.4484387760001,17.73827479500005],[120.44820768500006,17.736259187000023],[120.4483327370001,17.735287787000058],[120.44931094300013,17.734305362000043],[120.45123898500002,17.733695105000034],[120.45177255500005,17.73268015800005],[120.45150602200012,17.731206046000068],[120.4506501090001,17.730523034000043],[120.44739330100005,17.73025963700007],[120.4449020940001,17.728738773000032],[120.4441619790001,17.728622494000035],[120.44062753100002,17.728749693000058],[120.43943471400006,17.72852094200005],[120.43764781000006,17.727684504000024],[120.43746579800006,17.72678910800004],[120.43804535800007,17.72580595700003],[120.4398033110001,17.72476260600007],[120.44147156300006,17.72428412800002],[120.43884232900008,17.721920031000028],[120.43921415600006,17.719245821000072],[120.43863502400006,17.71824303000005],[120.43711179500009,17.717778895000038],[120.43563080900002,17.718257169000026],[120.43430987400006,17.717262463000058],[120.43411019700011,17.715660457000073],[120.43448802000012,17.715167780000055],[120.43665476500009,17.714058725000026],[120.43834104200006,17.71348532700006],[120.43893367300007,17.712879952000037],[120.43946274000007,17.71087868400002],[120.43906504500002,17.70950516100004],[120.43940814100006,17.708194483000053],[120.43835412000011,17.706687974000033],[120.43732246200011,17.70604804700002],[120.43732124300003,17.70695441500004],[120.43618381400006,17.710662623000072],[120.43579347700008,17.711386207000032],[120.43325107100007,17.712903896000057],[120.42815531900008,17.71379379600006],[120.42584960200008,17.714755645000025],[120.42297318400007,17.715554937000036],[120.4201996290001,17.71691355400003],[120.41995103400008,17.716843921000077],[120.42020428500007,17.718179360000025],[120.42033258100003,17.72346804300002],[120.41919680500006,17.72638089500003],[120.42027482200001,17.728154363000044],[120.42114907300004,17.72861019500004],[120.42389676800006,17.72838859400002],[120.42569037600003,17.72874532400004],[120.4291538970001,17.729039594000028],[120.43047481300003,17.730038764000025],[120.43521582300002,17.731784627000025],[120.43605483400007,17.734677],[120.43660912600001,17.73477300500003],[120.43856365100008,17.73577282600007],[120.44089406300009,17.737645634000046],[120.44225956600008,17.738469515000077],[120.44487363400003,17.739247629000033],[120.44662775200005,17.740050001000046],[120.44707269500009,17.740613821000068],[120.44716637500005,17.74182852300004],[120.44641728400006,17.743809514000077],[120.4447085270001,17.744693004000048],[120.4419714390001,17.745735703000037],[120.4416932370001,17.74644955800005],[120.4420710290001,17.748199807000045],[120.44190915600005,17.75017218000005],[120.4406286960001,17.753838421000065],[120.4401759936585,17.7544818051779],[120.4419191302559,17.75371950436478],[120.4445105517867,17.752276772365075],[120.44435967400013,17.752002925000053]]],[[[120.4216220080001,17.758449137000067],[120.41875651500006,17.756550987000026],[120.41658336700004,17.756118911000044],[120.4145713370001,17.755503837000045],[120.41239202500003,17.756879943000058],[120.41044314700004,17.75738574900003],[120.4099662392484,17.757647305347383],[120.41045128809579,17.75777055968319],[120.41501590802281,17.75848106836389],[120.41963126502873,17.758759352521366],[120.42209788249025,17.758675772435517],[120.4216220080001,17.758449137000067]]]]}}]}