{"type":"FeatureCollection","features":[{"type":"Feature","properties":{"fid":193,"objectid":2144,"lccode":"01","liqcode":null,"mappers":"DJLBuhay, MJVReyes, MITAbigania, KLPapiona, KMVitto","project":"MELP","province":"Lanao del Norte","otherinfo":null,"datemapped":2018,"publishdate":null,"globalid":"{8CF0E7EB-3CCD-4F04-8515-11CAD40BD1AE}","st_area(shape)":0.03055360554823452,"st_perimeter(shape)":7.260406778623517,"liqcodepk":null,"creator":null,"createdate":null,"editor":null,"modifydate":null,"codemove":null},"geometry":{"type":"MultiPolygon","coordinates":[[[[124.25633710600005,8.223647122000045],[124.25611773000004,8.22261415500003],[124.257222124,8.221421892000025],[124.25814796800012,8.221464871000025],[124.25991282300004,8.222796461000032],[124.26244037200003,8.22267581300002],[124.26177902400002,8.221235892000038],[124.26045599300006,8.220706100000028],[124.2570197020001,8.217699278000055],[124.25334640400001,8.217553175000033],[124.25178665300005,8.216920926000057],[124.25065768100002,8.216773869000065],[124.25104921600007,8.21458135800003],[124.2508855860001,8.212930895000056],[124.25104106300012,8.211954193000054],[124.25075220000008,8.210134927000071],[124.25093049400006,8.208923429000038],[124.25151282500009,8.20832357300003],[124.25299008700006,8.207661345000078],[124.25324792900004,8.206700434000025],[124.25551250300009,8.206055870000057],[124.25706049700013,8.205056029000048],[124.25757644900011,8.204019300000027],[124.25646633800012,8.203703345000063],[124.25627324900006,8.202850569000077],[124.25766440800011,8.202272425000046],[124.25723637400007,8.201008313000049],[124.25745151600006,8.199367817000052],[124.25728066500005,8.197854334000052],[124.2577002050001,8.197252968000042],[124.259031133,8.196365257000025],[124.26017876000003,8.195951067000067],[124.26053379400004,8.194853164000051],[124.26023077200011,8.194193574000055],[124.26045200800003,8.19180933100006],[124.26203723300013,8.190705991000073],[124.2622337370001,8.190210275000023],[124.26400373500009,8.189472620000059],[124.26408816800007,8.188826330000039],[124.26265596000007,8.186993181000048],[124.26123025700008,8.187241652000067],[124.2613188570001,8.18844754300005],[124.26042041500011,8.18857459000003],[124.25981522400002,8.188085510000066],[124.25830515000007,8.185798501000022],[124.2579724520001,8.183963480000047],[124.26050377500007,8.182551998000065],[124.2617243750001,8.181685611000033],[124.26186289800012,8.181034230000021],[124.26147001200002,8.179706057000033],[124.26289434200011,8.17680792300007],[124.26209737900001,8.176148243000055],[124.2619485460001,8.175249464000045],[124.26118725000003,8.174228212000054],[124.2601890730001,8.174242503000073],[124.25926324200007,8.17375561800003],[124.25820720200012,8.173669672000072],[124.25802775500006,8.174418013000038],[124.25832287800007,8.17560278600007],[124.25733916100013,8.175831867000056],[124.25712213300005,8.176977403000024],[124.25622519400008,8.177908128000068],[124.25605154100002,8.179884170000037],[124.25391805700008,8.180046826000025],[124.25304368600008,8.180705510000053],[124.25171165000006,8.17961198300003],[124.25025053900004,8.180012878000072],[124.24897746400006,8.181330201000035],[124.24810947900005,8.181487686000025],[124.24698114700006,8.180027104000034],[124.24557790200004,8.180442319000063],[124.244015536,8.180513870000027],[124.24162857000012,8.18124407700003],[124.2423832520001,8.182780164000064],[124.24385203400006,8.182921413000031],[124.24475523600006,8.182180371000072],[124.24584658900004,8.183191590000035],[124.24808049300009,8.183363482000063],[124.25161817000003,8.183933247000027],[124.25495753000007,8.18501553000004],[124.25664139000003,8.18603959300003],[124.25658189600006,8.188244498000072],[124.25597340900003,8.189260786000036],[124.25454730900005,8.190126484000077],[124.2535965520001,8.191537984000036],[124.25353948800011,8.192271974000052],[124.2524366360001,8.193024754000023],[124.25241756900006,8.194869134000045],[124.251599929,8.195697198000062],[124.25011679600004,8.196224119000021],[124.24886181800002,8.197353288000045],[124.24831036900004,8.198538933000062],[124.24869060200001,8.200420939000026],[124.2479870190001,8.202246446000059],[124.24787267100011,8.203584419000038],[124.24876653900004,8.20461775800004],[124.24880452400008,8.206142153000028],[124.24630172600007,8.207050706000073],[124.24494061900009,8.207132266000029],[124.24410154800012,8.207962695000049],[124.24298763700006,8.20809152700002],[124.24238003300002,8.20737645500003],[124.24113817500005,8.206835356000052],[124.23894143300005,8.206818767000069],[124.23873455400008,8.20743277100007],[124.24013774100003,8.209079396000048],[124.24089124000012,8.20950782700004],[124.24133838400007,8.211255775000037],[124.24107795700002,8.212429844000043],[124.24020996200011,8.212959584000032],[124.24019545400004,8.214405695000039],[124.23937087300011,8.214391354000043],[124.23857548600004,8.212740392000057],[124.2379996090001,8.212909638000042],[124.23791871100002,8.213938752000049],[124.23676693800007,8.214248101000067],[124.23458255600008,8.213073968000058],[124.2354216450001,8.21161355700002],[124.2319642010001,8.211269827000024],[124.23108176100006,8.211055031000058],[124.23063328700005,8.211685011000043],[124.22882499500008,8.211699278000026],[124.2276821910001,8.210439259000054],[124.22732050200013,8.21152741900005],[124.22645252300003,8.211498758000062],[124.22606195000003,8.210854436000034],[124.22425365800008,8.21089733900004],[124.22391898484604,8.210780007978991],[124.22448803966695,8.211401705630589],[124.22779734413834,8.214371611030264],[124.23138294851057,8.217004016004985],[124.23521031511386,8.219273562889231],[124.2392425755026,8.221158389467268],[124.24344088585717,8.222640339723357],[124.24776480149326,8.223705138855552],[124.2504536842065,8.224093966371115],[124.25065676200006,8.222943703000054],[124.25220169300007,8.222355658000026],[124.25310485000013,8.22316724600006],[124.25296513984695,8.224378841571257],[124.25662201722075,8.224546377363819],[124.25781670907433,8.224484159868746],[124.25633710600005,8.223647122000045]]],[[[124.22163144500007,8.205481405000056],[124.22146808800005,8.20383467700003],[124.22261193300004,8.203320106000035],[124.22388505000002,8.203410202000043],[124.22426838400008,8.201805283000054],[124.22568612000009,8.200588261000064],[124.22729354100011,8.200771476000055],[124.2291281370001,8.200560091000057],[124.22865848300012,8.199146329000031],[124.22738423500003,8.199189601000057],[124.226826532,8.198505820000035],[124.22672781800009,8.196321383000054],[124.22720521800011,8.195920476000024],[124.22949091800001,8.195247568000072],[124.22910036600003,8.19387296900004],[124.23033001300006,8.19357231200007],[124.2304023700001,8.192670238000062],[124.22934376500007,8.192355426000065],[124.22914979100005,8.191633326000046],[124.22989611400008,8.190407864000065],[124.22794316400008,8.190221664000035],[124.22740079000005,8.190526270000019],[124.22743046800007,8.191637848000028],[124.22782261600003,8.192437722000024],[124.22744040500004,8.193455314000062],[124.22686531700003,8.193878167000037],[124.22532862800007,8.19397850300004],[124.22469387000001,8.193731569000022],[124.22313235000001,8.191975212000045],[124.2216718200001,8.191845603000047],[124.22215655500008,8.19289910200007],[124.22208923100004,8.193792560000075],[124.223063679,8.195051188000035],[124.22274276300004,8.196780277000073],[124.2216722810001,8.198353834000047],[124.22108901900003,8.20004963900004],[124.21971150500009,8.201275374000033],[124.22000864000006,8.202076896000051],[124.2199432330001,8.203641290000064],[124.21914104800008,8.204282314000068],[124.21863050305565,8.204249259852293],[124.21882285583351,8.204566803440189],[124.22057397234423,8.206904287306786],[124.22163144500007,8.205481405000056]]]]}}]}