{"type":"FeatureCollection","features":[{"type":"Feature","properties":{"fid":174,"objectid":9616,"lccode":"07","liqcode":null,"mappers":"DJLBuhay, MITAbigania","project":"LiquePhi","province":"Pangasinan","otherinfo":null,"datemapped":2024,"publishdate":null,"globalid":"{4C1C6B5C-6BC5-4098-AF34-1358D72BE295}","st_area(shape)":0.0990952810399136,"st_perimeter(shape)":16.14272038398808,"liqcodepk":null,"creator":null,"createdate":null,"editor":null,"modifydate":null,"codemove":null},"geometry":{"type":"MultiPolygon","coordinates":[[[[120.0234265800001,16.101331835000053],[120.02280861200006,16.101788547000073],[120.02000399200007,16.102450777000055],[120.01907704100005,16.10363821900006],[120.01748458600001,16.10523668700006],[120.01670024300007,16.106538288000024],[120.01748458600001,16.107931219000022],[120.01700922700003,16.109483984000065],[120.01565445300002,16.11071705200004],[120.01498894900011,16.112543807000065],[120.01527416500005,16.11409653600003],[120.01484634200006,16.11514690400002],[120.01415707000001,16.114096536000027],[120.0126596880001,16.113822526000035],[120.01009274700006,16.114279209000077],[120.00876174000007,16.113913862000064],[120.0074307340001,16.113959531000027],[120.00614726300012,16.114393379000035],[120.00424582600012,16.114324877000058],[120.00308119500005,16.11542091200005],[120.00274844300009,16.114279209000074],[120.00210670800004,16.113822526000035],[120.00072816600004,16.113708355000032],[120.00008643,16.11295482500003],[120.00068063000003,16.11153909400002],[119.99951902600004,16.109815301000026],[119.99977439700001,16.10887482900005],[119.99837208600003,16.107093711000065],[119.99865730200008,16.105403917000043],[119.99796327700005,16.104094317000033],[119.99821888500001,16.10206867300008],[119.99753436800006,16.100273791000063],[119.99680706800007,16.101164383000025],[119.99729193400003,16.102287894000032],[119.99686411100005,16.104192366000063],[119.99766271500005,16.106288634000066],[119.9970495010001,16.107220302000027],[119.99858966600004,16.10897401800002],[119.99826560400003,16.11017417400007],[119.99883736900007,16.111508043000068],[119.99789482400003,16.111914163000048],[119.99636554100006,16.111402371000054],[119.99518527500003,16.111633300000047],[119.99432962800007,16.11257179300003],[119.99313172200004,16.112948559000078],[119.99224755300008,16.11257864300006],[119.99137051500009,16.11277045100007],[119.99052199800009,16.113578784000026],[119.99036120300002,16.114884763000077],[119.9911743240001,16.11580111400002],[119.98970913399998,16.11679153100005],[119.9889604430001,16.11805880500003],[119.98765558100003,16.117997154000026],[119.98746154600008,16.11935879400005],[119.98707801900001,16.11959322300004],[119.98493177100012,16.119326071000042],[119.98547793800002,16.117416581000043],[119.98531681200006,16.116421623000065],[119.98579454900005,16.11507898600007],[119.98696393300008,16.113873345000055],[119.98662880400002,16.113051313000025],[119.98697739000009,16.11202367200008],[119.98668766100002,16.110330278000053],[119.98651874000005,16.110418415000026],[119.98586032700005,16.11395577600007],[119.98508786700005,16.114480961000023],[119.98440264000011,16.11613084500004],[119.98437482800011,16.117095449000036],[119.9838519330001,16.118100134000027],[119.98285367800008,16.117883214000074],[119.9835310650001,16.11682144300005],[119.98281802600003,16.115074647000025],[119.98220005900009,16.11417270100003],[119.982520926,16.11261997300005],[119.98148702000003,16.111455419000038],[119.98120180400008,16.109320386000036],[119.98149890400009,16.10828140500007],[119.98069079200002,16.107847543000048],[119.98012036100012,16.106888476000048],[119.97915775800004,16.106511698000073],[119.978611095,16.10403408300005],[119.97777921600006,16.10409117100005],[119.97783863600012,16.106454611000064],[119.97930036600009,16.107573524000028],[119.9800490570001,16.108749518000028],[119.9796364130001,16.11168192600007],[119.98021807100007,16.11261067200007],[119.98117803600009,16.113053825000065],[119.98121914100012,16.114752581000058],[119.98213713000008,16.115665350000025],[119.98219655000004,16.117537727000066],[119.98093684800006,16.11823415500004],[119.98084177600003,16.119330169000026],[119.98025946000006,16.119547087000054],[119.98003366500006,16.120517509000024],[119.98096061600006,16.12161351000003],[119.9806278640001,16.123154751000072],[119.98080612400008,16.124307819000023],[119.97911047100001,16.124923588000055],[119.97658178300003,16.123491139000063],[119.9754464460001,16.12383974300008],[119.97666105300004,16.124710458000038],[119.97798169600004,16.125063209000075],[119.97911582499998,16.125954630000024],[119.98049879700011,16.125369840000076],[119.981417479,16.126118323000075],[119.97907502300006,16.12695833000004],[119.97904655800006,16.128117883000073],[119.97938400700002,16.129401410000067],[119.97814807200007,16.129264416000066],[119.9776173050001,16.129619345000037],[119.97726865700008,16.13129648900002],[119.9759005410001,16.131779370000057],[119.97507871500011,16.131355626000072],[119.97425012500003,16.131479146000057],[119.97394114100007,16.132164110000076],[119.97425012500003,16.134127658000065],[119.97412522600008,16.135580897000064],[119.97326720800004,16.13652753600007],[119.9731330300001,16.13725559600004],[119.97365592500013,16.13969854900006],[119.97340802200006,16.14025004900003],[119.97282577650577,16.14055505618011],[119.97423268718228,16.140736745642084],[119.97596224371972,16.140794677000663],[119.97611996400009,16.13993603600005],[119.9757187770001,16.138308695000035],[119.97596792800006,16.13573675300006],[119.97570991600003,16.13389931200004],[119.97625118000009,16.133230935000032],[119.97782937300006,16.13266470200006],[119.97890233800001,16.131063830000077],[119.9809287170001,16.130271893000046],[119.98142309100001,16.129687385000068],[119.98142541400011,16.128287437000033],[119.98288719800007,16.126965750000064],[119.98349969100002,16.125377424000078],[119.98362875900013,16.123312490000046],[119.98507385200004,16.122143432000033],[119.98661401600009,16.123001959000078],[119.98693607500002,16.123815848000046],[119.98657955500005,16.125131026000076],[119.98703590000002,16.125747513000025],[119.98794859100008,16.123391153000057],[119.98756354900001,16.122240362000067],[119.98612938100007,16.121174853000074],[119.98853328300005,16.120952565000035],[119.98935977400005,16.120406390000024],[119.99103361300001,16.11778267000005],[119.99272595300012,16.116568511000025],[119.99308247300007,16.11589719400007],[119.99250676900012,16.114037636000035],[119.99466139400012,16.113608068000076],[119.99599721800007,16.112609079000038],[119.99698694300002,16.112998135000055],[119.9970327100001,16.113896931000056],[119.99542124100005,16.114417549000052],[119.99503620000007,16.11562318700004],[119.99561373400002,16.116381588000024],[119.9965032780001,16.116509714000074],[119.99873064000008,16.115560409000064],[120.00110343400002,16.115811184000055],[120.00196074500003,16.117166261000023],[120.00372101700009,16.117048022000063],[120.00528970300003,16.11592459500002],[120.00663530200008,16.115994543000053],[120.00848411900007,16.11576019000006],[120.0109512350001,16.11602049700002],[120.0130333090001,16.115664288000062],[120.0138319130001,16.116294504000052],[120.01404582500004,16.117541231000075],[120.01302861100011,16.11927510300006],[120.01471613800003,16.118704263000037],[120.01656228700006,16.11876550100004],[120.01703299500002,16.118361909000043],[120.01831032710997,16.11866486400642],[120.01963845492713,16.11644996957273],[120.02094811611975,16.11366851225343],[120.01972650100004,16.112103675000068],[120.01874726000007,16.112377687000045],[120.01909902600006,16.11328192600007],[120.01866169500012,16.115136058000076],[120.01811027800012,16.115793677000056],[120.01734019600009,16.115501402000064],[120.01695040100003,16.113683808000072],[120.01711202400008,16.112012338000053],[120.01742576100003,16.111473445000062],[120.0189518630001,16.11035740800003],[120.01955537100004,16.109352874000024],[120.01974076100011,16.10790058200007],[120.01915606900003,16.10677710400006],[120.01941276300012,16.105941341000058],[120.0207390160001,16.10472194400006],[120.02409392049162,16.10370817970058],[120.02467162482544,16.099521329854593],[120.02467552396914,16.099411906583388],[120.0234265800001,16.101331835000053]]],[[[120.01850684700001,16.073242569000058],[120.01860191900006,16.07402822400007],[120.01940486674229,16.07470128292475],[120.01899476346567,16.07389363706478],[120.01853273479045,16.07317240672727],[120.01850684700001,16.073242569000058]]],[[[119.9415451660001,16.068022378000023],[119.94178075077302,16.06744019972819],[119.94162370346811,16.067612607386792],[119.94110650165698,16.068307334105832],[119.9415451660001,16.068022378000023]]]]}},{"type":"Feature","properties":{"fid":175,"objectid":9617,"lccode":"06","liqcode":null,"mappers":"DJLBuhay, MITAbigania","project":"LiquePhi","province":"Pangasinan","otherinfo":null,"datemapped":2024,"publishdate":null,"globalid":"{66023685-1332-44EF-8443-E51FD3597412}","st_area(shape)":0.04411879143836554,"st_perimeter(shape)":22.502158641584156,"liqcodepk":null,"creator":null,"createdate":null,"editor":null,"modifydate":null,"codemove":null},"geometry":{"type":"MultiPolygon","coordinates":[[[[119.93801678700005,16.080726345000073],[119.93799777200002,16.07886275700002],[119.93679089400008,16.079913502000068],[119.9362085790001,16.079844987000055],[119.93649563600003,16.077401106000025],[119.93807383000001,16.076213508000016],[119.93841133500005,16.074432096000066],[119.93958071900009,16.07291103200004],[119.93952367600002,16.072034017000018],[119.93942385100003,16.071252922000042],[119.93963439389366,16.070284700991785],[119.93894674538528,16.07120835071931],[119.93664710204325,16.07504047124907],[119.93474693947367,16.0790720733951],[119.93326458067781,16.083264338069032],[119.9326348063206,16.08585033916827],[119.93293994800001,16.08577804400005],[119.9358491480001,16.082535106000016],[119.93801678700005,16.080726345000073]]],[[[119.98707801900001,16.11959322300004],[119.98746154600008,16.11935879400005],[119.98765558100003,16.117997154000026],[119.9889604430001,16.11805880500003],[119.98970913399998,16.11679153100005],[119.9911743240001,16.11580111400002],[119.99036120300002,16.114884763000077],[119.99052199800009,16.113578784000026],[119.99137051500009,16.11277045100007],[119.99224755300008,16.11257864300006],[119.99313172200004,16.112948559000078],[119.99432962800007,16.11257179300003],[119.99518527500003,16.111633300000047],[119.99636554100006,16.111402371000054],[119.99789482400003,16.111914163000048],[119.99883736900007,16.111508043000068],[119.99826560400003,16.11017417400007],[119.99858966600004,16.10897401800002],[119.9970495010001,16.107220302000027],[119.99766271500005,16.106288634000066],[119.99686411100005,16.104192366000063],[119.99729193400003,16.102287894000032],[119.99680706800007,16.101164383000025],[119.99753436800006,16.100273791000063],[119.99821888500001,16.10206867300008],[119.99796327700005,16.104094317000033],[119.99865730200008,16.105403917000043],[119.99837208600003,16.107093711000065],[119.99977439700001,16.10887482900005],[119.99951902600004,16.109815301000026],[120.00068063000003,16.11153909400002],[120.00008643,16.11295482500003],[120.00072816600004,16.113708355000032],[120.00210670800004,16.113822526000035],[120.00274844300009,16.114279209000074],[120.00308119500005,16.11542091200005],[120.00424582600012,16.114324877000058],[120.00614726300012,16.114393379000035],[120.0074307340001,16.113959531000027],[120.00876174000007,16.113913862000064],[120.01009274700006,16.114279209000077],[120.0126596880001,16.113822526000035],[120.01415707000001,16.114096536000027],[120.01484634200006,16.11514690400002],[120.01527416500005,16.11409653600003],[120.01498894900011,16.112543807000065],[120.01565445300002,16.11071705200004],[120.01700922700003,16.109483984000065],[120.01748458600001,16.107931219000022],[120.01670024300007,16.106538288000024],[120.01748458600001,16.10523668700006],[120.01907704100005,16.10363821900006],[120.02000399200007,16.102450777000055],[120.02280861200006,16.101788547000073],[120.0234265800001,16.101331835000053],[120.02467552396914,16.099411906583388],[120.02475960038221,16.09705248116485],[120.02446171400004,16.097524948000054],[120.02314972200008,16.09825570100003],[120.02219900300008,16.099443168000054],[120.01852922800005,16.101379637000033],[120.01622848900001,16.104375647000037],[120.015353827,16.10598324400007],[120.01512565500002,16.107791774000084],[120.01446015200007,16.109874304000076],[120.01396577800006,16.110805955000043],[120.01212138300004,16.112157754000066],[120.00976360000003,16.112815383000054],[120.00723468800005,16.11308939500003],[120.00371702800011,16.112724046000043],[120.00210080600003,16.111792404000028],[120.00088388600011,16.109892572000035],[120.000256411,16.10813886400007],[119.99955287900002,16.10722546800002],[119.99936273500009,16.10583709900004],[119.99869723200004,16.10470447500006],[119.99841201600009,16.10346223400006],[119.99858443700009,16.10261836100005],[120.0000105150001,16.10207030900006],[119.9996362820001,16.10119785900002],[119.99874640200005,16.101409079000064],[119.9981280920001,16.100784474000022],[119.99847035000003,16.09931175700006],[119.99921191100009,16.098252171000066],[119.99947528000008,16.094799733000063],[119.99915486800012,16.093611847000034],[119.99849232100009,16.09281499100007],[119.99776667300011,16.09324156300005],[119.99831368800004,16.094202413000062],[119.99832897700003,16.096337633000072],[119.99767174600004,16.098325246000062],[119.99640604000001,16.099882163000075],[119.99672102800002,16.10197896700003],[119.99647384100003,16.103951948000027],[119.99706328600006,16.106198931000055],[119.99679708500001,16.107331547000058],[119.99790819100008,16.10934513600006],[119.9967112920001,16.110706702000076],[119.99462821100008,16.111359146000037],[119.9936696210001,16.112048061000053],[119.99199880700009,16.111770166000042],[119.99083699700009,16.112186586000057],[119.98987937000003,16.11337313500007],[119.98989882900003,16.115159583000032],[119.98963693600003,16.11598992100005],[119.9885673780001,16.117003745000034],[119.9875748500001,16.11744945300006],[119.98672505400009,16.11850884900002],[119.98615730500002,16.118305268000025],[119.98614304400009,16.11667493800007],[119.98715556000002,16.114428074000045],[119.98748153800011,16.109956762000024],[119.98788084000012,16.10888809900007],[119.98877926900002,16.10817565300005],[119.98896635800008,16.10632226200005],[119.98957095800006,16.105069344000068],[119.98922135300006,16.103613201000027],[119.98956361200011,16.10301034700006],[119.99134621000009,16.10225677600005],[119.99147455700005,16.101270280000048],[119.99257920900004,16.10066429700004],[119.9934513390001,16.099760459000034],[119.99376032300006,16.098892696000064],[119.99317363999998,16.096292637000033],[119.99360845800004,16.095021374000048],[119.99340925200012,16.09173165200002],[119.99266240300005,16.09088571500007],[119.9920490290001,16.09153940000004],[119.99233424500005,16.095330264000033],[119.99192193600005,16.096566275000047],[119.99191546300007,16.09926142200004],[119.99040111600004,16.100698855000076],[119.98835762200007,16.10184789300007],[119.98810750700012,16.10265129800007],[119.98835707100011,16.10463797300002],[119.98759807200008,16.10551390200004],[119.98749579800005,16.10740840100004],[119.98642624,16.108764791000056],[119.98612835300001,16.11010410700004],[119.98603099100002,16.110346076000038],[119.98452599000005,16.113754124000025],[119.98357527100006,16.114028134000026],[119.98309991200007,16.113425312000057],[119.98313794100011,16.112475405000055],[119.98224901800006,16.11115786000004],[119.98234377300003,16.109992765000072],[119.98192919900009,16.108957722000067],[119.98177334200011,16.108154569000025],[119.98095334700008,16.106887232000076],[119.979491617,16.105391535000024],[119.97882611300008,16.103507626000066],[119.97788727900002,16.102411525000033],[119.97826756600013,16.101669370000025],[119.9781724940001,16.10071027300006],[119.97918263300006,16.098301093000025],[119.97882611300008,16.097638849000077],[119.97855278200007,16.095343813000056],[119.97883799700003,16.09467014100005],[119.97890930100004,16.09264911100007],[119.98083450700007,16.091244654000032],[119.9813455190001,16.090479620000053],[119.98103653500006,16.089109403000066],[119.98037103200011,16.08902947400003],[119.98037103200011,16.09030834400005],[119.979242053,16.090993449000052],[119.97826756600013,16.088972381000076],[119.97792293100008,16.090045719000045],[119.97820814600003,16.09188408300003],[119.97750699100006,16.092443581000055],[119.97690090800006,16.09062806000003],[119.97547482900006,16.089600399000062],[119.97467860200004,16.087704921000064],[119.97375165100004,16.087168247000022],[119.97335948000011,16.086289011000073],[119.97270586000003,16.086026381000064],[119.9725870210001,16.08741945600007],[119.97385860700001,16.08837861700004],[119.9748925140001,16.090354017000035],[119.97616410100011,16.091507276000076],[119.97692467600007,16.093768102000073],[119.97755452700007,16.09501268700006],[119.97745945500002,16.09610882800007],[119.9777446710001,16.09838101900004],[119.97767336700008,16.09964841100003],[119.97690090800006,16.10255995600005],[119.97740003500009,16.10396433300002],[119.97720989100003,16.105642721000034],[119.97762583100008,16.106521872000023],[119.97877857800006,16.107446688000042],[119.97936089300005,16.10879394300002],[119.97932524100008,16.11131716800003],[119.97993132400008,16.112652980000068],[119.98065624700006,16.113189586000033],[119.98168561800003,16.116746041000056],[119.97954650100009,16.119371916000038],[119.97935635700003,16.12012542100007],[119.9801169320001,16.121792257000035],[119.97978418000004,16.122979583000074],[119.9791899810001,16.123573243000067],[119.97842940600003,16.123481911000056],[119.97764506300007,16.121426924000048],[119.97683695200008,16.12131275800004],[119.97600507300001,16.122340254000047],[119.97526826500005,16.121678090000046],[119.97491174600009,16.120696257000073],[119.97484044200007,16.118983745000033],[119.97410363500002,16.11834440400003],[119.97267755600001,16.11784206300007],[119.97220219700012,16.11818456800006],[119.97358073900013,16.119280582000044],[119.97341436400006,16.120878924000067],[119.97453145800013,16.12366457500008],[119.97453145800013,16.12544554500005],[119.97481667400007,16.125925034000034],[119.9762902880001,16.126792678000076],[119.97614768000004,16.127911477000055],[119.97429377900005,16.128984604000035],[119.97248741300007,16.130971016000046],[119.97201205300009,16.132089791000055],[119.97217842900011,16.13339121500007],[119.9711564060001,16.13576572200003],[119.97127524600012,16.137957548000035],[119.97046713500002,16.13932742800006],[119.96976217710119,16.140159386626255],[119.97282577650577,16.14055505618011],[119.97340802200006,16.14025004900003],[119.97365592500013,16.13969854900006],[119.9731330300001,16.13725559600004],[119.97326720800004,16.13652753600007],[119.97412522600008,16.135580897000064],[119.97425012500003,16.134127658000065],[119.97394114100007,16.132164110000076],[119.97425012500003,16.131479146000057],[119.97507871500011,16.131355626000072],[119.9759005410001,16.131779370000057],[119.97726865700008,16.13129648900002],[119.9776173050001,16.129619345000037],[119.97814807200007,16.129264416000066],[119.97938400700002,16.129401410000067],[119.97904655800006,16.128117883000073],[119.97907502300006,16.12695833000004],[119.981417479,16.126118323000075],[119.98049879700011,16.125369840000076],[119.97911582499998,16.125954630000024],[119.97798169600004,16.125063209000075],[119.97666105300004,16.124710458000038],[119.9754464460001,16.12383974300008],[119.97658178300003,16.123491139000063],[119.97911047100001,16.124923588000055],[119.98080612400008,16.124307819000023],[119.9806278640001,16.123154751000072],[119.98096061600006,16.12161351000003],[119.98003366500006,16.120517509000024],[119.98025946000006,16.119547087000054],[119.98084177600003,16.119330169000026],[119.98093684800006,16.11823415500004],[119.98219655000004,16.117537727000066],[119.98213713000008,16.115665350000025],[119.98121914100012,16.114752581000058],[119.98117803600009,16.113053825000065],[119.98021807100007,16.11261067200007],[119.9796364130001,16.11168192600007],[119.9800490570001,16.108749518000028],[119.97930036600009,16.107573524000028],[119.97783863600012,16.106454611000064],[119.97777921600006,16.10409117100005],[119.978611095,16.10403408300005],[119.97915775800004,16.106511698000073],[119.98012036100012,16.106888476000048],[119.98069079200002,16.107847543000048],[119.98149890400009,16.10828140500007],[119.98120180400008,16.109320386000036],[119.98148702000003,16.111455419000038],[119.982520926,16.11261997300005],[119.98220005900009,16.11417270100003],[119.98281802600003,16.115074647000025],[119.9835310650001,16.11682144300005],[119.98285367800008,16.117883214000074],[119.9838519330001,16.118100134000027],[119.98437482800011,16.117095449000036],[119.98440264000011,16.11613084500004],[119.98508786700005,16.114480961000023],[119.98586032700005,16.11395577600007],[119.98651874000005,16.110418415000026],[119.98668766100002,16.110330278000053],[119.98697739000009,16.11202367200008],[119.98662880400002,16.113051313000025],[119.98696393300008,16.113873345000055],[119.98579454900005,16.11507898600007],[119.98531681200006,16.116421623000065],[119.98547793800002,16.117416581000043],[119.98493177100012,16.119326071000042],[119.98707801900001,16.11959322300004]]],[[[120.01860191900006,16.07402822400007],[120.01850684700001,16.073242569000058],[120.01853273479045,16.07317240672727],[120.01736229986638,16.071345316164095],[120.01710315000004,16.07304318600006],[120.01765456700002,16.07430388800003],[120.01969703151791,16.075276658627732],[120.01940486674229,16.07470128292475],[120.01860191900006,16.07402822400007]]],[[[120.02100109800007,16.078049404000076],[120.02114045520932,16.078196702241257],[120.02101409299874,16.07787036249291],[120.0208858015548,16.077617720728124],[120.02100109800007,16.078049404000076]]],[[[120.02356803900011,16.08638064000008],[120.0232447940001,16.08791530300004],[120.02356803900011,16.08890186600007],[120.02442457544424,16.090003960941974],[120.02379891660605,16.086300459637332],[120.02345833161392,16.08506299624425],[120.02356803900011,16.08638064000008]]],[[[120.02140896900006,16.110727760000024],[120.02081001600003,16.110398943000064],[120.02056758300012,16.10891925700003],[120.02088132000007,16.107357354000044],[120.02145175100009,16.106548996000075],[120.02361939000002,16.105589923000025],[120.02366551719125,16.10555910697637],[120.0240657178402,16.103912573825408],[120.02409392049162,16.10370817970058],[120.0207390160001,16.10472194400006],[120.01941276300012,16.105941341000058],[120.01915606900003,16.10677710400006],[120.01974076100011,16.10790058200007],[120.01955537100004,16.109352874000024],[120.0189518630001,16.11035740800003],[120.01742576100003,16.111473445000062],[120.01711202400008,16.112012338000053],[120.01695040100003,16.113683808000072],[120.01734019600009,16.115501402000064],[120.01811027800012,16.115793677000056],[120.01866169500012,16.115136058000076],[120.01909902600006,16.11328192600007],[120.01874726000007,16.112377687000045],[120.01972650100004,16.112103675000068],[120.02094811611975,16.11366851225343],[120.02153698435697,16.112417852147832],[120.02224917405968,16.11040103363684],[120.02140896900006,16.110727760000024]]],[[[120.01703299500002,16.118361909000043],[120.01656228700006,16.11876550100004],[120.01471613800003,16.118704263000037],[120.01302861100011,16.11927510300006],[120.01404582500004,16.117541231000075],[120.0138319130001,16.116294504000052],[120.0130333090001,16.115664288000062],[120.0109512350001,16.11602049700002],[120.00848411900007,16.11576019000006],[120.00663530200008,16.115994543000053],[120.00528970300003,16.11592459500002],[120.00372101700009,16.117048022000063],[120.00196074500003,16.117166261000023],[120.00110343400002,16.115811184000055],[119.99873064000008,16.115560409000064],[119.9965032780001,16.116509714000074],[119.99561373400002,16.116381588000024],[119.99503620000007,16.11562318700004],[119.99542124100005,16.114417549000052],[119.9970327100001,16.113896931000056],[119.99698694300002,16.112998135000055],[119.99599721800007,16.112609079000038],[119.99466139400012,16.113608068000076],[119.99250676900012,16.114037636000035],[119.99308247300007,16.11589719400007],[119.99272595300012,16.116568511000025],[119.99103361300001,16.11778267000005],[119.98935977400005,16.120406390000024],[119.98853328300005,16.120952565000035],[119.98612938100007,16.121174853000074],[119.98756354900001,16.122240362000067],[119.98794859100008,16.123391153000057],[119.98703590000002,16.125747513000025],[119.98657955500005,16.125131026000076],[119.98693607500002,16.123815848000046],[119.98661401600009,16.123001959000078],[119.98507385200004,16.122143432000033],[119.98362875900013,16.123312490000046],[119.98349969100002,16.125377424000078],[119.98288719800007,16.126965750000064],[119.98142541400011,16.128287437000033],[119.98142309100001,16.129687385000068],[119.9809287170001,16.130271893000046],[119.97890233800001,16.131063830000077],[119.97782937300006,16.13266470200006],[119.97625118000009,16.133230935000032],[119.97570991600003,16.13389931200004],[119.97596792800006,16.13573675300006],[119.9757187770001,16.138308695000035],[119.97611996400009,16.13993603600005],[119.97596224371972,16.140794677000663],[119.9788135434994,16.140890150096165],[119.98147630082781,16.14072634680091],[119.98101371900009,16.140121538000074],[119.98059540200005,16.138769929000038],[119.98055737400011,16.136231071000054],[119.980956676,16.134897701000057],[119.98354263100009,16.13075141200005],[119.98344755900007,16.12969199300005],[119.984512364,16.12866910100007],[119.98500673800005,16.126513704000047],[119.98614760100008,16.126915559000054],[119.98740255000007,16.126440639000066],[119.98880961400005,16.124449615000056],[119.98850538400005,16.121746175000055],[119.99052090800001,16.120942442000057],[119.99156669900005,16.12002910500007],[119.99228924500005,16.118111085000063],[119.99388645300009,16.116266114000034],[119.99521745900006,16.118202420000046],[119.99580690500011,16.118293754000035],[119.99696678200009,16.117398672000043],[119.99835483200002,16.11690546200003],[120.00031331300009,16.117216002000074],[120.00135910300003,16.118056284000033],[120.00217672200006,16.118238953000056],[120.00356477100003,16.11792841500005],[120.00520000800007,16.117051599000035],[120.00770990600004,16.116631456000047],[120.01231138500007,16.11652185400004],[120.01322407500004,16.117508275000034],[120.01136066600009,16.119042697000058],[120.0113036230001,16.120120439000065],[120.01166489600007,16.120997242000044],[120.01362337700004,16.11933496700004],[120.01472621100004,16.119060964000028],[120.01655385200002,16.11908162800006],[120.01729592100001,16.118779055000058],[120.01819828017835,16.118851720426818],[120.01831032710997,16.11866486400642],[120.01703299500002,16.118361909000043]]]]}},{"type":"Feature","properties":{"fid":176,"objectid":9618,"lccode":"05","liqcode":null,"mappers":"DJLBuhay, MITAbigania","project":"LiquePhi","province":"Pangasinan","otherinfo":null,"datemapped":2024,"publishdate":null,"globalid":"{5ACB73C5-6107-4512-9787-F18573022798}","st_area(shape)":0.06533832536059311,"st_perimeter(shape)":23.271340040578984,"liqcodepk":null,"creator":null,"createdate":null,"editor":null,"modifydate":null,"codemove":null},"geometry":{"type":"MultiPolygon","coordinates":[[[[119.93281724600001,16.086219139000036],[119.93423144000008,16.085728135000068],[119.93566940200002,16.08591083400006],[119.93675084500002,16.08736100300007],[119.9376064920001,16.08889109200004],[119.93868793500008,16.087612213000057],[119.93984068100009,16.08806895600003],[119.94067256100006,16.086801491000074],[119.94127864400002,16.08655028000004],[119.94173023500004,16.085568273000035],[119.9415400920001,16.08498591800003],[119.9418371910001,16.083444381000053],[119.94231255100011,16.082622222000047],[119.94310877800001,16.078682668000056],[119.94404761300008,16.078351513000033],[119.9432157340001,16.075473872000032],[119.94388123700003,16.07389800300007],[119.94350094900005,16.07297303000007],[119.94239573900008,16.07295019100007],[119.94163516300011,16.073452646000074],[119.94099372500011,16.072339821000075],[119.93952367600002,16.072034017000018],[119.93958071900009,16.07291103200004],[119.93841133500005,16.074432096000066],[119.93807383000001,16.076213508000016],[119.93910221100009,16.076937021000045],[119.93799777200002,16.07886275700002],[119.93801678700005,16.080726345000073],[119.9358491480001,16.082535106000016],[119.93293994800001,16.08577804400005],[119.9326348063206,16.08585033916827],[119.93257371140338,16.086101206890227],[119.93281724600001,16.086219139000036]]],[[[119.93157778500004,16.094784647000044],[119.93185111700008,16.093391624000045],[119.93156774656227,16.093036706987085],[119.93150496317607,16.09477559255266],[119.93157778500004,16.094784647000044]]],[[[119.93263546000004,16.091267815000037],[119.93250473600004,16.09010313600004],[119.93180284993896,16.09054882173851],[119.93160632572749,16.091968217509905],[119.93159828771479,16.092190837134588],[119.93263546000004,16.091267815000037]]],[[[120.02361939000002,16.105589923000025],[120.02145175100009,16.106548996000075],[120.02088132000007,16.107357354000044],[120.02056758300012,16.10891925700003],[120.02081001600003,16.110398943000064],[120.02140896900006,16.110727760000024],[120.02224917405968,16.11040103363684],[120.02301748236395,16.108225259688563],[120.02366551719125,16.10555910697637],[120.02361939000002,16.105589923000025]]],[[[119.98603099100002,16.110346076000038],[119.98496057500004,16.11135124300006],[119.98391478400004,16.111259905000054],[119.9827976900001,16.109330382000053],[119.98192919900009,16.108957722000067],[119.98234377300003,16.109992765000072],[119.98224901800006,16.11115786000004],[119.98313794100011,16.112475405000055],[119.98309991200007,16.113425312000057],[119.98357527100006,16.114028134000026],[119.98452599000005,16.113754124000025],[119.98603099100002,16.110346076000038]]],[[[119.98642624,16.108764791000056],[119.98749579800005,16.10740840100004],[119.98759807200008,16.10551390200004],[119.98835707100011,16.10463797300002],[119.98810750700012,16.10265129800007],[119.98835762200007,16.10184789300007],[119.99040111600004,16.100698855000076],[119.99191546300007,16.09926142200004],[119.99192193600005,16.096566275000047],[119.99233424500005,16.095330264000033],[119.9920490290001,16.09153940000004],[119.99266240300005,16.09088571500007],[119.99340925200012,16.09173165200002],[119.99360845800004,16.095021374000048],[119.99317363999998,16.096292637000033],[119.99376032300006,16.098892696000064],[119.9934513390001,16.099760459000034],[119.99257920900004,16.10066429700004],[119.99147455700005,16.101270280000048],[119.99134621000009,16.10225677600005],[119.98956361200011,16.10301034700006],[119.98922135300006,16.103613201000027],[119.98957095800006,16.105069344000068],[119.98896635800008,16.10632226200005],[119.98877926900002,16.10817565300005],[119.98788084000012,16.10888809900007],[119.98748153800011,16.109956762000024],[119.98715556000002,16.114428074000045],[119.98614304400009,16.11667493800007],[119.98615730500002,16.118305268000025],[119.98672505400009,16.11850884900002],[119.9875748500001,16.11744945300006],[119.9885673780001,16.117003745000034],[119.98963693600003,16.11598992100005],[119.98989882900003,16.115159583000032],[119.98987937000003,16.11337313500007],[119.99083699700009,16.112186586000057],[119.99199880700009,16.111770166000042],[119.9936696210001,16.112048061000053],[119.99462821100008,16.111359146000037],[119.9967112920001,16.110706702000076],[119.99790819100008,16.10934513600006],[119.99679708500001,16.107331547000058],[119.99706328600006,16.106198931000055],[119.99647384100003,16.103951948000027],[119.99672102800002,16.10197896700003],[119.99640604000001,16.099882163000075],[119.99767174600004,16.098325246000062],[119.99832897700003,16.096337633000072],[119.99831368800004,16.094202413000062],[119.99776667300011,16.09324156300005],[119.99849232100009,16.09281499100007],[119.99915486800012,16.093611847000034],[119.99947528000008,16.094799733000063],[119.99921191100009,16.098252171000066],[119.99847035000003,16.09931175700006],[119.9981280920001,16.100784474000022],[119.99874640200005,16.101409079000064],[119.9996362820001,16.10119785900002],[120.0000105150001,16.10207030900006],[119.99858443700009,16.10261836100005],[119.99841201600009,16.10346223400006],[119.99869723200004,16.10470447500006],[119.99936273500009,16.10583709900004],[119.99955287900002,16.10722546800002],[120.000256411,16.10813886400007],[120.00088388600011,16.109892572000035],[120.00210080600003,16.111792404000028],[120.00371702800011,16.112724046000043],[120.00723468800005,16.11308939500003],[120.00976360000003,16.112815383000054],[120.01212138300004,16.112157754000066],[120.01396577800006,16.110805955000043],[120.01446015200007,16.109874304000076],[120.01512565500002,16.107791774000084],[120.015353827,16.10598324400007],[120.01622848900001,16.104375647000037],[120.01852922800005,16.101379637000033],[120.02219900300008,16.099443168000054],[120.02314972200008,16.09825570100003],[120.02446171400004,16.097524948000054],[120.02475960038221,16.09705248116485],[120.02482939832483,16.09509381666545],[120.02453754905078,16.090672669524697],[120.02442457544424,16.090003960941974],[120.02356803900011,16.08890186600007],[120.0232447940001,16.08791530300004],[120.02356803900011,16.08638064000008],[120.02345833161392,16.08506299624425],[120.02262064102646,16.082019284430103],[120.02114045520932,16.078196702241257],[120.02100109800007,16.078049404000076],[120.0208858015548,16.077617720728124],[120.01969703151791,16.075276658627732],[120.01765456700002,16.07430388800003],[120.01710315000004,16.07304318600006],[120.01736229986638,16.071345316164095],[120.01658211371476,16.07012739186574],[120.01439757311877,16.067364465844587],[120.01456007600007,16.068145235000028],[120.01441746800005,16.069310042000037],[120.01296286800003,16.07170815400008],[120.01226409000004,16.071954816000076],[120.01147974700007,16.07133816200007],[120.01006792900013,16.071105203000055],[120.00951175900003,16.07009114500005],[120.01002514700008,16.06892634200005],[120.00993958200002,16.06826856800006],[120.00848498200003,16.06825486400004],[120.00825681000005,16.068926342000054],[120.0074439450001,16.06913189600004],[120.00737264100006,16.07009114500005],[120.00574691200008,16.070050034000076],[120.00481045400011,16.069214117000055],[120.00539989900005,16.067898569000022],[120.00539989900005,16.067167705000028],[120.00412593600004,16.067514865000078],[120.00365057700004,16.068866959000044],[120.00247168500005,16.068008198000026],[120.00271887200006,16.067149433000054],[120.00205336900001,16.06630893600004],[120.0016350520001,16.06459138700006],[120.0006082760001,16.065559794000023],[120.00072236200005,16.066838815000036],[119.99944839900002,16.06831881400007],[119.99887796800012,16.068556344000054],[119.99758540900008,16.067518666000073],[119.99676779100004,16.06761002400003],[119.99655863200007,16.06627619300002],[119.99566495700005,16.065947302000044],[119.99549382700002,16.067354222000063],[119.99435296500009,16.068468787000025],[119.99339392700007,16.068300918000034],[119.99297561100002,16.06744215400004],[119.99392632900003,16.06601696300004],[119.9935650560001,16.065030286000024],[119.9935840710001,16.063787798000018],[119.9947629620001,16.062161588000034],[119.99423056,16.060188192000055],[119.9928615240001,16.06077290400003],[119.99215799200012,16.05953038900003],[119.9926333520001,16.05845231800004],[119.99335589800012,16.058050324000018],[119.99424957400005,16.056058614000044],[119.99428760300009,16.054359250000058],[119.99408767731784,16.053369048306493],[119.9929285079488,16.052986173874793],[119.99132136000004,16.053811065000044],[119.99037539400001,16.057142789000068],[119.98962670300013,16.057256992000074],[119.98828381300008,16.055612456000066],[119.98872351999998,16.05528126300004],[119.98854526000002,16.054184897000024],[119.9874994700001,16.05464171700004],[119.98730932600004,16.05608069400005],[119.98822439300012,16.057245572000056],[119.98837888500009,16.05871879100004],[119.98744005000005,16.06096856900006],[119.9876777290001,16.06265874100006],[119.98823627700007,16.06368654100004],[119.98716671800003,16.06425753900004],[119.98663193900008,16.063446721000044],[119.98585948000006,16.063743641000023],[119.98432644500008,16.063777901000037],[119.9832450030001,16.064234699000053],[119.98360152200007,16.06570786600002],[119.98459977700008,16.065833484000056],[119.98469484900012,16.06714676200005],[119.98601397100003,16.067672071000057],[119.98616846300001,16.068928239000055],[119.98683396600006,16.069841811000057],[119.98685773400007,16.07090383300005],[119.98496818100011,16.072159980000034],[119.98301920700008,16.070481309000055],[119.98360152200007,16.07005878400002],[119.9841481850001,16.068836882000028],[119.98240123900008,16.06927082900006],[119.98219921200005,16.070492728000026],[119.98128414500002,16.07152048800003],[119.98216356000013,16.071908751000027],[119.98325688600006,16.07331334500003],[119.982864715,16.074146961000046],[119.98443340100005,16.075231798000058],[119.98475426900005,16.076122502000032],[119.98387485400006,16.07668204500004],[119.98287659900006,16.075859859000044],[119.98215167600006,16.075905536000047],[119.98140298500005,16.075208960000058],[119.98086820500009,16.077858222000028],[119.9811177690001,16.078680400000053],[119.98003632600012,16.079022973000065],[119.9808919730001,16.080747249000066],[119.9816168960001,16.080998466000032],[119.98303109100004,16.08081576200004],[119.98402104700007,16.082205521000045],[119.9840638290001,16.08382243200003],[119.98444887100004,16.08476790800006],[119.98307983500001,16.086028535000022],[119.98146836700005,16.085644867000042],[119.98199601600004,16.084315724000078],[119.98109758600003,16.083890945000068],[119.9803845470001,16.08505566100007],[119.97814560400002,16.08493233800004],[119.97740404300009,16.083973161000074],[119.9776749980001,16.082904357000075],[119.97746108700005,16.082041089000032],[119.9763772670001,16.081547791000048],[119.97738978300005,16.08021862100003],[119.97664822200012,16.079985673000067],[119.97573553200006,16.080670814000033],[119.97529344700003,16.081712224000057],[119.97460893000003,16.08171222400006],[119.973896673,16.08101299800006],[119.97285088200009,16.080990160000056],[119.97135350000009,16.07927730600005],[119.96987988500007,16.076468193000043],[119.9699987250001,16.075508974000062],[119.96926191800003,16.07498368600005],[119.9690955420001,16.07315658600004],[119.96968974100001,16.071101078000027],[119.96964220600013,16.06968504900004],[119.96854887900008,16.06952517400003],[119.96700396100005,16.07096404300006],[119.966338457,16.074458396000068],[119.96690888900002,16.07516639500005],[119.96752685600006,16.076856446000022],[119.96819235900011,16.07751876000003],[119.96897670200009,16.07898040900005],[119.96795467900004,16.080875970000022],[119.96826366300003,16.08172097300007],[119.97052162100012,16.08359367000003],[119.97145882000005,16.08526500200003],[119.97120060300007,16.086535524000055],[119.97147155700009,16.08701510800006],[119.97167120800009,16.089234877000024],[119.97137173200008,16.09000220000007],[119.97050182400005,16.09081062500007],[119.97050182400005,16.092071214000047],[119.97239850800008,16.09327698700002],[119.97259815900009,16.09407169700006],[119.97412406300009,16.09540077500003],[119.97497971000007,16.097236805000026],[119.97485136300008,16.098017798000058],[119.9736677180001,16.098305531000054],[119.9738673690001,16.09948386300005],[119.9734965890001,16.101196543000075],[119.97369624000011,16.103347649000053],[119.97480858100003,16.10388199600004],[119.97476579800004,16.10478627300006],[119.9740955420001,16.105608339000074],[119.97406702,16.106307093000055],[119.97607779100008,16.106882535000068],[119.97834525500002,16.10797861100002],[119.97867325300001,16.108965074000025],[119.97794595300002,16.11012964300005],[119.97794595300002,16.11071877500007],[119.97918664100007,16.111951836000053],[119.98052872700009,16.113807851000047],[119.980897131,16.11516648000003],[119.98073075500007,16.116547934000035],[119.97997018000001,16.117541205000066],[119.9779974380001,16.117929378000046],[119.97653570800003,16.11910531100006],[119.97543049700005,16.11780379300006],[119.97393311500002,16.11758687200006],[119.97339833600005,16.117838043000067],[119.97207921300004,16.117016028000016],[119.97106907400008,16.116901858000062],[119.9692389400001,16.11740420200005],[119.96936966400007,16.11824905000003],[119.9721148650001,16.11899114300007],[119.97260210800003,16.119835984000076],[119.97199602500007,16.12185673700003],[119.97114037800009,16.122690149000046],[119.97098588600012,16.12444829500004],[119.97167515700004,16.124984869000063],[119.97332703200004,16.124882121000045],[119.97388557900001,16.125441526000028],[119.97365978300003,16.126263507000033],[119.97212674900004,16.126708745000034],[119.97275660000004,16.128055869000036],[119.97250703700001,16.12957422800002],[119.97193660500011,16.130236365000034],[119.97154443400007,16.132074356000032],[119.96728996700006,16.13336436400004],[119.96664823100002,16.134289055000064],[119.96412882600008,16.133626931000034],[119.96278593600006,16.133661179000057],[119.96137174100011,16.135567633000054],[119.9613242050001,16.13691469800005],[119.95996943100012,16.13726858600006],[119.9599659395552,16.137296249806763],[119.96089018558305,16.13770316519871],[119.9652276166316,16.139135542557558],[119.96968945017711,16.140149993240822],[119.96976217710119,16.140159386626255],[119.97046713500002,16.13932742800006],[119.97127524600012,16.137957548000035],[119.9711564060001,16.13576572200003],[119.97217842900011,16.13339121500007],[119.97201205300009,16.132089791000055],[119.97248741300007,16.130971016000046],[119.97429377900005,16.128984604000035],[119.97614768000004,16.127911477000055],[119.9762902880001,16.126792678000076],[119.97481667400007,16.125925034000034],[119.97453145800013,16.12544554500005],[119.97453145800013,16.12366457500008],[119.97341436400006,16.120878924000067],[119.97358073900013,16.119280582000044],[119.97220219700012,16.11818456800006],[119.97267755600001,16.11784206300007],[119.97410363500002,16.11834440400003],[119.97484044200007,16.118983745000033],[119.97491174600009,16.120696257000073],[119.97526826500005,16.121678090000046],[119.97600507300001,16.122340254000047],[119.97683695200008,16.12131275800004],[119.97764506300007,16.121426924000048],[119.97842940600003,16.123481911000056],[119.9791899810001,16.123573243000067],[119.97978418000004,16.122979583000074],[119.9801169320001,16.121792257000035],[119.97935635700003,16.12012542100007],[119.97954650100009,16.119371916000038],[119.98168561800003,16.116746041000056],[119.98065624700006,16.113189586000033],[119.97993132400008,16.112652980000068],[119.97932524100008,16.11131716800003],[119.97936089300005,16.10879394300002],[119.97877857800006,16.107446688000042],[119.97762583100008,16.106521872000023],[119.97720989100003,16.105642721000034],[119.97740003500009,16.10396433300002],[119.97690090800006,16.10255995600005],[119.97767336700008,16.09964841100003],[119.9777446710001,16.09838101900004],[119.97745945500002,16.09610882800007],[119.97755452700007,16.09501268700006],[119.97692467600007,16.093768102000073],[119.97616410100011,16.091507276000076],[119.9748925140001,16.090354017000035],[119.97385860700001,16.08837861700004],[119.9725870210001,16.08741945600007],[119.97270586000003,16.086026381000064],[119.97335948000011,16.086289011000073],[119.97375165100004,16.087168247000022],[119.97467860200004,16.087704921000064],[119.97547482900006,16.089600399000062],[119.97690090800006,16.09062806000003],[119.97750699100006,16.092443581000055],[119.97820814600003,16.09188408300003],[119.97792293100008,16.090045719000045],[119.97826756600013,16.088972381000076],[119.979242053,16.090993449000052],[119.98037103200011,16.09030834400005],[119.98037103200011,16.08902947400003],[119.98103653500006,16.089109403000066],[119.9813455190001,16.090479620000053],[119.98083450700007,16.091244654000032],[119.97890930100004,16.09264911100007],[119.97883799700003,16.09467014100005],[119.97855278200007,16.095343813000056],[119.97882611300008,16.097638849000077],[119.97918263300006,16.098301093000025],[119.9781724940001,16.10071027300006],[119.97826756600013,16.101669370000025],[119.97788727900002,16.102411525000033],[119.97882611300008,16.103507626000066],[119.979491617,16.105391535000024],[119.98095334700008,16.106887232000076],[119.98177334200011,16.108154569000025],[119.98259487000007,16.10752338800006],[119.98409700500007,16.107833943000053],[119.98457236500008,16.107559924000043],[119.98472448000007,16.10609848500007],[119.98440123600005,16.105093739000036],[119.98554209800011,16.104618767000026],[119.98607450100008,16.10523988500006],[119.98613154400005,16.106847474000062],[119.9853139260001,16.108655997000028],[119.98612835300001,16.11010410700004],[119.98642624,16.108764791000056]],[[119.99509214900003,16.076156380000043],[119.99598582400006,16.07741706200005],[119.99725978800008,16.077526686000052],[119.99815346300011,16.078732547000072],[119.99899009600004,16.079006606000064],[119.99919925400002,16.079755697000053],[119.99857178000003,16.080322081000077],[119.9983055780001,16.08163754700007],[119.99729781600001,16.081509655000048],[119.99575765200008,16.08121733000007],[119.99579568100012,16.079646074000035],[119.99448368800006,16.078787359000046],[119.99347592600009,16.079244123000027],[119.99231604900002,16.081052897000063],[119.99134631600009,16.08052305500007],[119.99151744500011,16.07962780300005],[119.99307662400008,16.078641194000053],[119.99360902700005,16.077745934000063],[119.9937231130001,16.076594879000023],[119.99509214900003,16.076156380000043]]],[[[120.01033405900012,16.12641243100006],[120.00936855600003,16.12661310000004],[120.00902939900004,16.12605965300003],[120.00939166800005,16.124977681000072],[120.0091791320001,16.124317690000055],[120.010328909,16.12346178200005],[120.01103711100005,16.122384656000065],[120.01127851400008,16.121418256000023],[120.01221986200005,16.12105735600005],[120.01369347600007,16.121434106000038],[120.01427579100006,16.121068773000047],[120.01414506700009,16.119744434000037],[120.01602273700007,16.119721601000037],[120.01766325500012,16.11911973200006],[120.01797891055439,16.119217553843843],[120.01819828017835,16.118851720426818],[120.01729592100001,16.118779055000058],[120.01655385200002,16.11908162800006],[120.01472621100004,16.119060964000028],[120.01362337700004,16.11933496700004],[120.01166489600007,16.120997242000044],[120.0113036230001,16.120120439000065],[120.01136066600009,16.119042697000058],[120.01322407500004,16.117508275000034],[120.01231138500007,16.11652185400004],[120.00770990600004,16.116631456000047],[120.00520000800007,16.117051599000035],[120.00356477100003,16.11792841500005],[120.00217672200006,16.118238953000056],[120.00135910300003,16.118056284000033],[120.00031331300009,16.117216002000074],[119.99835483200002,16.11690546200003],[119.99696678200009,16.117398672000043],[119.99580690500011,16.118293754000035],[119.99521745900006,16.118202420000046],[119.99388645300009,16.116266114000034],[119.99228924500005,16.118111085000063],[119.99156669900005,16.12002910500007],[119.99052090800001,16.120942442000057],[119.98850538400005,16.121746175000055],[119.98880961400005,16.124449615000056],[119.98740255000007,16.126440639000066],[119.98614760100008,16.126915559000054],[119.98500673800005,16.126513704000047],[119.984512364,16.12866910100007],[119.98344755900007,16.12969199300005],[119.98354263100009,16.13075141200005],[119.980956676,16.134897701000057],[119.98055737400011,16.136231071000054],[119.98059540200005,16.138769929000038],[119.98101371900009,16.140121538000074],[119.98147630082781,16.14072634680091],[119.98338787270532,16.140608733248484],[119.98791159242492,16.139895212090348],[119.9923411099921,16.138756467531042],[119.99663374330498,16.137203477771173],[120.00074813278235,16.135251212133074],[120.00464464041869,16.132918486387936],[120.00828573206591,16.130227780992865],[120.01163633923956,16.127205024010134],[120.0120114406412,16.126793034320546],[120.01033405900012,16.12641243100006]]]]}}]}