{"type":"FeatureCollection","features":[{"type":"Feature","properties":{"fid":4,"objectid":1833,"lccode":"01","liqcode":"2010600010000000","mappers":"DJLBuhay, MITAbigania, KLPapiona, KMVitto","project":"MELP","province":"Aklan","otherinfo":null,"datemapped":2017,"publishdate":null,"globalid":"{2610B680-7BB1-4235-9EBC-A203F48D9AEE}","st_area(shape)":0.031193944395976114,"st_perimeter(shape)":7.591260939778177,"liqcodepk":"201060001000000000004","creator":"SNOOPYPC","createdate":"2019-02-19T15:21:28","editor":"LENOVO","modifydate":"2019-03-10T17:53:06","codemove":"na"},"geometry":{"type":"Polygon","coordinates":[]}},{"type":"Feature","properties":{"fid":23,"objectid":1869,"lccode":"07","liqcode":"2010600070000000","mappers":" ","project":"READY","province":"Antique","otherinfo":null,"datemapped":2010,"publishdate":null,"globalid":"{D10F3743-B08E-4BB0-8330-C339D6ABD38B}","st_area(shape)":0.008955404678814158,"st_perimeter(shape)":4.103226410979217,"liqcodepk":"201060007000000000061","creator":"SNOOPYPC","createdate":"2019-02-19T15:21:28","editor":"LENOVO","modifydate":"2019-03-10T17:50:55","codemove":"na"},"geometry":{"type":"Polygon","coordinates":[]}},{"type":"Feature","properties":{"fid":49,"objectid":1898,"lccode":"05","liqcode":"2010600050000000","mappers":" ","project":"READY","province":"Antique","otherinfo":null,"datemapped":2010,"publishdate":null,"globalid":"{F799DDD2-325B-4E56-934A-EE54555B99CC}","st_area(shape)":0.01053919356163067,"st_perimeter(shape)":4.296469707330003,"liqcodepk":"201060005000000000092","creator":"SNOOPYPC","createdate":"2019-02-19T15:21:28","editor":"LENOVO","modifydate":"2019-03-10T17:50:55","codemove":"na"},"geometry":{"type":"MultiPolygon","coordinates":[[[[121.95895571900007,11.757144030000061],[121.96078373000012,11.75751971400007],[121.96243887300012,11.758148788000032],[121.96338606300002,11.757680424000059],[121.96400517800011,11.75629138800002],[121.96481593200008,11.756185396000035],[121.96579868900004,11.755485251000037],[121.96571033200007,11.755397533000062],[121.96328034300006,11.75477045600007],[121.96220583200012,11.754808859000036],[121.9611953320001,11.755797251000045],[121.95901197895824,11.755663838425134],[121.95893255390413,11.75714496737631],[121.95895571900007,11.757144030000061]]],[[[122.00637004400006,11.744930783000028],[122.00419048500011,11.744783609000022],[122.00245914900005,11.74502635600004],[122.00136713600011,11.745583851000047],[122.00002978300006,11.745873523000057],[121.99982803800005,11.74568803300002],[121.99616800700005,11.747719739000045],[121.9929355920001,11.74865207000005],[121.99059763700005,11.750065304000032],[121.98848966500009,11.750699068000074],[121.98746632400002,11.751875012000026],[121.98642874500001,11.751913728000034],[121.98640694100004,11.752827077000063],[121.9883283910001,11.752839951000054],[121.9892613300001,11.751222068000061],[121.99046513800009,11.751062971000065],[121.99129064100009,11.750267453000045],[121.99274203300001,11.749546645000065],[121.99373604100003,11.749689280000043],[121.99650394000003,11.748210903000025],[122.00038289900009,11.748442291000062],[122.00125080200007,11.747798134000048],[122.00442553800008,11.747536928000047],[122.00616230900006,11.747682108000047],[122.007995906,11.74536251300003],[122.00637004400006,11.744930783000028]]],[[[121.97077784600003,11.756766553000032],[121.96972624300008,11.758069338000038],[121.96968519900008,11.760863877000075],[121.9702529330001,11.761997870000073],[121.97184369500009,11.763242278000064],[121.9711941610001,11.763679109000066],[121.97023554100006,11.762822937000069],[121.97013616700009,11.763397032000055],[121.97128220700007,11.763933456000071],[121.97225880300006,11.763822076000052],[121.97145858800002,11.761084982000057],[121.9722898120001,11.759606017000065],[121.97191071100009,11.75835845900002],[121.9717802130001,11.756310382000038],[121.97112938600003,11.755146687000037],[121.97077784600003,11.756766553000032]]]]}},{"type":"Feature","properties":{"fid":64,"objectid":1928,"lccode":"06","liqcode":"2010600060000000","mappers":" ","project":"READY","province":"Antique","otherinfo":null,"datemapped":2010,"publishdate":null,"globalid":"{59F7BC3E-69F7-4D6A-8910-A1F9D73ECE42}","st_area(shape)":0.010710328066056169,"st_perimeter(shape)":5.351824083433743,"liqcodepk":"201060006000000000126","creator":"SNOOPYPC","createdate":"2019-02-19T15:21:28","editor":"LENOVO","modifydate":"2019-03-10T17:50:55","codemove":"na"},"geometry":{"type":"MultiPolygon","coordinates":[[[[122.04025127400007,11.734715297000035],[122.03968409300012,11.734907579000035],[122.03319272400006,11.738648028000059],[122.03102791700007,11.739590385000042],[122.02854421300003,11.740149415000076],[122.02758167500008,11.740680154000072],[122.02591140200003,11.741083992000029],[122.02352095400012,11.741391430000023],[122.0207432410001,11.741481998000038],[122.019552513,11.74037354600006],[122.01744478600006,11.737341229000037],[122.015480141,11.73566571200007],[122.01426121500002,11.735564417000033],[122.01504892700007,11.737454392000073],[122.01716741100006,11.739172931000041],[122.0178157580001,11.740404013000044],[122.01780482700008,11.741760207000025],[122.0172979550001,11.742286419000036],[122.01517389000003,11.742154709000035],[122.0134028650001,11.741435587000069],[122.01243926100005,11.742257548000053],[122.01246567100009,11.743489474000057],[122.01203316700003,11.743888464000067],[122.01046647800003,11.742863564000059],[122.01039882200007,11.737668855000038],[122.00901752900006,11.738176834000058],[122.00766903100009,11.739880411000058],[122.0031490670001,11.743265907000023],[122.00213595000002,11.744148409000044],[121.99982728400005,11.745666424000033],[122.00002978300006,11.745873523000057],[122.00136713600011,11.745583851000047],[122.00245914900005,11.74502635600004],[122.00419048500011,11.744783609000022],[122.00637004400006,11.744930783000028],[122.007995906,11.74536251300003],[122.0089041010001,11.745801310000045],[122.01049647500008,11.748261458000059],[122.01187366600006,11.748897241000066],[122.01266511800007,11.747998841000024],[122.0144899390001,11.747452962000066],[122.01505926100003,11.746690296000054],[122.0147259490001,11.745153919000074],[122.01477868000008,11.744177113000035],[122.0154320900001,11.744003351000057],[122.01974322900003,11.743896859000074],[122.02073580800004,11.745344458000034],[122.02149184900007,11.744006005000074],[122.02348761200005,11.743855082000039],[122.0245960090001,11.745639908000044],[122.02581585000007,11.745495358000024],[122.02639828100007,11.74448093800004],[122.02796792400011,11.742935773000053],[122.02826090300005,11.741923436000034],[122.02890426200008,11.741094181000047],[122.03037565000011,11.741217518000042],[122.03305778000004,11.742042864000037],[122.03554432300007,11.74243358700005],[122.03708017000008,11.743500652000025],[122.03812771000003,11.743309994000072],[122.03901171900009,11.742335975000062],[122.03933646300005,11.74103235900003],[122.04034834700009,11.738699452000047],[122.04048659400007,11.73791105200007],[122.04192995200002,11.735433944000018],[122.0429209788964,11.734459910371575],[122.04210442911798,11.733367221195753],[122.04025127400007,11.734715297000035]]],[[[121.97099622400005,11.754303794000066],[121.97246176600004,11.752682741000056],[121.97465142900012,11.75341880600007],[121.97518541400007,11.753915314000036],[121.97710023700006,11.754022349000026],[121.9814656980001,11.752593696000076],[121.98211041900004,11.751436947000059],[121.98038151300011,11.75098473100007],[121.97943168300003,11.75138190900003],[121.97757373200012,11.750877596000064],[121.97603431300003,11.750835736000058],[121.97405932000005,11.75200586200003],[121.97256716600009,11.752501141000039],[121.97099053700003,11.752513632000047],[121.96918149500004,11.753775354000027],[121.96571033200007,11.755397533000062],[121.96579868900004,11.755485251000037],[121.96730607300005,11.756296032000021],[121.96829898100009,11.757567873000028],[121.96846787400011,11.758524213000042],[121.96828188800009,11.760510847000033],[121.97023554100006,11.762822937000069],[121.9711941610001,11.763679109000066],[121.97184369500009,11.763242278000064],[121.9702529330001,11.761997870000073],[121.96968519900008,11.760863877000075],[121.96972624300008,11.758069338000038],[121.97077784600003,11.756766553000032],[121.97112938600003,11.755146687000037],[121.97099622400005,11.754303794000066]]]]}}]}