{"type":"FeatureCollection","features":[{"type":"Feature","properties":{"fid":31,"objectid":1877,"lccode":"07","liqcode":"2010600070000000","mappers":"PJDelosReyes, ACPidlaoan","project":"READY","province":"Ilocos Sur","otherinfo":null,"datemapped":2012,"publishdate":null,"globalid":"{9BD19C39-D43F-480F-8D4D-C2FF10071B57}","st_area(shape)":0.01783800115070572,"st_perimeter(shape)":3.398456363100086,"liqcodepk":"201060007000000000070","creator":"SNOOPYPC","createdate":"2019-02-19T15:21:28","editor":"LENOVO","modifydate":"2019-03-10T17:50:55","codemove":"na"},"geometry":{"type":"MultiPolygon","coordinates":[[[[120.3891368830001,17.521170676000054],[120.38883591729545,17.521239072312927],[120.38660479904722,17.52470172279269],[120.38457293533821,17.528680908208333],[120.38295729170822,17.532831981809036],[120.38177344954393,17.5371149799656],[120.3810328362224,17.54148866656243],[120.38087661568139,17.543869135032008],[120.38099542400006,17.543810119000057],[120.38321486600012,17.54405274100003],[120.38416567000003,17.544918307000046],[120.38563664300011,17.545684104000028],[120.3865624880001,17.545709693000045],[120.38722693200009,17.545238643000058],[120.388075447,17.54354825900003],[120.38926995200006,17.542924283000048],[120.39027213600004,17.542795283000032],[120.39230589400005,17.543070930000052],[120.39566606400001,17.543861530000072],[120.39958793500011,17.54423290400006],[120.40251379600012,17.544306890000026],[120.40626898800006,17.545089078000046],[120.407517417,17.545469828000023],[120.41174966800008,17.546169462000023],[120.41652476700006,17.546480602000024],[120.41837336900007,17.546753573000043],[120.42124519000002,17.548035007000063],[120.42388872200003,17.54973989900003],[120.42555132500003,17.55138315300007],[120.42775062400004,17.554375171000057],[120.43010396600005,17.555649756000037],[120.43430567200005,17.557232637000027],[120.43724834500006,17.558763646000042],[120.43883536100009,17.559210667000063],[120.44050793300005,17.55884133000006],[120.44168186400009,17.55704380900005],[120.44159617300011,17.555229996000037],[120.44081472800009,17.553491613000066],[120.44010878900008,17.552971585000023],[120.43939442200008,17.55173160100002],[120.43863485600002,17.54975357800004],[120.4382178100001,17.54779326200003],[120.43806764600005,17.54595640300005],[120.43862071300009,17.542857991000062],[120.43892641700008,17.54021842200007],[120.44005518900009,17.538327036000055],[120.44146614000012,17.53546624700004],[120.44340696500001,17.52916456500003],[120.44392433300004,17.526612134000068],[120.44344213000012,17.524673196000037],[120.44260699300003,17.522805283000032],[120.44201715600002,17.517310688000066],[120.44069694400002,17.511073548000073],[120.44009087000006,17.504099229000076],[120.4398081613334,17.502923320382692],[120.4376098726425,17.502364690732104],[120.43305140094947,17.501655515603034],[120.42844247259261,17.50137838738093],[120.4238274420495,17.501535968767524],[120.41925072151388,17.502126738973285],[120.4147563544465,17.503145008486612],[120.41038759266975,17.504580973871285],[120.40701186946231,17.506059351311375],[120.40707985900008,17.50718919800005],[120.40688915200009,17.507577682000033],[120.40481680601717,17.507184383814575],[120.40219345358429,17.508646813268356],[120.39862331419623,17.511115594186816],[120.39981945500007,17.51110602600005],[120.40088512000013,17.51170645900004],[120.40143867300003,17.51315761600006],[120.40361313300001,17.513932477000022],[120.40581713100003,17.51524089500003],[120.40639665000003,17.51616812900005],[120.40729145700006,17.518374542000057],[120.40741871600004,17.51984684000007],[120.40656228600007,17.520155461000062],[120.40541561600004,17.52003381600002],[120.4045753570001,17.51920537700005],[120.40437091500009,17.517305607000026],[120.4035777470001,17.516419994000046],[120.40267008800004,17.51772758000004],[120.40115367600005,17.51756115800004],[120.39896362000002,17.516577210000037],[120.39594974900002,17.51621330700004],[120.39535940300006,17.515401392000058],[120.39414681300003,17.516007493000075],[120.39329431548555,17.515907319798895],[120.39183503480419,17.517410218502466],[120.38907419985561,17.52088130987582],[120.3891368830001,17.521170676000054]]],[[[120.38125909900009,17.551237421000053],[120.3823417660001,17.55324659200005],[120.38450520300012,17.557666252000047],[120.38732725300008,17.560377129000074],[120.38833750700006,17.560195706000055],[120.387987628,17.559376550000028],[120.38603316700004,17.556659539000066],[120.38509566300002,17.555106747000025],[120.38468986500004,17.553566397000054],[120.38384087200006,17.552057931000032],[120.38285804200007,17.55083654200007],[120.38219337500006,17.549392722000047],[120.38080347964056,17.547564494113097],[120.38090561015174,17.550339186799086],[120.38098640290127,17.55091642207996],[120.38125909900009,17.551237421000053]]]]}},{"type":"Feature","properties":{"fid":58,"objectid":1907,"lccode":"05","liqcode":"2010600050000000","mappers":"PJDelosReyes, ACPidlaoan","project":"READY","province":"Ilocos Sur","otherinfo":null,"datemapped":2012,"publishdate":null,"globalid":"{7D41ABB3-20BB-4A8A-A22A-9DDDC45B8904}","st_area(shape)":0.029120699274048492,"st_perimeter(shape)":9.226907297832456,"liqcodepk":"201060005000000000102","creator":"SNOOPYPC","createdate":"2019-02-19T15:21:28","editor":"LENOVO","modifydate":"2019-03-10T17:50:55","codemove":"na"},"geometry":{"type":"MultiPolygon","coordinates":[[[[120.45821911300004,17.57817220400005],[120.45726625400006,17.57766412500007],[120.45552307100003,17.57558779000004],[120.45473973700007,17.574890994000043],[120.45447935200002,17.57366203700008],[120.45493189200012,17.571735140000044],[120.45623970900009,17.568167706000057],[120.45607187000007,17.56726627800003],[120.45382611900006,17.56844184900007],[120.45082961400011,17.56859692900002],[120.44775281200009,17.569107240000054],[120.44210317500006,17.569905960000025],[120.43835676700007,17.57017737900003],[120.43549243600013,17.570957700000065],[120.43047723900008,17.57448238900002],[120.42778002800004,17.576544429000016],[120.42634494000005,17.578444981000075],[120.42662172400003,17.57983480300004],[120.429622214,17.58253956300007],[120.43081098100005,17.58384950300007],[120.43372124800011,17.585622541000077],[120.43393399700005,17.586860824000045],[120.43291357100007,17.58826927600006],[120.43287742000007,17.589816749000025],[120.43425036500003,17.590703505000022],[120.43428551925162,17.591197425232217],[120.43636397046271,17.59092925704517],[120.44086052449447,17.589910771555566],[120.4452312857403,17.588474379818333],[120.4460441624588,17.588118425362403],[120.4461963760001,17.587720239000078],[120.44608993100007,17.58618860500008],[120.44912021900006,17.582501563000054],[120.4497429810001,17.58231257300002],[120.45293630100004,17.583455745000037],[120.45496603031535,17.583343886841146],[120.45717609166192,17.581815461405128],[120.45986739031741,17.579538179395396],[120.45821911300004,17.57817220400005]]],[[[120.41603372100008,17.578368320000042],[120.42018125200002,17.57683773000002],[120.4246910400001,17.575798818000067],[120.42684460400007,17.574559564000026],[120.428942817,17.572109330000043],[120.43082508400005,17.570843832000033],[120.43250128500007,17.57022576800006],[120.43270156500013,17.56934283600003],[120.4322234550001,17.56890708900005],[120.43043472700005,17.56842812900004],[120.42645197500008,17.568263374000026],[120.42534258600007,17.56810671800002],[120.42213500800004,17.566963143000066],[120.41983719400002,17.56660802300007],[120.41717014800008,17.566590905000048],[120.41209817400009,17.568888426000054],[120.40843206800002,17.56999564000006],[120.406513656,17.56989969500006],[120.40397994600006,17.57023827700004],[120.40210683100008,17.569558589000053],[120.40075149600011,17.56752225100007],[120.39842782000005,17.56643940700007],[120.39781176400004,17.56656295100003],[120.39737271800004,17.567669504000037],[120.39766146900001,17.56820649100007],[120.39972904500009,17.569314872000064],[120.4005390860001,17.57075966400003],[120.39998866700012,17.574399767000045],[120.40089550500012,17.575527186000045],[120.403618015,17.576637196000032],[120.40472589700005,17.57690059700007],[120.40700930300012,17.577890215000025],[120.40887554700008,17.57954965400006],[120.4104017190001,17.57978185000007],[120.41384828100001,17.579046022000053],[120.41603372100008,17.578368320000042]]],[[[120.41731798900004,17.56076374100007],[120.41563175100009,17.558625833000068],[120.41228561500009,17.555094001000043],[120.40926775300011,17.55315118700003],[120.40748699100006,17.552554674000074],[120.40356719300007,17.550367459000025],[120.4028344390001,17.549330926000042],[120.40160769700005,17.546048065000036],[120.40095057100008,17.54553478300005],[120.39859777400011,17.54550387900002],[120.39586295800005,17.545087333000026],[120.3951278620001,17.545511434000048],[120.39517497500002,17.54673373200006],[120.3957778030001,17.54910538000007],[120.39691957000002,17.549934852000035],[120.39921397900004,17.55082371400005],[120.40283840900008,17.552934086000047],[120.40417296700002,17.55383693500005],[120.40600574300004,17.55539245400007],[120.40700903100003,17.556875241000053],[120.40819221900006,17.559334118000038],[120.40923484000008,17.56195052000004],[120.41046364500004,17.563799234000044],[120.4114105640001,17.56405948800006],[120.41248920000011,17.563498154000058],[120.41559132700002,17.56406991800003],[120.41876926500004,17.564509801000042],[120.41911498500008,17.563558177000058],[120.41731798900004,17.56076374100007]]],[[[120.40619395500003,17.546063967000066],[120.40771489500003,17.547866037000055],[120.41174375400009,17.55115312500004],[120.4133414590001,17.552230646000055],[120.4152830490001,17.555002430000062],[120.4167132020001,17.55605182700003],[120.41901875200007,17.556678134000038],[120.42248059100007,17.558564661000045],[120.42369758300002,17.558651394000037],[120.42459620000012,17.557760048000034],[120.42481108700008,17.555620400000066],[120.42427582000005,17.553010661000034],[120.42362974000002,17.551709668000058],[120.4219794810001,17.549634316000034],[120.42170074400008,17.548309210000077],[120.42124519000002,17.548035007000063],[120.41837336900007,17.546753573000043],[120.41652476700006,17.546480602000024],[120.41174966800008,17.546169462000023],[120.407517417,17.545469828000023],[120.40626898800006,17.545089078000046],[120.40619395500003,17.546063967000066]]],[[[120.38535572400009,17.564712156000038],[120.38579302000007,17.56189392300007],[120.38516456700006,17.561146475000044],[120.38421268700007,17.561403776000084],[120.38365984883893,17.562067189534424],[120.38407684758376,17.563235645816622],[120.38477433433937,17.564702189188758],[120.38535572400009,17.564712156000038]]],[[[120.4460889290001,17.565781163000054],[120.44328476400004,17.564927385000036],[120.43867905000003,17.56400672600006],[120.4341110790001,17.563965215000056],[120.43299062700011,17.564225086000025],[120.43287935,17.564914226000045],[120.43357798800004,17.565441231000023],[120.43589266800008,17.566232543000073],[120.43885012900012,17.566718285000032],[120.44281735400013,17.56704376400006],[120.44525145900003,17.56736977400004],[120.44954957700008,17.56738967700005],[120.45055389000005,17.567118281000035],[120.45100850900008,17.566069472000034],[120.4460889290001,17.565781163000054]]],[[[120.394870738,17.57536823600003],[120.39525951500002,17.575931014000044],[120.3972420350001,17.576802189000034],[120.40120441500007,17.579098949000066],[120.40318739500003,17.580497216000026],[120.40378597600012,17.580442506000054],[120.4039782210001,17.579409899000044],[120.40109927200001,17.576769242000065],[120.39839770800006,17.57528186500002],[120.39620770700003,17.574819258000044],[120.394870738,17.57536823600003]]],[[[120.39356607200013,17.563355424000065],[120.39258537600007,17.564165795000065],[120.39221155700011,17.56513468500003],[120.39267141399999,17.565893255000045],[120.39407479899998,17.565212337000045],[120.39474389200006,17.564247334000072],[120.39438492700003,17.563534340000047],[120.39356607200013,17.563355424000065]]]]}},{"type":"Feature","properties":{"fid":63,"objectid":1927,"lccode":"06","liqcode":"2010600060000000","mappers":"PJDelosReyes, ACPidlaoan","project":"READY","province":"Abra","otherinfo":null,"datemapped":2011,"publishdate":null,"globalid":"{2D7190C8-CD2C-4D21-8E96-CD4FC48D3C6E}","st_area(shape)":0.008103563302459305,"st_perimeter(shape)":1.7202435562194207,"liqcodepk":"201060006000000000125","creator":"SNOOPYPC","createdate":"2019-02-19T15:21:28","editor":"LENOVO","modifydate":"2019-03-10T17:50:55","codemove":"na"},"geometry":{"type":"Polygon","coordinates":[[[120.47378210800001,17.553256380000047],[120.4740800317589,17.554537459103326],[120.47435144385835,17.552929906604405],[120.47378210800001,17.553256380000047]]]}},{"type":"Feature","properties":{"fid":72,"objectid":1936,"lccode":"06","liqcode":"2010600060000000","mappers":"PJDelosReyes, ACPidlaoan","project":"READY","province":"Ilocos Sur","otherinfo":null,"datemapped":2012,"publishdate":null,"globalid":"{33CDE2C7-9AFF-4DEC-86B5-45B4892EBDFF}","st_area(shape)":0.017363484289297154,"st_perimeter(shape)":5.7193106480781575,"liqcodepk":"201060006000000000135","creator":"SNOOPYPC","createdate":"2019-02-19T15:21:28","editor":"LENOVO","modifydate":"2019-03-10T17:50:55","codemove":"na"},"geometry":{"type":"MultiPolygon","coordinates":[[[[120.4217055143804,17.54833188833208],[120.42170074400008,17.548309210000077],[120.42124519000002,17.548035007000063],[120.4217055143804,17.54833188833208]]],[[[120.42369758300002,17.558651394000037],[120.42248059100007,17.558564661000045],[120.41901875200007,17.556678134000038],[120.4167132020001,17.55605182700003],[120.4152830490001,17.555002430000062],[120.4133414590001,17.552230646000055],[120.41174375400009,17.55115312500004],[120.40771489500003,17.547866037000055],[120.40619395500003,17.546063967000066],[120.40626898800006,17.545089078000046],[120.40251379600012,17.544306890000026],[120.39958793500011,17.54423290400006],[120.39566606400001,17.543861530000072],[120.39230589400005,17.543070930000052],[120.39027213600004,17.542795283000032],[120.38926995200006,17.542924283000048],[120.388075447,17.54354825900003],[120.38722693200009,17.545238643000058],[120.3865624880001,17.545709693000045],[120.38563664300011,17.545684104000028],[120.38416567000003,17.544918307000046],[120.38321486600012,17.54405274100003],[120.38099542400006,17.543810119000057],[120.38087661568139,17.543869135032008],[120.38074261405166,17.545910929679117],[120.38080347964056,17.547564494113097],[120.38219337500006,17.549392722000047],[120.38285804200007,17.55083654200007],[120.38384087200006,17.552057931000032],[120.38468986500004,17.553566397000054],[120.38509566300002,17.555106747000025],[120.38603316700004,17.556659539000066],[120.387987628,17.559376550000028],[120.38833750700006,17.560195706000055],[120.38732725300008,17.560377129000074],[120.38450520300012,17.557666252000047],[120.3823417660001,17.55324659200005],[120.38125909900009,17.551237421000053],[120.38098640290127,17.55091642207996],[120.38152028799487,17.554730794656496],[120.38258076092617,17.55904345978462],[120.38365984883893,17.562067189534424],[120.38421268700007,17.561403776000084],[120.38516456700006,17.561146475000044],[120.38579302000007,17.56189392300007],[120.38535572400009,17.564712156000038],[120.38477433433937,17.564702189188758],[120.3859941687337,17.56726697361742],[120.38831428463419,17.571098610388642],[120.39101487164962,17.574693643990823],[120.39406993645105,17.578017438864986],[120.3951046350402,17.578942075556],[120.397173898,17.578969339000025],[120.39798546300005,17.57922878500006],[120.39996330200005,17.58085428400005],[120.40271405700003,17.582845236000026],[120.40497268100012,17.584106074000033],[120.40624950100005,17.585185242000023],[120.40630817300006,17.586248326000035],[120.40628860986617,17.586636740560316],[120.40920156078722,17.588005182461394],[120.41352993750317,17.589554829574414],[120.41799591671817,17.590690025138453],[120.42255646209698,17.591399825101767],[120.42716762312067,17.591677384665267],[120.43178495951133,17.59152002455102],[120.43428551925162,17.591197425232217],[120.43425036500003,17.590703505000022],[120.43287742000007,17.589816749000025],[120.43291357100007,17.58826927600006],[120.43393399700005,17.586860824000045],[120.43372124800011,17.585622541000077],[120.43081098100005,17.58384950300007],[120.429622214,17.58253956300007],[120.42662172400003,17.57983480300004],[120.42634494000005,17.578444981000075],[120.42778002800004,17.576544429000016],[120.43047723900008,17.57448238900002],[120.43549243600013,17.570957700000065],[120.43835676700007,17.57017737900003],[120.44210317500006,17.569905960000025],[120.44775281200009,17.569107240000054],[120.45082961400011,17.56859692900002],[120.45382611900006,17.56844184900007],[120.45607187000007,17.56726627800003],[120.46018398000001,17.564771925000063],[120.46280705100004,17.562672939000034],[120.46389924800008,17.561407425000024],[120.46681419100003,17.55903824100005],[120.47080987100001,17.556910014000035],[120.47348142800003,17.555994477000073],[120.47383233889019,17.555975937065888],[120.47384476108986,17.555930915549666],[120.4740800317589,17.554537459103326],[120.47378210800001,17.553256380000047],[120.4711345520001,17.554367118000073],[120.46863923400008,17.555228172000053],[120.4642648670001,17.556535572000026],[120.46337259300003,17.556984473000053],[120.46159593200004,17.557315835000054],[120.45944296100004,17.556800594000034],[120.45691007900008,17.555148569000036],[120.4549661620001,17.55423830000007],[120.45433619800008,17.553678208000065],[120.45234688100004,17.550204876000066],[120.45093320600006,17.545317215000065],[120.45038625100005,17.542040147000023],[120.44966099600003,17.540288161000035],[120.44925060100003,17.53847124200007],[120.4469289540001,17.532292273000053],[120.44647530600001,17.530296007000057],[120.44659224700001,17.524826411000053],[120.44673067300003,17.522844998000043],[120.44653898200012,17.520717835000028],[120.44582308100006,17.518664826000073],[120.44471100400006,17.51683425800007],[120.44345474200009,17.51319615600005],[120.44262607500002,17.510220568000022],[120.44209639900008,17.507029683000038],[120.44251207200013,17.506500756000033],[120.44281408800009,17.504698618000077],[120.44264659711067,17.503704042812558],[120.44207401684338,17.503499091981162],[120.4398081613334,17.502923320382692],[120.44009087000006,17.504099229000076],[120.44069694400002,17.511073548000073],[120.44201715600002,17.517310688000066],[120.44260699300003,17.522805283000032],[120.44344213000012,17.524673196000037],[120.44392433300004,17.526612134000068],[120.44340696500001,17.52916456500003],[120.44146614000012,17.53546624700004],[120.44005518900009,17.538327036000055],[120.43892641700008,17.54021842200007],[120.43862071300009,17.542857991000062],[120.43806764600005,17.54595640300005],[120.4382178100001,17.54779326200003],[120.43863485600002,17.54975357800004],[120.43939442200008,17.55173160100002],[120.44010878900008,17.552971585000023],[120.44081472800009,17.553491613000066],[120.44159617300011,17.555229996000037],[120.44168186400009,17.55704380900005],[120.44050793300005,17.55884133000006],[120.43883536100009,17.559210667000063],[120.43724834500006,17.558763646000042],[120.43430567200005,17.557232637000027],[120.43010396600005,17.555649756000037],[120.42775062400004,17.554375171000057],[120.42555132500003,17.55138315300007],[120.42388872200003,17.54973989900003],[120.4217055143804,17.54833188833208],[120.4219794810001,17.549634316000034],[120.42362974000002,17.551709668000058],[120.42427582000005,17.553010661000034],[120.42481108700008,17.555620400000066],[120.42459620000012,17.557760048000034],[120.42369758300002,17.558651394000037]],[[120.40089550500012,17.575527186000045],[120.39998866700012,17.574399767000045],[120.4005390860001,17.57075966400003],[120.39972904500009,17.569314872000064],[120.39766146900001,17.56820649100007],[120.39737271800004,17.567669504000037],[120.39781176400004,17.56656295100003],[120.39842782000005,17.56643940700007],[120.40075149600011,17.56752225100007],[120.40210683100008,17.569558589000053],[120.40397994600006,17.57023827700004],[120.406513656,17.56989969500006],[120.40843206800002,17.56999564000006],[120.41209817400009,17.568888426000054],[120.41717014800008,17.566590905000048],[120.41983719400002,17.56660802300007],[120.42213500800004,17.566963143000066],[120.42534258600007,17.56810671800002],[120.42645197500008,17.568263374000026],[120.43043472700005,17.56842812900004],[120.4322234550001,17.56890708900005],[120.43270156500013,17.56934283600003],[120.43250128500007,17.57022576800006],[120.43082508400005,17.570843832000033],[120.428942817,17.572109330000043],[120.42684460400007,17.574559564000026],[120.4246910400001,17.575798818000067],[120.42018125200002,17.57683773000002],[120.41603372100008,17.578368320000042],[120.41384828100001,17.579046022000053],[120.4104017190001,17.57978185000007],[120.40887554700008,17.57954965400006],[120.40700930300012,17.577890215000025],[120.40472589700005,17.57690059700007],[120.403618015,17.576637196000032],[120.40089550500012,17.575527186000045]],[[120.40923484000008,17.56195052000004],[120.40819221900006,17.559334118000038],[120.40700903100003,17.556875241000053],[120.40600574300004,17.55539245400007],[120.40417296700002,17.55383693500005],[120.40283840900008,17.552934086000047],[120.39921397900004,17.55082371400005],[120.39691957000002,17.549934852000035],[120.3957778030001,17.54910538000007],[120.39517497500002,17.54673373200006],[120.3951278620001,17.545511434000048],[120.39586295800005,17.545087333000026],[120.39859777400011,17.54550387900002],[120.40095057100008,17.54553478300005],[120.40160769700005,17.546048065000036],[120.4028344390001,17.549330926000042],[120.40356719300007,17.550367459000025],[120.40748699100006,17.552554674000074],[120.40926775300011,17.55315118700003],[120.41228561500009,17.555094001000043],[120.41563175100009,17.558625833000068],[120.41731798900004,17.56076374100007],[120.41911498500008,17.563558177000058],[120.41876926500004,17.564509801000042],[120.41559132700002,17.56406991800003],[120.41248920000011,17.563498154000058],[120.4114105640001,17.56405948800006],[120.41046364500004,17.563799234000044],[120.40923484000008,17.56195052000004]],[[120.43589266800008,17.566232543000073],[120.43357798800004,17.565441231000023],[120.43287935,17.564914226000045],[120.43299062700011,17.564225086000025],[120.4341110790001,17.563965215000056],[120.43867905000003,17.56400672600006],[120.44328476400004,17.564927385000036],[120.4460889290001,17.565781163000054],[120.45100850900008,17.566069472000034],[120.45055389000005,17.567118281000035],[120.44954957700008,17.56738967700005],[120.44525145900003,17.56736977400004],[120.44281735400013,17.56704376400006],[120.43885012900012,17.566718285000032],[120.43589266800008,17.566232543000073]],[[120.40120441500007,17.579098949000066],[120.3972420350001,17.576802189000034],[120.39525951500002,17.575931014000044],[120.394870738,17.57536823600003],[120.39620770700003,17.574819258000044],[120.39839770800006,17.57528186500002],[120.40109927200001,17.576769242000065],[120.4039782210001,17.579409899000044],[120.40378597600012,17.580442506000054],[120.40318739500003,17.580497216000026],[120.40120441500007,17.579098949000066]],[[120.39356607200013,17.563355424000065],[120.39438492700003,17.563534340000047],[120.39474389200006,17.564247334000072],[120.39407479899998,17.565212337000045],[120.39267141399999,17.565893255000045],[120.39221155700011,17.56513468500003],[120.39258537600007,17.564165795000065],[120.39356607200013,17.563355424000065]]]]}}]}