{"type":"FeatureCollection","features":[{"type":"Feature","properties":{"fid":51,"objectid":1900,"lccode":"05","liqcode":"2010600050000000","mappers":"PJDelosReyes, ACPidlaoan","project":"READY","province":"Benguet","otherinfo":null,"datemapped":2012,"publishdate":null,"globalid":"{5A5CFA38-5B6A-4649-8413-034F4C94D7CB}","st_area(shape)":0.0014452279046905973,"st_perimeter(shape)":1.1763118363297829,"liqcodepk":"201060005000000000094","creator":"SNOOPYPC","createdate":"2019-02-19T15:21:28","editor":"LENOVO","modifydate":"2019-03-10T17:50:55","codemove":"na"},"geometry":{"type":"Polygon","coordinates":[[[120.49514922600008,16.442314531000026],[120.49592079000003,16.441588194000076],[120.49766184400005,16.441678975000055],[120.499288706,16.44218885300006],[120.50009383700001,16.441672955000058],[120.50112696900008,16.440354225000025],[120.5017032940001,16.440329035000044],[120.50271011500001,16.437529832000052],[120.5032008290001,16.437119175000078],[120.50567987400007,16.437304917000063],[120.5070328920001,16.436956525000028],[120.50829005600006,16.435670035000044],[120.50869611500002,16.433436203000046],[120.50866474800013,16.431665784000074],[120.50894772000005,16.430627979000064],[120.51166300900002,16.429202539000073],[120.51232146500003,16.428325324000074],[120.51372835100005,16.42797760900004],[120.51363181100008,16.42709143800005],[120.5120091010001,16.427436594000028],[120.5107600540001,16.428098549000026],[120.5099943800001,16.428922377000045],[120.507247064,16.428629476000022],[120.5061837300001,16.427419438000076],[120.50542527400012,16.42767077800005],[120.50426347300002,16.429947537000032],[120.5045138060001,16.43146028900003],[120.5053102620001,16.432458912000072],[120.50577769200002,16.433870121000037],[120.50555129700003,16.434700341000053],[120.50242508300005,16.434506985000045],[120.50139697300006,16.434755004000063],[120.50139471200009,16.435424975000043],[120.50049484700004,16.43586307800007],[120.49968122400003,16.437044359000026],[120.49966552900001,16.438270102000043],[120.4977627410001,16.439473418000034],[120.49728240000002,16.440133252000066],[120.49443460500004,16.441430276000062],[120.49307971300006,16.442359867000054],[120.49263091600005,16.44056803600006],[120.49191586300003,16.43971880900006],[120.49057673100003,16.439422559000036],[120.48815649700009,16.438517863000072],[120.487118054,16.437419565000024],[120.48652371700008,16.435661023000023],[120.4863625050001,16.434082869000065],[120.48590206000006,16.43320164000005],[120.48467945600011,16.43231127100006],[120.48283233600011,16.432008885000073],[120.48219809400007,16.43053008100003],[120.4829822800001,16.42882311900007],[120.48234262800007,16.427764630000073],[120.48165001400004,16.42800149900006],[120.48149395700011,16.428840293000064],[120.47988283000007,16.429941829000025],[120.47957627200003,16.43119910000007],[120.47723432600003,16.43267716600007],[120.47498719000009,16.435242188000075],[120.4740741400001,16.435686516000025],[120.4728130520001,16.43497081300006],[120.47174434900012,16.43341667200007],[120.47116659000007,16.430812586000062],[120.47208144600008,16.426541016000044],[120.47091919300011,16.42480053100007],[120.4700150960001,16.424008390000044],[120.46802976100003,16.423178818000057],[120.46867160700003,16.421260060000062],[120.46864849500001,16.42024392700006],[120.46780708200004,16.417956975000035],[120.4661134470001,16.417025887000023],[120.46368863500005,16.41650614700006],[120.46241778600007,16.416560863000026],[120.46138460700003,16.415077197000066],[120.46132882400002,16.413780543000033],[120.46084174100008,16.412163415000066],[120.45935832200006,16.409028023000076],[120.45885943600001,16.408321394000037],[120.45662032300004,16.407488668000042],[120.45498524000006,16.40764396000003],[120.45383737100008,16.406614289000057],[120.455907367,16.406499223000026],[120.45667889300012,16.40577302900005],[120.45596730700004,16.404678576000038],[120.45565536900006,16.403553924000047],[120.45393230300012,16.404899095000076],[120.45120147600007,16.40560150700003],[120.44981454100002,16.406215181000046],[120.4492134180001,16.40778406700002],[120.44949453700009,16.40848806900004],[120.45046510700001,16.40920044400008],[120.4514787920001,16.40938785200007],[120.4544366990001,16.410754746000066],[120.45495998700007,16.412372411000035],[120.45616819500003,16.41434858200006],[120.45827574900011,16.416931116000058],[120.45920823200005,16.41778306300006],[120.46051042400006,16.418114081000056],[120.46203536400003,16.418062450000033],[120.46374579400005,16.41769779200007],[120.46548521800003,16.417893999000054],[120.46664093100004,16.41832823800007],[120.46738071800007,16.42005352600006],[120.4672618630001,16.42082267400002],[120.46625538100011,16.422877178000018],[120.46664000500004,16.424002702000056],[120.46775487400011,16.424786743000023],[120.46917190400006,16.424663777000035],[120.46956289700007,16.42529901200004],[120.46909753500006,16.427605237000023],[120.46777528800011,16.428815185000072],[120.46747456000003,16.42961717500003],[120.46827466100001,16.43228896900007],[120.46800519900012,16.433476673000033],[120.46675415100005,16.434792583000046],[120.46521589300006,16.435859832000062],[120.46458394900003,16.437008106000068],[120.46486477500002,16.43774713400006],[120.46605686600005,16.43818183000008],[120.46707655200011,16.437913933000058],[120.46809086300004,16.438066340000034],[120.46822602300006,16.43883855400003],[120.46755917700011,16.439881301000074],[120.46791073900012,16.440761246000022],[120.4687731020001,16.441437217000043],[120.46939452300002,16.441094423000035],[120.46959236300006,16.43983586700005],[120.47055676100001,16.438236172000074],[120.47078949600008,16.437083060000074],[120.47173709000003,16.43677923000007],[120.47343046200001,16.43774542300002],[120.47447878600008,16.438073314000068],[120.47560734900001,16.437806685000055],[120.47839077800006,16.435878631000037],[120.4798141450001,16.435265222000055],[120.48188266300008,16.43529007500007],[120.48319450500001,16.43488553700007],[120.48395344000004,16.435139828000047],[120.48356976700008,16.436746482000043],[120.48279321900009,16.43785805000004],[120.48296568600006,16.438560722000034],[120.48421954400008,16.439836729000035],[120.486752711,16.44042756200002],[120.4875900710001,16.440227455000066],[120.49099103800006,16.441073822000078],[120.49046932400006,16.444955669000024],[120.49213192800005,16.445501071000027],[120.49333044500008,16.445445332000077],[120.49495701300009,16.443152907000066],[120.49514922600008,16.442314531000026]]]}},{"type":"Feature","properties":{"fid":170,"objectid":9612,"lccode":"01","liqcode":"2010600010000000","mappers":"DJLBuhay, MJVReyes, MITAbigania, KLPapiona, KMVitto","project":"MELP","province":"La Union","otherinfo":"hazard boundary with Pangasinan updated on 2024","datemapped":2017,"publishdate":null,"globalid":"{556DE1FA-9488-4F33-9543-8B7DFFAA63AD}","st_area(shape)":0.022191914159391556,"st_perimeter(shape)":5.763901795210022,"liqcodepk":"201060001000000000017","creator":"SNOOPYPC","createdate":"2019-02-19T15:21:28","editor":"LENOVO","modifydate":"2019-03-10T17:53:06","codemove":"na"},"geometry":{"type":"Polygon","coordinates":[]}},{"type":"Feature","properties":{"fid":176,"objectid":9618,"lccode":"05","liqcode":null,"mappers":"DJLBuhay, MITAbigania","project":"LiquePhi","province":"Pangasinan","otherinfo":null,"datemapped":2024,"publishdate":null,"globalid":"{5ACB73C5-6107-4512-9787-F18573022798}","st_area(shape)":0.06533832536059311,"st_perimeter(shape)":23.271340040578984,"liqcodepk":null,"creator":null,"createdate":null,"editor":null,"modifydate":null,"codemove":null},"geometry":{"type":"Polygon","coordinates":[]}}]}