{"type":"FeatureCollection","features":[{"type":"Feature","properties":{"fid":32,"objectid":1878,"lccode":"07","liqcode":"2010600070000000","mappers":"PJDelosReyes, ACPidlaoan","project":"READY","province":"Iloilo","otherinfo":null,"datemapped":2010,"publishdate":null,"globalid":"{2F92972A-C07C-4633-B325-DF2A08960C6C}","st_area(shape)":0.031106077518548395,"st_perimeter(shape)":5.287074988133156,"liqcodepk":"201060007000000000071","creator":"SNOOPYPC","createdate":"2019-02-19T15:21:28","editor":"LENOVO","modifydate":"2019-03-10T17:50:55","codemove":"na"},"geometry":{"type":"MultiPolygon","coordinates":[[[[123.13088211600007,11.486504224000042],[123.13128833900008,11.483748002000027],[123.1331361440001,11.482728003000034],[123.13400890500009,11.481794568000055],[123.1342197260001,11.480284670000058],[123.13333847000003,11.477775861000055],[123.13266428700003,11.476962368000043],[123.13192166600005,11.476827072000049],[123.12990037600002,11.477072117000032],[123.12797059700006,11.476217489000021],[123.12510405100012,11.475964814000065],[123.12571257600007,11.47381090400006],[123.12660010900004,11.473465597000029],[123.12955366500013,11.473421849000033],[123.13161908900008,11.472423295000057],[123.13222686600011,11.472479131000059],[123.13302482400002,11.473424727000067],[123.13540788200011,11.474688229000039],[123.13545710900007,11.475808482000046],[123.1347387180001,11.47662930900003],[123.13596721700004,11.478540571000051],[123.13644483100008,11.480858443000043],[123.13732267400006,11.480327417000069],[123.14018473800002,11.480330272000057],[123.14159437200011,11.479971445000047],[123.14286614024161,11.481418646113188],[123.14295767342142,11.481364472137509],[123.14656995291817,11.47871924836114],[123.14686244510204,11.47845750164896],[123.14609073500004,11.47819240700005],[123.14429205400006,11.478358313000056],[123.1424930600001,11.47790539400006],[123.14153016000012,11.476296711000032],[123.14069331500002,11.475925773000027],[123.14006543000005,11.475059609000027],[123.13993921300005,11.473615529000025],[123.14060775400003,11.472006147000059],[123.14035609200005,11.470685908000064],[123.13951915900009,11.469943623000063],[123.13847206600009,11.467220941000049],[123.13851275000003,11.46491040400002],[123.1388468870001,11.463919998000051],[123.14052018300002,11.46416676000007],[123.14190001200006,11.463093294000032],[123.1426101600001,11.461153774000023],[123.14277659900006,11.459420759000066],[123.14377991200001,11.458223687000045],[123.14373736200001,11.456903438000037],[123.14340235600004,11.456119595000075],[123.14252371900011,11.455666221000058],[123.14101787200003,11.455460620000052],[123.13963730800005,11.45496615800005],[123.13896817500006,11.455296590000044],[123.13813259300004,11.457236162000072],[123.1371708270001,11.457938070000068],[123.13482906900003,11.459218200000063],[123.13340663100007,11.458599948000028],[123.13215167700002,11.458352956000056],[123.12905584900012,11.457157848000064],[123.12688020500003,11.456003450000027],[123.12470503500002,11.455715593000038],[123.1243282920001,11.454973067000024],[123.12324048800008,11.454313392000074],[123.12165093100009,11.454190276000078],[123.11951819300008,11.455346416000054],[123.1187235100001,11.455429291000028],[123.11646515100006,11.456337897000024],[123.1147090710001,11.457988976000026],[123.11399812700006,11.458401918000048],[123.11282684800005,11.45807226000005],[123.11207323200007,11.456298383000048],[123.11182160400006,11.454689324000073],[123.11039864500002,11.452544354000056],[123.11002213900008,11.452503176000054],[123.10968877300002,11.455721612000048],[123.11086140000009,11.459352053000032],[123.11040195900011,11.461085163000066],[123.10847800400006,11.461622238000077],[123.10709802400004,11.462612996000074],[123.10655462700004,11.463520893000064],[123.10471461500003,11.464800690000057],[123.10325068800012,11.465172554000047],[123.10128481100004,11.46529702300006],[123.09923451600004,11.463564791000067],[123.09827169500011,11.461337055000056],[123.09651384800009,11.458408213000043],[123.09592814500002,11.45791328100006],[123.0947986760001,11.45774854800004],[123.09007236000002,11.45869906100006],[123.08894303200009,11.45874063800005],[123.08810693100008,11.460143714000026],[123.08835832900002,11.461670334000075],[123.08710393000001,11.463155994000031],[123.08593282400011,11.463610235000033],[123.08530518200008,11.462909053000034],[123.08526311400011,11.462042597000048],[123.08660060700005,11.458576329000039],[123.08538732700003,11.457751448000066],[123.08304414100007,11.45494647400005],[123.08191473800002,11.454946793000035],[123.0812039000001,11.455607128000056],[123.07944723100003,11.456143966000068],[123.0774397690001,11.457176075000064],[123.07668708700008,11.458042742000032],[123.07403334871113,11.458084299253375],[123.07512681671514,11.461096348533722],[123.07705134835366,11.465107338200434],[123.07936524067007,11.468912924598524],[123.08204621921739,11.47247644898657],[123.08370537747125,11.47428103625738],[123.08434657400007,11.474503348000042],[123.08677322900007,11.475988010000037],[123.09020419800004,11.478668923000043],[123.09396953700002,11.480111787000055],[123.09551760600004,11.481019072000038],[123.09928388100002,11.48518504800006],[123.09967594677659,11.48543568195768],[123.0999448492227,11.485561010663618],[123.10418148988211,11.487054487999469],[123.10854618298843,11.48813112857594],[123.11299687585748,11.488780559204224],[123.11749068606102,11.488996522795603],[123.12198431517473,11.488776938726662],[123.12643446656195,11.488123922907228],[123.1306961407191,11.487069046206217],[123.13088211600007,11.486504224000042]],[[123.10986141900003,11.469543711000027],[123.11166053700005,11.470574508000023],[123.11366899000006,11.472100335000052],[123.11500838600011,11.474080307000065],[123.11567818700006,11.475400403000036],[123.11555331900001,11.476968285000055],[123.113378097,11.476927907000059],[123.11237479500005,11.478454897000063],[123.11128696000002,11.47787763900004],[123.11103546100003,11.47664001600003],[123.11120237500006,11.475608384000052],[123.1101980090001,11.474412275000077],[123.10994656600008,11.47329834100003],[123.10898403900002,11.472143442000062],[123.10944326800006,11.469791430000042],[123.10986141900003,11.469543711000027]],[[123.11077994300001,11.465087246000051],[123.112034805,11.464880435000055],[123.11274659300011,11.466736878000065],[123.11253846900003,11.469253809000067],[123.11178544000006,11.46904785700002],[123.11073934,11.468181788000038],[123.11015303700002,11.466449075000071],[123.11019468100004,11.465830153000068],[123.11077994300001,11.465087246000051]]],[[[123.13801926400004,11.483513607000077],[123.13645033000012,11.483605975000044],[123.13518038700009,11.482954979000054],[123.13514892000002,11.48190634400004],[123.13187255000004,11.483875333000073],[123.13148576000002,11.484511823000046],[123.13119506240609,11.486903532566897],[123.13503366106292,11.485546879485854],[123.13909985534387,11.483647681678104],[123.14015963904681,11.483020468432205],[123.13801926400004,11.483513607000077]]],[[[123.12991271600004,11.411088188000065],[123.13158021600009,11.41067746600004],[123.1317530460001,11.409933370000033],[123.13333390100003,11.41141232800004],[123.1328520070001,11.409752445000038],[123.13289449400008,11.408303848000058],[123.13181439000005,11.407111458000028],[123.13004398600003,11.407325271000047],[123.12766892900004,11.407326313000057],[123.12529394700005,11.407497773000046],[123.12399880900011,11.40835032700005],[123.12227169800008,11.40890494900003],[123.12218573700011,11.409927516000037],[123.12300645700009,11.410395807000038],[123.12447460500006,11.41018216400005],[123.12460435100002,11.410608156000025],[123.12365489800004,11.412057045000036],[123.12343956700012,11.413335277000044],[123.12292172700006,11.414272762000051],[123.12322436100011,11.415082142000074],[123.12633425600005,11.416358960000025],[123.12693946400009,11.417785937000074],[123.12804085500011,11.418190167000034],[123.12985507200005,11.419254486000055],[123.13040182700003,11.418673981000039],[123.12935819400002,11.417726266000047],[123.12945458300011,11.417278341000042],[123.12826646400005,11.416208252000045],[123.12863441000003,11.413679439000076],[123.12952897700005,11.411919104000049],[123.12951423700008,11.410227992000044],[123.12991271600004,11.411088188000065]]],[[[123.15868967400003,11.462425502000029],[123.15788521200011,11.46380463400004],[123.15812226146126,11.46463191391096],[123.15880648787713,11.463202890037286],[123.15868967400003,11.462425502000029]]],[[[123.13284733900002,11.474129781000041],[123.13236347100008,11.47347731100007],[123.13144716000012,11.473289447000067],[123.12928668200006,11.473910469000032],[123.12839375600004,11.474784466000074],[123.12876310400009,11.475474651000074],[123.13240256000006,11.475435367000047],[123.13384078700005,11.475974438000037],[123.1348458540001,11.475459354000066],[123.13284733900002,11.474129781000041]]],[[[123.12701282800002,11.47437784300007],[123.12659598700009,11.47561312000005],[123.12784827300005,11.47584352600006],[123.12701282800002,11.47437784300007]]]]}},{"type":"Feature","properties":{"fid":59,"objectid":1908,"lccode":"05","liqcode":"2010600050000000","mappers":"PJDelosReyes, ACPidlaoan","project":"READY","province":"Iloilo","otherinfo":null,"datemapped":2010,"publishdate":null,"globalid":"{282D04BA-68E2-41E5-9B8A-0D8D85396F2D}","st_area(shape)":0.06128738608791496,"st_perimeter(shape)":10.692281506054618,"liqcodepk":"201060005000000000103","creator":"SNOOPYPC","createdate":"2019-02-19T15:21:28","editor":"LENOVO","modifydate":"2019-03-10T17:50:55","codemove":"na"},"geometry":{"type":"MultiPolygon","coordinates":[[[[123.07378025600009,11.448934126000037],[123.07468421700004,11.44670312000005],[123.07555618800005,11.445619425000077],[123.07907711400003,11.443993153000065],[123.07843025800004,11.44138017400007],[123.07975447800004,11.440232510000042],[123.0807236500001,11.440295989000047],[123.08217756500005,11.440932936000026],[123.08456789200012,11.440231159000064],[123.08585982100011,11.439147312000044],[123.08728140600012,11.439847988000054],[123.08850905400006,11.43994319100005],[123.08931685600011,11.440580297000054],[123.08941445100004,11.442747300000065],[123.08967307000012,11.443225258000039],[123.09151473800011,11.444021445000029],[123.09309787500001,11.444371494000048],[123.09361524200006,11.445901010000057],[123.09461681200003,11.446251235000034],[123.09536013700006,11.447047661000054],[123.0951025480001,11.44969281300007],[123.09519987200008,11.45090383000007],[123.09565259300008,11.452114641000039],[123.09726859500006,11.45402625300005],[123.0980439660001,11.454057821000047],[123.09982042900003,11.452973659000065],[123.10156489200006,11.45271817300005],[123.10337380500005,11.45195269900006],[123.10389047400008,11.451378909000029],[123.10430947400005,11.448765520000052],[123.10550434100003,11.447394727000074],[123.10621428600008,11.445354928000029],[123.1068925740001,11.445004133000056],[123.10905691900007,11.444525298000029],[123.11012316400002,11.444939191000062],[123.10909045700011,11.447807704000066],[123.10934944400003,11.449146054000039],[123.10989874500001,11.449528314000077],[123.1114811740001,11.447934292000069],[123.11390344600011,11.446244364000052],[123.114419827,11.445033114000069],[123.11538879000013,11.44452287100006],[123.11706853700002,11.444235400000027],[123.11768269600009,11.444968076000066],[123.11820019600009,11.446497547000034],[123.11952516000007,11.44745308000006],[123.12139851100005,11.446591899000056],[123.12230330900002,11.447196956000026],[123.122110184,11.448854204000039],[123.12246609700003,11.450065103000043],[123.12450142999998,11.450159815000063],[123.1254708130001,11.450605610000023],[123.12608531700005,11.452039362000052],[123.12757243100009,11.454365152000035],[123.12834816500003,11.455193305000023],[123.12973744700002,11.455447668000035],[123.13251538300005,11.454426607000071],[123.13464803200007,11.455286133000072],[123.13552064900011,11.455986825000025],[123.137555904,11.455826559000059],[123.1386531620001,11.453467781000027],[123.13965473200005,11.453499132000047],[123.14052737100008,11.454231725000055],[123.14353227600009,11.454995104000034],[123.14424346700004,11.455918908000056],[123.14472883200007,11.457416518000057],[123.14460152100003,11.458462345000045],[123.14493109600006,11.459255953000023],[123.14672368700009,11.459536075000072],[123.14767432200006,11.46000440900002],[123.14814998500003,11.460824432000038],[123.1498729990001,11.461468137000052],[123.15236747300003,11.460705083000049],[123.15423818400006,11.45988383900004],[123.15768337400004,11.459618254000075],[123.15694050000002,11.458915571000032],[123.15625649300013,11.45733382000003],[123.15494964700008,11.45733451600006],[123.15295921100005,11.456486005000043],[123.15194896900005,11.455666177000069],[123.15064183600009,11.455110246000062],[123.14960104700005,11.452679013000024],[123.14989718500009,11.450979652000054],[123.1503719420001,11.450246939000065],[123.15031214800003,11.449397411000062],[123.14864754100006,11.44667354100005],[123.14915206600006,11.446058086000052],[123.14805318300012,11.446087939000051],[123.14734022900008,11.445678076000036],[123.14650762300006,11.443686333000072],[123.14650714000003,11.442748797000036],[123.14730709700007,11.441353596000056],[123.14598892900005,11.440980801000023],[123.14499903200011,11.439984361000027],[123.14413749300002,11.439676331000046],[123.14197939100008,11.440654886000058],[123.14020988200001,11.440481143000055],[123.13939581700005,11.44009753000006],[123.13921829900006,11.438980510000022],[123.1403501850001,11.43786295500007],[123.13914576800005,11.435350021000032],[123.13818996000009,11.434617370000066],[123.13783505200003,11.432453219000026],[123.1385063580001,11.430323485000027],[123.13818553500006,11.430945979000057],[123.13613699800011,11.432206722000046],[123.13551435800002,11.434345650000067],[123.13432728100008,11.436104090000072],[123.13311073300008,11.438565622000054],[123.1323102560001,11.441525070000063],[123.1310041280001,11.442931917000065],[123.1303211620001,11.443225174000075],[123.128479577,11.442669379000053],[123.12717220900004,11.441351576000045],[123.12503382800004,11.44126452100005],[123.12429105500009,11.440503162000025],[123.12506283000006,11.439653183000074],[123.12633973100004,11.43930109200005],[123.12728976800008,11.438656096000043],[123.12797239800011,11.437630376000069],[123.12918994300004,11.437278299000072],[123.1292190580001,11.436135683000034],[123.12853554800006,11.435022676000075],[123.12731775000009,11.434788846000059],[123.12651675400002,11.436693472000055],[123.12574494000013,11.43742627500006],[123.12446785500005,11.43733893400002],[123.12203163400011,11.435259819000064],[123.12084346400003,11.434645112000055],[123.12119950900001,11.433912495000072],[123.12301089700007,11.43350160700004],[123.12393131600004,11.432915224000054],[123.12514838400013,11.431684218000044],[123.12586105000003,11.431420255000033],[123.12945428800005,11.430920581000066],[123.13334463300009,11.430655180000029],[123.13432446500006,11.43012741800004],[123.13408639000009,11.429102105000027],[123.13236397500009,11.429249364000041],[123.13081949000002,11.42886921900003],[123.12906740500013,11.429104358000076],[123.12740419400006,11.428782838000073],[123.12660216100006,11.428314372000044],[123.12428571600003,11.428256773000042],[123.12351291700008,11.426850839000057],[123.1225031780001,11.426763377000041],[123.12155305600004,11.427320382000062],[123.12018784500002,11.429313201000069],[123.11920764500007,11.42902064900005],[123.11873212300009,11.428024714000058],[123.11769263400005,11.42802513300006],[123.11680206200003,11.428757960000038],[123.11546555400004,11.428553333000021],[123.1145747690001,11.428963906000034],[123.11442676100012,11.430106568000042],[123.11528874100007,11.431922625000027],[123.11407116600003,11.43218684900006],[123.11341812600007,11.433007368000059],[123.113418453,11.433827725000071],[123.11392379800009,11.434940837000056],[123.11493377600004,11.435555733000056],[123.11478557800001,11.436229581000077],[123.11374678900005,11.43787069900003],[123.1131534220001,11.439365075000067],[123.11190610400003,11.439629211000067],[123.11128205200009,11.438662617000034],[123.10976733200006,11.438487417000033],[123.10929196100007,11.437843010000048],[123.10964802900003,11.437081201000067],[123.10949922000009,11.436202310000052],[123.10863777800012,11.43573390700004],[123.10819152500007,11.433712521000075],[123.10626097100011,11.433303094000049],[123.10584495900001,11.432658660000072],[123.10581431500009,11.430139100000073],[123.10655639800008,11.429259884000032],[123.10771456200007,11.429025098000066],[123.10860496600003,11.427589213000031],[123.10928807500011,11.427706140000057],[123.11056572600012,11.429375579000062],[123.11145659800002,11.42917017500002],[123.11270292700011,11.426708718000043],[123.11412795800005,11.425624153000058],[123.11469169000009,11.424393443000042],[123.11659154400002,11.422312551000063],[123.11795707400007,11.421110809000028],[123.11997589600004,11.419645138000023],[123.11955956600002,11.418268251000029],[123.11739145900003,11.41771251700004],[123.11644138000008,11.418328186000053],[123.11581811000008,11.41920729000003],[123.11421443200004,11.419002852000062],[123.11427330200003,11.417830929000047],[123.1127287700001,11.416923283000076],[123.11311409300002,11.415106739000064],[123.11290567500009,11.41372985100003],[123.11168752200003,11.412323964000048],[123.11177604600006,11.410800486000028],[123.11563567000007,11.408660256000074],[123.11747618000005,11.40719467100007],[123.11747496300006,11.404235578000053],[123.11625726200009,11.40370874800004],[123.11492047200011,11.402508077000048],[123.11477150200007,11.401219052000041],[123.11563279000008,11.401540963000057],[123.1174441500001,11.401540244000048],[123.1185418460001,11.399049523000029],[123.11783663766492,11.398577759756066],[123.11756875228049,11.398564882978809],[123.1166116810001,11.39905029600004],[123.11485977100007,11.399109577000045],[123.11485960064218,11.398686086051981],[123.1129611814385,11.398778839665892],[123.1085123905329,11.399431641237294],[123.10785039516759,11.39959550303356],[123.10755534800012,11.400489311000053],[123.1082978600001,11.400957763000065],[123.11064373100008,11.400869002000034],[123.11171298000012,11.401454594000029],[123.11215880300007,11.402450554000037],[123.11236769200002,11.405057935000059],[123.11106135800003,11.405761609000024],[123.10924981400001,11.405352064000057],[123.1091909170001,11.406699759000048],[123.10993371500001,11.407666317000063],[123.1088055240001,11.40836991400005],[123.107589189,11.411475932000032],[123.10663869400003,11.410978169000032],[123.10613314800001,11.409132660000068],[123.10714242300003,11.407960392000062],[123.1068152260001,11.406612747000052],[123.10586480200006,11.406056481000064],[123.10307341500004,11.406057475000067],[123.10271644900003,11.404475564000052],[123.10206277000009,11.403421071000025],[123.10197339400008,11.402483562000045],[123.10250767000002,11.401926675000025],[123.10289174760054,11.400956088737155],[123.09991553954184,11.402007897615865],[123.09923985593345,11.4023234740225],[123.09953848100008,11.402835941000033],[123.09912382900008,11.405941653000072],[123.09579902100006,11.409106919000067],[123.0949972420001,11.409077884000055],[123.09306665400004,11.407994487000053],[123.09164087800004,11.406969510000064],[123.09165175944055,11.406439059651944],[123.08851638227604,11.40873472901623],[123.08950402900007,11.410925304000044],[123.08840534500007,11.411189295000042],[123.08754438000007,11.411922025000024],[123.08597138600011,11.414764314000024],[123.08668463800008,11.416697773000067],[123.08561574200007,11.417313378000074],[123.08445729300001,11.41622969800005],[123.08318016900013,11.415644067000073],[123.08274650524238,11.414322944588985],[123.08202969683468,11.415103643986194],[123.07935124382044,11.418668658847926],[123.07713512731088,11.42231852467598],[123.07715356300002,11.422354875000051],[123.07828243400002,11.423643658000062],[123.07952992400008,11.424405089000059],[123.07994617800011,11.426162782000063],[123.0807782180001,11.427979041000071],[123.08065969300003,11.428799431000071],[123.07905609600004,11.429268592000025],[123.07816503100003,11.428858698000058],[123.0775708650001,11.428038498000035],[123.07614440800013,11.424347398000062],[123.07614332163605,11.42434673882314],[123.07511769014494,11.426487492867704],[123.07360338377306,11.430666028602667],[123.07251149864074,11.434970864689317],[123.07185256834008,11.439360547760145],[123.07163295840024,11.443792805523081],[123.07185480423013,11.448224953757421],[123.07199314098663,11.449143329336055],[123.07378025600009,11.448934126000037]],[[123.13816334500007,11.446297841000048],[123.13816362900002,11.446883745000036],[123.13697641400006,11.448583603000031],[123.13620497300008,11.450107402000071],[123.1343040360001,11.449815330000035],[123.13168970700009,11.448293079000052],[123.12913562400001,11.448528579000026],[123.12723418100005,11.447064562000035],[123.12735281500011,11.446771468000062],[123.129728859,11.446887605000029],[123.13103552300005,11.446594072000037],[123.13145109900007,11.446125162000044],[123.13364900700005,11.446358528000076],[123.13715338700001,11.446063955000055],[123.13816334500007,11.446297841000048]],[[123.09859333100009,11.417485075000059],[123.0980583290001,11.416254763000039],[123.09799834700004,11.414379705000044],[123.09859138900003,11.411859932000027],[123.09971915500012,11.410043063000044],[123.10156024700005,11.409749478000036],[123.10185814200008,11.412503312000068],[123.1015020420001,11.413148022000028],[123.10156208000001,11.414905898000026],[123.09978122900009,11.417660445000024],[123.099424913,11.417719156000034],[123.09859333100009,11.417485075000059]],[[123.14244177400008,11.44963571000005],[123.14523373200007,11.449927289000074],[123.14689682900007,11.449750687000058],[123.14867914900002,11.450452871000037],[123.14873890700005,11.451097424000066],[123.14820510400011,11.452562543000054],[123.14428445400006,11.452212961000042],[123.14137344500011,11.451394028000037],[123.14161051300005,11.45045637800007],[123.14244177400008,11.44963571000005]],[[123.09211941700003,11.417487179000034],[123.09301056200002,11.418189985000025],[123.09259538000003,11.419948013000067],[123.09301159300001,11.421354144000075],[123.09045719500011,11.419948680000061],[123.0899817310001,11.419011287000048],[123.09099105000007,11.417897665000053],[123.09211941700003,11.417487179000034]],[[123.10299518600004,11.436233964000053],[123.10364898700003,11.437405633000022],[123.10370872600004,11.438284559000069],[123.10424359000001,11.439163316000075],[123.10353114100009,11.439925244000051],[123.1028180840001,11.439222410000069],[123.10222344800002,11.437347544000035],[123.10240125000007,11.436292763000038],[123.10299518600004,11.436233964000053]]],[[[123.0854655280001,11.411453913000054],[123.08547467874253,11.411434248659239],[123.08545412121315,11.411452641766068],[123.0854655280001,11.411453913000054]]]]}},{"type":"Feature","properties":{"fid":73,"objectid":1937,"lccode":"06","liqcode":"2010600060000000","mappers":"PJDelosReyes, ACPidlaoan","project":"READY","province":"Iloilo","otherinfo":null,"datemapped":2010,"publishdate":null,"globalid":"{DBB85F45-4FB4-4F72-8BD3-A1308397A487}","st_area(shape)":0.017575391436836466,"st_perimeter(shape)":7.287100410898002,"liqcodepk":"201060006000000000136","creator":"SNOOPYPC","createdate":"2019-02-19T15:21:28","editor":"LENOVO","modifydate":"2019-03-10T17:50:55","codemove":"na"},"geometry":{"type":"MultiPolygon","coordinates":[[[[123.07668708700008,11.458042742000032],[123.0774397690001,11.457176075000064],[123.07944723100003,11.456143966000068],[123.0812039000001,11.455607128000056],[123.08191473800002,11.454946793000035],[123.08304414100007,11.45494647400005],[123.08538732700003,11.457751448000066],[123.08660060700005,11.458576329000039],[123.08526311400011,11.462042597000048],[123.08530518200008,11.462909053000034],[123.08593282400011,11.463610235000033],[123.08710393000001,11.463155994000031],[123.08835832900002,11.461670334000075],[123.08810693100008,11.460143714000026],[123.08894303200009,11.45874063800005],[123.09007236000002,11.45869906100006],[123.0947986760001,11.45774854800004],[123.09592814500002,11.45791328100006],[123.09651384800009,11.458408213000043],[123.09827169500011,11.461337055000056],[123.09923451600004,11.463564791000067],[123.10128481100004,11.46529702300006],[123.10325068800012,11.465172554000047],[123.10471461500003,11.464800690000057],[123.10655462700004,11.463520893000064],[123.10709802400004,11.462612996000074],[123.10847800400006,11.461622238000077],[123.11040195900011,11.461085163000066],[123.11086140000009,11.459352053000032],[123.10968877300002,11.455721612000048],[123.11002213900008,11.452503176000054],[123.11039864500002,11.452544354000056],[123.11182160400006,11.454689324000073],[123.11207323200007,11.456298383000048],[123.11282684800005,11.45807226000005],[123.11399812700006,11.458401918000048],[123.1147090710001,11.457988976000026],[123.11646515100006,11.456337897000024],[123.1187235100001,11.455429291000028],[123.11951819300008,11.455346416000054],[123.12165093100009,11.454190276000078],[123.12324048800008,11.454313392000074],[123.1243282920001,11.454973067000024],[123.12470503500002,11.455715593000038],[123.12688020500003,11.456003450000027],[123.12905584900012,11.457157848000064],[123.13215167700002,11.458352956000056],[123.13340663100007,11.458599948000028],[123.13482906900003,11.459218200000063],[123.1371708270001,11.457938070000068],[123.13813259300004,11.457236162000072],[123.13896817500006,11.455296590000044],[123.13963730800005,11.45496615800005],[123.14101787200003,11.455460620000052],[123.14252371900011,11.455666221000058],[123.14340235600004,11.456119595000075],[123.14373736200001,11.456903438000037],[123.14377991200001,11.458223687000045],[123.14277659900006,11.459420759000066],[123.1426101600001,11.461153774000023],[123.14190001200006,11.463093294000032],[123.14052018300002,11.46416676000007],[123.1388468870001,11.463919998000051],[123.13851275000003,11.46491040400002],[123.13847206600009,11.467220941000049],[123.13951915900009,11.469943623000063],[123.14035609200005,11.470685908000064],[123.14060775400003,11.472006147000059],[123.13993921300005,11.473615529000025],[123.14006543000005,11.475059609000027],[123.14069331500002,11.475925773000027],[123.14153016000012,11.476296711000032],[123.1424930600001,11.47790539400006],[123.14429205400006,11.478358313000056],[123.14609073500004,11.47819240700005],[123.14686244510204,11.47845750164896],[123.14799915014643,11.477440274609942],[123.14720818500007,11.477276465000045],[123.14667757100005,11.476825732000066],[123.14552538200007,11.476934538000021],[123.14402599700009,11.477620823000052],[123.14320285300005,11.477296540000054],[123.14258057100004,11.476466998000035],[123.14247016900003,11.47507797600002],[123.14398769500009,11.47410307800004],[123.14570609000009,11.472677073000057],[123.14634581500002,11.471846997000057],[123.14848507600006,11.470853681000047],[123.14863083400006,11.469681079000054],[123.14596076700003,11.469952953000073],[123.14466224600007,11.469935606000035],[123.14296078500003,11.468781909000029],[123.14230146400007,11.466870001000075],[123.14292257800001,11.465570857000046],[123.14409243300007,11.464307517000064],[123.144055018,11.46268391700005],[123.14496803600004,11.459941477000028],[123.14493109600006,11.459255953000023],[123.14460152100003,11.458462345000045],[123.14472883200007,11.457416518000057],[123.14424346700004,11.455918908000056],[123.14353227600009,11.454995104000034],[123.14052737100008,11.454231725000055],[123.13965473200005,11.453499132000047],[123.1386531620001,11.453467781000027],[123.137555904,11.455826559000059],[123.13552064900011,11.455986825000025],[123.13464803200007,11.455286133000072],[123.13251538300005,11.454426607000071],[123.12973744700002,11.455447668000035],[123.12834816500003,11.455193305000023],[123.12757243100009,11.454365152000035],[123.12608531700005,11.452039362000052],[123.1254708130001,11.450605610000023],[123.12450142999998,11.450159815000063],[123.12246609700003,11.450065103000043],[123.122110184,11.448854204000039],[123.12230330900002,11.447196956000026],[123.12139851100005,11.446591899000056],[123.11952516000007,11.44745308000006],[123.11820019600009,11.446497547000034],[123.11768269600009,11.444968076000066],[123.11706853700002,11.444235400000027],[123.11538879000013,11.44452287100006],[123.114419827,11.445033114000069],[123.11390344600011,11.446244364000052],[123.1114811740001,11.447934292000069],[123.10989874500001,11.449528314000077],[123.10934944400003,11.449146054000039],[123.10909045700011,11.447807704000066],[123.11012316400002,11.444939191000062],[123.10905691900007,11.444525298000029],[123.1068925740001,11.445004133000056],[123.10621428600008,11.445354928000029],[123.10550434100003,11.447394727000074],[123.10430947400005,11.448765520000052],[123.10389047400008,11.451378909000029],[123.10337380500005,11.45195269900006],[123.10156489200006,11.45271817300005],[123.09982042900003,11.452973659000065],[123.0980439660001,11.454057821000047],[123.09726859500006,11.45402625300005],[123.09565259300008,11.452114641000039],[123.09519987200008,11.45090383000007],[123.0951025480001,11.44969281300007],[123.09536013700006,11.447047661000054],[123.09461681200003,11.446251235000034],[123.09361524200006,11.445901010000057],[123.09309787500001,11.444371494000048],[123.09151473800011,11.444021445000029],[123.08967307000012,11.443225258000039],[123.08941445100004,11.442747300000065],[123.08931685600011,11.440580297000054],[123.08850905400006,11.43994319100005],[123.08728140600012,11.439847988000054],[123.08585982100011,11.439147312000044],[123.08456789200012,11.440231159000064],[123.08217756500005,11.440932936000026],[123.0807236500001,11.440295989000047],[123.07975447800004,11.440232510000042],[123.07843025800004,11.44138017400007],[123.07907711400003,11.443993153000065],[123.07555618800005,11.445619425000077],[123.07468421700004,11.44670312000005],[123.07378025600009,11.448934126000037],[123.07199314098663,11.449143329336055],[123.07251598976852,11.452614307349913],[123.0736101670766,11.456918591414276],[123.07403334871113,11.458084299253375],[123.07668708700008,11.458042742000032]]],[[[123.09928388100002,11.48518504800006],[123.09551760600004,11.481019072000038],[123.09396953700002,11.480111787000055],[123.09020419800004,11.478668923000043],[123.08677322900007,11.475988010000037],[123.08434657400007,11.474503348000042],[123.08370537747125,11.47428103625738],[123.08506847056448,11.475763583082191],[123.08840289066316,11.478742660032172],[123.09201736505929,11.48138497976646],[123.09587707825257,11.483665085780258],[123.09967594677659,11.48543568195768],[123.09928388100002,11.48518504800006]]],[[[123.14864754100006,11.44667354100005],[123.15031214800003,11.449397411000062],[123.1503719420001,11.450246939000065],[123.14989718500009,11.450979652000054],[123.14960104700005,11.452679013000024],[123.15064183600009,11.455110246000062],[123.15194896900005,11.455666177000069],[123.15295921100005,11.456486005000043],[123.15494964700008,11.45733451600006],[123.15625649300013,11.45733382000003],[123.15694050000002,11.458915571000032],[123.15768337400004,11.459618254000075],[123.15770573600003,11.458747773000027],[123.15696909000008,11.457905581000034],[123.15706110200006,11.456615040000031],[123.15666154100006,11.45558862700005],[123.15582716200004,11.456127940000044],[123.1544639660001,11.455593673000068],[123.15347398100005,11.454714569000032],[123.15274195300003,11.453495822000033],[123.15255344400008,11.452045310000072],[123.15319836900007,11.451304235000066],[123.15297084400004,11.450031212000056],[123.151981297,11.449923703000023],[123.1515429870001,11.449406958000054],[123.15126462400008,11.448126243000045],[123.15258951100009,11.446366303000046],[123.15327318800009,11.444984779000038],[123.15090443900009,11.446203663000064],[123.14915206600006,11.446058086000052],[123.14864754100006,11.44667354100005]]],[[[123.10898403900002,11.472143442000062],[123.10994656600008,11.47329834100003],[123.1101980090001,11.474412275000077],[123.11120237500006,11.475608384000052],[123.11103546100003,11.47664001600003],[123.11128696000002,11.47787763900004],[123.11237479500005,11.478454897000063],[123.113378097,11.476927907000059],[123.11555331900001,11.476968285000055],[123.11567818700006,11.475400403000036],[123.11500838600011,11.474080307000065],[123.11366899000006,11.472100335000052],[123.11166053700005,11.470574508000023],[123.10986141900003,11.469543711000027],[123.10944326800006,11.469791430000042],[123.10898403900002,11.472143442000062]]],[[[123.14296185100011,11.438289464000036],[123.14189367000006,11.438512954000032],[123.14143838900009,11.438173087000052],[123.13997260500004,11.435812143000021],[123.13909076800007,11.433508515000028],[123.13910937800006,11.431761269000047],[123.13960006700006,11.430225004000022],[123.1385063580001,11.430323485000027],[123.13783505200003,11.432453219000026],[123.13818996000009,11.434617370000066],[123.13914576800005,11.435350021000032],[123.1403501850001,11.43786295500007],[123.13921829900006,11.438980510000022],[123.13939581700005,11.44009753000006],[123.14020988200001,11.440481143000055],[123.14197939100008,11.440654886000058],[123.14413749300002,11.439676331000046],[123.14499903200011,11.439984361000027],[123.14296185100011,11.438289464000036]]],[[[123.14500336600008,11.411746239000022],[123.14510007300011,11.409818693000036],[123.14355061300013,11.408924544000058],[123.14307623900004,11.409117526000047],[123.14235121700007,11.410398288000067],[123.14251932400009,11.411692383000059],[123.14207345600005,11.413096921000033],[123.14423635600008,11.41277920400006],[123.14460389600005,11.412413556000047],[123.14500336600008,11.411746239000022]],[[123.14443655900006,11.411018152000054],[123.14343761900011,11.41171142000007],[123.14386884400005,11.409886043000032],[123.14443655900006,11.411018152000054]]],[[[123.11015303700002,11.466449075000071],[123.11073934,11.468181788000038],[123.11178544000006,11.46904785700002],[123.11253846900003,11.469253809000067],[123.11274659300011,11.466736878000065],[123.112034805,11.464880435000055],[123.11077994300001,11.465087246000051],[123.11019468100004,11.465830153000068],[123.11015303700002,11.466449075000071]]]]}}]}