{"type":"FeatureCollection","features":[{"type":"Feature","properties":{"fid":33,"objectid":1879,"lccode":"07","liqcode":"2010600070000000","mappers":"PJDelosReyes, ACPidlaoan","project":"READY","province":"Isabela","otherinfo":null,"datemapped":2012,"publishdate":null,"globalid":"{91DB2F3C-1BB4-4146-BF15-299122E74073}","st_area(shape)":0.020995608528075003,"st_perimeter(shape)":7.369078683303569,"liqcodepk":"201060007000000000072","creator":"SNOOPYPC","createdate":"2019-02-19T15:21:28","editor":"LENOVO","modifydate":"2019-03-10T17:50:55","codemove":"na"},"geometry":{"type":"Polygon","coordinates":[[[121.76399762600012,17.41472948200004],[121.75941270200006,17.415956390000076],[121.75504522100003,17.417254212000046],[121.75143569800004,17.418612521000053],[121.74705267600007,17.420579225000036],[121.74431710500004,17.422556305000057],[121.73876421900003,17.427953769000055],[121.7372471650001,17.42980084000004],[121.7354388120001,17.43233373200007],[121.73420158300009,17.435145360000035],[121.73390176100008,17.437068892000074],[121.73472960900004,17.44168146800007],[121.73535966200006,17.44381727500007],[121.73627770600001,17.445748542000043],[121.73720239700003,17.446717129000035],[121.73891842000012,17.44720941400004],[121.74555885500001,17.450483425000073],[121.74869516300008,17.45284117000006],[121.75033680600008,17.45374553900006],[121.7519544700001,17.45569957000004],[121.75375864600005,17.456720856000057],[121.75554016700005,17.457319581000032],[121.75926265700002,17.457587693000047],[121.764085969,17.457274912000056],[121.76762974100005,17.45756624200004],[121.77207363700005,17.456761285000027],[121.77372921600012,17.45713869800005],[121.77461866400004,17.45764609800005],[121.77532561600003,17.45872775000003],[121.77574485237466,17.460266793156325],[121.77592080287948,17.459804196298176],[121.77707209904162,17.45550971134402],[121.7777792373795,17.451127588787397],[121.77802471942786,17.44688528419647],[121.77778230500007,17.445955760000064],[121.7777902800001,17.44475914900005],[121.77793345495631,17.44440853119995],[121.7778382669574,17.442269700935764],[121.7774650517712,17.43974342801702],[121.77600908400008,17.440463128000037],[121.77451855900006,17.440839955000058],[121.7730235590001,17.44187308000005],[121.7728559840001,17.44287579900003],[121.77333030600005,17.444114052000028],[121.77327382500006,17.446545691000043],[121.77237408100005,17.44877922300003],[121.77120047800008,17.449852893000074],[121.76982999900008,17.45030767400004],[121.76705625600005,17.450097512000074],[121.76512785300008,17.449776724000053],[121.76255286600008,17.449915146000016],[121.75805158300011,17.449423860000017],[121.75532019100002,17.44890487800006],[121.75283701700005,17.44738385300008],[121.75149404000001,17.44586037600004],[121.74901082100008,17.444960400000063],[121.74721679800007,17.443177818000038],[121.74574129900009,17.440756438000054],[121.74422921300003,17.437957951000044],[121.74330161900002,17.435803844000077],[121.74315153900011,17.434785331000057],[121.7434441580001,17.432186609000045],[121.74404131400001,17.430984329000065],[121.74664487300005,17.429191748000047],[121.74979560400004,17.427741664000052],[121.75144810400002,17.427224357000057],[121.752935137,17.427030554000055],[121.75829230700003,17.425751433000073],[121.7644917680001,17.424786311000048],[121.76706951300004,17.424184613000023],[121.77084701007742,17.422485340076555],[121.7702699892473,17.421547554140275],[121.76754227146368,17.417968911182456],[121.7644624101492,17.414664127559526],[121.76439200349517,17.414602066627456],[121.76399762600012,17.41472948200004]]]}},{"type":"Feature","properties":{"fid":60,"objectid":1909,"lccode":"05","liqcode":"2010600050000000","mappers":"PJDelosReyes, ACPidlaoan","project":"READY","province":"Isabela","otherinfo":null,"datemapped":2012,"publishdate":null,"globalid":"{CB433018-447B-4349-A32C-A82989A96D3F}","st_area(shape)":0.11608726533381088,"st_perimeter(shape)":15.125533415932647,"liqcodepk":"201060005000000000104","creator":"SNOOPYPC","createdate":"2019-02-19T15:21:28","editor":"LENOVO","modifydate":"2019-03-10T17:50:55","codemove":"na"},"geometry":{"type":"MultiPolygon","coordinates":[[[[121.70172969600002,17.411166122000054],[121.70377458700011,17.41098326900004],[121.70551606300012,17.410356961000048],[121.70674214800009,17.41036491600005],[121.70806770100013,17.410765822000027],[121.71035874200005,17.411908803000077],[121.71162766100008,17.413094218000026],[121.7131545330001,17.413937859000043],[121.71473653400005,17.414193283000024],[121.71714016400006,17.413865421000025],[121.7210848850001,17.412321234000046],[121.723956068,17.41086813100003],[121.72462095000004,17.410774351000043],[121.72754960800012,17.408389652000043],[121.72922295500008,17.407580445000065],[121.73130444000002,17.40484227700006],[121.73386674000004,17.402004577000064],[121.73466164332021,17.401402234667948],[121.73127248445688,17.401220799073002],[121.72665799182855,17.40140898850555],[121.72208491359174,17.402030412534724],[121.71759725903206,17.40307908871451],[121.71323821671274,17.404544922870915],[121.7090497396934,17.40641380611911],[121.70507214252966,17.40866775043957],[121.7013437138951,17.411285061518797],[121.70128087130851,17.411339001587375],[121.70172969600002,17.411166122000054]]],[[[121.68545950900011,17.438565762000053],[121.68874430400002,17.43691716600006],[121.68995253100002,17.43597063600004],[121.69547712400005,17.433939002000045],[121.69759307500011,17.433515362000033],[121.69871607300001,17.43288634900006],[121.69959592600004,17.431500212000056],[121.7020936890001,17.429806485000025],[121.70347504300001,17.427787239000057],[121.7035215510001,17.42707167600003],[121.7056124950001,17.424301497000048],[121.70710768500011,17.423754448000068],[121.70872470700012,17.423566066000028],[121.7090040920001,17.425079121000064],[121.7095736980001,17.426554211000045],[121.71138417500003,17.42831579700004],[121.71390004800003,17.429922812000026],[121.71603504600012,17.43268061100002],[121.71698592700011,17.432965117000034],[121.72242410600005,17.433628674000033],[121.72132714400004,17.432670472000037],[121.72061590300005,17.431651869000063],[121.7202672520001,17.430148770000073],[121.72042113600003,17.428576074000038],[121.72140276400013,17.426417037000014],[121.72346642200012,17.424496184000077],[121.72101756700012,17.42515659500003],[121.71769901000005,17.425771535000024],[121.717287015,17.42545074900005],[121.71672652100007,17.422663264000054],[121.71582568600002,17.421146212000053],[121.71479371100008,17.420622559000034],[121.7119787470001,17.42032600800007],[121.70998676800002,17.420830126000055],[121.70866369100007,17.420463669000068],[121.7073847920001,17.41969975600006],[121.70477479500006,17.41972256800005],[121.70319616900008,17.420348659000073],[121.70061516200008,17.422121376000064],[121.7003198860001,17.422875072000064],[121.69898639400004,17.423979968000026],[121.69722956800001,17.426354614000047],[121.69506723800009,17.427493726000023],[121.69320161400002,17.427680363000032],[121.69220886399998,17.42747498300002],[121.69192281600012,17.426916353000024],[121.69182176800008,17.423654685000027],[121.69211800700009,17.422781656000037],[121.69149827349669,17.421837962727118],[121.68959660666971,17.424836963088275],[121.68759305038934,17.428832380774693],[121.68600701670526,17.432997056804233],[121.68485380348467,17.437290894686942],[121.6846456194344,17.43857704006231],[121.68545950900011,17.438565762000053]]]]}},{"type":"Feature","properties":{"fid":74,"objectid":1938,"lccode":"06","liqcode":"2010600060000000","mappers":"PJDelosReyes, ACPidlaoan","project":"READY","province":"Isabela","otherinfo":null,"datemapped":2012,"publishdate":null,"globalid":"{57DA03B8-A8DC-43FC-92E3-BCA08FF4E128}","st_area(shape)":0.09517793329217689,"st_perimeter(shape)":18.374122243984093,"liqcodepk":"201060006000000000137","creator":"SNOOPYPC","createdate":"2019-02-19T15:21:28","editor":"LENOVO","modifydate":"2019-03-10T17:50:55","codemove":"na"},"geometry":{"type":"MultiPolygon","coordinates":[[[[121.7777902800001,17.44475914900005],[121.77778230500007,17.445955760000064],[121.77802471942786,17.44688528419647],[121.77803543836247,17.44670003748981],[121.77793345495631,17.44440853119995],[121.7777902800001,17.44475914900005]]],[[[121.76706951300004,17.424184613000023],[121.7644917680001,17.424786311000048],[121.75829230700003,17.425751433000073],[121.752935137,17.427030554000055],[121.75144810400002,17.427224357000057],[121.74979560400004,17.427741664000052],[121.74664487300005,17.429191748000047],[121.74404131400001,17.430984329000065],[121.7434441580001,17.432186609000045],[121.74315153900011,17.434785331000057],[121.74330161900002,17.435803844000077],[121.74422921300003,17.437957951000044],[121.74574129900009,17.440756438000054],[121.74721679800007,17.443177818000038],[121.74901082100008,17.444960400000063],[121.75149404000001,17.44586037600004],[121.75283701700005,17.44738385300008],[121.75532019100002,17.44890487800006],[121.75805158300011,17.449423860000017],[121.76255286600008,17.449915146000016],[121.76512785300008,17.449776724000053],[121.76705625600005,17.450097512000074],[121.76982999900008,17.45030767400004],[121.77120047800008,17.449852893000074],[121.77237408100005,17.44877922300003],[121.77327382500006,17.446545691000043],[121.77333030600005,17.444114052000028],[121.7728559840001,17.44287579900003],[121.7730235590001,17.44187308000005],[121.77451855900006,17.440839955000058],[121.77600908400008,17.440463128000037],[121.7774650517712,17.43974342801702],[121.77718965483632,17.43787924641265],[121.77609588051345,17.433570954077783],[121.77456750765141,17.42938630987012],[121.7726192821779,17.425365606183735],[121.77084701007742,17.422485340076555],[121.76706951300004,17.424184613000023]]],[[[121.73386674000004,17.402004577000064],[121.73130444000002,17.40484227700006],[121.72922295500008,17.407580445000065],[121.72877379600004,17.408264674000065],[121.7276089930001,17.410973703000025],[121.72741228300004,17.41351695800006],[121.72624551200012,17.41650101500005],[121.72563162200005,17.41721914600003],[121.72633743200004,17.418736633000037],[121.72664875100008,17.420320359000073],[121.72631690600008,17.42169359000007],[121.7249429950001,17.423541671000063],[121.72242257100004,17.425451056000046],[121.72140276400013,17.426417037000014],[121.72042113600003,17.428576074000038],[121.7202672520001,17.430148770000073],[121.72061590300005,17.431651869000063],[121.72132714400004,17.432670472000037],[121.72242410600005,17.433628674000033],[121.72307754300003,17.43425783400005],[121.72374512700004,17.436118991000054],[121.72376854300002,17.43790716100005],[121.72468426800003,17.440148059000023],[121.72573774800003,17.44318065600004],[121.72680209100008,17.444666105000064],[121.72890036800004,17.446845793000023],[121.73239696600002,17.448862430000073],[121.735970446,17.450123103000063],[121.73829667200005,17.450447272000076],[121.73936557800006,17.451279303000028],[121.74107085199998,17.453353282000023],[121.7447140290001,17.454923637000032],[121.7459623430001,17.45572243300006],[121.74713508500007,17.45710518900006],[121.74762786500003,17.458380554000026],[121.74987434099998,17.459907678000036],[121.75029720400005,17.460941880000064],[121.75007587000005,17.461868929000048],[121.74867319600003,17.462685350000072],[121.7473318970001,17.46498069500006],[121.74689334600009,17.46625018600002],[121.74695818300007,17.467247799000056],[121.74815832400009,17.469868646000066],[121.74904472700007,17.471215253000025],[121.74867093800005,17.473482359000062],[121.74905802300009,17.474516338000058],[121.75037463300009,17.475831224000043],[121.75093421500004,17.477829154000062],[121.75206429000002,17.480764799000035],[121.752771928,17.481748587000023],[121.75577326000008,17.483089462000063],[121.75633186900006,17.483484644000043],[121.75671094060384,17.48422423132956],[121.75685880624711,17.484140433055423],[121.76058807050393,17.48152214515867],[121.76403184168778,17.47856561062017],[121.76715694863054,17.47529931765642],[121.76993329551627,17.47175473806648],[121.77233415168983,17.467966023538793],[121.77433640880965,17.46396967615663],[121.77574485237466,17.460266793156325],[121.77532561600003,17.45872775000003],[121.77461866400004,17.45764609800005],[121.77372921600012,17.45713869800005],[121.77207363700005,17.456761285000027],[121.76762974100005,17.45756624200004],[121.764085969,17.457274912000056],[121.75926265700002,17.457587693000047],[121.75554016700005,17.457319581000032],[121.75375864600005,17.456720856000057],[121.7519544700001,17.45569957000004],[121.75033680600008,17.45374553900006],[121.74869516300008,17.45284117000006],[121.74555885500001,17.450483425000073],[121.73891842000012,17.44720941400004],[121.73720239700003,17.446717129000035],[121.73627770600001,17.445748542000043],[121.73535966200006,17.44381727500007],[121.73472960900004,17.44168146800007],[121.73390176100008,17.437068892000074],[121.73420158300009,17.435145360000035],[121.7354388120001,17.43233373200007],[121.7372471650001,17.42980084000004],[121.73876421900003,17.427953769000055],[121.74431710500004,17.422556305000057],[121.74705267600007,17.420579225000036],[121.75143569800004,17.418612521000053],[121.75504522100003,17.417254212000046],[121.75941270200006,17.415956390000076],[121.76399762600012,17.41472948200004],[121.76439200349517,17.414602066627456],[121.76106007178858,17.411665015090733],[121.75736802210935,17.409000441376303],[121.75342181055882,17.406696052378752],[121.74925942821523,17.404774026023972],[121.74492094241647,17.40325285917265],[121.74044811160636,17.402147189992686],[121.73588398407979,17.40146765742406],[121.73466164332021,17.401402234667948],[121.73386674000004,17.402004577000064]]]]}}]}