{"type":"FeatureCollection","features":[{"type":"Feature","properties":{"fid":23,"objectid":1869,"lccode":"07","liqcode":"2010600070000000","mappers":" ","project":"READY","province":"Antique","otherinfo":null,"datemapped":2010,"publishdate":null,"globalid":"{D10F3743-B08E-4BB0-8330-C339D6ABD38B}","st_area(shape)":0.008955404678814158,"st_perimeter(shape)":4.103226410979217,"liqcodepk":"201060007000000000061","creator":"SNOOPYPC","createdate":"2019-02-19T15:21:28","editor":"LENOVO","modifydate":"2019-03-10T17:50:55","codemove":"na"},"geometry":{"type":"Polygon","coordinates":[]}},{"type":"Feature","properties":{"fid":49,"objectid":1898,"lccode":"05","liqcode":"2010600050000000","mappers":" ","project":"READY","province":"Antique","otherinfo":null,"datemapped":2010,"publishdate":null,"globalid":"{F799DDD2-325B-4E56-934A-EE54555B99CC}","st_area(shape)":0.01053919356163067,"st_perimeter(shape)":4.296469707330003,"liqcodepk":"201060005000000000092","creator":"SNOOPYPC","createdate":"2019-02-19T15:21:28","editor":"LENOVO","modifydate":"2019-03-10T17:50:55","codemove":"na"},"geometry":{"type":"Polygon","coordinates":[]}},{"type":"Feature","properties":{"fid":59,"objectid":1908,"lccode":"05","liqcode":"2010600050000000","mappers":"PJDelosReyes, ACPidlaoan","project":"READY","province":"Iloilo","otherinfo":null,"datemapped":2010,"publishdate":null,"globalid":"{282D04BA-68E2-41E5-9B8A-0D8D85396F2D}","st_area(shape)":0.06128738608791496,"st_perimeter(shape)":10.692281506054618,"liqcodepk":"201060005000000000103","creator":"SNOOPYPC","createdate":"2019-02-19T15:21:28","editor":"LENOVO","modifydate":"2019-03-10T17:50:55","codemove":"na"},"geometry":{"type":"Polygon","coordinates":[[[122.05262822500005,10.49433119300005],[122.05322255100009,10.49505453800003],[122.05355003700004,10.496334654000062],[122.05510261300005,10.498012068000035],[122.0561159360001,10.49753956100005],[122.05439940500003,10.495850313000062],[122.05239830612855,10.4918646640614],[122.05236800573525,10.49186902008178],[122.05162630917074,10.49205054063889],[122.05262822500005,10.49433119300005]]]}},{"type":"Feature","properties":{"fid":64,"objectid":1928,"lccode":"06","liqcode":"2010600060000000","mappers":" ","project":"READY","province":"Antique","otherinfo":null,"datemapped":2010,"publishdate":null,"globalid":"{59F7BC3E-69F7-4D6A-8910-A1F9D73ECE42}","st_area(shape)":0.010710328066056169,"st_perimeter(shape)":5.351824083433743,"liqcodepk":"201060006000000000126","creator":"SNOOPYPC","createdate":"2019-02-19T15:21:28","editor":"LENOVO","modifydate":"2019-03-10T17:50:55","codemove":"na"},"geometry":{"type":"Polygon","coordinates":[]}}]}