{"type":"FeatureCollection","features":[{"type":"Feature","properties":{"fid":171,"objectid":9613,"lccode":"01","liqcode":"2010600010000000","mappers":"DJLBuhay, MJVReyes, MITAbigania, KLPapiona, KMVitto","project":"MELP","province":"Nueva Ecija","otherinfo":"hazard boundary with Pangasinan updated on 2024","datemapped":2018,"publishdate":null,"globalid":"{142EC992-C228-490B-8C06-5B4A68BA1242}","st_area(shape)":0.21874224791512728,"st_perimeter(shape)":7.9099228422392365,"liqcodepk":"201060001000000000019","creator":"SNOOPYPC","createdate":"2019-02-19T15:21:28","editor":"LENOVO","modifydate":"2019-03-10T17:53:06","codemove":"na"},"geometry":{"type":"Polygon","coordinates":[]}},{"type":"Feature","properties":{"fid":174,"objectid":9616,"lccode":"07","liqcode":null,"mappers":"DJLBuhay, MITAbigania","project":"LiquePhi","province":"Pangasinan","otherinfo":null,"datemapped":2024,"publishdate":null,"globalid":"{4C1C6B5C-6BC5-4098-AF34-1358D72BE295}","st_area(shape)":0.0990952810399136,"st_perimeter(shape)":16.14272038398808,"liqcodepk":null,"creator":null,"createdate":null,"editor":null,"modifydate":null,"codemove":null},"geometry":{"type":"MultiPolygon","coordinates":[[[[120.76064740300001,15.923042854000075],[120.75812940800006,15.922623763000049],[120.75666132900005,15.921117240000058],[120.75657457800003,15.920724709000073],[120.75657286100012,15.919201094000073],[120.75577948700004,15.918697611000027],[120.75369527100008,15.918037323000016],[120.75209093300008,15.916288787000035],[120.75112833000003,15.916014505000076],[120.74963834000003,15.916282279000024],[120.74827617300004,15.916185931000026],[120.74627966300012,15.915603082000073],[120.74310663900009,15.915671652000068],[120.7382223210001,15.914711662000055],[120.73615450700004,15.91337452500005],[120.73586929100009,15.912860239000057],[120.73426495300009,15.911523090000061],[120.73191192400009,15.910185931000054],[120.72945193900011,15.909260201000048],[120.72635021800012,15.908643045000074],[120.72453196800006,15.907854454000075],[120.72253545900004,15.906654419000063],[120.71936243400012,15.904014316000032],[120.71879200300008,15.903328569000054],[120.71666714600008,15.901590534000032],[120.7152079450001,15.899981761000047],[120.7142942910001,15.900820370000078],[120.713679597,15.900873194000043],[120.71230726700001,15.900219806000049],[120.71143736000009,15.899479186000063],[120.71078136400001,15.897476754000028],[120.71102782300011,15.895399848000071],[120.71236025900009,15.89285395000008],[120.713996586,15.892368175000064],[120.71523072800005,15.89135961200003],[120.71661402400002,15.889727428000072],[120.71749819300011,15.888246107000041],[120.71806862400001,15.886517885000046],[120.71945192000008,15.884515324000063],[120.72022200200001,15.883802079000077],[120.72281746500006,15.882814503000082],[120.72398612300002,15.881548678000057],[120.72545527800004,15.881587393000078],[120.7265480430001,15.881681877000057],[120.72803354200006,15.882767758000057],[120.72940999300012,15.880978425000027],[120.73061744700011,15.880284518000051],[120.73161322100009,15.880153417000033],[120.73269800600008,15.87899572400005],[120.7322560240001,15.878650186000073],[120.73035091900012,15.879224334000071],[120.72962930100005,15.87985093200007],[120.727528472,15.879538673000068],[120.72463666600004,15.880309881000072],[120.72275899600005,15.880515629000055],[120.72195088500007,15.880058411000046],[120.72183204500006,15.878412419000028],[120.72069118200012,15.879532610000066],[120.71952655100006,15.879806941000021],[120.718456993,15.880835681000063],[120.71852829700005,15.881384340000064],[120.71657932300002,15.88259595600004],[120.71543846000009,15.883076028000062],[120.71446397300008,15.884584820000036],[120.71367963000012,15.887328048000025],[120.71346571800008,15.888105289000066],[120.71215848000008,15.88897396700003],[120.71030457800009,15.891717136000066],[120.70826053200004,15.893248722000063],[120.70771386900005,15.894231674000029],[120.70723851000002,15.89592325500007],[120.70673938200001,15.89676904000004],[120.70393476100003,15.899649255000043],[120.70272259500008,15.90024357900006],[120.70079738900004,15.900403590000053],[120.6986107350001,15.89987784100003],[120.69651915400004,15.899009211000081],[120.69523568300008,15.898986352000067],[120.69239945100003,15.899502045000078],[120.691900324,15.898418539000035],[120.69123006700012,15.899378608000067],[120.6896043380001,15.899995792000029],[120.68806417300004,15.89979006400006],[120.68723704700007,15.899172879000046],[120.68546871,15.898884859000072],[120.68342941800007,15.897938504000026],[120.68224577300009,15.89807565700005],[120.68099082400012,15.897499613000033],[120.67882318500007,15.898706560000054],[120.67772510500005,15.900283811000063],[120.67617067900005,15.90102442800002],[120.67512964200013,15.903013110000074],[120.67378912800007,15.903685143000077],[120.6718781830001,15.90232736000007],[120.67172270905812,15.902271018295101],[120.6714659951351,15.906390695336178],[120.6716053596595,15.909943383123915],[120.67585369400003,15.910238937000024],[120.67719507900007,15.91016534400006],[120.68219063100003,15.909184050000022],[120.68763634900007,15.907703578000053],[120.68941894700005,15.907374426000043],[120.69516437900008,15.906621032000025],[120.6967330660001,15.906621032000032],[120.69887218300005,15.90719247800007],[120.700155654,15.907238194000058],[120.70210462700004,15.906643889000069],[120.70341186600001,15.90707818900006],[120.70490924800004,15.906826752000025],[120.70643039800007,15.906963900000052],[120.71144544100002,15.90707818900006],[120.7126100710001,15.90746677200008],[120.71425430100008,15.908437326000067],[120.71875876800004,15.911526474000024],[120.72115891500006,15.912229660000037],[120.72245425100004,15.913237382000037],[120.7235218290001,15.914757376000068],[120.72478762900005,15.915329725000051],[120.72993918200008,15.916265930000064],[120.73179308400006,15.91736305300003],[120.73659421400009,15.919785845000037],[120.73825797300005,15.92038011000005],[120.74120520100007,15.920974374000018],[120.74196577600003,15.921477211000026],[120.74377214200001,15.923397122000043],[120.74491300500007,15.925179881000076],[120.74705212200001,15.926368378000058],[120.75028456700011,15.927648290000036],[120.75149737700009,15.928770621000066],[120.75577784200003,15.930725119000043],[120.75740307500008,15.93106515700003],[120.75751756589905,15.931052051023117],[120.75906613595298,15.928611987558257],[120.75955926546744,15.927630540453462],[120.75845872100003,15.927302391000064],[120.75778728400007,15.926466880000074],[120.75835107100012,15.924899318000028],[120.76045421700007,15.925246422000045],[120.76076718434494,15.925226437233945],[120.76106918463145,15.924625358898963],[120.76177023450013,15.9227917324295],[120.76064740300001,15.923042854000075]]],[[[120.68033389100002,15.927666835000018],[120.68263938500002,15.927895390000057],[120.68442198300012,15.927518274000022],[120.68731918700009,15.927320064000071],[120.68894978100003,15.928146800000032],[120.68936572100004,15.92861533600006],[120.69142165100004,15.929323852000035],[120.69224785300004,15.929112820000057],[120.69259816500005,15.927883962000061],[120.69105324700001,15.925449840000052],[120.68982677500003,15.92528942700005],[120.68939840700013,15.925820374000066],[120.68814167000005,15.926089800000057],[120.6848498060001,15.926078372000063],[120.68274634100011,15.926626908000058],[120.68185504200005,15.926444063000076],[120.67857506100005,15.927061164000067],[120.67648420954018,15.927218397244136],[120.67673220133682,15.927740712419348],[120.67701927890708,15.928216076444233],[120.68033389100002,15.927666835000018]]],[[[120.73144792200003,15.948862746000037],[120.73002240300002,15.948148359000077],[120.72899251100011,15.94605384300007],[120.72783086600009,15.94449488300006],[120.72608775700007,15.943699439000056],[120.7252735620001,15.942937771000063],[120.72368188000007,15.940767566000032],[120.72365811200007,15.939784842000055],[120.72510094200003,15.938817110000056],[120.7266363660001,15.938153445000067],[120.72773285700009,15.938272171000051],[120.72874585200009,15.937906622000071],[120.72932328800006,15.936947400000061],[120.72997690700002,15.936638865000077],[120.7316562540001,15.93699662100005],[120.73339887700001,15.936700750000057],[120.73495355500006,15.937707455000062],[120.73615658000006,15.937747304000023],[120.73833134900009,15.938307235000023],[120.73880670900007,15.937484479000037],[120.73620411600007,15.936513165000063],[120.73512267300009,15.935713257000028],[120.73405311400005,15.935496138000072],[120.7315931290001,15.935816102000041],[120.73012780200008,15.93539437000004],[120.72901430400007,15.935621838000033],[120.7282203750001,15.937033549000036],[120.72651425000005,15.937219680000055],[120.72596699800009,15.93775172700003],[120.72478084500007,15.937992593000043],[120.72327705200006,15.938782915000045],[120.72053677800011,15.939212749000035],[120.71700920600006,15.937367530000076],[120.71435670000005,15.93653105700002],[120.70792508700004,15.93712070200007],[120.70617101100004,15.93712070200007],[120.70311903500011,15.936655268000035],[120.7019498190001,15.936147102000069],[120.69978218000006,15.934378153000065],[120.69810158100006,15.932025045000039],[120.69784271300013,15.930826497000059],[120.69885041900012,15.929113388000076],[120.69985150400011,15.928286576000062],[120.7004587010001,15.927268079000042],[120.70009625800003,15.926044640000038],[120.69917680200001,15.925232667000047],[120.69838476100007,15.92298445800003],[120.69780470200011,15.923369710000024],[120.69796247500004,15.924667763000064],[120.69853349800007,15.926067476000068],[120.69834184000001,15.92713764400002],[120.69721523900012,15.928316987000072],[120.6963227560001,15.930156831000033],[120.69544690100008,15.930634513000028],[120.69413810400012,15.931978320000038],[120.69236657200008,15.932993152000055],[120.69081264300007,15.93339980900004],[120.68798151300007,15.933766809000078],[120.68666225900006,15.93219780000004],[120.686448659,15.933403188000055],[120.68522191900001,15.93406275800004],[120.68100019518099,15.934180840007862],[120.68173132607467,15.93515718112204],[120.68476997727855,15.938474363741541],[120.68813014051248,15.941487358719305],[120.69177945736907,15.944167134937661],[120.69568277887842,15.946487870078618],[120.69980250416566,15.948427199871967],[120.70409894294207,15.94996643402984],[120.70853069832494,15.951090736766396],[120.71033685203228,15.951369607050628],[120.71004126100001,15.951200854000032],[120.709518365,15.95074379700003],[120.70749808800008,15.950172475000043],[120.70666620900009,15.949418326000053],[120.7066899770001,15.948504204000072],[120.70745055200007,15.94759007700003],[120.70714156800011,15.946058905000024],[120.70747432000007,15.944824818000024],[120.70806851900011,15.944276332000076],[120.70954213300003,15.943613576000072],[120.71253689800005,15.942905111000073],[120.71372529700011,15.943567869000045],[120.71469978300003,15.945556129000071],[120.71607832600013,15.94674450600007],[120.71850265900002,15.946721652000061],[120.71973859400009,15.94706445200006],[120.72104583200009,15.94791002200003],[120.72247191000007,15.95005821000006],[120.72317532235745,15.951757705669827],[120.72674591076252,15.951283764885781],[120.7312021267039,15.950253629851925],[120.73172195338303,15.950079831225057],[120.73144792200003,15.948862746000037]]]]}},{"type":"Feature","properties":{"fid":175,"objectid":9617,"lccode":"06","liqcode":null,"mappers":"DJLBuhay, MITAbigania","project":"LiquePhi","province":"Pangasinan","otherinfo":null,"datemapped":2024,"publishdate":null,"globalid":"{66023685-1332-44EF-8443-E51FD3597412}","st_area(shape)":0.04411879143836554,"st_perimeter(shape)":22.502158641584156,"liqcodepk":null,"creator":null,"createdate":null,"editor":null,"modifydate":null,"codemove":null},"geometry":{"type":"MultiPolygon","coordinates":[[[[120.72183204500006,15.878412419000028],[120.72195088500007,15.880058411000046],[120.72275899600005,15.880515629000055],[120.72463666600004,15.880309881000072],[120.727528472,15.879538673000068],[120.72962930100005,15.87985093200007],[120.73035091900012,15.879224334000071],[120.7322560240001,15.878650186000073],[120.73269800600008,15.87899572400005],[120.73161322100009,15.880153417000033],[120.73061744700011,15.880284518000051],[120.72940999300012,15.880978425000027],[120.72803354200006,15.882767758000057],[120.72831783600007,15.882528145000038],[120.72975817500003,15.881019338000044],[120.73179203100005,15.880359549000046],[120.73295259100007,15.87941450300008],[120.73308093800007,15.878125140000064],[120.73426458300004,15.877905673000043],[120.73487779700008,15.87935963700005],[120.73571918300003,15.879277337000072],[120.73834316700004,15.87764505600006],[120.73838595000008,15.877274704000062],[120.73855707900009,15.87664373400002],[120.73918455300009,15.876383115000063],[120.74002594000001,15.877000370000077],[120.74176575500007,15.876808335000074],[120.74145201800002,15.876108779000049],[120.74048228500011,15.876410548000022],[120.73959811600002,15.875793292000026],[120.73851429700004,15.875669840000057],[120.73763012800009,15.877288421000062],[120.73678874200004,15.877425588000044],[120.73583326900008,15.878125140000064],[120.7355765750001,15.877110104000053],[120.73500614400007,15.876561433000063],[120.73416475800002,15.877027803000033],[120.73245346400006,15.877370721000032],[120.73218250900004,15.878234873000055],[120.73068512600003,15.878714956000067],[120.72991504400011,15.879263621000064],[120.72877418100006,15.878948139000045],[120.72640948700007,15.87911509000003],[120.72402793600008,15.879910652000031],[120.72295837700007,15.879924368000053],[120.72255907500006,15.879183673000059],[120.72325785300006,15.875864228000065],[120.72302968100009,15.872517294000032],[120.72205994800004,15.87273676600006],[120.72228812000003,15.874519974000062],[120.72191497600011,15.876266129000038],[120.72203741400007,15.87742930300004],[120.72085513600008,15.87892450800007],[120.71861144000002,15.880076701000062],[120.71800298000005,15.881375196000018],[120.71656739400011,15.88225304800005],[120.71494166500008,15.882856568000022],[120.7140860180001,15.88367040300005],[120.71284057600009,15.886889135000052],[120.71110076000002,15.88912027200007],[120.70899967200012,15.891342240000023],[120.70834367500005,15.892485218000045],[120.70719330600001,15.893088707000059],[120.70580525600008,15.895283200000053],[120.70403691900003,15.897276511000026],[120.70267263700009,15.89839202400003],[120.70166487500002,15.898849200000027],[120.69936413500012,15.898931492000033],[120.69711583000003,15.897834945000053],[120.69440628100007,15.895626765000031],[120.69324078400007,15.895421808000034],[120.69121815400003,15.89726716200005],[120.69046457800005,15.898799736000056],[120.68912489300011,15.899525819000074],[120.6857510950001,15.898638357000044],[120.68333626900005,15.897413122000048],[120.681643989,15.897266825000028],[120.6786207030001,15.897961736000067],[120.67679999200003,15.899909830000068],[120.67424739600006,15.901015658000063],[120.67316357700008,15.90092422400005],[120.67200790493251,15.900353480315866],[120.67174170378406,15.901966181559779],[120.67172270905812,15.902271018295101],[120.6718781830001,15.90232736000007],[120.67378912800007,15.903685143000077],[120.67512964200013,15.903013110000074],[120.67617067900005,15.90102442800002],[120.67772510500005,15.900283811000063],[120.67882318500007,15.898706560000054],[120.68099082400012,15.897499613000033],[120.68224577300009,15.89807565700005],[120.68342941800007,15.897938504000026],[120.68546871,15.898884859000072],[120.68723704700007,15.899172879000046],[120.68806417300004,15.89979006400006],[120.6896043380001,15.899995792000029],[120.69123006700012,15.899378608000067],[120.691900324,15.898418539000035],[120.69239945100003,15.899502045000078],[120.69523568300008,15.898986352000067],[120.69651915400004,15.899009211000081],[120.6986107350001,15.89987784100003],[120.70079738900004,15.900403590000053],[120.70272259500008,15.90024357900006],[120.70393476100003,15.899649255000043],[120.70673938200001,15.89676904000004],[120.70723851000002,15.89592325500007],[120.70771386900005,15.894231674000029],[120.70826053200004,15.893248722000063],[120.71030457800009,15.891717136000066],[120.71215848000008,15.88897396700003],[120.71346571800008,15.888105289000066],[120.71367963000012,15.887328048000025],[120.71446397300008,15.884584820000036],[120.71543846000009,15.883076028000062],[120.71657932300002,15.88259595600004],[120.71852829700005,15.881384340000064],[120.718456993,15.880835681000063],[120.71952655100006,15.879806941000021],[120.72069118200012,15.879532610000066],[120.72183204500006,15.878412419000028]],[[120.67253072500012,15.902565383000024],[120.67276602800007,15.901584757000023],[120.67377141300007,15.90172190800007],[120.67339425500006,15.902620813000055],[120.67253072500012,15.902565383000024]]],[[[120.72545527800004,15.881587393000078],[120.72527125500005,15.881550218000031],[120.72517979661721,15.881580134306509],[120.72545527800004,15.881587393000078]]],[[[120.75955926546744,15.927630540453462],[120.76076718434494,15.925226437233945],[120.76045421700007,15.925246422000045],[120.75835107100012,15.924899318000028],[120.75778728400007,15.926466880000074],[120.75845872100003,15.927302391000064],[120.75955926546744,15.927630540453462]]],[[[120.71236025900009,15.89285395000008],[120.71102782300011,15.895399848000071],[120.71078136400001,15.897476754000028],[120.71143736000009,15.899479186000063],[120.71230726700001,15.900219806000049],[120.713679597,15.900873194000043],[120.7142942910001,15.900820370000078],[120.7152079450001,15.899981761000047],[120.71666714600008,15.901590534000032],[120.71879200300008,15.903328569000054],[120.71936243400012,15.904014316000032],[120.72253545900004,15.906654419000063],[120.72453196800006,15.907854454000075],[120.72635021800012,15.908643045000074],[120.72945193900011,15.909260201000048],[120.73191192400009,15.910185931000054],[120.73426495300009,15.911523090000061],[120.73586929100009,15.912860239000057],[120.73615450700004,15.91337452500005],[120.7382223210001,15.914711662000055],[120.74310663900009,15.915671652000068],[120.74627966300012,15.915603082000073],[120.74827617300004,15.916185931000026],[120.74963834000003,15.916282279000024],[120.75112833000003,15.916014505000076],[120.75209093300008,15.916288787000035],[120.75369527100008,15.918037323000016],[120.75577948700004,15.918697611000027],[120.75657286100012,15.919201094000073],[120.75657457800003,15.920724709000073],[120.75666132900005,15.921117240000058],[120.75812940800006,15.922623763000049],[120.76064740300001,15.923042854000075],[120.76177023450013,15.9227917324295],[120.76217877470488,15.92172315805004],[120.76042066000004,15.921931022000022],[120.75863806200006,15.921313906000027],[120.75739666299998,15.920042933000044],[120.75680814500004,15.918555318000074],[120.75517939400002,15.918018523000061],[120.75286914800006,15.916084846000047],[120.75011681600004,15.91560485200006],[120.74899021400006,15.915796850000046],[120.74702222600001,15.915344284000069],[120.74466919700001,15.91402772200007],[120.74374224600001,15.913822009000057],[120.74247303600009,15.914164865000032],[120.73995315600007,15.914335264000046],[120.73831316600001,15.91388955200006],[120.73628100400005,15.912620981000032],[120.73410623400002,15.909740952000048],[120.7327158080001,15.909123798000055],[120.73036277900007,15.908506641000029],[120.72726105800007,15.907375183000056],[120.72394542600011,15.90638086600006],[120.72298282300005,15.905832276000066],[120.71956023500003,15.903432174000045],[120.71763502900001,15.901683510000051],[120.71604410200005,15.899255692000054],[120.71357174500007,15.89906482600003],[120.71265905500002,15.898406493000039],[120.71195552300003,15.89743727700005],[120.71253717800005,15.895000670000059],[120.71206698800005,15.893891080000058],[120.713432096,15.892863687000045],[120.71558365800001,15.892536130000058],[120.71691827500001,15.891530442000034],[120.71784998000011,15.890268588000026],[120.71868661200006,15.888512951000052],[120.72034086300005,15.886300096000074],[120.72184299900005,15.884818750000019],[120.72334438700011,15.884010765000031],[120.72369377700011,15.88344839700005],[120.72382925400007,15.882021895000033],[120.72517979661721,15.881580134306509],[120.72398612300002,15.881548678000057],[120.72281746500006,15.882814503000082],[120.72022200200001,15.883802079000077],[120.71945192000008,15.884515324000063],[120.71806862400001,15.886517885000046],[120.71749819300011,15.888246107000041],[120.71661402400002,15.889727428000072],[120.71523072800005,15.89135961200003],[120.713996586,15.892368175000064],[120.71236025900009,15.89285395000008]]],[[[120.75740307500008,15.93106515700003],[120.75577784200003,15.930725119000043],[120.75149737700009,15.928770621000066],[120.75028456700011,15.927648290000036],[120.74705212200001,15.926368378000058],[120.74491300500007,15.925179881000076],[120.74377214200001,15.923397122000043],[120.74196577600003,15.921477211000026],[120.74120520100007,15.920974374000018],[120.73825797300005,15.92038011000005],[120.73659421400009,15.919785845000037],[120.73179308400006,15.91736305300003],[120.72993918200008,15.916265930000064],[120.72478762900005,15.915329725000051],[120.7235218290001,15.914757376000068],[120.72245425100004,15.913237382000037],[120.72115891500006,15.912229660000037],[120.71875876800004,15.911526474000024],[120.71425430100008,15.908437326000067],[120.7126100710001,15.90746677200008],[120.71144544100002,15.90707818900006],[120.70643039800007,15.906963900000052],[120.70490924800004,15.906826752000025],[120.70341186600001,15.90707818900006],[120.70210462700004,15.906643889000069],[120.700155654,15.907238194000058],[120.69887218300005,15.90719247800007],[120.6967330660001,15.906621032000032],[120.69516437900008,15.906621032000025],[120.68941894700005,15.907374426000043],[120.68763634900007,15.907703578000053],[120.68219063100003,15.909184050000022],[120.67719507900007,15.91016534400006],[120.67585369400003,15.910238937000024],[120.6716053596595,15.909943383123915],[120.6716397490309,15.91082005433639],[120.67199771374892,15.913349166445796],[120.67420011600007,15.912882700000067],[120.67723766300003,15.912567271000059],[120.67910582600007,15.912512414000044],[120.6838546670001,15.911950125000029],[120.68518092000012,15.911922696000037],[120.68857498600005,15.911524979000031],[120.690386106,15.911511265000058],[120.69570537800008,15.911072404000036],[120.69835788400007,15.911319263000049],[120.70129560500006,15.91070211400006],[120.70337768000002,15.91118211900005],[120.7049891480001,15.91082554400003],[120.70925312300005,15.910852973000035],[120.71216232200004,15.911223262000021],[120.71504467800003,15.912308805000063],[120.71792654500007,15.91388023400003],[120.72027363200004,15.91650877900003],[120.72236673800012,15.918071220000057],[120.7241062180001,15.918765872000048],[120.72672069500003,15.91916586000008],[120.73001850100002,15.920137257000016],[120.73587136400012,15.922937141000032],[120.73910975100011,15.92382281000005],[120.74079438800004,15.924733419000061],[120.74181335700008,15.925936973000027],[120.74404160500002,15.927993974000062],[120.74570536300007,15.928936760000058],[120.74695318200007,15.929279590000021],[120.7507560570001,15.930765180000037],[120.75449951300003,15.931907933000046],[120.7563889106794,15.932746469434939],[120.75666879893585,15.932389409351266],[120.75751756589905,15.931052051023117],[120.75740307500008,15.93106515700003]]],[[[120.67857506100005,15.927061164000067],[120.68185504200005,15.926444063000076],[120.68274634100011,15.926626908000058],[120.6848498060001,15.926078372000063],[120.68814167000005,15.926089800000057],[120.68939840700013,15.925820374000066],[120.68982677500003,15.92528942700005],[120.69105324700001,15.925449840000052],[120.69259816500005,15.927883962000061],[120.69224785300004,15.929112820000057],[120.69142165100004,15.929323852000035],[120.68936572100004,15.92861533600006],[120.68894978100003,15.928146800000032],[120.68731918700009,15.927320064000071],[120.68442198300012,15.927518274000022],[120.68263938500002,15.927895390000057],[120.68033389100002,15.927666835000018],[120.67701927890708,15.928216076444233],[120.67904344318981,15.931567770638853],[120.68100019518099,15.934180840007862],[120.68522191900001,15.93406275800004],[120.686448659,15.933403188000055],[120.68666225900006,15.93219780000004],[120.68798151300007,15.933766809000078],[120.69081264300007,15.93339980900004],[120.69236657200008,15.932993152000055],[120.69413810400012,15.931978320000038],[120.69544690100008,15.930634513000028],[120.6963227560001,15.930156831000033],[120.69721523900012,15.928316987000072],[120.69834184000001,15.92713764400002],[120.69853349800007,15.926067476000068],[120.69796247500004,15.924667763000064],[120.69780470200011,15.923369710000024],[120.69838476100007,15.92298445800003],[120.69917680200001,15.925232667000047],[120.70009625800003,15.926044640000038],[120.7004587010001,15.927268079000042],[120.69985150400011,15.928286576000062],[120.69885041900012,15.929113388000076],[120.69784271300013,15.930826497000059],[120.69810158100006,15.932025045000039],[120.69978218000006,15.934378153000065],[120.7019498190001,15.936147102000069],[120.70311903500011,15.936655268000035],[120.70617101100004,15.93712070200007],[120.70792508700004,15.93712070200007],[120.71435670000005,15.93653105700002],[120.71700920600006,15.937367530000076],[120.72053677800011,15.939212749000035],[120.72327705200006,15.938782915000045],[120.72478084500007,15.937992593000043],[120.72596699800009,15.93775172700003],[120.72651425000005,15.937219680000055],[120.7282203750001,15.937033549000036],[120.72901430400007,15.935621838000033],[120.73012780200008,15.93539437000004],[120.7315931290001,15.935816102000041],[120.73405311400005,15.935496138000072],[120.73512267300009,15.935713257000028],[120.73620411600007,15.936513165000063],[120.73880670900007,15.937484479000037],[120.73833134900009,15.938307235000023],[120.73615658000006,15.937747304000023],[120.73495355500006,15.937707455000062],[120.73339887700001,15.936700750000057],[120.7316562540001,15.93699662100005],[120.72997690700002,15.936638865000077],[120.72932328800006,15.936947400000061],[120.72874585200009,15.937906622000071],[120.72773285700009,15.938272171000051],[120.7266363660001,15.938153445000067],[120.72510094200003,15.938817110000056],[120.72365811200007,15.939784842000055],[120.72368188000007,15.940767566000032],[120.7252735620001,15.942937771000063],[120.72608775700007,15.943699439000056],[120.72783086600009,15.94449488300006],[120.72899251100011,15.94605384300007],[120.73002240300002,15.948148359000077],[120.73144792200003,15.948862746000037],[120.73172195338303,15.950079831225057],[120.73382820687478,15.9493756107311],[120.73313895800005,15.949357535000047],[120.73265409100007,15.947643551000056],[120.73112818800007,15.946450610000054],[120.73053720400002,15.945119599000066],[120.72913167800006,15.943365383000069],[120.7284186390001,15.942885455000066],[120.72686421300011,15.941061716000036],[120.72579465500007,15.940115560000038],[120.72589448000006,15.93937508600004],[120.7267929090001,15.93886772300004],[120.72844559799998,15.938623572000042],[120.729698772,15.937473004000033],[120.73213820800004,15.937822723000073],[120.73310081100011,15.937765587000058],[120.734871525,15.938325518000056],[120.73827034500006,15.938759749000045],[120.73932802000003,15.938462644000023],[120.73942309200004,15.937662743000024],[120.73847237300005,15.936680003000049],[120.73660658700011,15.93613149500004],[120.73526369600006,15.935068757000066],[120.73310081100011,15.934840210000056],[120.73115183700008,15.935034475000064],[120.72995155500008,15.934680227000063],[120.7287156200001,15.934943056000069],[120.72739721400002,15.936658985000062],[120.7254885420001,15.937193084000057],[120.72458220400006,15.937143383000032],[120.72285059500007,15.937734817000036],[120.72171675200003,15.937476807000058],[120.716298746,15.93504478600005],[120.71452090200013,15.934532842000069],[120.71077506900008,15.934615119000059],[120.70774346400003,15.934960605000066],[120.70355079400007,15.93441894900007],[120.70122628600006,15.933088799000071],[120.69997133700008,15.93188891500006],[120.69962194800007,15.930524466000069],[120.70049898600007,15.928590909000032],[120.70085550600004,15.927260721000037],[120.7003920300001,15.925868814000065],[120.69941754300011,15.924732883000045],[120.69906577700011,15.92342552500003],[120.69787737900003,15.922556996000024],[120.69741152600012,15.92378207800004],[120.69776329200012,15.925354560000073],[120.69769674200008,15.926607052000069],[120.6964608070001,15.92839892400007],[120.69572875400003,15.928956595000045],[120.69445479100011,15.929011448000042],[120.69362766500001,15.928206938000075],[120.69229665900004,15.925939667000025],[120.69152657600011,15.925080291000029],[120.69044275700001,15.924705456000027],[120.68831314600006,15.925244852000048],[120.68548000400006,15.925308849000032],[120.68319827900007,15.92562882900006],[120.68144895600005,15.925592260000032],[120.67851123400008,15.92619565000007],[120.67704712700004,15.926140797000073],[120.67604856255399,15.926300840492237],[120.67648420954018,15.927218397244136],[120.67857506100005,15.927061164000067]]],[[[120.72247191000007,15.95005821000006],[120.72104583200009,15.94791002200003],[120.71973859400009,15.94706445200006],[120.71850265900002,15.946721652000061],[120.71607832600013,15.94674450600007],[120.71469978300003,15.945556129000071],[120.71372529700011,15.943567869000045],[120.71253689800005,15.942905111000073],[120.70954213300003,15.943613576000072],[120.70806851900011,15.944276332000076],[120.70747432000007,15.944824818000024],[120.70714156800011,15.946058905000024],[120.70745055200007,15.94759007700003],[120.7066899770001,15.948504204000072],[120.70666620900009,15.949418326000053],[120.70749808800008,15.950172475000043],[120.709518365,15.95074379700003],[120.71004126100001,15.951200854000032],[120.71033685203228,15.951369607050628],[120.71305506627715,15.951789270143825],[120.71762844778947,15.952055298845764],[120.72220676980083,15.951886255353585],[120.72317532235745,15.951757705669827],[120.72247191000007,15.95005821000006]]]]}},{"type":"Feature","properties":{"fid":176,"objectid":9618,"lccode":"05","liqcode":null,"mappers":"DJLBuhay, MITAbigania","project":"LiquePhi","province":"Pangasinan","otherinfo":null,"datemapped":2024,"publishdate":null,"globalid":"{5ACB73C5-6107-4512-9787-F18573022798}","st_area(shape)":0.06533832536059311,"st_perimeter(shape)":23.271340040578984,"liqcodepk":null,"creator":null,"createdate":null,"editor":null,"modifydate":null,"codemove":null},"geometry":{"type":"MultiPolygon","coordinates":[[[[120.75135850900007,15.87716954300003],[120.75175068100009,15.878015407000074],[120.753271831,15.879307057000059],[120.75349762700013,15.878095421000065],[120.75253502400005,15.87691806900005],[120.75247038282896,15.876358492006698],[120.75149761855457,15.875297026827218],[120.7485908018091,15.872691496349997],[120.74841603400012,15.872812144000022],[120.74892942200005,15.87406496300002],[120.7491956240001,15.875582967000067],[120.7477220090001,15.876387687000033],[120.74685685500002,15.875573822000039],[120.74595367200003,15.87576585800002],[120.7452881690001,15.876963792000026],[120.74329165900008,15.877201548000077],[120.74205572500011,15.875747569000053],[120.74122859900001,15.875610401000076],[120.74023985100007,15.87411983100003],[120.740249359,15.872181160000027],[120.73944124800006,15.87199826500006],[120.73814827000001,15.873644310000026],[120.73678874200004,15.873671744000035],[120.736722191,15.875180606000079],[120.73703592900006,15.875948749000031],[120.73600915200008,15.876488277000018],[120.73502991200007,15.875381786000053],[120.73381299200003,15.876049339000081],[120.73259607100012,15.876268808000075],[120.73182598900009,15.877951395000027],[120.73113196400003,15.877384438000032],[120.72885974600001,15.876131640000038],[120.72814670700008,15.876195652000034],[120.72743771900002,15.877428944000028],[120.72628945800011,15.876959285000051],[120.72546233300012,15.877206186000024],[120.72447833900003,15.876849551000076],[120.72419312300008,15.87601282700007],[120.72484911900005,15.873063689000048],[120.7235656490001,15.872034910000023],[120.72372251700006,15.870237963000028],[120.7242359060001,15.869456080000075],[120.72490616200004,15.869360060000076],[120.72543381100003,15.868578174000046],[120.7264178050001,15.868207805000056],[120.72746414100004,15.869292028000075],[120.72951239500003,15.869291473000033],[120.72925570100006,15.868537022000055],[120.73013987,15.867549372000035],[120.73150890500004,15.867988328000017],[120.7320508150001,15.867398480000078],[120.73132351500011,15.866465694000055],[120.7314518620001,15.865327141000014],[120.73015413100008,15.86567008000003],[120.73028247800006,15.866616587000063],[120.72861396600001,15.86689093600006],[120.7274445820001,15.86742591500007],[120.72802927400004,15.865862125000037],[120.72685989,15.864792156000014],[120.72547659400003,15.864504087000057],[120.72507729200002,15.865670080000026],[120.72409329800008,15.866013017000059],[120.72369399600005,15.86768654500002],[120.72309504300006,15.868427283000072],[120.72164044300007,15.868989693000064],[120.72192565900002,15.869785295000044],[120.72038549400008,15.869799012000044],[120.71968671600006,15.870635762000058],[120.72058514500009,15.870896388000055],[120.72144079200007,15.870649479000063],[120.72180681900012,15.871411924000029],[120.721242329,15.872143504000057],[120.72197913700006,15.873703816000047],[120.72199696200006,15.875018355000062],[120.7205680190001,15.876266743000029],[120.71909440500008,15.876106714000063],[120.71869034900011,15.876758261000074],[120.7188686090001,15.878667169000037],[120.71821499000009,15.878941502000034],[120.7172405030001,15.877626988000035],[120.71653934800008,15.878027058000043],[120.71747818300003,15.879375861000026],[120.71766832700007,15.881067567000063],[120.71617094400004,15.881193301000048],[120.71557674500004,15.882336337000023],[120.7143623090001,15.881891770000035],[120.71490421900012,15.880602422000035],[120.71349240200004,15.880136060000039],[120.71263675500006,15.880698438000024],[120.71299327400006,15.88208379900004],[120.71353518400008,15.882687320000056],[120.71330690400009,15.884393784000052],[120.71239183700006,15.886359770000068],[120.71173821700006,15.886668383000025],[120.71098952600005,15.885994007000022],[120.70923069600008,15.885536802000049],[120.70919504400001,15.886485501000033],[120.71013387900007,15.887902827000058],[120.70950402800007,15.889983078000057],[120.7078996900001,15.890760309000031],[120.70805418200008,15.892006158000072],[120.7074480980001,15.892303332000038],[120.70618839600002,15.89218903500006],[120.70527332900006,15.893137703000036],[120.70422753800005,15.89354917200006],[120.70352638300005,15.893171992000077],[120.7030153710001,15.894303530000052],[120.7009832100001,15.894040648000043],[120.69974727500006,15.894714997000053],[120.69916496000008,15.894509263000028],[120.69744178200006,15.894760715000075],[120.69703772600009,15.893697758000025],[120.698178589,15.892851960000026],[120.69777453300003,15.892383340000036],[120.69644352700006,15.89226904300006],[120.69574237200005,15.891308941000032],[120.69517194000002,15.889868779000034],[120.69439948100013,15.889811630000057],[120.69400731000007,15.889034395000069],[120.69540962000009,15.888280017000051],[120.69507686800011,15.887502777000067],[120.69297340300012,15.887582787000042],[120.6924267390001,15.886874124000029],[120.69159486,15.88670267300006],[120.69100066100009,15.888931525000038],[120.6914522530001,15.89022310600006],[120.69073921300004,15.892474778000063],[120.68963400300002,15.892829100000027],[120.68870705200004,15.892429059000053],[120.68843372000003,15.893937781000032],[120.68936067100003,15.895857955000059],[120.68835053200007,15.898612460000042],[120.68560880400004,15.898284046000072],[120.6847412730001,15.897804010000074],[120.68337461500005,15.896569626000028],[120.68073637000009,15.89716396000006],[120.6800114460001,15.896741068000045],[120.67693349400007,15.898832657000073],[120.67483002800009,15.897575421000056],[120.67528162000006,15.896032438000079],[120.67481814400004,15.894740895000037],[120.6733168230247,15.894443919108122],[120.67246419100334,15.897589117909856],[120.67200790493251,15.900353480315866],[120.67316357700008,15.90092422400005],[120.67424739600006,15.901015658000063],[120.67679999200003,15.899909830000068],[120.6786207030001,15.897961736000067],[120.681643989,15.897266825000028],[120.68333626900005,15.897413122000048],[120.6857510950001,15.898638357000044],[120.68912489300011,15.899525819000074],[120.69046457800005,15.898799736000056],[120.69121815400003,15.89726716200005],[120.69324078400007,15.895421808000034],[120.69440628100007,15.895626765000031],[120.69711583000003,15.897834945000053],[120.69936413500012,15.898931492000033],[120.70166487500002,15.898849200000027],[120.70267263700009,15.89839202400003],[120.70403691900003,15.897276511000026],[120.70580525600008,15.895283200000053],[120.70719330600001,15.893088707000059],[120.70834367500005,15.892485218000045],[120.70899967200012,15.891342240000023],[120.71110076000002,15.88912027200007],[120.71284057600009,15.886889135000052],[120.7140860180001,15.88367040300005],[120.71494166500008,15.882856568000022],[120.71656739400011,15.88225304800005],[120.71800298000005,15.881375196000018],[120.71861144000002,15.880076701000062],[120.72085513600008,15.87892450800007],[120.72203741400007,15.87742930300004],[120.72191497600011,15.876266129000038],[120.72228812000003,15.874519974000062],[120.72205994800004,15.87273676600006],[120.72302968100009,15.872517294000032],[120.72325785300006,15.875864228000065],[120.72255907500006,15.879183673000059],[120.72295837700007,15.879924368000053],[120.72402793600008,15.879910652000031],[120.72640948700007,15.87911509000003],[120.72877418100006,15.878948139000045],[120.72991504400011,15.879263621000064],[120.73068512600003,15.878714956000067],[120.73218250900004,15.878234873000055],[120.73245346400006,15.877370721000032],[120.73416475800002,15.877027803000033],[120.73500614400007,15.876561433000063],[120.7355765750001,15.877110104000053],[120.73583326900008,15.878125140000064],[120.73678874200004,15.877425588000044],[120.73763012800009,15.877288421000062],[120.73851429700004,15.875669840000057],[120.73959811600002,15.875793292000026],[120.74048228500011,15.876410548000022],[120.74145201800002,15.876108779000049],[120.74176575500007,15.876808335000074],[120.74002594000001,15.877000370000077],[120.73918455300009,15.876383115000063],[120.73855707900009,15.87664373400002],[120.73921307500007,15.876666595000069],[120.740401474,15.877638197000069],[120.74195827600012,15.877341002000037],[120.74267131500005,15.878346893000064],[120.7435388460001,15.878746962000033],[120.74555912400002,15.878952711000066],[120.7475912850001,15.877729642000077],[120.7482686730001,15.877626767000036],[120.74938576700004,15.87643798200002],[120.75011069100003,15.87635796700004],[120.75135850900007,15.87716954300003]],[[120.69272897600001,15.891980623000054],[120.69435470500004,15.892712127000035],[120.69438322600001,15.893553354000058],[120.69312827800002,15.89348020400007],[120.69285256900001,15.893059591000052],[120.69272897600001,15.891980623000054]]],[[[120.73434055300005,15.882058011000025],[120.73548141600008,15.881491065000036],[120.7358046600001,15.88054005600003],[120.73527225700002,15.879954818000044],[120.73629665700004,15.879433588000037],[120.73642738100011,15.878873493000073],[120.73747317200002,15.878667744000037],[120.73829316700005,15.879067812000077],[120.73838595000008,15.877274704000062],[120.73834316700004,15.87764505600006],[120.73571918300003,15.879277337000072],[120.73487779700008,15.87935963700005],[120.73426458300004,15.877905673000043],[120.73308093800007,15.878125140000064],[120.73295259100007,15.87941450300008],[120.73179203100005,15.880359549000046],[120.73261024400006,15.88101556100003],[120.73361800700002,15.88101556100003],[120.73434055300005,15.882058011000025]]],[[[120.72921122600007,15.882913094000056],[120.73042814700011,15.882519892000058],[120.72975817500003,15.881019338000044],[120.72831783600007,15.882528145000038],[120.72921122600007,15.882913094000056]]],[[[120.71521036100012,15.893779392000058],[120.7158663570001,15.894835491000038],[120.71796982300008,15.89430744200007],[120.71839764600008,15.893868543000051],[120.71824077800012,15.892812439000068],[120.7190964250001,15.892503836000062],[120.72061519800002,15.892524410000018],[120.71983085500005,15.889986990000066],[120.720728774,15.889256531000056],[120.7217840720001,15.889407406000032],[120.72222615600005,15.887891793000051],[120.72223868900004,15.886442292000025],[120.72356988600006,15.884569702000015],[120.72421756300001,15.884226796000057],[120.72470480700008,15.88319235900008],[120.72458596700005,15.88208361900007],[120.72527125500005,15.881550218000031],[120.72382925400007,15.882021895000033],[120.72369377700011,15.88344839700005],[120.72334438700011,15.884010765000031],[120.72184299900005,15.884818750000019],[120.72034086300005,15.886300096000074],[120.71868661200006,15.888512951000052],[120.71784998000011,15.890268588000026],[120.71691827500001,15.891530442000034],[120.71558365800001,15.892536130000058],[120.713432096,15.892863687000045],[120.71521036100012,15.893779392000058]]],[[[120.76061907300004,15.920870545000074],[120.7600842940001,15.920493416000056],[120.7583253050001,15.920144998000067],[120.75822548000008,15.919335881000054],[120.75982268800011,15.918238769000027],[120.76127728700011,15.917827350000035],[120.76136285200005,15.916922226000054],[120.76327379700001,15.916428521000057],[120.76376068538949,15.916396332718763],[120.76381930342419,15.916179751685647],[120.76453993208196,15.911802131120625],[120.7646418488058,15.910154558349841],[120.76405814000009,15.91072338900005],[120.7626035400001,15.911189680000058],[120.76159102500003,15.91298626100007],[120.75960877600005,15.91284911800005],[120.75916669100002,15.914138259000023],[120.75852495600009,15.914357686000075],[120.75804009000001,15.915303964000035],[120.75677088000009,15.91664794600007],[120.75561575600013,15.916373664000046],[120.75513089000003,15.917237649000073],[120.75379037600011,15.91631880800003],[120.75363350700002,15.91519425100006],[120.75263525300011,15.914974825000064],[120.75177960600003,15.91557824700004],[120.7504105700001,15.914947396000056],[120.74902727400001,15.914933682000026],[120.74721615500003,15.915262822000047],[120.7472304160001,15.913685689000037],[120.745547643,15.913274261000026],[120.7444780840001,15.912533689000046],[120.74121236500002,15.913109690000057],[120.73957237500008,15.91367197500006],[120.73771847300009,15.913191975000075],[120.73637795900002,15.912369117000024],[120.73542248700005,15.910929106000028],[120.7354367470001,15.90998280700006],[120.73389658300006,15.908309631000064],[120.73124407700004,15.90830963100006],[120.73040269100012,15.90810391100007],[120.72920478500008,15.90634843100003],[120.72491228900003,15.905100385000026],[120.72338638500004,15.903399738000074],[120.7231439520001,15.901740221000074],[120.72461281300002,15.90016298300003],[120.72652375800011,15.900135552000053],[120.72830635600009,15.900862455000038],[120.72921904600003,15.902508264000062],[120.73006043200006,15.903056863000073],[120.7310301650001,15.90275513400007],[120.73221381000008,15.903482027000052],[120.73349728100006,15.903317448000053],[120.7345383180001,15.902563124000036],[120.73482353400006,15.901781367000071],[120.73556509500008,15.901383629000067],[120.73791812400009,15.901301339000035],[120.73941550600011,15.901520780000055],[120.73992889400007,15.902288823000047],[120.74094141000012,15.902261393000055],[120.74048506500003,15.901040752000025],[120.73928715900003,15.900231558000028],[120.7373904750001,15.90030013400008],[120.73694839100006,15.899888679000068],[120.73499466300005,15.899943540000038],[120.73371119300009,15.898201703000042],[120.73168616100008,15.897488506000059],[120.72991782400004,15.897419929000016],[120.72829209500003,15.89661072100006],[120.72686601600005,15.896473567000042],[120.72532585200008,15.895897518000025],[120.72269909500005,15.89653612500007],[120.72160101400006,15.896110946000016],[120.72015529300008,15.897358988000066],[120.71816829000011,15.896892665000053],[120.71730567500003,15.897953879000058],[120.71589397300012,15.898720214000033],[120.71422454600008,15.898288031000048],[120.71292503000006,15.896850592000078],[120.71253717800005,15.895000670000059],[120.71195552300003,15.89743727700005],[120.71265905500002,15.898406493000039],[120.71357174500007,15.89906482600003],[120.71604410200005,15.899255692000054],[120.71763502900001,15.901683510000051],[120.71956023500003,15.903432174000045],[120.72298282300005,15.905832276000066],[120.72394542600011,15.90638086600006],[120.72726105800007,15.907375183000056],[120.73036277900007,15.908506641000029],[120.7327158080001,15.909123798000055],[120.73410623400002,15.909740952000048],[120.73628100400005,15.912620981000032],[120.73831316600001,15.91388955200006],[120.73995315600007,15.914335264000046],[120.74247303600009,15.914164865000032],[120.74374224600001,15.913822009000057],[120.74466919700001,15.91402772200007],[120.74702222600001,15.915344284000069],[120.74899021400006,15.915796850000046],[120.75011681600004,15.91560485200006],[120.75286914800006,15.916084846000047],[120.75517939400002,15.918018523000061],[120.75680814500004,15.918555318000074],[120.75739666299998,15.920042933000044],[120.75863806200006,15.921313906000027],[120.76042066000004,15.921931022000022],[120.76217877470488,15.92172315805004],[120.76254623134918,15.92076202911448],[120.76061907300004,15.920870545000074]]],[[[120.76394405400004,15.908556494000038],[120.76469647940482,15.909271383591063],[120.76476884647343,15.908101450502773],[120.76394405400004,15.908556494000038]]],[[[120.75449951300003,15.931907933000046],[120.7507560570001,15.930765180000037],[120.74695318200007,15.929279590000021],[120.74570536300007,15.928936760000058],[120.74404160500002,15.927993974000062],[120.74181335700008,15.925936973000027],[120.74079438800004,15.924733419000061],[120.73910975100011,15.92382281000005],[120.73587136400012,15.922937141000032],[120.73001850100002,15.920137257000016],[120.72672069500003,15.91916586000008],[120.7241062180001,15.918765872000048],[120.72236673800012,15.918071220000057],[120.72027363200004,15.91650877900003],[120.71792654500007,15.91388023400003],[120.71504467800003,15.912308805000063],[120.71216232200004,15.911223262000021],[120.70925312300005,15.910852973000035],[120.7049891480001,15.91082554400003],[120.70337768000002,15.91118211900005],[120.70129560500006,15.91070211400006],[120.69835788400007,15.911319263000049],[120.69570537800008,15.911072404000036],[120.690386106,15.911511265000058],[120.68857498600005,15.911524979000031],[120.68518092000012,15.911922696000037],[120.6838546670001,15.911950125000029],[120.67910582600007,15.912512414000044],[120.67723766300003,15.912567271000059],[120.67420011600007,15.912882700000067],[120.67199771374892,15.913349166445796],[120.67226132181878,15.915211604267116],[120.67332475690651,15.919523052114927],[120.67481984099199,15.923712873446872],[120.67604856255399,15.926300840492237],[120.67704712700004,15.926140797000073],[120.67851123400008,15.92619565000007],[120.68144895600005,15.925592260000032],[120.68319827900007,15.92562882900006],[120.68548000400006,15.925308849000032],[120.68831314600006,15.925244852000048],[120.69044275700001,15.924705456000027],[120.69152657600011,15.925080291000029],[120.69229665900004,15.925939667000025],[120.69362766500001,15.928206938000075],[120.69445479100011,15.929011448000042],[120.69572875400003,15.928956595000045],[120.6964608070001,15.92839892400007],[120.69769674200008,15.926607052000069],[120.69776329200012,15.925354560000073],[120.69741152600012,15.92378207800004],[120.69787737900003,15.922556996000024],[120.69906577700011,15.92342552500003],[120.69941754300011,15.924732883000045],[120.7003920300001,15.925868814000065],[120.70085550600004,15.927260721000037],[120.70049898600007,15.928590909000032],[120.69962194800007,15.930524466000069],[120.69997133700008,15.93188891500006],[120.70122628600006,15.933088799000071],[120.70355079400007,15.93441894900007],[120.70774346400003,15.934960605000066],[120.71077506900008,15.934615119000059],[120.71452090200013,15.934532842000069],[120.716298746,15.93504478600005],[120.72171675200003,15.937476807000058],[120.72285059500007,15.937734817000036],[120.72458220400006,15.937143383000032],[120.7254885420001,15.937193084000057],[120.72739721400002,15.936658985000062],[120.7287156200001,15.934943056000069],[120.72995155500008,15.934680227000063],[120.73115183700008,15.935034475000064],[120.73310081100011,15.934840210000056],[120.73526369600006,15.935068757000066],[120.73660658700011,15.93613149500004],[120.73847237300005,15.936680003000049],[120.73942309200004,15.937662743000024],[120.73932802000003,15.938462644000023],[120.73827034500006,15.938759749000045],[120.734871525,15.938325518000056],[120.73310081100011,15.937765587000058],[120.73213820800004,15.937822723000073],[120.729698772,15.937473004000033],[120.72844559799998,15.938623572000042],[120.7267929090001,15.93886772300004],[120.72589448000006,15.93937508600004],[120.72579465500007,15.940115560000038],[120.72686421300011,15.941061716000036],[120.7284186390001,15.942885455000066],[120.72913167800006,15.943365383000069],[120.73053720400002,15.945119599000066],[120.73112818800007,15.946450610000054],[120.73265409100007,15.947643551000056],[120.73313895800005,15.949357535000047],[120.73382820687478,15.9493756107311],[120.7355324736525,15.948805773967013],[120.73969522229534,15.946954146564693],[120.74365026084622,15.944716588035492],[120.74735948220055,15.942114657694926],[120.75078715161638,15.939173425751683],[120.75390025135388,15.935921231395252],[120.7563889106794,15.932746469434939],[120.75449951300003,15.931907933000046]]]]}},{"type":"Feature","properties":{"fid":180,"objectid":9619,"lccode":"07","liqcode":null,"mappers":"DJLBuhay, MITAbigania","project":"EHM","province":"Tarlac","otherinfo":"merged into one feature in 2024","datemapped":2021,"publishdate":null,"globalid":"{86B5AD80-4B79-45B5-89D4-1FDEF062B016}","st_area(shape)":0.06253734240529021,"st_perimeter(shape)":3.2108098594058267,"liqcodepk":null,"creator":null,"createdate":null,"editor":null,"modifydate":null,"codemove":null},"geometry":{"type":"Polygon","coordinates":[]}}]}