{"type":"FeatureCollection","features":[{"type":"Feature","properties":{"fid":27,"objectid":1873,"lccode":"07","liqcode":"2010600070000000","mappers":"MITAbigania, MRJSanDiego","project":"READY","province":"Catanduanes","otherinfo":null,"datemapped":2012,"publishdate":null,"globalid":"{6806FBE5-F17E-446D-A93D-3AE6AE77BE83}","st_area(shape)":0.005372229043825049,"st_perimeter(shape)":2.72076790618239,"liqcodepk":"201060007000000000066","creator":"SNOOPYPC","createdate":"2019-02-19T15:21:28","editor":"LENOVO","modifydate":"2019-03-10T17:50:55","codemove":"na"},"geometry":{"type":"MultiPolygon","coordinates":[[[[124.12112760700008,13.580311346000029],[124.12110616600013,13.581451828000068],[124.1200012180001,13.582990416000028],[124.11807483000007,13.583667564000052],[124.11766349900006,13.584534529000052],[124.1153857590001,13.58458405400006],[124.11222865700005,13.585712331000023],[124.11121626900001,13.587001422000068],[124.11057103600002,13.589442370000029],[124.10964048700009,13.591045681000026],[124.10604514200008,13.59305407000005],[124.10359262400004,13.592999405000057],[124.10102113900007,13.593299156000057],[124.10014946700005,13.593158819000054],[124.09885201200007,13.593675755000048],[124.09753245900005,13.595215202000078],[124.09664368900008,13.59718531100003],[124.09552221700005,13.598094696000032],[124.09414390100007,13.598520209000073],[124.09165286000007,13.59884573100004],[124.09055690100003,13.599479715000031],[124.0872902860001,13.600175613000033],[124.08576495100012,13.600693480000073],[124.08399643000007,13.60077983200006],[124.08091857000011,13.601736988000027],[124.07899403700004,13.602885732000061],[124.07772701400008,13.604228239000065],[124.07652123600009,13.604298995000025],[124.07464233900008,13.60369103400006],[124.07305502000008,13.602360859000042],[124.07241697200003,13.602436990000054],[124.07083632900003,13.603668108000022],[124.06898942600003,13.60421347400006],[124.06778158500003,13.603825415000074],[124.06693275200007,13.60280662400004],[124.06523850800012,13.601529286000071],[124.0640581890001,13.601298387000043],[124.06256591500005,13.60022989500004],[124.06032740600006,13.597093491000065],[124.05954708900005,13.596402081000065],[124.05666435900002,13.59604729800003],[124.05551801500009,13.597428511000034],[124.05360845800008,13.598957138000056],[124.0532095100001,13.599653556000018],[124.05164666300004,13.600800568000068],[124.04989324300006,13.601279859000043],[124.0482037060001,13.601051030000063],[124.04694662400004,13.601646184000057],[124.04554603800011,13.603133290000075],[124.0446214330001,13.603150279000031],[124.04390920000003,13.604229446000033],[124.04437410100003,13.605118851000045],[124.04535231900003,13.605712477000052],[124.04579615600007,13.606685860000027],[124.04719489600005,13.607823010000061],[124.04809503900003,13.607724843000028],[124.04848477800012,13.608583095000029],[124.04996894000011,13.609635976000051],[124.05080439200002,13.609454180000055],[124.05180505700002,13.610267900000052],[124.05355105300009,13.609914461000074],[124.05579613900012,13.608478784000056],[124.0568419970001,13.60739423800004],[124.05742041200007,13.607276430000068],[124.05841083300004,13.608195032000026],[124.06130917000007,13.609011122000025],[124.0620863150001,13.610182291000056],[124.063021336,13.613093536000067],[124.06156555600012,13.61361358800002],[124.0602459680001,13.61341997100004],[124.05911977900007,13.612716931000021],[124.0584906810001,13.61108371700004],[124.05789780900011,13.610362671000074],[124.05733332100012,13.611203988000058],[124.0573678510001,13.61415054200006],[124.05676702300002,13.61888249700007],[124.05618200100002,13.619933629000059],[124.05419585000004,13.621756217000037],[124.05351008900004,13.62185350200002],[124.05026990800003,13.626208615000055],[124.05011556500006,13.627677375000076],[124.04920812700004,13.630133756000076],[124.05111993100002,13.628710544000056],[124.05192302000013,13.62768683300004],[124.05591468700004,13.624806653000062],[124.05802846700011,13.623415347000046],[124.06090957300013,13.621751664000044],[124.06232077200002,13.620571577000021],[124.0650033500001,13.619151212000075],[124.06577635800011,13.617762600000049],[124.06779849100008,13.616086705000042],[124.06827470400005,13.615215842000055],[124.06963633100007,13.613707187000044],[124.07348450700012,13.61085096100004],[124.07432824500006,13.610728368000027],[124.07608508900012,13.611683508000056],[124.07752547300004,13.611677276000021],[124.07814803400005,13.611322425000026],[124.07966667500011,13.608841272000063],[124.0800801690001,13.608590186000075],[124.08122056600007,13.60595537900002],[124.08433506500012,13.604579949000028],[124.0859662890001,13.604314509000064],[124.08717981000007,13.603575710000028],[124.09013899000001,13.603200676000027],[124.09191404400008,13.603839084000072],[124.0947000880001,13.606324911000058],[124.09542713400002,13.606722675000071],[124.09708999900009,13.606261604000053],[124.09983119000003,13.604513514000073],[124.101668474,13.606355816000077],[124.10349349700004,13.605545900000038],[124.10412446300008,13.605635660000072],[124.10558983600005,13.606623244000046],[124.1065878180001,13.606488199000065],[124.10697713900004,13.605536943000061],[124.10696426299998,13.60276624900007],[124.10772752300012,13.60170621900005],[124.11058632000005,13.602163051000051],[124.11116184800005,13.602019659000065],[124.11230880200003,13.600887403000058],[124.11341157100004,13.600577235000056],[124.116411104,13.60032898000003],[124.11840426600008,13.600484452000044],[124.11957857000006,13.600056523000035],[124.1229859120001,13.599759444000027],[124.12399019200008,13.598933021000049],[124.12446379399998,13.59712412700003],[124.12370880800006,13.595247835000064],[124.12392102900004,13.594448485000045],[124.12509041600002,13.592987426000034],[124.12494272000004,13.59221320100005],[124.12541900800011,13.591412748000039],[124.12498375400003,13.590733733000038],[124.12335766700005,13.590875927000074],[124.12257994800005,13.590056724000021],[124.12180556100007,13.589928516000041],[124.12180076200002,13.588908332000074],[124.12256383800002,13.586633998000021],[124.12424446200009,13.58629732300005],[124.12498095900001,13.58550410300006],[124.12480663800012,13.584221387000069],[124.12383406440283,13.582849293751035],[124.12163967254618,13.580502668301175],[124.1213551824444,13.580252754925066],[124.12112760700008,13.580311346000029]]],[[[124.1177568290001,13.581778724000062],[124.1168422390001,13.583012731000053],[124.11755097000001,13.583443641000033],[124.11812080400011,13.582291564000053],[124.11908842100001,13.581853138000039],[124.1177568290001,13.581778724000062]]]]}},{"type":"Feature","properties":{"fid":54,"objectid":1903,"lccode":"05","liqcode":"2010600050000000","mappers":"MITAbigania, MRJSanDiego","project":"READY","province":"Catanduanes","otherinfo":null,"datemapped":2012,"publishdate":null,"globalid":"{E007E964-0AF4-4562-904F-0A12E9A98ABE}","st_area(shape)":0.0010990424958159351,"st_perimeter(shape)":0.725596945134769,"liqcodepk":"201060005000000000098","creator":"SNOOPYPC","createdate":"2019-02-19T15:21:28","editor":"LENOVO","modifydate":"2019-03-10T17:50:55","codemove":"na"},"geometry":{"type":"Polygon","coordinates":[]}},{"type":"Feature","properties":{"fid":68,"objectid":1932,"lccode":"06","liqcode":"2010600060000000","mappers":"MITAbigania, MRJSanDiego","project":"READY","province":"Catanduanes","otherinfo":null,"datemapped":2012,"publishdate":null,"globalid":"{D676DE65-50B9-47A4-8AF0-BD7D44E0FC56}","st_area(shape)":0.0021118625030801673,"st_perimeter(shape)":1.6727362060815718,"liqcodepk":"201060006000000000131","creator":"SNOOPYPC","createdate":"2019-02-19T15:21:28","editor":"LENOVO","modifydate":"2019-03-10T17:50:55","codemove":"na"},"geometry":{"type":"Polygon","coordinates":[[[124.06711283300001,13.618440210000072],[124.06801395800007,13.617867345000034],[124.07182774800005,13.617511712000065],[124.07334140300009,13.617536008000057],[124.07504716500013,13.618207190000021],[124.07667274900008,13.619265751000057],[124.07962814600013,13.617958304000071],[124.08026494600006,13.617396125000026],[124.08056209100005,13.61614412800003],[124.0818706340001,13.615315725000073],[124.0830764550001,13.614092674000062],[124.08428541200011,13.613560896000022],[124.085924352,13.611414525000043],[124.08541408100008,13.610198947000072],[124.08255921200008,13.609431238000072],[124.0831984560001,13.607870972000054],[124.08515223300004,13.607615792000043],[124.08710213300004,13.606512409000059],[124.08781163000003,13.606524766000064],[124.0893825280001,13.605299642000034],[124.09020456000007,13.60557046300005],[124.09146961400008,13.606632044000039],[124.09334908900006,13.60736398600005],[124.09503085900006,13.608774604000075],[124.09695278700009,13.60936821700005],[124.09816734400012,13.609501607000027],[124.09855968700003,13.609114370000045],[124.09805079500006,13.60816058000006],[124.0981527560001,13.607181046000052],[124.09889001300007,13.606519586000049],[124.10074367300001,13.60751642200006],[124.1038539320001,13.608489595000037],[124.10467637000012,13.609056475000045],[124.10548038600005,13.609052906000045],[124.10695898100005,13.608337060000053],[124.1081508110001,13.608189938000066],[124.1092421410001,13.607673482000052],[124.11174478000008,13.607741316000041],[124.1132369410001,13.607031702000029],[124.11411808200013,13.606083389000046],[124.11523858300006,13.606251464000023],[124.11777938600007,13.605441675000064],[124.12034226700008,13.604209200000072],[124.124201748,13.603064672000073],[124.12733532200002,13.601053485000024],[124.12773660500012,13.599943971000073],[124.127153958,13.597885595000037],[124.12619887500013,13.595587656000077],[124.12564355200003,13.594823319000053],[124.12392102900004,13.594448485000045],[124.12370880800006,13.595247835000064],[124.12446379399998,13.59712412700003],[124.12399019200008,13.598933021000049],[124.1229859120001,13.599759444000027],[124.11957857000006,13.600056523000035],[124.11840426600008,13.600484452000044],[124.116411104,13.60032898000003],[124.11341157100004,13.600577235000056],[124.11230880200003,13.600887403000058],[124.11116184800005,13.602019659000065],[124.11058632000005,13.602163051000051],[124.10772752300012,13.60170621900005],[124.10696426299998,13.60276624900007],[124.10697713900004,13.605536943000061],[124.1065878180001,13.606488199000065],[124.10558983600005,13.606623244000046],[124.10412446300008,13.605635660000072],[124.10349349700004,13.605545900000038],[124.101668474,13.606355816000077],[124.09983119000003,13.604513514000073],[124.09708999900009,13.606261604000053],[124.09542713400002,13.606722675000071],[124.0947000880001,13.606324911000058],[124.09191404400008,13.603839084000072],[124.09013899000001,13.603200676000027],[124.08717981000007,13.603575710000028],[124.0859662890001,13.604314509000064],[124.08433506500012,13.604579949000028],[124.08122056600007,13.60595537900002],[124.0800801690001,13.608590186000075],[124.07966667500011,13.608841272000063],[124.07814803400005,13.611322425000026],[124.07752547300004,13.611677276000021],[124.07608508900012,13.611683508000056],[124.07432824500006,13.610728368000027],[124.07348450700012,13.61085096100004],[124.06963633100007,13.613707187000044],[124.06827470400005,13.615215842000055],[124.06779849100008,13.616086705000042],[124.06577635800011,13.617762600000049],[124.0650033500001,13.619151212000075],[124.06711283300001,13.618440210000072]]]}}]}