{"type":"FeatureCollection","features":[{"type":"Feature","properties":{"fid":200,"objectid":3303,"lccode":"01","liqcode":null,"mappers":"DJLBuhay, MJVReyes, MITAbigania, KLPapiona, KMVitto","project":"MELP","province":"Quezon","otherinfo":null,"datemapped":2017,"publishdate":null,"globalid":"{BC782275-8EAF-4B58-974B-C12246047CD2}","st_area(shape)":0.045970309448805105,"st_perimeter(shape)":30.915538535941515,"liqcodepk":null,"creator":null,"createdate":null,"editor":null,"modifydate":null,"codemove":null},"geometry":{"type":"Polygon","coordinates":[]}},{"type":"Feature","properties":{"fid":201,"objectid":3456,"lccode":"01","liqcode":null,"mappers":"DJLBuhay, MJVReyes, MITAbigania, KLPapiona, KMVitto","project":"MELP","province":"Marinduque","otherinfo":null,"datemapped":2018,"publishdate":null,"globalid":"{C1C76F22-BF62-4BCA-9566-6C4AB9AA7AC0}","st_area(shape)":0.008373951507563988,"st_perimeter(shape)":5.3853957391960225,"liqcodepk":null,"creator":"SDE","createdate":"2019-10-29T15:36:34","editor":"SDE","modifydate":"2019-10-29T15:38:36","codemove":null},"geometry":{"type":"MultiPolygon","coordinates":[[[[122.06598688300006,13.44756498500004],[122.06492807500001,13.448336116000062],[122.06453306900005,13.44950169900005],[122.06477464200009,13.450086612000064],[122.06447658800003,13.45131522500003],[122.0646494770001,13.452109919000067],[122.0657996010001,13.454267143000038],[122.06575338300001,13.454841091000048],[122.06434705700008,13.456759034000074],[122.06408284500002,13.457906134000039],[122.06515105100004,13.45835101800003],[122.06515013400008,13.458915802000035],[122.0669200750001,13.458816288000035],[122.06689855700007,13.459323348000055],[122.0654795280001,13.459691256000037],[122.06518300400012,13.460522627000042],[122.065428675,13.461600223000056],[122.06451109800003,13.462337742000045],[122.0632351160001,13.462735243000052],[122.0618101860001,13.464270182000062],[122.06192561300008,13.465706432000045],[122.06253743600007,13.466763659000037],[122.06131600900005,13.467842749000056],[122.06035033700005,13.46739204700003],[122.05847503000008,13.469106574000024],[122.05742593000002,13.469112285000051],[122.0560506160001,13.468447081000022],[122.05625069900009,13.467287636000036],[122.05538432900005,13.46694947900005],[122.05271882100008,13.467241312000052],[122.05233857000007,13.46869053300003],[122.05312171500009,13.470493317000036],[122.05466270700003,13.471592116000068],[122.05531253700008,13.472786073000066],[122.05521218500009,13.473443540000062],[122.05439390200003,13.474547630000073],[122.05382705700002,13.477554827000061],[122.05509489600001,13.47767107500004],[122.05543929200007,13.478181975000041],[122.0566742420001,13.478526228000018],[122.05840146000004,13.477707969000047],[122.05866199800006,13.478160510000066],[122.06122185100003,13.478700752000067],[122.06183553800008,13.479286733000036],[122.06341881500008,13.479455310000047],[122.0653180160001,13.478840424000055],[122.068172075,13.479080679000047],[122.07109030700009,13.478397275000077],[122.07245734700008,13.478861624000045],[122.07262553700004,13.479680166000037],[122.07118685500006,13.480279571000038],[122.06928609100008,13.481444983000072],[122.0692363390001,13.484047183000028],[122.07043680100003,13.484611399000073],[122.07084468100003,13.485330557000054],[122.07248741100011,13.485307926000077],[122.07365932800008,13.485671079000038],[122.07466959100009,13.48475100300004],[122.07511315200009,13.485755886000048],[122.07559467062185,13.486238985636694],[122.07598968640917,13.484719967948068],[122.07613405194094,13.483791597871353],[122.07535973000006,13.483039981000045],[122.07461577400011,13.481939964000047],[122.07489421300012,13.481045658000028],[122.07628229900003,13.481109957000056],[122.07667695187902,13.4802367938065],[122.07667988445627,13.480182534564012],[122.0766327560001,13.477706588000046],[122.07682190767264,13.477554739294943],[122.07691112271144,13.47590398331992],[122.07670569922396,13.471472202573306],[122.07605742364102,13.467081466357802],[122.07497256314322,13.462774058051297],[122.07346158793769,13.458591456292114],[122.07153906956671,13.454573935675967],[122.06922353981125,13.450760179127816],[122.06653731157644,13.447186905672389],[122.06566485802574,13.446237513602519],[122.06598688300006,13.44756498500004]]],[[[122.0363535450001,13.519151693000026],[122.03424930800008,13.51807310600003],[122.03308228800006,13.517990859000063],[122.02953743900002,13.516369986000031],[122.02788611000005,13.516143834000044],[122.02491464700007,13.514225437000052],[122.02431230800005,13.513256672000068],[122.02846004700005,13.51238196100007],[122.02940181400004,13.511797146000049],[122.03256988100009,13.511847672000043],[122.03397894600006,13.51222780100005],[122.0364070810001,13.512357869000027],[122.03848092800001,13.512774894000072],[122.04049507900004,13.513450023000072],[122.04406106800002,13.513639356000056],[122.04513425900006,13.514259426000024],[122.04556717000003,13.514942837000037],[122.04661926600009,13.51429498400006],[122.04831337900009,13.512460669000065],[122.04896378400008,13.508068725000046],[122.04872142600006,13.507240255000054],[122.0479109920001,13.50648284300007],[122.04819170300004,13.505971990000033],[122.05112231100009,13.50671031500008],[122.05063672700011,13.505866440000032],[122.04921925500004,13.505765381000057],[122.04962694400001,13.503437215000076],[122.05012824300002,13.50277888100004],[122.05062185200008,13.500355112000022],[122.05183993500009,13.498630795000048],[122.05185541500009,13.497805562000053],[122.05278350300011,13.496002038000029],[122.05292956000005,13.495227533000048],[122.05431984400002,13.49294787600007],[122.05568159800009,13.491751847000044],[122.05676578900012,13.490363095000077],[122.05676561400003,13.489513654000062],[122.05785005500002,13.488206963000037],[122.05822003800007,13.487309363000064],[122.05787897900007,13.485454161000062],[122.05711234500005,13.484897935000046],[122.05637403000004,13.485327705000032],[122.05537451700002,13.48526104800004],[122.05399321400012,13.485839855000053],[122.05275131500002,13.486722082000028],[122.05132292500004,13.48956967400005],[122.05005983700006,13.49010285200006],[122.04839305100006,13.489887606000023],[122.04544929400002,13.489942953000025],[122.04416113500008,13.48746935400004],[122.04486331400007,13.486079797000059],[122.04483126800007,13.484917092000044],[122.04538372600008,13.484294842000054],[122.04653929600009,13.484239590000069],[122.0458996750001,13.482951370000023],[122.04530322300003,13.480969886000024],[122.04420982200007,13.48085807900003],[122.04228765700009,13.482373437000033],[122.04165663500011,13.483502698000049],[122.04078925400007,13.484123831000035],[122.04034141200009,13.484961403000055],[122.03905580000003,13.485293033000062],[122.03796800300007,13.485961690000067],[122.03724918300009,13.485620309000069],[122.0360314300001,13.48615806500004],[122.03412417000006,13.484639326000034],[122.03367855300007,13.48388405700007],[122.03339509900002,13.482230214000028],[122.0340671890001,13.480237868000073],[122.031194722,13.48063453000003],[122.03008696400002,13.481602506000058],[122.02921221000007,13.48127873100003],[122.02900142400006,13.48051243100002],[122.02819377800006,13.480524110000033],[122.0279757820001,13.481782276000045],[122.02838601600001,13.482688717000029],[122.02808416800008,13.483752622000054],[122.03058547100011,13.485484634000045],[122.03361745900008,13.48669151100006],[122.03453360300011,13.487267731000031],[122.03473737200011,13.488481258000032],[122.03372142200008,13.490306204000033],[122.03243296900007,13.491749318000076],[122.03089557800001,13.492749640000056],[122.02988231300003,13.493061486000043],[122.029181686,13.493945570000047],[122.02764069600005,13.49417543800007],[122.02664063500005,13.494953417000037],[122.02388772500001,13.495553084000052],[122.02275066200002,13.496337376000042],[122.02240381300011,13.496973133000038],[122.02119597000001,13.497548228000028],[122.02014951600006,13.49721397200005],[122.0182472130001,13.497256275000037],[122.01516684600006,13.497925954000033],[122.01245270400013,13.499345228000035],[122.01171660200008,13.499358449000056],[122.01112240300007,13.49864274700008],[122.01169212400009,13.497417833000043],[122.0115626280001,13.496476732000076],[122.01287038900013,13.496224018000078],[122.01300219000005,13.495175143000042],[122.0125729680001,13.49483860400005],[122.01162562600007,13.495546525000066],[122.01110153700006,13.495441299000055],[122.00974972900008,13.496280951000074],[122.00853789700011,13.496119219000036],[122.00734911200004,13.496849660000066],[122.00649453400001,13.495821199000034],[122.00747160200001,13.495057684000072],[122.0060773780001,13.491928106000048],[122.00504909900006,13.49215501400005],[122.0046445910001,13.491317404000029],[122.00669466600006,13.489855436000028],[122.00622005800004,13.48852267000006],[122.00467346200001,13.48872914900005],[122.0042947170001,13.487491218000057],[122.00507310800003,13.486808240000075],[122.00420243000008,13.486235262000037],[122.00412636300007,13.485179980000051],[122.00345025000001,13.484922196000069],[122.00291289000008,13.485677962000066],[122.00300943300012,13.486741045000032],[122.001587674,13.488414662000025],[122.00126076500011,13.489437189000057],[122.00069168200004,13.489913347000025],[121.99973351700008,13.48990283100005],[121.9985676240001,13.490910404000031],[121.99633749400004,13.491192177000073],[121.99525372000005,13.490500206000036],[121.99452022400011,13.490619265000078],[121.9937553000001,13.489942442000029],[121.99321256200007,13.490612251000071],[121.99351371500006,13.491505589000042],[121.99469778000004,13.492031988000065],[121.99535557800004,13.492771831000027],[121.99559560400009,13.493802183000073],[121.99658333200011,13.493818208000048],[121.99694481000004,13.49437259600006],[121.99891439400007,13.495700912000073],[122.00180438100004,13.496726687000034],[122.00533608600006,13.498635279000041],[122.00812907400005,13.499488368000067],[122.0099215550001,13.499766922000047],[122.01066812200008,13.500217705000066],[122.01326669800005,13.499610774000077],[122.01633367700005,13.49982854800004],[122.018125284,13.499358503000053],[122.02101616700007,13.499658343000021],[122.02183170400009,13.50101574300004],[122.02408227700006,13.50062263500007],[122.02533152900004,13.501201606000052],[122.02621131800005,13.501262435000058],[122.0275233550001,13.500827375000028],[122.02904640100007,13.50140739000005],[122.03309589600008,13.50107857000006],[122.03409310100005,13.501120688000071],[122.03491622500009,13.500683704000037],[122.03523335000011,13.499632383000058],[122.03633447800007,13.498738760000034],[122.03694342100003,13.498920368000029],[122.03767615800007,13.500062786000058],[122.03855411000006,13.500582856000053],[122.03943398,13.50062450200005],[122.04096095700005,13.500228468000047],[122.04218887700006,13.499643869000064],[122.04384067600006,13.499207626000043],[122.04561386400007,13.499186936000056],[122.0468395690001,13.499962203000052],[122.04741922800008,13.501734595000073],[122.04750941500004,13.503648654000074],[122.0472549850001,13.50554973800007],[122.0461874330001,13.508085587000037],[122.0450290000001,13.509823392000044],[122.04423561100009,13.51058957600003],[122.0414619730001,13.511929719000024],[122.04029984700003,13.512041496000052],[122.0371609230001,13.511718476000054],[122.03382336300001,13.512042762000021],[122.03294621200006,13.511316952000069],[122.03184340000007,13.511614931000054],[122.03040354200003,13.511363633000029],[122.02830045100008,13.511400505000038],[122.02712292300008,13.511776811000063],[122.02651747900008,13.511001275000067],[122.02512069500006,13.510705176000043],[122.02338866000004,13.51092212000003],[122.02070781100008,13.513207434000035],[122.01922475000003,13.51399526800003],[122.01844506500004,13.515032563000034],[122.01872827400008,13.516567213000029],[122.0207706430001,13.51810616700004],[122.02165371100011,13.517377627000032],[122.02136884000005,13.516267119000078],[122.02297636700006,13.516224793000047],[122.02438243200005,13.517171623000023],[122.02559291000011,13.516183303000048],[122.02632659700011,13.516114392000077],[122.02665611200008,13.51684589800004],[122.02791370700004,13.517799833000023],[122.03027350900004,13.517517141000042],[122.03061252400005,13.518319818000064],[122.03344708400003,13.519950353000068],[122.03366060365481,13.520797285571037],[122.0350667728864,13.52073512561042],[122.03537842347829,13.52069111777991],[122.0363535450001,13.519151693000026]]],[[[122.0676949990001,13.50202283300007],[122.06685068400009,13.502916506000078],[122.0654209810001,13.503447024000025],[122.06508673300004,13.503905072000066],[122.06456454915556,13.50641871577812],[122.06631475696977,13.504543499737993],[122.06856950045535,13.501592043171444],[122.0676949990001,13.50202283300007]]]]}}]}