{"type":"FeatureCollection","features":[{"type":"Feature","properties":{"fid":28,"objectid":1874,"lccode":"07","liqcode":"2010600070000000","mappers":"PJDelosReyes, ACPidlaoan","project":"READY","province":"Dinagat Islands","otherinfo":null,"datemapped":2007,"publishdate":null,"globalid":"{2E090E8A-9F30-4C8C-81C7-9B92AA3A6F49}","st_area(shape)":0.003685682749316342,"st_perimeter(shape)":4.650769488834432,"liqcodepk":"201060007000000000067","creator":"SNOOPYPC","createdate":"2019-02-19T15:21:28","editor":"LENOVO","modifydate":"2019-03-10T17:50:55","codemove":"na"},"geometry":{"type":"MultiPolygon","coordinates":[[[[125.60640715600005,10.140032580000026],[125.604760918,10.13901283000007],[125.60421348600005,10.137600783000039],[125.60447241800013,10.136477468000063],[125.6035154340001,10.135983418000023],[125.60179823500005,10.137236364000046],[125.60261038800003,10.138233208000033],[125.60250057400003,10.139384881000069],[125.60331392800002,10.140529232000063],[125.60287101000004,10.141004846000042],[125.6012921890001,10.140958374000032],[125.60091628400005,10.138659747000077],[125.60031352500006,10.137779309000052],[125.60038690500004,10.135801701000048],[125.59874284500006,10.13504748400004],[125.5979128250001,10.135526155000036],[125.59743282900003,10.13508739000002],[125.5977489610001,10.133668491000037],[125.59640228200011,10.132852916000047],[125.59527228200012,10.13306835900005],[125.59463225100001,10.13124390100006],[125.59569620500008,10.13023220800005],[125.5950377260001,10.129824297000026],[125.59370198500005,10.13036603000006],[125.59394969000006,10.131544425000074],[125.59357486000012,10.133081768000068],[125.59243876200003,10.132530103000024],[125.59269417900008,10.130964162000053],[125.59119318500008,10.12947107000002],[125.59044751400006,10.129329429000052],[125.58965690700006,10.127299627000072],[125.58810744300001,10.127193764000026],[125.58654425800013,10.125376545000053],[125.58514021100008,10.124826954000072],[125.58413247200009,10.125425058000076],[125.58390293100001,10.126518691000058],[125.58283634000009,10.12720569700002],[125.58281483200005,10.128238704000067],[125.5840430720001,10.12914381200005],[125.58513644200004,10.128072924000037],[125.58704701500005,10.128647974000044],[125.58743694900011,10.128999028000067],[125.58679062300008,10.13009594300007],[125.58706926400009,10.131421628000053],[125.58668871900012,10.13225085600004],[125.58705534900004,10.133398784000066],[125.58777409600009,10.133894768000062],[125.58932067400008,10.13364652400003],[125.59114629800001,10.134753396000065],[125.59356383700003,10.135413016000028],[125.59279652000009,10.13627484400007],[125.59107665500005,10.137203182000064],[125.5894780210001,10.138396059000058],[125.58894859200007,10.139226465000034],[125.58954753500008,10.139634855000054],[125.5892296310001,10.140847258000061],[125.58837027400013,10.141385133000028],[125.58731163200004,10.139357445000027],[125.58519325800013,10.138872490000038],[125.58472171400001,10.139495833000067],[125.58627929400006,10.14060492900006],[125.58631617800006,10.141489860000037],[125.58706638200012,10.14219219600005],[125.58659649800006,10.143022132000056],[125.58466126300004,10.143096373000047],[125.58362488000012,10.143842238000046],[125.58234120300007,10.143468768000046],[125.58148253300011,10.144095156000049],[125.58012519800002,10.145669772000076],[125.57933269400006,10.147121962000028],[125.5776389570001,10.147607387000047],[125.57642473900013,10.148472706000064],[125.57552162800003,10.147269894000035],[125.57474495400002,10.146980945000053],[125.57285478200004,10.148972845000062],[125.57115198200007,10.152055106000034],[125.5698765940001,10.152714283000023],[125.5684641270001,10.154770903000042],[125.56907195500003,10.156233246000056],[125.56745077800008,10.15792264700002],[125.56803061000005,10.158280092000041],[125.56839745700006,10.160868504000062],[125.5677350530001,10.162207465000048],[125.56558825900004,10.16310067100005],[125.56545625100011,10.161024894000036],[125.56494490999998,10.159599911000043],[125.5642892090001,10.159376395000038],[125.56403225100007,10.158501933000023],[125.56256185900008,10.15980908700004],[125.56208018300003,10.159698575000052],[125.55935567000007,10.160501039000055],[125.5586525220001,10.16155447400007],[125.55852867500005,10.162908280000066],[125.55780884500005,10.164285713000025],[125.55847054800006,10.165271300000027],[125.55944522200001,10.165353660000052],[125.55898403100004,10.167948751000038],[125.55933665900011,10.169003059000033],[125.5564506180001,10.169639382000073],[125.55673164000007,10.170353221000026],[125.55838765700001,10.170851783000046],[125.5589350450001,10.170438264000042],[125.55993444300009,10.170601009000052],[125.56048617600005,10.170733015000053],[125.56216146540233,10.171770868772386],[125.56421511111576,10.17185470317425],[125.56431824884802,10.171848872999087],[125.56488869800012,10.170357599000056],[125.56473773500011,10.168687956000042],[125.56352993200007,10.168288271000051],[125.56434147200002,10.166474675000073],[125.56482710900003,10.166948223000077],[125.56493899700001,10.168038465000052],[125.5660449830001,10.168609504000072],[125.56687067200005,10.168568972000058],[125.56821719100004,10.169103968000055],[125.56842887900007,10.16975012800003],[125.56913069826693,10.171532723279352],[125.56979381131148,10.171429946401869],[125.56972567700008,10.170128965000059],[125.57015199600005,10.168707508000068],[125.57123384600003,10.167989957000032],[125.571511256,10.166779939000033],[125.57132326800001,10.164177794000068],[125.57074710900008,10.163447002000055],[125.56912206200002,10.163407233000042],[125.56713531600009,10.16457831200006],[125.56635748800011,10.166433407000056],[125.56517870300003,10.166639606000048],[125.5632229910001,10.163755833000037],[125.56415371400011,10.16405351000003],[125.56543285900011,10.166169139000035],[125.56643634700005,10.165603220000035],[125.56668358700006,10.16417660400003],[125.56871779600012,10.162697548000038],[125.56929672800005,10.16021234900006],[125.57032120500003,10.158956901000067],[125.57176647200002,10.158078938000072],[125.57220861600001,10.157001978000036],[125.57009083200013,10.155876229000055],[125.56989643500003,10.153922583000053],[125.57042245200012,10.153360406000045],[125.57424073100003,10.151124869000055],[125.5766648550001,10.149103412000045],[125.57724602300004,10.148851339000029],[125.57911627500006,10.148882592000062],[125.58053473600012,10.147978555000062],[125.5817727650001,10.14475925100004],[125.58288866400004,10.144166158000075],[125.58457148400011,10.143982209000056],[125.58598049200009,10.143557495000039],[125.58839737100004,10.143291966000051],[125.58903069200005,10.142886490000024],[125.59092439200005,10.140214623000077],[125.59185595300006,10.139681659000074],[125.5935713230001,10.139537194000066],[125.5956853790001,10.140209829000073],[125.59715570600008,10.140906333000032],[125.59877736600004,10.141366189000053],[125.59941491200003,10.140665230000025],[125.59974136200005,10.139211738000025],[125.59946045700009,10.138091316000043],[125.59763246800001,10.136694985000078],[125.59613646500009,10.135219265000046],[125.59498596800005,10.134801621000063],[125.59232101400005,10.13488175800006],[125.59205130600004,10.134470499000031],[125.59453434900001,10.134125585000048],[125.59603406100008,10.134564510000077],[125.59761150200006,10.135918307000052],[125.59939869100005,10.137107781000054],[125.60052989700011,10.13895769000004],[125.60049927600005,10.140393909000066],[125.60080603800007,10.14120938000002],[125.60352823900007,10.141698972000029],[125.6050260940001,10.142240621000042],[125.60499104300004,10.143013524000024],[125.60597278041634,10.143944593074036],[125.60611779874989,10.143634389860807],[125.60759142035815,10.139448266405122],[125.60759922624183,10.139416304892348],[125.60640715600005,10.140032580000026]]],[[[125.5998247230001,10.154077823000023],[125.59969732848381,10.15456207514211],[125.60046514670302,10.153519002949968],[125.5998247230001,10.154077823000023]]],[[[125.6001129020001,10.152509631000044],[125.59905169600006,10.152910787000051],[125.59698084700005,10.152736095000025],[125.59683031600002,10.152312968000047],[125.59879681400001,10.152115996000077],[125.59926511700009,10.151293907000024],[125.59882629000003,10.150137702000054],[125.59692394900003,10.147071608000033],[125.59434915300004,10.143699897000031],[125.5932268590001,10.143028223000044],[125.59153972500009,10.143215506000043],[125.58857276200001,10.14447593500006],[125.58755938800006,10.14469654000004],[125.58526791000008,10.144796469000028],[125.58263677600007,10.145339058000047],[125.58224938,10.145719010000048],[125.581669411,10.147646742000061],[125.58111987800011,10.14850151400003],[125.57952902900001,10.149576546000048],[125.57685670700005,10.149858491000032],[125.57373266800005,10.152194390000034],[125.57148511000004,10.153380489000027],[125.57030982800006,10.154360149000071],[125.57062811600008,10.155381123000042],[125.57278246200008,10.156541207000032],[125.57314896600009,10.157126824000043],[125.57299462700009,10.158311977000043],[125.57189170800007,10.159361164000074],[125.57038563700006,10.159552091000021],[125.5700621530001,10.16111542300007],[125.5693839160001,10.16253521500005],[125.56988716500007,10.162983300000064],[125.57132022500002,10.163355852000052],[125.5718381800001,10.166023149000068],[125.57157348800003,10.167751906000037],[125.57024925200005,10.169022215000043],[125.5698755640001,10.170390736000057],[125.57003887100007,10.17122199500005],[125.5710840920001,10.170377190000067],[125.57179642700011,10.169075863000042],[125.57265054900007,10.16828491900003],[125.57178359900003,10.167473352000057],[125.57208135100007,10.165970665000032],[125.57183220600007,10.16327537400002],[125.57063849500004,10.162763943000071],[125.57035218400007,10.161560164000038],[125.57115257300006,10.16132089800004],[125.57128341600003,10.160387934000026],[125.5730197040001,10.159552037000026],[125.57456682500005,10.161006350000033],[125.57439330700004,10.161802514000042],[125.57519947500009,10.16227587500003],[125.57565148200001,10.161724145000049],[125.57468909900003,10.159004477000051],[125.57486319900009,10.158290426000065],[125.57565995200002,10.157598945000075],[125.57591586300009,10.156733477000044],[125.57190945100002,10.155641131000039],[125.57146014000013,10.154808660000072],[125.57193847200007,10.154078582000068],[125.57334206200007,10.153163002000042],[125.57503942900006,10.152656333000037],[125.57650416400008,10.152466676000074],[125.57748212900003,10.151951917000076],[125.57967901700009,10.151646819000067],[125.5797536880001,10.150604630000032],[125.5808658310001,10.14956809800003],[125.58320219300005,10.149412657000026],[125.58413353000003,10.14825405000005],[125.58415669200006,10.147691964000048],[125.5858991460001,10.145924046000061],[125.58688136600004,10.145943764000036],[125.58893141800002,10.144584448000044],[125.59100289500009,10.144170698000039],[125.59273931300002,10.145088902000051],[125.59321886200006,10.146236282000075],[125.59220076500003,10.146915900000067],[125.59057199500012,10.147339895000071],[125.59068200700007,10.148983534000024],[125.58998327000008,10.149811398000052],[125.58648944100003,10.150524190000056],[125.58592343500004,10.152392508000048],[125.58711619700011,10.152780493000023],[125.58849646000009,10.15241330400005],[125.58912957300005,10.153737625000074],[125.5890793000001,10.154368489000033],[125.58720640400009,10.157124221000062],[125.58794939900008,10.160064902000043],[125.589028298,10.160056377000044],[125.58947740400002,10.159148276000051],[125.58997266100003,10.157088636000024],[125.59127764400012,10.155954519000034],[125.5952324210001,10.155799912000075],[125.59697246300004,10.15544347800005],[125.59589902000006,10.154410484000039],[125.59657092200008,10.153678760000046],[125.59815764400003,10.153186586000059],[125.59856052100008,10.153402641000072],[125.59982781900011,10.152748488000043],[125.60060637910637,10.153327139613737],[125.6010084938796,10.152780867941543],[125.6001129020001,10.152509631000044]]],[[[125.59600529500007,10.144093654000073],[125.5959983460001,10.144965421000052],[125.59661908500003,10.14568693500007],[125.598335549,10.146240646000022],[125.59916273800002,10.145701381000036],[125.599003937,10.145073070000024],[125.59728927800006,10.143875941000033],[125.59600529500007,10.144093654000073]]]]}},{"type":"Feature","properties":{"fid":55,"objectid":1904,"lccode":"05","liqcode":"2010600050000000","mappers":"PJDelosReyes, ACPidlaoan","project":"READY","province":"Dinagat Islands","otherinfo":null,"datemapped":2007,"publishdate":null,"globalid":"{C1B7B139-9CB6-4148-A5A1-CD430A8DF91E}","st_area(shape)":0.0008895176321861075,"st_perimeter(shape)":2.5216800381185633,"liqcodepk":"201060005000000000099","creator":"SNOOPYPC","createdate":"2019-02-19T15:21:28","editor":"LENOVO","modifydate":"2019-03-10T17:50:55","codemove":"na"},"geometry":{"type":"Polygon","coordinates":[]}},{"type":"Feature","properties":{"fid":69,"objectid":1933,"lccode":"06","liqcode":"2010600060000000","mappers":"PJDelosReyes, ACPidlaoan","project":"READY","province":"Dinagat Islands","otherinfo":null,"datemapped":2007,"publishdate":null,"globalid":"{D7601F09-94CD-4DE6-9247-09596FD3E909}","st_area(shape)":0.000697330192818332,"st_perimeter(shape)":0.93688380835251,"liqcodepk":"201060006000000000132","creator":"SNOOPYPC","createdate":"2019-02-19T15:21:28","editor":"LENOVO","modifydate":"2019-03-10T17:50:55","codemove":"na"},"geometry":{"type":"MultiPolygon","coordinates":[[[[125.56162807500004,10.081615317000058],[125.56426633100013,10.082353772000033],[125.56551114600006,10.082391525000048],[125.56669760404844,10.08203563013344],[125.56664812050413,10.081629624773665],[125.5661905263286,10.081610912420473],[125.56555049400002,10.081781827000043],[125.5652924991382,10.081574187611762],[125.5634971740491,10.081500760383372],[125.56163694944884,10.081605807126163],[125.56162807500004,10.081615317000058]]],[[[125.56670407686596,10.082088738514313],[125.56672870800004,10.082026300000052],[125.56669760404844,10.08203563013344],[125.56670407686596,10.082088738514313]]],[[[125.56330142600007,10.087436468000021],[125.56575971000005,10.086587314000042],[125.56749196200009,10.084723954000028],[125.56686912700002,10.083442935000052],[125.56670407686596,10.082088738514313],[125.56616564900003,10.083453618000021],[125.56340291800005,10.085135267000052],[125.56259002300011,10.085236439000028],[125.56193985900008,10.087755377000065],[125.56299451400004,10.087960656000064],[125.56330142600007,10.087436468000021]]],[[[125.55780884500005,10.164285713000025],[125.55852867500005,10.162908280000066],[125.55764355400005,10.163077805000055],[125.55734074600004,10.164700867000022],[125.55628036600001,10.165548856000044],[125.55396271700009,10.163945339000065],[125.5531480420001,10.164349730000026],[125.5540067500001,10.165293863000045],[125.55401108500008,10.165839393000056],[125.5523670130001,10.16684107700007],[125.55127411800002,10.167906667000068],[125.55024596700002,10.16846024400007],[125.5501607545436,10.169735670067448],[125.55096246511835,10.170012836173198],[125.55492411719385,10.170963187760343],[125.5555256560001,10.170192169000071],[125.55673164000007,10.170353221000026],[125.5564506180001,10.169639382000073],[125.55933665900011,10.169003059000033],[125.55898403100004,10.167948751000038],[125.55944522200001,10.165353660000052],[125.55847054800006,10.165271300000027],[125.55780884500005,10.164285713000025]]],[[[125.58180352600003,10.08637254900003],[125.58063275100005,10.085121166000024],[125.57943589700007,10.084958320000053],[125.57891431500003,10.085767410000074],[125.5773083580001,10.086311493000037],[125.5773543900001,10.087190577000058],[125.57593076600007,10.088574018000031],[125.57485637600007,10.088466437000022],[125.57399054200006,10.086356727000066],[125.57025507300011,10.087711014000034],[125.56950100300004,10.086060874000053],[125.56901187500011,10.085668997000028],[125.56681913400007,10.087148211000054],[125.56646295200005,10.088200277000055],[125.56790847800004,10.088808212000059],[125.56845862500008,10.088133068000046],[125.56950724100011,10.089036605000047],[125.5701248360001,10.09030467300005],[125.57117758400011,10.089539604000036],[125.57085426800008,10.08816607700004],[125.57233898400011,10.087156794000064],[125.5727790960001,10.087927388000024],[125.57247892500003,10.08947787100004],[125.5734842830001,10.089298022000035],[125.57447555200008,10.089531038000075],[125.57513220000011,10.089164736000042],[125.5763182700001,10.089877912000079],[125.57684151100011,10.088016095000055],[125.57803747700008,10.087800325000048],[125.57795562500007,10.08623566400007],[125.5796066700001,10.086498019000032],[125.57918186000008,10.085469221000041],[125.58027464400006,10.085374673000048],[125.58102825200002,10.08628047600007],[125.580751458,10.088570376000064],[125.58149168600004,10.089975039000024],[125.58283242400013,10.08833049800006],[125.58250728100006,10.086733330000072],[125.58349552400013,10.086588006000058],[125.58307459030779,10.085769944798793],[125.58253630050405,10.085522786723834],[125.58180352600003,10.08637254900003]]],[[[125.56842887900007,10.16975012800003],[125.56798748900009,10.170503858000073],[125.56830379700011,10.171319667000034],[125.56824052024955,10.171627130663326],[125.56868299414397,10.171602112839336],[125.56913069826693,10.171532723279352],[125.56842887900007,10.16975012800003]]],[[[125.56488869800012,10.170357599000056],[125.56431824884802,10.171848872999087],[125.56514872728698,10.171801926492968],[125.56488869800012,10.170357599000056]]],[[[125.56048617600005,10.170733015000053],[125.55993444300009,10.170601009000052],[125.56080571388418,10.171715516801786],[125.56216146540233,10.171770868772386],[125.56048617600005,10.170733015000053]]],[[[125.57273246600005,10.169920944000067],[125.57413859200005,10.169296126000061],[125.57616771300002,10.169109692000061],[125.57668945200008,10.169787550000024],[125.57850823200009,10.16912540900006],[125.57901820400002,10.168337073000032],[125.57924293100007,10.166323557000055],[125.57739109400006,10.16715651800007],[125.57450104500002,10.16728152300004],[125.57357784700002,10.168038955000043],[125.57265054900007,10.16828491900003],[125.57179642700011,10.169075863000042],[125.5710840920001,10.170377190000067],[125.57003887100007,10.17122199500005],[125.56997031244772,10.17140258999921],[125.57310434202961,10.170916822000024],[125.57361850581181,10.170784921891002],[125.57273246600005,10.169920944000067]]]]}}]}