{"type":"FeatureCollection","features":[{"type":"Feature","properties":{"fid":27,"objectid":1873,"lccode":"07","liqcode":"2010600070000000","mappers":"MITAbigania, MRJSanDiego","project":"READY","province":"Catanduanes","otherinfo":null,"datemapped":2012,"publishdate":null,"globalid":"{6806FBE5-F17E-446D-A93D-3AE6AE77BE83}","st_area(shape)":0.005372229043825049,"st_perimeter(shape)":2.72076790618239,"liqcodepk":"201060007000000000066","creator":"SNOOPYPC","createdate":"2019-02-19T15:21:28","editor":"LENOVO","modifydate":"2019-03-10T17:50:55","codemove":"na"},"geometry":{"type":"MultiPolygon","coordinates":[[[[124.233051111,14.050798241000052],[124.2315669180001,14.051471737000043],[124.23156683060368,14.052027638707258],[124.23343266897761,14.052473797180728],[124.233051111,14.050798241000052]]],[[[124.24043591100009,14.05285051000004],[124.24112233300002,14.050941123000028],[124.24023349600009,14.050300908000054],[124.2392238130001,14.051496405000021],[124.23735182500002,14.051576855000064],[124.23734386400008,14.052795504000073],[124.23637876291383,14.052937142316068],[124.23845414468316,14.053226824434795],[124.2402137989572,14.053302171737073],[124.24043591100009,14.05285051000004]]],[[[124.24695218200009,14.052590757000075],[124.2460628990001,14.051339775000029],[124.24591809600008,14.04986456000006],[124.24712796400001,14.049678000000002],[124.2489760630001,14.049862134000023],[124.2496181680001,14.049685173000057],[124.2499346730001,14.047225618000024],[124.24830218600005,14.048643993000042],[124.24737304000008,14.048613361000037],[124.24670665100007,14.047511532000042],[124.24607683300007,14.047805264000031],[124.24551220700006,14.049423550000029],[124.24420417200008,14.04911151400006],[124.24337506100005,14.050128950000042],[124.24483754000005,14.050815727000039],[124.24568501200007,14.051852818000043],[124.245093213,14.052458166000065],[124.24319125600005,14.053352786000062],[124.24313793054945,14.053413500156804],[124.24551438570366,14.053287259288526],[124.24695218200009,14.052590757000075]]],[[[124.27421160000006,13.997996350000049],[124.27242733600009,14.000989534000041],[124.27242775900005,14.001690431000043],[124.27354832600008,14.002856690000042],[124.27469824200011,14.002822538000034],[124.27506625700005,14.003235637000046],[124.27546453400011,14.004404142000055],[124.27625302600006,14.003306057000032],[124.27683812400005,14.003546072000063],[124.2784595600001,14.001793947000069],[124.27941769300003,13.999634567000045],[124.28026931800002,13.998397832000022],[124.28029595000011,13.995455402000061],[124.2796517600001,13.993840961000046],[124.27892407400009,13.992830067000055],[124.27737930400008,13.993712384000046],[124.27577451000002,13.994075107000075],[124.27421160000006,13.997996350000049]]],[[[124.24949002100003,14.034817068000052],[124.24780362100012,14.036991604000036],[124.24769354600004,14.03811162900007],[124.24819380800011,14.039001543000039],[124.24865914600002,14.03952363600007],[124.2505147500001,14.039117277000058],[124.25162833300011,14.038374734000058],[124.2511851600001,14.03715478400005],[124.25215882300006,14.036314926000044],[124.25354482200011,14.03581417600003],[124.25303796100002,14.033351217000073],[124.2527016900001,14.032899518000022],[124.2515562000001,14.033103742000037],[124.2501819810001,14.03394695900005],[124.24950528000011,14.034823388000062],[124.24949002100003,14.034817068000052]]]]}},{"type":"Feature","properties":{"fid":54,"objectid":1903,"lccode":"05","liqcode":"2010600050000000","mappers":"MITAbigania, MRJSanDiego","project":"READY","province":"Catanduanes","otherinfo":null,"datemapped":2012,"publishdate":null,"globalid":"{E007E964-0AF4-4562-904F-0A12E9A98ABE}","st_area(shape)":0.0010990424958159351,"st_perimeter(shape)":0.725596945134769,"liqcodepk":"201060005000000000098","creator":"SNOOPYPC","createdate":"2019-02-19T15:21:28","editor":"LENOVO","modifydate":"2019-03-10T17:50:55","codemove":"na"},"geometry":{"type":"Polygon","coordinates":[]}},{"type":"Feature","properties":{"fid":68,"objectid":1932,"lccode":"06","liqcode":"2010600060000000","mappers":"MITAbigania, MRJSanDiego","project":"READY","province":"Catanduanes","otherinfo":null,"datemapped":2012,"publishdate":null,"globalid":"{D676DE65-50B9-47A4-8AF0-BD7D44E0FC56}","st_area(shape)":0.0021118625030801673,"st_perimeter(shape)":1.6727362060815718,"liqcodepk":"201060006000000000131","creator":"SNOOPYPC","createdate":"2019-02-19T15:21:28","editor":"LENOVO","modifydate":"2019-03-10T17:50:55","codemove":"na"},"geometry":{"type":"MultiPolygon","coordinates":[[[[124.27469824200011,14.002822538000034],[124.27354832600008,14.002856690000042],[124.27242775900005,14.001690431000043],[124.27242733600009,14.000989534000041],[124.27421160000006,13.997996350000049],[124.27577451000002,13.994075107000075],[124.2745891940001,13.99421674000007],[124.2743006500001,13.996534432000033],[124.27277079500004,13.996134579000055],[124.27214106100008,13.99448301800004],[124.27280529100004,13.99319179500003],[124.27288098500004,13.992311544000074],[124.27402984600008,13.990708945000051],[124.27494692300002,13.990366106000065],[124.27535691600009,13.988977156000029],[124.27474668400008,13.988689066000061],[124.27366451300007,13.989382272000054],[124.2726925500001,13.99059937300007],[124.27216737900007,13.990578809000054],[124.27067753300004,13.988768613000046],[124.26777716000004,13.989330315000073],[124.2681700500001,13.990704667000045],[124.26918447600006,13.990711021000036],[124.26996272100007,13.991164365000031],[124.27103253900009,13.99092856400006],[124.27070775900006,13.992089846000056],[124.26881034200007,13.994302349000064],[124.26913101900006,13.99564670800004],[124.2707767280001,13.998126173000058],[124.27116623300005,13.99951680300006],[124.2712702890001,14.001072065000074],[124.2703233630001,14.00250747800004],[124.27108249700008,14.00328140300007],[124.27506625700005,14.003235637000046],[124.27469824200011,14.002822538000034]]],[[[124.25856749800005,14.021710332000055],[124.25973861400007,14.021960652000075],[124.26028258200006,14.021399320000057],[124.25980996300007,14.019792833000055],[124.25731221700005,14.019141367000032],[124.25680393400012,14.017873704000067],[124.25689208500013,14.016521423000029],[124.25578660600003,14.01461885800006],[124.25420344600003,14.013348985000048],[124.25274603600009,14.013034679000043],[124.25210004900009,14.011045572000056],[124.25058304000005,14.01083197300005],[124.24816324400001,14.010859001000028],[124.2480369980001,14.01234849800005],[124.24734698500005,14.012759941000068],[124.24759138000003,14.013807554000039],[124.24904574300001,14.013473694000023],[124.25091003700004,14.013821893000054],[124.25269233700011,14.014620237000031],[124.2534471900001,14.014607656000067],[124.25527004000004,14.01673960800002],[124.25617686000011,14.018879189000073],[124.25602557900004,14.019602568000037],[124.2578312820001,14.020761456000061],[124.25856749800005,14.021710332000055]]],[[[124.26700571900005,13.970071518000056],[124.26707843500004,13.971155075000068],[124.26816297100005,13.970904756000039],[124.26831559522148,13.97054584474279],[124.26826174422672,13.970507275509224],[124.26708350662902,13.96982593477809],[124.26700571900005,13.970071518000056]]],[[[124.24855934600008,14.034432910000076],[124.24792788600007,14.032455020000043],[124.24701710300006,14.031783757000028],[124.24669771800006,14.030936093000035],[124.24534135300007,14.030929972000022],[124.24445566200005,14.030491752000046],[124.24416491500004,14.029416628000034],[124.24318405000008,14.02930950600006],[124.24326119300008,14.030334663000078],[124.24375404500006,14.031254288000069],[124.24539674800008,14.032351469000046],[124.24590487000012,14.03360749800004],[124.24672286300004,14.03476865500005],[124.24587673900011,14.036950832000057],[124.244663424,14.038019054000074],[124.24363459400001,14.037604798000075],[124.24323091400005,14.03800310300005],[124.24330919500005,14.039238027000067],[124.24597898800006,14.038478465000024],[124.24751181100011,14.03937961500003],[124.24819380800011,14.039001543000039],[124.24769354600004,14.03811162900007],[124.24780362100012,14.036991604000036],[124.24949002100003,14.034817068000052],[124.24855934600008,14.034432910000076]]]]}}]}