{"type":"FeatureCollection","features":[{"type":"Feature","properties":{"fid":21,"objectid":1867,"lccode":"07","liqcode":"2010600070000000","mappers":"DJLBuhay","project":"Negros Occidental Multi-Hazard Mapping","province":"Negros Occidental","otherinfo":null,"datemapped":2018,"publishdate":null,"globalid":"{BDFFB75F-E1DC-47A8-B9CF-113E0CE8D2E7}","st_area(shape)":0.051419613090430895,"st_perimeter(shape)":11.901738684521376,"liqcodepk":"201060007000000000059","creator":"SNOOPYPC","createdate":"2019-02-19T15:21:28","editor":"LENOVO","modifydate":"2019-03-10T17:50:55","codemove":"na"},"geometry":{"type":"MultiPolygon","coordinates":[[[[123.219578253,10.973710382000034],[123.21797211600006,10.973746074000074],[123.21752172600009,10.974735015000022],[123.21695065500012,10.975972334000062],[123.21585610400007,10.976162691000068],[123.21522383900003,10.976708503000058],[123.21493830400004,10.978421715000021],[123.21511721264764,10.978655748778365],[123.21809535982825,10.976470051349224],[123.22080996893487,10.974035421186612],[123.219578253,10.973710382000034]]],[[[123.15929493600005,10.975051861000056],[123.15988140900004,10.976279477000048],[123.16252677900002,10.976373976000046],[123.16462667600003,10.977107218000071],[123.16515967200007,10.977724960000046],[123.16534684400004,10.978802942000073],[123.16592618700007,10.978946440000074],[123.16570336300005,10.980108416000066],[123.16595635288208,10.98051910989787],[123.16749133983258,10.981427024158169],[123.16829881366651,10.981803827696357],[123.16668296300008,10.980770431000051],[123.1661499940001,10.978691852000056],[123.16599010300001,10.976666570000075],[123.167535713,10.975387444000035],[123.16817170500009,10.974211534000062],[123.16798134800001,10.972498321000046],[123.165457134,10.971843200000018],[123.16531635100011,10.970689930000047],[123.16530048800007,10.970618547000072],[123.16522117400007,10.969547790000034],[123.16641090400003,10.967882167000027],[123.16598260100012,10.966026188000058],[123.16508405500008,10.966113783000026],[123.16377828100008,10.96563411100004],[123.16365072900011,10.963979851000031],[123.16255617700006,10.963313602000028],[123.16114008500004,10.963342344000067],[123.16070019700008,10.965121992000036],[123.1597484130001,10.965978598000047],[123.15884421800001,10.964170208000038],[123.15690298100004,10.96422174300005],[123.15675029200008,10.962171460000034],[123.15460877700002,10.960410660000035],[123.15437083100007,10.959887178000029],[123.15175983000005,10.958199193000038],[123.15005432900013,10.957986006000056],[123.14912163300006,10.95886540400005],[123.14899324900011,10.960315481000066],[123.15032574700002,10.962504585000032],[123.15037333700002,10.96417020800004],[123.15118235300008,10.966264134000028],[123.15109599326331,10.966799566314236],[123.1536818629113,10.9702411059307],[123.1566996381922,10.97352767013283],[123.1588050134079,10.975411156439971],[123.15929493600005,10.975051861000056]]],[[[123.18278159600004,10.985775713000066],[123.18087802700006,10.983396253000022],[123.1803069560001,10.982063754000023],[123.17949793900004,10.981111970000029],[123.17930758200009,10.980302954000022],[123.17811785200003,10.978637330000026],[123.17802267400008,10.977637957000068],[123.17854615500005,10.976638583000065],[123.17925999400008,10.976115102000051],[123.17790196100009,10.975360796000073],[123.17583356900002,10.976019924000068],[123.17407276800009,10.976828940000074],[123.17383482300012,10.977828314000021],[123.172883038,10.980065008000054],[123.17174089700006,10.981254738000073],[123.17125626947745,10.983183882650042],[123.17155249762989,10.983322111020199],[123.1757821393426,10.984814703159836],[123.17792958476831,10.98534485753728],[123.17899454700013,10.984874293000075],[123.17971377964072,10.985785320766329],[123.18013951578868,10.98589042027296],[123.18212787744113,10.986180631539455],[123.18278159600004,10.985775713000066]]]]}},{"type":"Feature","properties":{"fid":32,"objectid":1878,"lccode":"07","liqcode":"2010600070000000","mappers":"PJDelosReyes, ACPidlaoan","project":"READY","province":"Iloilo","otherinfo":null,"datemapped":2010,"publishdate":null,"globalid":"{2F92972A-C07C-4633-B325-DF2A08960C6C}","st_area(shape)":0.031106077518548395,"st_perimeter(shape)":5.287074988133156,"liqcodepk":"201060007000000000071","creator":"SNOOPYPC","createdate":"2019-02-19T15:21:28","editor":"LENOVO","modifydate":"2019-03-10T17:50:55","codemove":"na"},"geometry":{"type":"Polygon","coordinates":[]}},{"type":"Feature","properties":{"fid":46,"objectid":1895,"lccode":"05","liqcode":"2010600050000000","mappers":"DJLBuhay","project":"Negros Occidental Multi-Hazard Mapping","province":"Negros Occidental","otherinfo":null,"datemapped":2018,"publishdate":null,"globalid":"{149718D2-4D93-4457-9604-37CB70EA27A9}","st_area(shape)":0.01745435689673941,"st_perimeter(shape)":6.697527242466418,"liqcodepk":"201060005000000000089","creator":"SNOOPYPC","createdate":"2019-02-19T15:21:28","editor":"LENOVO","modifydate":"2019-03-10T17:50:55","codemove":"na"},"geometry":{"type":"MultiPolygon","coordinates":[[[[123.19924746600009,10.949893442000073],[123.19743907600004,10.949132015000034],[123.19548791700004,10.94775192700007],[123.19377470500001,10.947323624000036],[123.19253738500004,10.947276034000023],[123.19158560100003,10.946562196000059],[123.19139524500008,10.944515860000022],[123.19049104900012,10.943088183000043],[123.18982480000012,10.940946669000025],[123.18896819400003,10.94032800900004],[123.1881591770001,10.940328009000043],[123.18749292800011,10.941041847000065],[123.18696944700004,10.943230951000032],[123.18601766200004,10.94465862800007],[123.18673150100005,10.94494416300006],[123.18796882100001,10.942897826000031],[123.18877783700009,10.942659880000063],[123.19001515700008,10.94461103800006],[123.19001515700008,10.94632425000003],[123.18953926400002,10.947847106000035],[123.19030069200006,10.948798890000035],[123.19163319000006,10.949845852000069],[123.19410783,10.950987994000057],[123.19496443600009,10.951797011000052],[123.1962493440001,10.95213013500006],[123.19743907600004,10.952939152000052],[123.19810532500003,10.954652364000026],[123.19812741200009,10.95300907100005],[123.197020962,10.95104601600002],[123.19716373000007,10.95033217800005],[123.19848433100003,10.950367870000033],[123.19916247700006,10.952116773000053],[123.2002468390001,10.952843974000071],[123.19924746600009,10.949893442000073]]],[[[123.21301094000013,10.957077950000041],[123.21428565900011,10.959268518000043],[123.21457119500009,10.957983609000053],[123.21414289200003,10.957412539000075],[123.21414289200003,10.956175219000043],[123.21323869600006,10.955413791000067],[123.21352423200005,10.953890936000052],[123.21342905300001,10.952939152000056],[123.2119537870001,10.95217772400002],[123.21209655500002,10.950559691000024],[123.21123994900007,10.950559691000024],[123.2103833430001,10.951939778000053],[123.21147789600002,10.954699953000047],[123.21090682400006,10.955937273000073],[123.2119537870001,10.957031825000058],[123.21301094000013,10.957077950000041]]],[[[123.1539450030001,10.95217664300003],[123.15559720700003,10.953668956000058],[123.15578374600011,10.95441511300004],[123.15684547100011,10.955794505000027],[123.15684547100011,10.954081293000055],[123.1561792210001,10.952796384000068],[123.15527502600004,10.952320492000068],[123.1532286900001,10.95065486900006],[123.15275279700008,10.95236808100003],[123.1539450030001,10.95217664300003]]],[[[123.14784250700008,10.952816206000023],[123.14837458900001,10.953557811000051],[123.1479938760001,10.952082545000051],[123.14737521600011,10.95108317200004],[123.14723244800008,10.949655496000048],[123.14628066300008,10.949703085000065],[123.14580477200003,10.951083172000038],[123.14637584200011,10.952891563000037],[123.14718485900005,10.953938526000057],[123.14784250700008,10.952816206000023]]],[[[123.17843493000011,10.973122326000064],[123.17945035000002,10.974068765000027],[123.17935517200011,10.972260375000074],[123.17887927900006,10.972212786000059],[123.17783231600004,10.97321215900007],[123.17843493000011,10.973122326000064]]]]}},{"type":"Feature","properties":{"fid":59,"objectid":1908,"lccode":"05","liqcode":"2010600050000000","mappers":"PJDelosReyes, ACPidlaoan","project":"READY","province":"Iloilo","otherinfo":null,"datemapped":2010,"publishdate":null,"globalid":"{282D04BA-68E2-41E5-9B8A-0D8D85396F2D}","st_area(shape)":0.06128738608791496,"st_perimeter(shape)":10.692281506054618,"liqcodepk":"201060005000000000103","creator":"SNOOPYPC","createdate":"2019-02-19T15:21:28","editor":"LENOVO","modifydate":"2019-03-10T17:50:55","codemove":"na"},"geometry":{"type":"Polygon","coordinates":[]}},{"type":"Feature","properties":{"fid":61,"objectid":1925,"lccode":"06","liqcode":"2010600060000000","mappers":"DJLBuhay","project":"Negros Occidental Multi-Hazard Mapping","province":"Negros Occidental","otherinfo":null,"datemapped":2018,"publishdate":null,"globalid":"{E5539A65-5F4C-46A4-8778-850E85BFF908}","st_area(shape)":0.021565408471292534,"st_perimeter(shape)":8.733756823540528,"liqcodepk":"201060006000000000123","creator":"SNOOPYPC","createdate":"2019-02-19T15:21:28","editor":"LENOVO","modifydate":"2019-03-10T17:50:55","codemove":"na"},"geometry":{"type":"MultiPolygon","coordinates":[[[[123.22375591400011,10.970689930000049],[123.22137645300006,10.971118234000071],[123.22075779300008,10.971832072000039],[123.21880663600008,10.971832072000037],[123.21809279700007,10.970975466000024],[123.2171886010001,10.970594753000055],[123.21728378000012,10.969452611000063],[123.21942529500006,10.96902430800003],[123.21952047300012,10.967120740000041],[123.21861627800001,10.967263507000041],[123.21861627800001,10.965693062000069],[123.21804520700005,10.965264759000034],[123.21861627800001,10.96369431600004],[123.21666512000003,10.963551548000055],[123.21614163900006,10.962409407000052],[123.21618922800009,10.96150521100003],[123.21533262200012,10.960458248000066],[123.21380976700004,10.96026789100006],[123.21428565900011,10.959268518000043],[123.21301094000013,10.957077950000041],[123.2119537870001,10.957031825000058],[123.21171584100011,10.95817396600006],[123.21104959300008,10.958697448000065],[123.21162066300008,10.959458875000053],[123.21157307400006,10.960363070000025],[123.21214414400005,10.961790747000066],[123.21295316100007,10.962932888000067],[123.21419048100006,10.962932888000067],[123.21538021100002,10.96397985100003],[123.21480914100005,10.965740652000024],[123.21438083800001,10.965883419000024],[123.21247726900003,10.965455116000042],[123.21157307400006,10.96417020800004],[123.21028816400008,10.963075656000056],[123.2077659360001,10.963456369000028],[123.20719486500003,10.96274253100006],[123.20719486500003,10.960838963000073],[123.20610031300008,10.959220929000026],[123.20571959900009,10.958126377000042],[123.2044822800001,10.957031825000058],[123.20319737100009,10.957174592000058],[123.20196005100003,10.956889057000067],[123.20081791000007,10.955223434000063],[123.20072273100004,10.953510223000023],[123.2002468390001,10.952843974000071],[123.19916247700006,10.952116773000053],[123.19848433100003,10.950367870000033],[123.19716373000007,10.95033217800005],[123.197020962,10.95104601600002],[123.19812741200009,10.95300907100005],[123.19810532500003,10.954652364000026],[123.20010407200004,10.955508970000038],[123.20015166100005,10.957602895000036],[123.20077032100006,10.958364323000067],[123.20081791000007,10.95983958800002],[123.20238835400006,10.96093414100005],[123.2028642470001,10.961790747000068],[123.20424433400001,10.962599763000068],[123.20410156600009,10.964646100000037],[123.2051961190001,10.965883419000024],[123.20714727600013,10.966930382000042],[123.2080990610001,10.968310470000063],[123.20952673700005,10.96902430800003],[123.21057370000005,10.970594753000055],[123.21147789600002,10.971165823000035],[123.21400012400012,10.971832072000037],[123.21499949800013,10.972926624000026],[123.21561815800011,10.97297421400003],[123.21747413700005,10.974163944000054],[123.21752172600009,10.974735015000022],[123.21797211600006,10.973746074000074],[123.219578253,10.973710382000034],[123.22080996893487,10.974035421186612],[123.22142088890342,10.973487501413606],[123.2238933079644,10.970788069008616],[123.22375591400011,10.970689930000049]]],[[[123.21493830400004,10.978421715000021],[123.21522383900003,10.976708503000058],[123.21585610400007,10.976162691000068],[123.2132862860001,10.975353674000072],[123.21257244700008,10.97463983700004],[123.21176343000002,10.97459224700003],[123.210764057,10.973925998000025],[123.20824182800004,10.973830819000055],[123.20724245500003,10.973259749000023],[123.20748040100011,10.971736893000072],[123.20700450900004,10.971165823000035],[123.20624308100003,10.971403769000062],[123.20624308100003,10.972498321000042],[123.20452986900013,10.97216519600005],[123.20272147800006,10.973973587000044],[123.2041967440001,10.976495816000067],[123.20500576200006,10.977162065000071],[123.20695691900005,10.977923492000059],[123.20833700700008,10.977923492000059],[123.20985986100004,10.978446973000075],[123.21228691200008,10.978589742000052],[123.21347664200005,10.979303579000032],[123.21459559240064,10.979038565774102],[123.21511721264764,10.978655748778365],[123.21493830400004,10.978421715000021]]],[[[123.14912163300006,10.95886540400005],[123.15005432900013,10.957986006000056],[123.15175983000005,10.958199193000038],[123.15437083100007,10.959887178000029],[123.15441842000007,10.959125751000045],[123.15508466900009,10.957983609000053],[123.15589368600001,10.957698074000065],[123.15675029200008,10.956746289000021],[123.15684547100011,10.955794505000027],[123.15578374600011,10.95441511300004],[123.15559720700003,10.953668956000058],[123.1539450030001,10.95217664300003],[123.15275279700008,10.95236808100003],[123.15184860300006,10.953510223000025],[123.1516106570001,10.95431923900003],[123.15065887199998,10.955128256000021],[123.14984985500008,10.956603522000023],[123.14875530300003,10.955889683000066],[123.14837458900001,10.953557811000051],[123.14784250700008,10.952816206000023],[123.14718485900005,10.953938526000057],[123.14723244800008,10.955223434000061],[123.14785110800005,10.956508343000053],[123.14785110800005,10.958221555000023],[123.14856494600008,10.959887178000033],[123.14899324900011,10.960315481000066],[123.14912163300006,10.95886540400005]]],[[[123.17899454700013,10.984874293000075],[123.17792958476831,10.98534485753728],[123.17971377964072,10.985785320766329],[123.17899454700013,10.984874293000075]]],[[[123.18278159600004,10.985775713000066],[123.18212787744113,10.986180631539455],[123.18280744712118,10.986279814994402],[123.18278159600004,10.985775713000066]]],[[[123.17174089700006,10.981254738000073],[123.17007527400007,10.981445095000025],[123.16860000800013,10.980588489000068],[123.16783858000007,10.979874651000046],[123.16774340200006,10.97878009900006],[123.16850482900009,10.977685546000034],[123.16883795400008,10.976400637000038],[123.16860000800013,10.974925371000039],[123.16817170500009,10.974211534000062],[123.167535713,10.975387444000035],[123.16599010300001,10.976666570000075],[123.1661499940001,10.978691852000056],[123.16668296300008,10.980770431000051],[123.16829881366651,10.981803827696357],[123.17125626947745,10.983183882650042],[123.17174089700006,10.981254738000073]]],[[[123.16377828100008,10.96563411100004],[123.16508405500008,10.966113783000026],[123.16598260100012,10.966026188000058],[123.16522117400007,10.965312349000044],[123.16503081700012,10.964455743000029],[123.165697065,10.963456369000026],[123.16574465400004,10.96240940700005],[123.16641090400003,10.96112449700007],[123.16603019000003,10.959554054000021],[123.16650608300006,10.958935394000035],[123.16622054700008,10.95807878800002],[123.16479287000004,10.958221555000021],[123.1643169780001,10.959268518000046],[123.16531635100011,10.960553427000038],[123.16545912000005,10.961552801000037],[123.16493563800007,10.962171460000034],[123.16488804800008,10.96331360200003],[123.16365072900011,10.963979851000031],[123.16377828100008,10.96563411100004]]],[[[123.17843493000011,10.973122326000064],[123.17783231600004,10.97321215900007],[123.1770233000001,10.974021177000054],[123.1764046400001,10.975496442000061],[123.17583356900002,10.976019924000068],[123.17790196100009,10.975360796000073],[123.17925999400008,10.976115102000051],[123.17945035000002,10.974068765000027],[123.17843493000011,10.973122326000064]]],[[[123.165457134,10.971843200000018],[123.16798134800001,10.972498321000046],[123.16702956400003,10.971403769000062],[123.16531635100011,10.970689930000047],[123.165457134,10.971843200000018]]]]}},{"type":"Feature","properties":{"fid":73,"objectid":1937,"lccode":"06","liqcode":"2010600060000000","mappers":"PJDelosReyes, ACPidlaoan","project":"READY","province":"Iloilo","otherinfo":null,"datemapped":2010,"publishdate":null,"globalid":"{DBB85F45-4FB4-4F72-8BD3-A1308397A487}","st_area(shape)":0.017575391436836466,"st_perimeter(shape)":7.287100410898002,"liqcodepk":"201060006000000000136","creator":"SNOOPYPC","createdate":"2019-02-19T15:21:28","editor":"LENOVO","modifydate":"2019-03-10T17:50:55","codemove":"na"},"geometry":{"type":"Polygon","coordinates":[]}}]}