{"type":"FeatureCollection","features":[{"type":"Feature","properties":{"fid":21,"objectid":1867,"lccode":"07","liqcode":"2010600070000000","mappers":"DJLBuhay","project":"Negros Occidental Multi-Hazard Mapping","province":"Negros Occidental","otherinfo":null,"datemapped":2018,"publishdate":null,"globalid":"{BDFFB75F-E1DC-47A8-B9CF-113E0CE8D2E7}","st_area(shape)":0.051419613090430895,"st_perimeter(shape)":11.901738684521376,"liqcodepk":"201060007000000000059","creator":"SNOOPYPC","createdate":"2019-02-19T15:21:28","editor":"LENOVO","modifydate":"2019-03-10T17:50:55","codemove":"na"},"geometry":{"type":"Polygon","coordinates":[]}},{"type":"Feature","properties":{"fid":32,"objectid":1878,"lccode":"07","liqcode":"2010600070000000","mappers":"PJDelosReyes, ACPidlaoan","project":"READY","province":"Iloilo","otherinfo":null,"datemapped":2010,"publishdate":null,"globalid":"{2F92972A-C07C-4633-B325-DF2A08960C6C}","st_area(shape)":0.031106077518548395,"st_perimeter(shape)":5.287074988133156,"liqcodepk":"201060007000000000071","creator":"SNOOPYPC","createdate":"2019-02-19T15:21:28","editor":"LENOVO","modifydate":"2019-03-10T17:50:55","codemove":"na"},"geometry":{"type":"Polygon","coordinates":[]}},{"type":"Feature","properties":{"fid":46,"objectid":1895,"lccode":"05","liqcode":"2010600050000000","mappers":"DJLBuhay","project":"Negros Occidental Multi-Hazard Mapping","province":"Negros Occidental","otherinfo":null,"datemapped":2018,"publishdate":null,"globalid":"{149718D2-4D93-4457-9604-37CB70EA27A9}","st_area(shape)":0.01745435689673941,"st_perimeter(shape)":6.697527242466418,"liqcodepk":"201060005000000000089","creator":"SNOOPYPC","createdate":"2019-02-19T15:21:28","editor":"LENOVO","modifydate":"2019-03-10T17:50:55","codemove":"na"},"geometry":{"type":"Polygon","coordinates":[]}},{"type":"Feature","properties":{"fid":59,"objectid":1908,"lccode":"05","liqcode":"2010600050000000","mappers":"PJDelosReyes, ACPidlaoan","project":"READY","province":"Iloilo","otherinfo":null,"datemapped":2010,"publishdate":null,"globalid":"{282D04BA-68E2-41E5-9B8A-0D8D85396F2D}","st_area(shape)":0.06128738608791496,"st_perimeter(shape)":10.692281506054618,"liqcodepk":"201060005000000000103","creator":"SNOOPYPC","createdate":"2019-02-19T15:21:28","editor":"LENOVO","modifydate":"2019-03-10T17:50:55","codemove":"na"},"geometry":{"type":"MultiPolygon","coordinates":[[[[122.70767402900003,10.965798171000074],[122.70669845100008,10.965121983000072],[122.7045526280001,10.963045785000078],[122.70304171800001,10.960729043000068],[122.70065086000011,10.959665545000066],[122.69821038600003,10.959470185000045],[122.69679432800001,10.959902883000037],[122.69537722900009,10.961348539000028],[122.69230088300003,10.962406609000025],[122.69195954500005,10.962020446000055],[122.693425294,10.96076781000005],[122.69420895000007,10.958163892000075],[122.69421033600008,10.956813302000056],[122.69299258700005,10.954352135000022],[122.69143135800005,10.953530549000048],[122.68918618200009,10.95333531500006],[122.68664917600007,10.952126891000034],[122.68728562100013,10.950391044000067],[122.68875050000008,10.949861962000055],[122.68972771900008,10.948946468000031],[122.6920723630001,10.947357103000058],[122.6948062670001,10.946925746000034],[122.69812494400004,10.947411432000024],[122.70022285000005,10.948426376000041],[122.70129500100008,10.95011564500004],[122.70314766800004,10.952336251000075],[122.70323237570646,10.952448824999731],[122.70097396102028,10.948717111245413],[122.69830243899973,10.945150135643404],[122.69529004070415,10.941859069263185],[122.69196577963912,10.93887559751168],[122.68836166889234,10.936228443389965],[122.68451241288562,10.93394309123567],[122.68045507335171,10.932041541644914],[122.67622871274423,10.930542099920991],[122.67216786672824,10.929532274715177],[122.67360307500007,10.931714398000048],[122.67474412100012,10.933975821000049],[122.6764700850001,10.936474307000026],[122.6761495730001,10.937735495000029],[122.67553712300003,10.938470767000068],[122.67303592700011,10.939598158000026],[122.67226393000011,10.940333161000066],[122.67151717300011,10.942198338000026],[122.67146191300003,10.944064256000045],[122.671806779,10.944905615000039],[122.672895605,10.946299689000055],[122.67366495800003,10.948061333000055],[122.67403507700011,10.95011161900004],[122.67326217200002,10.951582543000029],[122.67001618800009,10.952788043000055],[122.66911039500008,10.954153654000038],[122.66918859000009,10.955572955000035],[122.67030501300009,10.956125991000022],[122.6708620300001,10.957519497000018],[122.67006329300013,10.958228242000073],[122.66886644700004,10.958253257000022],[122.66825402400002,10.958909575000066],[122.66524294400004,10.963952293000032],[122.66526690900002,10.96626505300003],[122.66491962900012,10.967631262000054],[122.66507847000004,10.968262199000039],[122.66627475300004,10.968841649000069],[122.6701311700001,10.969029851000075],[122.67090211500012,10.969319754000024],[122.674997888,10.969560686000023],[122.67603468400011,10.970034862000032],[122.6789063120001,10.970878889000062],[122.68039506900003,10.971484905000068],[122.682175539,10.973011051000073],[122.6854721860001,10.974381157000037],[122.68672017500013,10.976379798000035],[122.68605395800012,10.977588014000045],[122.68517549800004,10.978296715000056],[122.68509411300012,10.979742069000055],[122.68644729500011,10.982923500000025],[122.68774897900005,10.984501655000031],[122.6881727010001,10.986236687000027],[122.68793255900006,10.98699858200007],[122.68689449300008,10.987654589000043],[122.68607016900013,10.987390892000066],[122.68665643400006,10.986366508000057],[122.68663086400011,10.985420337000047],[122.68551485700004,10.984341664000056],[122.68277907200002,10.980685809000018],[122.68142506600009,10.97831912600003],[122.68071018600007,10.975269722000066],[122.67948880100003,10.973349929000051],[122.6785589850001,10.972271427000068],[122.67730938600005,10.971823346000065],[122.67558080000003,10.971611286000039],[122.67302751700004,10.971529711000075],[122.6712187070001,10.971659142000023],[122.66560667000012,10.97165303400004],[122.66433036400008,10.971283716000073],[122.66318747900004,10.970599069000055],[122.66262996900002,10.96965240000003],[122.66236540200009,10.968416895000075],[122.66228837100005,10.965998919000072],[122.66287648800007,10.963371456000061],[122.663942775,10.961217589000055],[122.66551632000004,10.95735599100004],[122.66591708500006,10.955726990000072],[122.66567969900007,10.953939690000025],[122.66501593400004,10.952940285000068],[122.6637672380001,10.95178254300004],[122.66188232400009,10.948784429000057],[122.66223100800006,10.946235543000059],[122.66350843500004,10.945448500000053],[122.66494458300009,10.945450080000057],[122.66560880400004,10.946028947000057],[122.66645776500003,10.947895852000041],[122.66706846600005,10.94876381800003],[122.66871604900007,10.950027046000057],[122.66996560200003,10.950422627000023],[122.67172171300003,10.949715003000051],[122.67175007300011,10.948085592000043],[122.66933279600005,10.945454864000055],[122.66824423600009,10.94377170800004],[122.66848563400004,10.941958526000064],[122.669098458,10.940907979000032],[122.67048289000002,10.939542881000026],[122.67343704500001,10.937653763000071],[122.67378413200005,10.936392606000025],[122.67195151500005,10.934209373000042],[122.67142097000009,10.932999809000023],[122.67067704100008,10.932315711000054],[122.66990793400011,10.930448993000025],[122.66921759500009,10.929423256000065],[122.66920244336582,10.929064626968332],[122.6674329117737,10.928803266061498],[122.6629481443332,10.928580611579925],[122.65846288757119,10.928793379393813],[122.65402031746606,10.929439520753522],[122.64966319952042,10.930512815114907],[122.64543347762614,10.93200292996548],[122.64137187079196,10.933895520184992],[122.63751748159072,10.936172365988623],[122.63390742007543,10.938811548132353],[122.63057644676704,10.94178765870264],[122.62755663813711,10.945072045471974],[122.62487707779779,10.94863308747947],[122.62256357636896,10.952436499196068],[122.6206384227211,10.956445660358668],[122.6191201689967,10.960621968310257],[122.61802345149253,10.964925209465637],[122.61735884914451,10.969313946336769],[122.61713278099909,10.973745916400507],[122.61722642572569,10.97567957640719],[122.61761352200004,10.97569279600003],[122.61831236400008,10.974736323000059],[122.61924249100002,10.974814071000026],[122.61954950200005,10.97718884200003],[122.62012937100009,10.978376760000058],[122.6210979130001,10.978760979000072],[122.62222053300003,10.979834736000042],[122.62384924900003,10.979223988000056],[122.62423754400002,10.978649948000053],[122.62431738000011,10.976811840000039],[122.62505613700013,10.975012700000034],[122.62532956500003,10.973289661000026],[122.62413360700009,10.968922331000046],[122.62490963400012,10.968195600000056],[122.62832198900003,10.96693600100002],[122.62960061600006,10.96720564900005],[122.6313835090001,10.967207811000037],[122.63223459200003,10.968510957000035],[122.63351294600011,10.969010342000047],[122.63548990200002,10.968821206000028],[122.63595534300009,10.968515425000017],[122.63626740000007,10.966869003000054],[122.63751089100003,10.964266247000067],[122.63844170700008,10.963692923000051],[122.63839861600002,10.967292800000054],[122.63921102900008,10.968519297000057],[122.64110872900007,10.96970873500004],[122.64118568600009,10.970168423000073],[122.63971150200008,10.97131554200007],[122.63908729000003,10.974646729000026],[122.6383102540001,10.976216016000024],[122.63610113300001,10.976060125000062],[122.63423975900004,10.976862168000022],[122.63326893600005,10.978316286000052],[122.6322990330001,10.979081051000037],[122.6315215410001,10.980918410000072],[122.63093933900007,10.98156880800008],[122.63012320800009,10.983329440000034],[122.62930775600013,10.984477395000058],[122.63035356000012,10.985091433000033],[122.62899487400011,10.98673657000006],[122.62949694800012,10.98819246700003],[122.62782769600005,10.990220141000064],[122.62674181100012,10.990678407000074],[122.62557579800011,10.993204619000036],[122.62444906800009,10.995271278000075],[122.62398478600005,10.994619601000066],[122.62417968400008,10.993777324000064],[122.62371664000011,10.992091625000056],[122.62356379200003,10.990368062000071],[122.6232156100001,10.98983154100006],[122.62174326000002,10.989408454000058],[122.62093130600009,10.98783723800005],[122.62012041100003,10.98538516700006],[122.61876454500009,10.984847290000062],[122.61858517691542,10.984886446340179],[122.61908654540888,10.986874794114204],[122.62059427267342,10.991054870020406],[122.62250946674104,10.995068791968135],[122.62481369630576,10.998877896742806],[122.62748478030808,11.00244549247304],[122.62810589969787,11.003124252785648],[122.62848989100006,11.002924821000022],[122.62948493500005,11.003073509000044],[122.63137506600005,11.00381335000003],[122.6323712730001,11.003027918000043],[122.63311931000008,11.001799675000028],[122.63486194100007,11.001015043000049],[122.63572495000005,10.998348736000024],[122.63665637600002,10.997430748000058],[122.63844005900012,10.996935031000017],[122.64026162200003,10.997128608000024],[122.64115353900002,10.99678498700007],[122.64154268700008,10.995560004000025],[122.64177829200003,10.99303263300004],[122.64069496600008,10.991384562000063],[122.64131610200002,10.99061936000004],[122.64352755900008,10.98886024500007],[122.64472999900012,10.988172301000077],[122.6457755,10.989016041000069],[122.64658686200005,10.991199960000074],[122.64658412600009,10.993497764000036],[122.64619389000008,10.995718622000023],[122.6465807510001,10.996331838000058],[122.64971924100008,10.997407745000032],[122.65064886300003,10.997983334000027],[122.65174398600004,10.997429602000064],[122.65247788100008,10.996079859000076],[122.65267444700011,10.994970738000067],[122.65272901900005,10.990002569000067],[122.65360888700003,10.98908718000007],[122.65580703200011,10.987932045000038],[122.65668703300001,10.986823602000074],[122.65698157800011,10.985425157000066],[122.65864229400007,10.984655211000073],[122.6608895510001,10.983210753000035],[122.66308817200002,10.981573179000065],[122.66533609100009,10.979501542000035],[122.66611757400007,10.979164777000054],[122.66846080500011,10.979167338000023],[122.66909449600008,10.979988035000076],[122.66967721100004,10.98273803300003],[122.66952901500008,10.98432960500003],[122.67040606500007,10.985825812000032],[122.670452812,10.987707026000066],[122.67011005000006,10.988671423000026],[122.66854617900005,10.990116694000049],[122.6667385940001,10.991272350000031],[122.66571376200011,10.990981886000045],[122.664541772,10.991269935000048],[122.66385770800004,10.991799757000022],[122.66307471100005,10.993438905000062],[122.66307328700009,10.994693010000052],[122.66341385700001,10.995754541000053],[122.66336299700005,10.997539169000051],[122.66258280400007,10.998687163000055],[122.6622332280001,10.999768453000057],[122.66223020400002,11.00242341300003],[122.66098320700006,11.005027798000071],[122.65904154900011,11.005763169000035],[122.65804538200007,11.006499503000043],[122.65729699800012,11.008170318000056],[122.65664917500011,11.008907040000054],[122.65634932600005,11.010037566000051],[122.65704291300007,11.012742497000035],[122.65793715600012,11.014070940000066],[122.65738858300006,11.015004526000041],[122.654152038,11.01652494900003],[122.65320621900003,11.016769717000045],[122.65166454300004,11.015833838000047],[122.64877749400011,11.016371303000028],[122.6483216225389,11.016617267403866],[122.64956123510045,11.017057079111824],[122.65363755051108,11.01807080637083],[122.6568390000001,11.016872223000064],[122.65947854100011,11.015203538000035],[122.66206943100009,11.012551474000077],[122.66326492100008,11.01152031300006],[122.66361406200008,11.010832343000057],[122.66465914100003,11.010833499000054],[122.66878793100013,11.012362218000018],[122.67008115500005,11.012953608000032],[122.67127533200005,11.013151564000054],[122.67600299000003,11.01325493300004],[122.67948702000002,11.012816213000065],[122.680232853,11.01340698100006],[122.68147388010497,11.015079516415476],[122.68442779012202,11.013703025312772],[122.68828286108602,11.011425616535355],[122.69189336061834,11.008785814263048],[122.69522451136542,11.005809050240604],[122.69599499423688,11.004970878357744],[122.69591933700006,11.003393116000042],[122.69622096800003,11.000443410000058],[122.69607362900003,10.998525839000024],[122.69519460700009,10.996656270000074],[122.69382869500011,10.99564202500005],[122.69348776600008,10.994821672000059],[122.69192635200011,10.99404836800005],[122.69138991300008,10.993468962000067],[122.6891001470001,10.988932572000063],[122.68905224600007,10.988112514000024],[122.69037319400002,10.98536449200003],[122.6904237880001,10.983676331000026],[122.69096088500011,10.983532116000049],[122.69330390800008,10.983775724000052],[122.69501182500005,10.98450097400007],[122.69618390900008,10.984067954000068],[122.69706424200001,10.982477095000034],[122.69735846900005,10.981126798000048],[122.69677461300013,10.979245139000056],[122.69526264700005,10.977941234000072],[122.69433651100007,10.976589716000033],[122.69340958700002,10.976010012000074],[122.69355755100003,10.974514901000077],[122.69668344200012,10.972878009000055],[122.69790382000008,10.97292741500007],[122.70044080500008,10.974376988000074],[122.7025396790001,10.974620193000021],[122.70380786200008,10.975634394000053],[122.70488139900012,10.976117823000038],[122.70590646100005,10.976167008000058],[122.70712723500003,10.975830559000034],[122.7085418279343,10.976206413403537],[122.7086614432091,10.973847208325607],[122.70844541875309,10.969414708826337],[122.70791676123902,10.965869492815449],[122.70767402900003,10.965798171000074]]],[[[122.64514666900003,11.014646236000033],[122.64335534500002,11.014447477000035],[122.6431496044282,11.014533428611324],[122.64522475187854,11.015506052923508],[122.64514666900003,11.014646236000033]]]]}},{"type":"Feature","properties":{"fid":61,"objectid":1925,"lccode":"06","liqcode":"2010600060000000","mappers":"DJLBuhay","project":"Negros Occidental Multi-Hazard Mapping","province":"Negros Occidental","otherinfo":null,"datemapped":2018,"publishdate":null,"globalid":"{E5539A65-5F4C-46A4-8778-850E85BFF908}","st_area(shape)":0.021565408471292534,"st_perimeter(shape)":8.733756823540528,"liqcodepk":"201060006000000000123","creator":"SNOOPYPC","createdate":"2019-02-19T15:21:28","editor":"LENOVO","modifydate":"2019-03-10T17:50:55","codemove":"na"},"geometry":{"type":"Polygon","coordinates":[]}},{"type":"Feature","properties":{"fid":73,"objectid":1937,"lccode":"06","liqcode":"2010600060000000","mappers":"PJDelosReyes, ACPidlaoan","project":"READY","province":"Iloilo","otherinfo":null,"datemapped":2010,"publishdate":null,"globalid":"{DBB85F45-4FB4-4F72-8BD3-A1308397A487}","st_area(shape)":0.017575391436836466,"st_perimeter(shape)":7.287100410898002,"liqcodepk":"201060006000000000136","creator":"SNOOPYPC","createdate":"2019-02-19T15:21:28","editor":"LENOVO","modifydate":"2019-03-10T17:50:55","codemove":"na"},"geometry":{"type":"Polygon","coordinates":[[[122.66921759500009,10.929423256000065],[122.66990793400011,10.930448993000025],[122.67067704100008,10.932315711000054],[122.67142097000009,10.932999809000023],[122.67195151500005,10.934209373000042],[122.67378413200005,10.936392606000025],[122.67343704500001,10.937653763000071],[122.67048289000002,10.939542881000026],[122.669098458,10.940907979000032],[122.66848563400004,10.941958526000064],[122.66824423600009,10.94377170800004],[122.66933279600005,10.945454864000055],[122.67175007300011,10.948085592000043],[122.67172171300003,10.949715003000051],[122.66996560200003,10.950422627000023],[122.66871604900007,10.950027046000057],[122.66706846600005,10.94876381800003],[122.66645776500003,10.947895852000041],[122.66560880400004,10.946028947000057],[122.66494458300009,10.945450080000057],[122.66350843500004,10.945448500000053],[122.66223100800006,10.946235543000059],[122.66188232400009,10.948784429000057],[122.6637672380001,10.95178254300004],[122.66501593400004,10.952940285000068],[122.66567969900007,10.953939690000025],[122.66591708500006,10.955726990000072],[122.66551632000004,10.95735599100004],[122.663942775,10.961217589000055],[122.66287648800007,10.963371456000061],[122.66228837100005,10.965998919000072],[122.66236540200009,10.968416895000075],[122.66262996900002,10.96965240000003],[122.66318747900004,10.970599069000055],[122.66433036400008,10.971283716000073],[122.66560667000012,10.97165303400004],[122.6712187070001,10.971659142000023],[122.67302751700004,10.971529711000075],[122.67558080000003,10.971611286000039],[122.67730938600005,10.971823346000065],[122.6785589850001,10.972271427000068],[122.67948880100003,10.973349929000051],[122.68071018600007,10.975269722000066],[122.68142506600009,10.97831912600003],[122.68277907200002,10.980685809000018],[122.68551485700004,10.984341664000056],[122.68663086400011,10.985420337000047],[122.68665643400006,10.986366508000057],[122.68607016900013,10.987390892000066],[122.68689449300008,10.987654589000043],[122.68793255900006,10.98699858200007],[122.6881727010001,10.986236687000027],[122.68774897900005,10.984501655000031],[122.68644729500011,10.982923500000025],[122.68509411300012,10.979742069000055],[122.68517549800004,10.978296715000056],[122.68605395800012,10.977588014000045],[122.68672017500013,10.976379798000035],[122.6854721860001,10.974381157000037],[122.682175539,10.973011051000073],[122.68039506900003,10.971484905000068],[122.6789063120001,10.970878889000062],[122.67603468400011,10.970034862000032],[122.674997888,10.969560686000023],[122.67090211500012,10.969319754000024],[122.6701311700001,10.969029851000075],[122.66627475300004,10.968841649000069],[122.66507847000004,10.968262199000039],[122.66491962900012,10.967631262000054],[122.66526690900002,10.96626505300003],[122.66524294400004,10.963952293000032],[122.66825402400002,10.958909575000066],[122.66886644700004,10.958253257000022],[122.67006329300013,10.958228242000073],[122.6708620300001,10.957519497000018],[122.67030501300009,10.956125991000022],[122.66918859000009,10.955572955000035],[122.66911039500008,10.954153654000038],[122.67001618800009,10.952788043000055],[122.67326217200002,10.951582543000029],[122.67403507700011,10.95011161900004],[122.67366495800003,10.948061333000055],[122.672895605,10.946299689000055],[122.671806779,10.944905615000039],[122.67146191300003,10.944064256000045],[122.67151717300011,10.942198338000026],[122.67226393000011,10.940333161000066],[122.67303592700011,10.939598158000026],[122.67553712300003,10.938470767000068],[122.6761495730001,10.937735495000029],[122.6764700850001,10.936474307000026],[122.67474412100012,10.933975821000049],[122.67360307500007,10.931714398000048],[122.67216786672824,10.929532274715177],[122.67187401850285,10.929459200074826],[122.66920244336582,10.929064626968332],[122.66921759500009,10.929423256000065]]]}}]}