{"type":"FeatureCollection","features":[{"type":"Feature","properties":{"fid":32,"objectid":1878,"lccode":"07","liqcode":"2010600070000000","mappers":"PJDelosReyes, ACPidlaoan","project":"READY","province":"Iloilo","otherinfo":null,"datemapped":2010,"publishdate":null,"globalid":"{2F92972A-C07C-4633-B325-DF2A08960C6C}","st_area(shape)":0.031106077518548395,"st_perimeter(shape)":5.287074988133156,"liqcodepk":"201060007000000000071","creator":"SNOOPYPC","createdate":"2019-02-19T15:21:28","editor":"LENOVO","modifydate":"2019-03-10T17:50:55","codemove":"na"},"geometry":{"type":"Polygon","coordinates":[]}},{"type":"Feature","properties":{"fid":59,"objectid":1908,"lccode":"05","liqcode":"2010600050000000","mappers":"PJDelosReyes, ACPidlaoan","project":"READY","province":"Iloilo","otherinfo":null,"datemapped":2010,"publishdate":null,"globalid":"{282D04BA-68E2-41E5-9B8A-0D8D85396F2D}","st_area(shape)":0.06128738608791496,"st_perimeter(shape)":10.692281506054618,"liqcodepk":"201060005000000000103","creator":"SNOOPYPC","createdate":"2019-02-19T15:21:28","editor":"LENOVO","modifydate":"2019-03-10T17:50:55","codemove":"na"},"geometry":{"type":"MultiPolygon","coordinates":[[[[122.76895931800006,11.076543098000059],[122.76855687500007,11.077336487000023],[122.76568532000009,11.079318697000076],[122.764824201,11.079431412000078],[122.76298674100008,11.08022376300005],[122.76109112400002,11.08186644500006],[122.75868065700003,11.08135429400005],[122.75712978200009,11.082600378000052],[122.75741623800002,11.08333761200003],[122.75844886700008,11.084018843000022],[122.7611466200001,11.084191069000042],[122.76235064500008,11.086006274000056],[122.76321151000003,11.086233812000046],[122.7640156000001,11.085610733000067],[122.76843595800005,11.085160617000044],[122.77337351100006,11.08391703800004],[122.77411244482373,11.084183041897514],[122.77269491427381,11.081216897334246],[122.77038813558258,11.077408871439854],[122.76878457191846,11.075269767914286],[122.76895931800006,11.076543098000059]]],[[[122.68680589300006,11.10348622400005],[122.68829835200006,11.104372786000056],[122.69227911000007,11.105999345000042],[122.69377231700004,11.10619752700006],[122.697755636,11.105464009000057],[122.69830443600007,11.104284600000028],[122.6971109860001,11.103005068000073],[122.69566969100003,11.100741982000045],[122.6960199890001,11.098972396000018],[122.69761457700008,11.09740063100003],[122.69876164900006,11.095287708000058],[122.69866354300008,11.093910899000035],[122.6981170360001,11.092877865000048],[122.69697257900009,11.092385112000043],[122.69637480000004,11.092827018000033],[122.69308915500007,11.093069448000051],[122.691098753,11.092280775000065],[122.69005547900008,11.090362203000039],[122.68871183700003,11.089967499000066],[122.68830955320671,11.090082648069234],[122.68740464984818,11.093634949354112],[122.68674072372686,11.09802382364472],[122.68651553566012,11.102455836499459],[122.68656567437762,11.103485974105078],[122.68680589300006,11.10348622400005]]]]}},{"type":"Feature","properties":{"fid":73,"objectid":1937,"lccode":"06","liqcode":"2010600060000000","mappers":"PJDelosReyes, ACPidlaoan","project":"READY","province":"Iloilo","otherinfo":null,"datemapped":2010,"publishdate":null,"globalid":"{DBB85F45-4FB4-4F72-8BD3-A1308397A487}","st_area(shape)":0.017575391436836466,"st_perimeter(shape)":7.287100410898002,"liqcodepk":"201060006000000000136","creator":"SNOOPYPC","createdate":"2019-02-19T15:21:28","editor":"LENOVO","modifydate":"2019-03-10T17:50:55","codemove":"na"},"geometry":{"type":"Polygon","coordinates":[]}}]}