{"type":"FeatureCollection","features":[{"type":"Feature","properties":{"fid":16,"objectid":1861,"lccode":"07","liqcode":"2010600070000000","mappers":"MITAbigania, DJLBuhay","project":"Cebu Multi-Hazard Mapping","province":"Cebu","otherinfo":null,"datemapped":2016,"publishdate":null,"globalid":"{C53CB127-C117-49E0-BEC2-5269D4100696}","st_area(shape)":0.02168908556211633,"st_perimeter(shape)":9.044842936189752,"liqcodepk":"201060007000000000053","creator":"SNOOPYPC","createdate":"2019-02-19T15:21:28","editor":"LENOVO","modifydate":"2019-03-10T17:50:55","codemove":"na"},"geometry":{"type":"Polygon","coordinates":[]}},{"type":"Feature","properties":{"fid":25,"objectid":1871,"lccode":"07","liqcode":"2010600070000000","mappers":"PJDelosReyes, ACPidlaoan","project":"READY","province":"Bohol","otherinfo":null,"datemapped":2008,"publishdate":null,"globalid":"{24D4EC03-5006-45F6-AD98-9C84307BF998}","st_area(shape)":0.043795715989879205,"st_perimeter(shape)":13.054531899785706,"liqcodepk":"201060007000000000063","creator":"SNOOPYPC","createdate":"2019-02-19T15:21:28","editor":"LENOVO","modifydate":"2019-03-10T17:50:55","codemove":"na"},"geometry":{"type":"Polygon","coordinates":[[[124.36105081200004,10.071069240000043],[124.3584153050001,10.070054118000032],[124.35820139400005,10.070482414000026],[124.35799596299998,10.072919937000052],[124.35726317400007,10.073051227000066],[124.35505755800013,10.071692324000024],[124.35664682200003,10.070061381000073],[124.35534509900005,10.068228497000062],[124.35534295800005,10.067715568000038],[124.35710535500006,10.066254864000028],[124.35882641600006,10.065221831000033],[124.35998996700005,10.064960579000058],[124.36085482600004,10.065469959000037],[124.36400324300008,10.065371468000022],[124.36417062300005,10.06413110600005],[124.36322198300003,10.064220537000041],[124.36192473400001,10.063456386000041],[124.36105816400004,10.062519508000037],[124.35915613400005,10.061544033000073],[124.35919602400008,10.060774463000032],[124.36005711300004,10.060386176000067],[124.36225495500003,10.05990686700005],[124.36216382600003,10.058753088000062],[124.36151360200004,10.057986269000022],[124.35961292600007,10.057310106000047],[124.35793126500006,10.057445200000075],[124.35672801900012,10.05851886100004],[124.35608511900011,10.059504703000071],[124.35513613000012,10.059508591000052],[124.35474276100003,10.05827052500007],[124.35503815100003,10.056687651000061],[124.35779276000005,10.055265647000054],[124.35925907700006,10.055216869000049],[124.36008161800011,10.055940227000063],[124.36219787300001,10.056572740000036],[124.36280079000004,10.056356550000032],[124.3638395690001,10.057207195000046],[124.36726067291889,10.057112322054776],[124.36768075830106,10.05542033121533],[124.36799244082253,10.053276349128069],[124.36792051200007,10.053214783000044],[124.36722933800003,10.052961080000047],[124.3670529850001,10.05206412500007],[124.36450302100002,10.050834971000027],[124.3633388080001,10.050925195000046],[124.36173999800008,10.050247797000056],[124.36001759200006,10.050938852000058],[124.35700227300003,10.051891759000059],[124.3557074050001,10.051683264000074],[124.35466011800008,10.048780687000034],[124.35599416200012,10.048048490000046],[124.35814097600007,10.045688532000042],[124.36025172400002,10.045038656000031],[124.36218888700012,10.04413292100003],[124.36339618400007,10.044042437000028],[124.36425632900013,10.043440440000039],[124.36339063400011,10.042717266000068],[124.36123251300012,10.042341389000057],[124.36109793700007,10.04110226800003],[124.36040689700009,10.040891395000074],[124.35881232200005,10.041197165000028],[124.35850186800009,10.039146504000028],[124.35763887000007,10.03906452000007],[124.35677986500002,10.039922964000025],[124.3568315220001,10.041974778000053],[124.35480575000008,10.04232505400006],[124.35407683500011,10.04335400100007],[124.35347119200001,10.042928966000034],[124.35372287100004,10.041217990000066],[124.35337530800007,10.040620950000061],[124.3505272340001,10.040290577000063],[124.35001338200004,10.041190360000028],[124.35066478500006,10.042256436000057],[124.35054106600012,10.043624900000056],[124.34989728300003,10.044397023000043],[124.35292276900009,10.045880832000023],[124.35344426200002,10.046819150000031],[124.35184992800009,10.04721041000005],[124.35146671100007,10.048408982000069],[124.35082168000008,10.048881793000023],[124.34970064600007,10.048971883000036],[124.3493599950001,10.050042001000064],[124.34880124800009,10.050514548000022],[124.34885215600002,10.052395240000067],[124.34932912500007,10.05299184700004],[124.3486451540001,10.054490783000062],[124.34847761100004,10.055688476000057],[124.34800489300005,10.056117821000043],[124.34683834600004,10.055652390000036],[124.34666300600009,10.054969123000035],[124.34730522000007,10.053812259000038],[124.34734407700012,10.052786130000074],[124.34604283800003,10.051038711000045],[124.34512414900006,10.047921769000027],[124.34460426600003,10.047368179000042],[124.3432142050001,10.044979883000053],[124.34273831800012,10.044639821000032],[124.33924604300013,10.044995946000029],[124.33946823800011,10.046576723000044],[124.34003579700004,10.04824162400007],[124.3399556690001,10.04973819400004],[124.33857547700006,10.049743775000026],[124.33602571200005,10.048557145000071],[124.3352512560001,10.049030450000034],[124.33412933400007,10.048906781000028],[124.33334576500012,10.047157215000027],[124.33243508500006,10.045963861000072],[124.32923890900008,10.044907962000027],[124.328116926,10.044784270000036],[124.326005914,10.04539119000003],[124.32453491900002,10.044285573000025],[124.32384545000004,10.044459370000027],[124.32142610700008,10.043485806000033],[124.32013127700009,10.043277164000072],[124.32151978400009,10.045323593000035],[124.32127487600007,10.04874450600005],[124.32028478100007,10.04921873000006],[124.31985843200003,10.05046012300005],[124.31857110100009,10.052089790000023],[124.3178379840001,10.052135379000049],[124.31554981900001,10.051631532000043],[124.31265577400006,10.050617033000037],[124.31335261100003,10.05228148200007],[124.31305726200003,10.053907106000052],[124.31314873300005,10.055189291000033],[124.3124635470001,10.056431705000021],[124.31264096600012,10.057627937000062],[124.31371929300008,10.057623658000065],[124.3144551910001,10.058262055000057],[124.31515275100001,10.060097446000043],[124.31651590000001,10.061182193000036],[124.31738589400005,10.062974130000043],[124.31776821000005,10.066841486000044],[124.31686817800006,10.068277143000044],[124.31693686900007,10.069260090000055],[124.31532274800009,10.070121547000042],[124.31569327500007,10.07108186800002],[124.3157632640001,10.072385469000041],[124.31542281700001,10.073519663000068],[124.314392138,10.074656602000061],[124.31431034200011,10.075768431000029],[124.31388185900003,10.076475549000065],[124.31219685200006,10.075819593000064],[124.31283957500013,10.07474829600005],[124.31268641100007,10.07421453300003],[124.31106698600001,10.07377211200003],[124.31054694700003,10.074669436000024],[124.30963204400007,10.075192429000023],[124.30970137500003,10.07613334000007],[124.30892007500006,10.077304896000042],[124.3085975370001,10.078539543000035],[124.3090593170001,10.079349170000057],[124.30834346600011,10.080520376000038],[124.30981955700008,10.081066254000062],[124.31146192400001,10.082260648000045],[124.31143786000007,10.084402931000058],[124.31180296900003,10.085602302000039],[124.31282010400002,10.08605271300007],[124.31177904100004,10.087777039000056],[124.3119846940001,10.090048227000066],[124.31231909632858,10.09070436923978],[124.31418407086042,10.091159418060533],[124.31861548664895,10.091792754596822],[124.32308820877779,10.091992551508598],[124.32755914434702,10.091756886129499],[124.33198521814403,10.091088031258149],[124.33632378816533,10.089992433145833],[124.340533056921,10.088480649228908],[124.3445724745357,10.086567246212955],[124.34840312974207,10.084270659499783],[124.3519881249826,10.081613015322304],[124.35529293199322,10.078619917312981],[124.35828572443504,10.075320199574863],[124.36075642326495,10.071989971580226],[124.36105081200004,10.071069240000043]],[[124.32844569000008,10.088026683000066],[124.3297165350001,10.087314709000054],[124.33050905500012,10.087993148000065],[124.32926309400011,10.08855351100004],[124.32987988700006,10.08986384700006],[124.32983333000006,10.090949585000034],[124.32656395000004,10.088867311000058],[124.32579469700009,10.087658649000048],[124.32844569000008,10.088026683000066]],[[124.32333399400011,10.084471170000027],[124.32312932100001,10.085296462000029],[124.32200544800003,10.08509484700005],[124.32204244200011,10.083981753000046],[124.32274919900011,10.083875863000058],[124.32333399400011,10.084471170000027]]]}},{"type":"Feature","properties":{"fid":40,"objectid":1888,"lccode":"05","liqcode":"2010600050000000","mappers":"MITAbigania, DJLBuhay","project":"Cebu Multi-Hazard Mapping","province":"Cebu","otherinfo":null,"datemapped":2016,"publishdate":null,"globalid":"{6B113CA7-0A16-415A-8510-4591ABBD34CB}","st_area(shape)":0.011277825227989341,"st_perimeter(shape)":7.92725888477651,"liqcodepk":"201060005000000000082","creator":"SNOOPYPC","createdate":"2019-02-19T15:21:28","editor":"LENOVO","modifydate":"2019-03-10T17:50:55","codemove":"na"},"geometry":{"type":"Polygon","coordinates":[]}},{"type":"Feature","properties":{"fid":66,"objectid":1930,"lccode":"06","liqcode":"2010600060000000","mappers":"PJDelosReyes, ACPidlaoan","project":"READY","province":"Bohol","otherinfo":null,"datemapped":2008,"publishdate":null,"globalid":"{D63C31C2-E045-4C3D-A292-79031F3364A0}","st_area(shape)":0.006668240995906857,"st_perimeter(shape)":3.000289637999567,"liqcodepk":"201060006000000000128","creator":"SNOOPYPC","createdate":"2019-02-19T15:21:28","editor":"LENOVO","modifydate":"2019-03-10T17:50:55","codemove":"na"},"geometry":{"type":"MultiPolygon","coordinates":[[[[124.32656395000004,10.088867311000058],[124.32983333000006,10.090949585000034],[124.32987988700006,10.08986384700006],[124.32926309400011,10.08855351100004],[124.33050905500012,10.087993148000065],[124.3297165350001,10.087314709000054],[124.32844569000008,10.088026683000066],[124.32579469700009,10.087658649000048],[124.32656395000004,10.088867311000058]]],[[[124.32333399400011,10.084471170000027],[124.32274919900011,10.083875863000058],[124.32204244200011,10.083981753000046],[124.32200544800003,10.08509484700005],[124.32312932100001,10.085296462000029],[124.32333399400011,10.084471170000027]]]]}},{"type":"Feature","properties":{"fid":91,"objectid":1919,"lccode":"06","liqcode":"2010600060000000","mappers":"MITAbigania, DJLBuhay","project":"Cebu Multi-Hazard Mapping","province":"Cebu","otherinfo":null,"datemapped":2016,"publishdate":null,"globalid":"{EDC44F95-33EE-45BE-975C-40D829DF5178}","st_area(shape)":0.012637099910309046,"st_perimeter(shape)":9.940336299625505,"liqcodepk":"201060006000000000117","creator":"SNOOPYPC","createdate":"2019-02-19T15:21:28","editor":"LENOVO","modifydate":"2019-03-10T17:50:55","codemove":"na"},"geometry":{"type":"Polygon","coordinates":[]}}]}