{"type":"FeatureCollection","features":[{"type":"Feature","properties":{"fid":171,"objectid":9613,"lccode":"01","liqcode":"2010600010000000","mappers":"DJLBuhay, MJVReyes, MITAbigania, KLPapiona, KMVitto","project":"MELP","province":"Nueva Ecija","otherinfo":"hazard boundary with Pangasinan updated on 2024","datemapped":2018,"publishdate":null,"globalid":"{142EC992-C228-490B-8C06-5B4A68BA1242}","st_area(shape)":0.21874224791512728,"st_perimeter(shape)":7.9099228422392365,"liqcodepk":"201060001000000000019","creator":"SNOOPYPC","createdate":"2019-02-19T15:21:28","editor":"LENOVO","modifydate":"2019-03-10T17:53:06","codemove":"na"},"geometry":{"type":"Polygon","coordinates":[]}},{"type":"Feature","properties":{"fid":174,"objectid":9616,"lccode":"07","liqcode":null,"mappers":"DJLBuhay, MITAbigania","project":"LiquePhi","province":"Pangasinan","otherinfo":null,"datemapped":2024,"publishdate":null,"globalid":"{4C1C6B5C-6BC5-4098-AF34-1358D72BE295}","st_area(shape)":0.0990952810399136,"st_perimeter(shape)":16.14272038398808,"liqcodepk":null,"creator":null,"createdate":null,"editor":null,"modifydate":null,"codemove":null},"geometry":{"type":"MultiPolygon","coordinates":[[[[120.6036309120001,15.860894016000035],[120.60006012071496,15.86129957512392],[120.59790772230949,15.863144770252768],[120.59479372124446,15.866394548561146],[120.59202370948391,15.869924056255686],[120.58962436756428,15.87369931677788],[120.58761881193314,15.877683986597315],[120.58602637196692,15.881839704670858],[120.5848624032565,15.886126461360668],[120.58471401144386,15.887023173484344],[120.58860767100009,15.889555701000056],[120.59050910900008,15.890527241000028],[120.59595276900006,15.892814134000046],[120.5991547090001,15.894584800000079],[120.60500757200009,15.898327969000038],[120.61014739600013,15.902271078000068],[120.61394440700009,15.906008131000025],[120.61700251000002,15.908473084000038],[120.61846354800004,15.910385023000062],[120.61918034400003,15.913134082000056],[120.61947228500004,15.91527376300007],[120.61952637600007,15.917453795000029],[120.619400981,15.920527583000023],[120.61994423200008,15.922476954000048],[120.6202566280001,15.925250554000058],[120.62158023000008,15.928512501000057],[120.62226042000009,15.929124651000052],[120.62424964700004,15.930050209000058],[120.62837542300008,15.931488593000037],[120.63002526500007,15.932964228000058],[120.63141569100003,15.933752721000078],[120.63405393600009,15.934369799000022],[120.6348614530001,15.93475375800006],[120.63562792900007,15.935732707000053],[120.63538897300008,15.936635847000048],[120.63282058200002,15.938522359000048],[120.6316201139369,15.940548298740765],[120.63457612664781,15.940440320614222],[120.63911500503835,15.939839678171136],[120.64357115100314,15.938811382151485],[120.64790162118807,15.937365338411814],[120.6520646850056,15.935515478700854],[120.65602022751763,15.933279626272224],[120.65973013662538,15.930679323921956],[120.66315867080371,15.92773962611913],[120.6637647886393,15.927106927172279],[120.66288675900013,15.924885026000025],[120.66080266200004,15.921603864000076],[120.66129430500008,15.921022357000028],[120.66268381200007,15.921809516000055],[120.663861246,15.921548050000066],[120.66417023000008,15.922256591000064],[120.66547006000008,15.923010315000061],[120.66641748600011,15.923189955000057],[120.66690354700006,15.922545339000068],[120.66645195500008,15.92193660500004],[120.66528142200004,15.921363513000074],[120.66460470400011,15.920242499000038],[120.66285388000006,15.920204863000036],[120.66253024000002,15.919239561000037],[120.66153198500002,15.918325301000035],[120.66119923300005,15.917205327000037],[120.66337548400008,15.913332409000077],[120.66472546400006,15.912008056000053],[120.66673804900006,15.910662317000064],[120.66880498500008,15.90993677000006],[120.67094799200005,15.909897643000024],[120.67461094590624,15.910152488482078],[120.67503681559802,15.909039915690546],[120.67619914456996,15.904752439393482],[120.67686937356707,15.900691532329088],[120.67617067900005,15.90102442800002],[120.67512964200013,15.903013110000074],[120.67378912800007,15.903685143000077],[120.6718781830001,15.90232736000007],[120.66991019500006,15.901614177000058],[120.6685982030001,15.900599259000048],[120.66738603700003,15.899172879000053],[120.6670009950001,15.896155503000044],[120.66645908600003,15.895428583000067],[120.66373527600003,15.894564505000066],[120.66129668200007,15.89482510100004],[120.66034073400012,15.894407691000023],[120.65940665300003,15.894462553000034],[120.65821587700009,15.893680764000067],[120.65701188000003,15.893618791000044],[120.65631776300008,15.892568049000028],[120.656130952,15.890624056000043],[120.6560325470001,15.890373526000069],[120.65510559600011,15.889276256000073],[120.6550342920001,15.887058837000039],[120.65427371700002,15.885298601000041],[120.65282387100001,15.884247024000047],[120.65144532800004,15.884338465000035],[120.65077982500009,15.883629791000034],[120.64928244300006,15.88282967200007],[120.64747607700008,15.881526614000052],[120.6470007170001,15.88036071300007],[120.64602623000007,15.879949217000044],[120.64514681500009,15.880589322000048],[120.64398218500004,15.878714724000078],[120.64324537800007,15.878051752000037],[120.64307900200005,15.877068721000057],[120.64298393,15.872039184000073],[120.64198567500013,15.86790115300005],[120.64248480200001,15.863717311000075],[120.64284132200011,15.862505581000043],[120.64296016200001,15.859739151000047],[120.64262741000005,15.855120730000065],[120.64274625000007,15.852902935000031],[120.64254687850459,15.851856812786409],[120.64014848807625,15.851247451490115],[120.63562679095374,15.850547717438454],[120.63105604274622,15.850280269399835],[120.6264802336542,15.850447677402745],[120.6219434016785,15.851048326276038],[120.61748920963949,15.852076431317364],[120.61316052580307,15.853522094009403],[120.60899901210831,15.855371397246927],[120.60504472392292,15.857606539161306],[120.60453993166496,15.857960332907789],[120.6036309120001,15.860894016000035]],[[120.6432371180001,15.903844702000073],[120.64516826600004,15.903501828000058],[120.64659434400006,15.903758984000033],[120.64810955300004,15.904701883000032],[120.64906027200004,15.906016220000023],[120.64805013300008,15.91018775300006],[120.64763419300003,15.912702061000061],[120.64796100300008,15.914559200000042],[120.64950592100001,15.91655917600008],[120.65084286900003,15.919273398000033],[120.65212039800006,15.921387608000034],[120.65318995700012,15.921530459000053],[120.653576186,15.921073335000068],[120.65330879700004,15.917387732000066],[120.65271459700011,15.91575918800004],[120.6536356060001,15.915302050000038],[120.65467545500006,15.915530619000034],[120.65559646400004,15.916502034000075],[120.65734935200011,15.917730581000056],[120.65761674200006,15.918501991000028],[120.65737906200002,15.920130513000062],[120.65806239100003,15.922130433000067],[120.65922108000007,15.923587506000045],[120.66043918800005,15.924387463000068],[120.66082541800006,15.92538740500004],[120.65972614900012,15.926101646000062],[120.65856746100009,15.92464459100006],[120.65743848200009,15.923958915000075],[120.65604211400012,15.923844636000068],[120.65476458500007,15.924273184000072],[120.6540218360001,15.925501684000041],[120.65446748500007,15.926501620000064],[120.65378415600003,15.927130148000058],[120.6530711170001,15.927015871000037],[120.65188271800002,15.925987367000062],[120.65084286900003,15.924701731000024],[120.64926781900012,15.922364851000054],[120.6477827430001,15.921159046000069],[120.64329653800007,15.919616244000053],[120.63750309500007,15.913130633000035],[120.63266037000004,15.90738769200004],[120.63087777200006,15.905444770000031],[120.62921401400001,15.903387537000071],[120.6289169150001,15.901930318000042],[120.63001618300008,15.900387369000045],[120.63167994100003,15.899330156000072],[120.63334370000008,15.899101569000038],[120.63548281700002,15.90015878300005],[120.63646324600006,15.900273076000078],[120.63851323400003,15.900958833000058],[120.64118713100004,15.903273246000028],[120.6432371180001,15.903844702000073]]],[[[120.59029640000004,15.918064184000059],[120.59237847500003,15.919298436000076],[120.59479754900009,15.921775038000082],[120.59654959600005,15.92336741400004],[120.59740524300003,15.924498782000056],[120.59889069500002,15.927726224000027],[120.59971278300009,15.928409899000028],[120.60145025300005,15.92856060500003],[120.60181420100001,15.927492876000032],[120.60072087500008,15.92633867000006],[120.59997218400007,15.924761624000041],[120.59930668000005,15.922670305000054],[120.59876001700003,15.922110331000052],[120.59758366100004,15.91894187500003],[120.59722356100009,15.917042766000058],[120.59493589400006,15.914499941000031],[120.59110330800002,15.911957085000044],[120.58920187000002,15.911671369000029],[120.58669715741868,15.910819816431548],[120.58720666670446,15.91224964001575],[120.5891170902707,15.916278008201354],[120.59016815881526,15.918020182081435],[120.59029640000004,15.918064184000059]]]]}},{"type":"Feature","properties":{"fid":175,"objectid":9617,"lccode":"06","liqcode":null,"mappers":"DJLBuhay, MITAbigania","project":"LiquePhi","province":"Pangasinan","otherinfo":null,"datemapped":2024,"publishdate":null,"globalid":"{66023685-1332-44EF-8443-E51FD3597412}","st_area(shape)":0.04411879143836554,"st_perimeter(shape)":22.502158641584156,"liqcodepk":null,"creator":null,"createdate":null,"editor":null,"modifydate":null,"codemove":null},"geometry":{"type":"MultiPolygon","coordinates":[[[[120.67679999200003,15.899909830000068],[120.67424739600006,15.901015658000063],[120.67316357700008,15.90092422400005],[120.67105298100012,15.899881872000037],[120.66884169200013,15.89837847800004],[120.66839096800003,15.89766914200004],[120.66793462300008,15.895620974000053],[120.66742123400003,15.894761468000066],[120.66589266300002,15.894042416000046],[120.66466414900003,15.893975109000051],[120.66104585900007,15.894164292000026],[120.65931514600004,15.892917260000045],[120.65825984800006,15.89247835900005],[120.65764448300003,15.891771147000041],[120.65664838000008,15.88931000700006],[120.6553275230001,15.888717417000063],[120.65534178400004,15.886317111000041],[120.65512787200011,15.885480426000065],[120.65334527400013,15.883971641000075],[120.65194771700008,15.883656166000039],[120.65149137200001,15.88324467700005],[120.64905277800005,15.882311964000055],[120.64814008800009,15.881612427000048],[120.64709905100005,15.879664684000035],[120.64514532400007,15.879719550000058],[120.64394741800004,15.87751117100004],[120.64396167800011,15.87634524600003],[120.643505333,15.874411169000037],[120.64441992500008,15.870192712000064],[120.6443438670001,15.86945198100005],[120.64328856900012,15.866708509000034],[120.6430413830001,15.865419064000037],[120.64312694700006,15.863846114000069],[120.6439635800001,15.859950264000076],[120.64406815900008,15.85721580900003],[120.6438399860001,15.855862285000057],[120.64398259400004,15.853173502000061],[120.64380701183597,15.852176964322892],[120.64254687850459,15.851856812786409],[120.64274625000007,15.852902935000031],[120.64262741000005,15.855120730000065],[120.64296016200001,15.859739151000047],[120.64284132200011,15.862505581000043],[120.64248480200001,15.863717311000075],[120.64198567500013,15.86790115300005],[120.64298393,15.872039184000073],[120.64307900200005,15.877068721000057],[120.64324537800007,15.878051752000037],[120.64398218500004,15.878714724000078],[120.64514681500009,15.880589322000048],[120.64602623000007,15.879949217000044],[120.6470007170001,15.88036071300007],[120.64747607700008,15.881526614000052],[120.64928244300006,15.88282967200007],[120.65077982500009,15.883629791000034],[120.65144532800004,15.884338465000035],[120.65282387100001,15.884247024000047],[120.65427371700002,15.885298601000041],[120.6550342920001,15.887058837000039],[120.65510559600011,15.889276256000073],[120.6560325470001,15.890373526000069],[120.656130952,15.890624056000043],[120.65631776300008,15.892568049000028],[120.65701188000003,15.893618791000044],[120.65821587700009,15.893680764000067],[120.65940665300003,15.894462553000034],[120.66034073400012,15.894407691000023],[120.66129668200007,15.89482510100004],[120.66373527600003,15.894564505000066],[120.66645908600003,15.895428583000067],[120.6670009950001,15.896155503000044],[120.66738603700003,15.899172879000053],[120.6685982030001,15.900599259000048],[120.66991019500006,15.901614177000058],[120.6718781830001,15.90232736000007],[120.67378912800007,15.903685143000077],[120.67512964200013,15.903013110000074],[120.67617067900005,15.90102442800002],[120.67686937356707,15.900691532329088],[120.67692155590909,15.90037535031005],[120.67696129948546,15.899737239265416],[120.67679999200003,15.899909830000068]],[[120.67253072500012,15.902565383000024],[120.67276602800007,15.901584757000023],[120.67377141300007,15.90172190800007],[120.67339425500006,15.902620813000055],[120.67253072500012,15.902565383000024]]],[[[120.63266037000004,15.90738769200004],[120.63750309500007,15.913130633000035],[120.64329653800007,15.919616244000053],[120.6477827430001,15.921159046000069],[120.64926781900012,15.922364851000054],[120.65084286900003,15.924701731000024],[120.65188271800002,15.925987367000062],[120.6530711170001,15.927015871000037],[120.65378415600003,15.927130148000058],[120.65446748500007,15.926501620000064],[120.6540218360001,15.925501684000041],[120.65476458500007,15.924273184000072],[120.65604211400012,15.923844636000068],[120.65743848200009,15.923958915000075],[120.65856746100009,15.92464459100006],[120.65972614900012,15.926101646000062],[120.66082541800006,15.92538740500004],[120.66043918800005,15.924387463000068],[120.65922108000007,15.923587506000045],[120.65806239100003,15.922130433000067],[120.65737906200002,15.920130513000062],[120.65761674200006,15.918501991000028],[120.65734935200011,15.917730581000056],[120.65559646400004,15.916502034000075],[120.65467545500006,15.915530619000034],[120.6536356060001,15.915302050000038],[120.65271459700011,15.91575918800004],[120.65330879700004,15.917387732000066],[120.653576186,15.921073335000068],[120.65318995700012,15.921530459000053],[120.65212039800006,15.921387608000034],[120.65084286900003,15.919273398000033],[120.64950592100001,15.91655917600008],[120.64796100300008,15.914559200000042],[120.64763419300003,15.912702061000061],[120.64805013300008,15.91018775300006],[120.64906027200004,15.906016220000023],[120.64810955300004,15.904701883000032],[120.64659434400006,15.903758984000033],[120.64516826600004,15.903501828000058],[120.6432371180001,15.903844702000073],[120.64118713100004,15.903273246000028],[120.63851323400003,15.900958833000058],[120.63646324600006,15.900273076000078],[120.63548281700002,15.90015878300005],[120.63334370000008,15.899101569000038],[120.63167994100003,15.899330156000072],[120.63001618300008,15.900387369000045],[120.6289169150001,15.901930318000042],[120.62921401400001,15.903387537000071],[120.63087777200006,15.905444770000031],[120.63266037000004,15.90738769200004]]],[[[120.67094799200005,15.909897643000024],[120.66880498500008,15.90993677000006],[120.66673804900006,15.910662317000064],[120.66472546400006,15.912008056000053],[120.66337548400008,15.913332409000077],[120.66119923300005,15.917205327000037],[120.66153198500002,15.918325301000035],[120.66253024000002,15.919239561000037],[120.66285388000006,15.920204863000036],[120.66460470400011,15.920242499000038],[120.66528142200004,15.921363513000074],[120.66645195500008,15.92193660500004],[120.66690354700006,15.922545339000068],[120.66641748600011,15.923189955000057],[120.66547006000008,15.923010315000061],[120.66417023000008,15.922256591000064],[120.663861246,15.921548050000066],[120.66268381200007,15.921809516000055],[120.66129430500008,15.921022357000028],[120.66080266200004,15.921603864000076],[120.66288675900013,15.924885026000025],[120.6637647886393,15.927106927172279],[120.66627280381232,15.924488857247473],[120.66779950479362,15.922542830802948],[120.66720722600006,15.920503673000043],[120.66741519600009,15.918303741000047],[120.66819045400008,15.916654185000025],[120.66901953400009,15.915732362000025],[120.67180430500004,15.913390129000055],[120.67350989063084,15.913028891727123],[120.67461094590624,15.910152488482078],[120.67094799200005,15.909897643000024]]],[[[120.63282058200002,15.938522359000048],[120.63538897300008,15.936635847000048],[120.63562792900007,15.935732707000053],[120.6348614530001,15.93475375800006],[120.63405393600009,15.934369799000022],[120.63141569100003,15.933752721000078],[120.63002526500007,15.932964228000058],[120.62837542300008,15.931488593000037],[120.62424964700004,15.930050209000058],[120.62226042000009,15.929124651000052],[120.62158023000008,15.928512501000057],[120.6202566280001,15.925250554000058],[120.61994423200008,15.922476954000048],[120.619400981,15.920527583000023],[120.61952637600007,15.917453795000029],[120.61947228500004,15.91527376300007],[120.61918034400003,15.913134082000056],[120.61846354800004,15.910385023000062],[120.61700251000002,15.908473084000038],[120.61394440700009,15.906008131000025],[120.61014739600013,15.902271078000068],[120.60500757200009,15.898327969000038],[120.5991547090001,15.894584800000079],[120.59595276900006,15.892814134000046],[120.59050910900008,15.890527241000028],[120.58860767100009,15.889555701000056],[120.58471401144386,15.887023173484344],[120.58413813897928,15.890502983278184],[120.58386058081796,15.894927130366034],[120.5840324305103,15.899356301409592],[120.58465206272807,15.903747844085464],[120.58571353958884,15.90805946560679],[120.58669715741868,15.910819816431548],[120.58920187000002,15.911671369000029],[120.59110330800002,15.911957085000044],[120.59493589400006,15.914499941000031],[120.59722356100009,15.917042766000058],[120.59758366100004,15.91894187500003],[120.59876001700003,15.922110331000052],[120.59930668000005,15.922670305000054],[120.59997218400007,15.924761624000041],[120.60072087500008,15.92633867000006],[120.60181420100001,15.927492876000032],[120.60145025300005,15.92856060500003],[120.59971278300009,15.928409899000028],[120.59889069500002,15.927726224000027],[120.59740524300003,15.924498782000056],[120.59654959600005,15.92336741400004],[120.59479754900009,15.921775038000082],[120.59237847500003,15.919298436000076],[120.59029640000004,15.918064184000059],[120.59016815881526,15.918020182081435],[120.59142643430474,15.920105766786584],[120.59288360057661,15.922053493221737],[120.5945206030001,15.922809536000045],[120.5956424510001,15.923815200000039],[120.59704951500008,15.925863081000045],[120.59779947572869,15.92759771638841],[120.60024146388687,15.92978933520056],[120.60069915400004,15.929998344000072],[120.6013884250001,15.929964061000076],[120.605767925,15.930954047000057],[120.60638589200006,15.931776830000047],[120.60828733000005,15.932736739000063],[120.60895683400008,15.933741573000077],[120.61041989000012,15.934121245000025],[120.61057390600001,15.932903540000042],[120.60963269500007,15.930298065000045],[120.61000347500011,15.929324431000051],[120.6107022530001,15.928885609000073],[120.61325493400011,15.928364506000031],[120.61633526300011,15.928789616000076],[120.61818916500009,15.92958498200005],[120.6205707160001,15.931312833000051],[120.62254948900011,15.933638100000053],[120.62384000600002,15.936197179000034],[120.6250284050001,15.937939829000074],[120.62615023900003,15.940089380000078],[120.62635383485389,15.940394066776927],[120.6299982572947,15.940607525025486],[120.6316201139369,15.940548298740765],[120.63282058200002,15.938522359000048]]]]}},{"type":"Feature","properties":{"fid":176,"objectid":9618,"lccode":"05","liqcode":null,"mappers":"DJLBuhay, MITAbigania","project":"LiquePhi","province":"Pangasinan","otherinfo":null,"datemapped":2024,"publishdate":null,"globalid":"{5ACB73C5-6107-4512-9787-F18573022798}","st_area(shape)":0.06533832536059311,"st_perimeter(shape)":23.271340040578984,"liqcodepk":null,"creator":null,"createdate":null,"editor":null,"modifydate":null,"codemove":null},"geometry":{"type":"MultiPolygon","coordinates":[[[[120.67693349400007,15.898832657000073],[120.67483002800009,15.897575421000056],[120.67528162000006,15.896032438000079],[120.67481814400004,15.894740895000037],[120.67314250200003,15.894409436000048],[120.67237004300011,15.894946628000074],[120.670516141,15.894820902000045],[120.67026657800012,15.893975109000055],[120.67084889300008,15.893472203000046],[120.67109845700007,15.892443528000054],[120.67056367700003,15.891517717000056],[120.6692920910001,15.89079763800004],[120.66837702400005,15.889060294000044],[120.6676402170001,15.889014574000045],[120.66608341400001,15.890134706000028],[120.66375415300001,15.891094813000048],[120.66229242300007,15.891506287000029],[120.66061287700008,15.891093068000027],[120.65994262100001,15.891408531000028],[120.65922958100009,15.890763889000022],[120.65944349300003,15.889639189000032],[120.65818854400005,15.889364871000051],[120.65781776400001,15.887979559000028],[120.65820280500009,15.887019437000049],[120.65758959100005,15.886580522000028],[120.65622055600011,15.886868560000032],[120.65531857700012,15.884755412000057],[120.65433279900002,15.884039596000038],[120.65168855500008,15.882852395000041],[120.64992946500003,15.882533726000073],[120.64837675700005,15.881215765000036],[120.64769066000008,15.879665001000037],[120.64772018900011,15.87797303900004],[120.64949388700006,15.876653795000038],[120.64992184800006,15.875713491000056],[120.64928840800009,15.874775912000077],[120.64848662300005,15.874921876000032],[120.64814192000006,15.875683003000061],[120.64719193000008,15.875825644000033],[120.64685278400009,15.874406937000064],[120.64606770900004,15.874063454000066],[120.64551353500008,15.872741911000046],[120.6456369140001,15.871896816000055],[120.64647036700002,15.871610987000054],[120.64703215400003,15.870338324000045],[120.64859553600002,15.86910202200005],[120.65014045500004,15.86878195200006],[120.65242218000004,15.868793383000023],[120.65136450500005,15.866895813000044],[120.65036625000005,15.866484289000027],[120.64961755900003,15.865706965000072],[120.64803698900003,15.865764121000039],[120.64678628800006,15.866500096000038],[120.64630442200009,15.866062196000025],[120.64634262900007,15.864625736000049],[120.64523762200008,15.862287364000046],[120.64451032300008,15.86151916800003],[120.64436771500006,15.860476612000076],[120.64469571300002,15.859420333000058],[120.64560840300011,15.858803024000057],[120.64716282800009,15.858624690000058],[120.64700596000012,15.85791135300007],[120.64528040500012,15.857582120000076],[120.64462440900002,15.856896215000065],[120.64451032300008,15.856100562000048],[120.64528040500012,15.854468093000037],[120.64553863348506,15.852717419876248],[120.64457761426995,15.85237274086141],[120.64380701183597,15.852176964322892],[120.64398259400004,15.853173502000061],[120.6438399860001,15.855862285000057],[120.64406815900008,15.85721580900003],[120.6439635800001,15.859950264000076],[120.64312694700006,15.863846114000069],[120.6430413830001,15.865419064000037],[120.64328856900012,15.866708509000034],[120.6443438670001,15.86945198100005],[120.64441992500008,15.870192712000064],[120.643505333,15.874411169000037],[120.64396167800011,15.87634524600003],[120.64394741800004,15.87751117100004],[120.64514532400007,15.879719550000058],[120.64709905100005,15.879664684000035],[120.64814008800009,15.881612427000048],[120.64905277800005,15.882311964000055],[120.65149137200001,15.88324467700005],[120.65194771700008,15.883656166000039],[120.65334527400013,15.883971641000075],[120.65512787200011,15.885480426000065],[120.65534178400004,15.886317111000041],[120.6553275230001,15.888717417000063],[120.65664838000008,15.88931000700006],[120.65764448300003,15.891771147000041],[120.65825984800006,15.89247835900005],[120.65931514600004,15.892917260000045],[120.66104585900007,15.894164292000026],[120.66466414900003,15.893975109000051],[120.66589266300002,15.894042416000046],[120.66742123400003,15.894761468000066],[120.66793462300008,15.895620974000053],[120.66839096800003,15.89766914200004],[120.66884169200013,15.89837847800004],[120.67105298100012,15.899881872000037],[120.67316357700008,15.90092422400005],[120.67424739600006,15.901015658000063],[120.67679999200003,15.899909830000068],[120.67696129948546,15.899737239265416],[120.67702135734046,15.898772951719051],[120.67693349400007,15.898832657000073]]],[[[120.67180430500004,15.913390129000055],[120.66901953400009,15.915732362000025],[120.66819045400008,15.916654185000025],[120.66741519600009,15.918303741000047],[120.66720722600006,15.920503673000043],[120.66779950479362,15.922542830802948],[120.66904254304445,15.920958338304462],[120.67144121843693,15.917182084710328],[120.67344573915656,15.913196478158627],[120.67350989063084,15.913028891727123],[120.67180430500004,15.913390129000055]]],[[[120.62615023900003,15.940089380000078],[120.6250284050001,15.937939829000074],[120.62384000600002,15.936197179000034],[120.62254948900011,15.933638100000053],[120.6205707160001,15.931312833000051],[120.61818916500009,15.92958498200005],[120.61633526300011,15.928789616000076],[120.61325493400011,15.928364506000031],[120.6107022530001,15.928885609000073],[120.61000347500011,15.929324431000051],[120.60963269500007,15.930298065000045],[120.61057390600001,15.932903540000042],[120.61041989000012,15.934121245000025],[120.60895683400008,15.933741573000077],[120.60828733000005,15.932736739000063],[120.60638589200006,15.931776830000047],[120.605767925,15.930954047000057],[120.6013884250001,15.929964061000076],[120.60069915400004,15.929998344000072],[120.60024146388687,15.92978933520056],[120.60050785325745,15.930028408338112],[120.60415560608733,15.932709487256828],[120.60805748753113,15.935031647704111],[120.61217591075278,15.936972511622187],[120.61647119815929,15.938513373860003],[120.62090196409244,15.939639382839431],[120.62542551415468,15.940339684057701],[120.62635383485389,15.940394066776927],[120.62615023900003,15.940089380000078]]],[[[120.59704951500008,15.925863081000045],[120.5956424510001,15.923815200000039],[120.5945206030001,15.922809536000045],[120.59288360057661,15.922053493221737],[120.59411247674788,15.923696042132104],[120.59714936277112,15.927014245842743],[120.59779947572869,15.92759771638841],[120.59704951500008,15.925863081000045]]]]}},{"type":"Feature","properties":{"fid":180,"objectid":9619,"lccode":"07","liqcode":null,"mappers":"DJLBuhay, MITAbigania","project":"EHM","province":"Tarlac","otherinfo":"merged into one feature in 2024","datemapped":2021,"publishdate":null,"globalid":"{86B5AD80-4B79-45B5-89D4-1FDEF062B016}","st_area(shape)":0.06253734240529021,"st_perimeter(shape)":3.2108098594058267,"liqcodepk":null,"creator":null,"createdate":null,"editor":null,"modifydate":null,"codemove":null},"geometry":{"type":"Polygon","coordinates":[[[120.6036309120001,15.860894016000035],[120.60453993166496,15.857960332907789],[120.60133572514269,15.860206004261247],[120.60006012071496,15.86129957512392],[120.6036309120001,15.860894016000035]]]}}]}