{"type":"FeatureCollection","features":[{"type":"Feature","properties":{"fid":32,"objectid":1878,"lccode":"07","liqcode":"2010600070000000","mappers":"PJDelosReyes, ACPidlaoan","project":"READY","province":"Iloilo","otherinfo":null,"datemapped":2010,"publishdate":null,"globalid":"{2F92972A-C07C-4633-B325-DF2A08960C6C}","st_area(shape)":0.031106077518548395,"st_perimeter(shape)":5.287074988133156,"liqcodepk":"201060007000000000071","creator":"SNOOPYPC","createdate":"2019-02-19T15:21:28","editor":"LENOVO","modifydate":"2019-03-10T17:50:55","codemove":"na"},"geometry":{"type":"Polygon","coordinates":[]}},{"type":"Feature","properties":{"fid":59,"objectid":1908,"lccode":"05","liqcode":"2010600050000000","mappers":"PJDelosReyes, ACPidlaoan","project":"READY","province":"Iloilo","otherinfo":null,"datemapped":2010,"publishdate":null,"globalid":"{282D04BA-68E2-41E5-9B8A-0D8D85396F2D}","st_area(shape)":0.06128738608791496,"st_perimeter(shape)":10.692281506054618,"liqcodepk":"201060005000000000103","creator":"SNOOPYPC","createdate":"2019-02-19T15:21:28","editor":"LENOVO","modifydate":"2019-03-10T17:50:55","codemove":"na"},"geometry":{"type":"MultiPolygon","coordinates":[[[[122.56345941500003,11.130373623000025],[122.56564875600009,11.131163423000032],[122.56724173200007,11.131264095000061],[122.56898443800003,11.131119130000059],[122.56928528953989,11.13095760824093],[122.56877435347353,11.130776240577857],[122.56441718198602,11.129691726080617],[122.56309504925841,11.12949608440032],[122.56345941500003,11.130373623000025]]],[[[122.54110397800002,11.131716909000033],[122.54145147400004,11.132356595000033],[122.54279386100005,11.133538668000028],[122.54403795500004,11.133884685000055],[122.54662834400006,11.132856137000035],[122.54847051800003,11.132760538000069],[122.54971635400013,11.131975782000039],[122.5515084560001,11.132076836000069],[122.55275360700011,11.131734476000078],[122.553899751,11.131047927000054],[122.55390304406724,11.128884225281311],[122.55099739563542,11.129020858541613],[122.5465516239656,11.129665303312937],[122.54219119578688,11.130736920914583],[122.54122149244819,11.131077901131805],[122.54110397800002,11.131716909000033]]]]}},{"type":"Feature","properties":{"fid":73,"objectid":1937,"lccode":"06","liqcode":"2010600060000000","mappers":"PJDelosReyes, ACPidlaoan","project":"READY","province":"Iloilo","otherinfo":null,"datemapped":2010,"publishdate":null,"globalid":"{DBB85F45-4FB4-4F72-8BD3-A1308397A487}","st_area(shape)":0.017575391436836466,"st_perimeter(shape)":7.287100410898002,"liqcodepk":"201060006000000000136","creator":"SNOOPYPC","createdate":"2019-02-19T15:21:28","editor":"LENOVO","modifydate":"2019-03-10T17:50:55","codemove":"na"},"geometry":{"type":"Polygon","coordinates":[]}}]}