{"type":"FeatureCollection","features":[{"type":"Feature","properties":{"fid":36,"objectid":1883,"lccode":"07","liqcode":"2010600070000000","mappers":" ","project":"READY","province":"Southern Leyte","otherinfo":null,"datemapped":2008,"publishdate":null,"globalid":"{7CC31FC5-78B8-47A1-A953-92709FF20FEB}","st_area(shape)":0.007628224894819505,"st_perimeter(shape)":2.8421557028980575,"liqcodepk":"201060007000000000077","creator":"SNOOPYPC","createdate":"2019-02-19T15:21:28","editor":"LENOVO","modifydate":"2019-03-10T17:50:55","codemove":"na"},"geometry":{"type":"Polygon","coordinates":[[[125.217671644,10.38349077600003],[125.22208568000006,10.38225511400003],[125.22203205500013,10.380407539000034],[125.22113351599998,10.37957016000007],[125.22149412600004,10.37892493600003],[125.22050991400009,10.377445417000049],[125.21809855800007,10.374971404000062],[125.21626852600004,10.374381518000062],[125.21730952000007,10.372405931000058],[125.21836104700003,10.371916601000065],[125.21821358800004,10.368262018000054],[125.21758742300005,10.365775657000029],[125.216690921,10.365219440000034],[125.21619786300005,10.364339028000074],[125.21688020700005,10.363289851000046],[125.21794124500003,10.364166344000067],[125.21854958900009,10.364122026000073],[125.21967055400012,10.361985138000021],[125.22035720100007,10.36153853700006],[125.22137257300005,10.361692184000049],[125.22227077000001,10.36248945600005],[125.22364964700012,10.362399503000061],[125.22418187100006,10.363078759000073],[125.2247211880001,10.364762221000033],[125.22566345100006,10.366041244000028],[125.22671827200008,10.36603393800004],[125.2284299580001,10.367106658000065],[125.2288833340001,10.368107768000073],[125.22938666900008,10.370434281000028],[125.22951954700012,10.372000008000043],[125.2300515180001,10.37263904100007],[125.23219814100003,10.372101945000052],[125.23413648600001,10.37080293200006],[125.23551559600004,10.37075321900005],[125.23642305400007,10.372835820000034],[125.23652274400001,10.375446225000076],[125.23852100500007,10.376878494000037],[125.23945278600002,10.376671129000043],[125.23997277700006,10.375623046000044],[125.24113997000006,10.374289251000048],[125.2408918960001,10.37364826200007],[125.24128309400011,10.371596742000063],[125.24241963600002,10.371669229000073],[125.24139565700013,10.37031051500003],[125.24204049000002,10.36970341400007],[125.24269447300001,10.370381779000072],[125.24342452500004,10.370336564000068],[125.2436162150001,10.368768499000053],[125.2451052770001,10.36707092700004],[125.24594815200011,10.365779599000065],[125.2499545600001,10.364345606000027],[125.25138000700008,10.365098880000057],[125.25210594600003,10.364491197000062],[125.251929893,10.362564281000061],[125.25301700000011,10.361391679000063],[125.25411178000002,10.361303678000068],[125.25580970200008,10.360448191000044],[125.25816648800003,10.36095382600007],[125.25881328100003,10.360627972000033],[125.257465893,10.359432242000024],[125.25498741300011,10.358927452000046],[125.25445391800008,10.358087612000077],[125.25431154000012,10.35519634300004],[125.25458783700003,10.354109751000069],[125.25578533700002,10.351369749000071],[125.25643240300008,10.35108402000003],[125.25780285500002,10.34982918900005],[125.2587206610001,10.347693652000032],[125.26049416800004,10.346074375000057],[125.26232893100007,10.341682945000057],[125.26279845600003,10.339269362000037],[125.26290835600004,10.337621644000022],[125.26345900700005,10.335207492000048],[125.2640566230001,10.333676886000031],[125.26404943000013,10.332672613000055],[125.2648086480001,10.331060455000054],[125.26524162000011,10.32920960500007],[125.26531382800009,10.327963792000046],[125.264919372,10.324599212000066],[125.26265247200001,10.324067913000022],[125.26274384600003,10.325973364000047],[125.26303584100005,10.327096087000028],[125.26276482500009,10.328905590000033],[125.25834918900011,10.32978021200006],[125.256420078,10.332324460000054],[125.25521000900007,10.333296956000025],[125.25368278400003,10.335316205000026],[125.25222128700013,10.335165765000058],[125.2516601650001,10.336133716000063],[125.249836146,10.336347320000073],[125.24980380000011,10.337512536000078],[125.25033866800005,10.338553252000052],[125.24921390300004,10.340127737000042],[125.24902137000005,10.341575265000076],[125.24776495900004,10.341744692000075],[125.24630021000006,10.341152400000057],[125.24496087500007,10.341081317000034],[125.24423838900009,10.342171015000076],[125.24505971300006,10.343571270000037],[125.24416667600009,10.343497165000032],[125.24330849800003,10.342619347000038],[125.24278733400001,10.343506773000058],[125.24380671400003,10.344222723000032],[125.24471317600012,10.346184776000028],[125.2446040430001,10.347953039000059],[125.24420265600008,10.348558439000046],[125.24290357000008,10.348446954000053],[125.24079663500005,10.34882315200002],[125.24023460300009,10.349670653000029],[125.24000003700007,10.350917610000065],[125.23892931700004,10.348675487000039],[125.23774993600011,10.348281951000047],[125.2366991680001,10.348851647000059],[125.23658515200009,10.349937109000054],[125.23748761000002,10.35133682200006],[125.23746271100003,10.353546451000055],[125.23633449200008,10.354638873000056],[125.2359273100001,10.354440835000048],[125.23559223100007,10.352956847000028],[125.23477403900006,10.35199840000007],[125.23310754700003,10.351568111000063],[125.23221704100001,10.351855487000023],[125.23198329500009,10.353222888000058],[125.23303977500007,10.353456636000033],[125.23349000700013,10.354015907000074],[125.23236233900003,10.355188643000075],[125.22932040100011,10.355330275000027],[125.22873683100009,10.353124941000033],[125.22804688500003,10.353089508000036],[125.22744289800006,10.353736417000048],[125.22721310300004,10.355666279000044],[125.2275892870001,10.357230327000025],[125.22625951300004,10.358524987000065],[125.22459723900012,10.358697239000035],[125.22252198100013,10.357827777000065],[125.22203139800003,10.357308978000047],[125.22186063000005,10.356104938000046],[125.22060214700004,10.355993178000059],[125.22024862100011,10.357642608000049],[125.2196876480001,10.358650830000043],[125.2182277190001,10.358741233000046],[125.21805244300003,10.35689448900007],[125.21679303200006,10.356662180000058],[125.21591067300007,10.35811447300006],[125.21380014700003,10.358008466000058],[125.21311349300004,10.358455053000057],[125.21191219100002,10.360712928000055],[125.21069784100006,10.361123021000024],[125.20940495500007,10.361895182000069],[125.2095830060001,10.364143573000034],[125.20755835600005,10.364719887000033],[125.2064324370001,10.366173839000055],[125.2033148820001,10.367119165000078],[125.20311989400012,10.368245313000045],[125.20263557000008,10.368610167000043],[125.20232897900007,10.371183306000033],[125.20145234200005,10.37347905900003],[125.20076683500008,10.374086374000058],[125.20070422316668,10.374199128988502],[125.20279261365876,10.37604721484288],[125.20640875547984,10.378664176289425],[125.21026661864461,10.380917559816961],[125.21432903749249,10.382785658046267],[125.21713258976688,10.383757012573392],[125.217671644,10.38349077600003]]]}},{"type":"Feature","properties":{"fid":79,"objectid":1914,"lccode":"05","liqcode":"2010600050000000","mappers":" ","project":"READY","province":"Southern Leyte","otherinfo":null,"datemapped":2008,"publishdate":null,"globalid":"{177A2F3C-711A-4FFF-9FE4-BFA07517E179}","st_area(shape)":0.0012070138997434547,"st_perimeter(shape)":1.0655847476350546,"liqcodepk":"201060005000000000112","creator":"SNOOPYPC","createdate":"2019-02-19T15:21:28","editor":"LENOVO","modifydate":"2019-03-10T17:50:55","codemove":"na"},"geometry":{"type":"Polygon","coordinates":[[[125.25867364600003,10.304695147000075],[125.25915784600011,10.306500456000034],[125.258988562,10.307551868000072],[125.25834526000006,10.308227363000073],[125.25917593900012,10.309038391000058],[125.26047661400001,10.309671105000058],[125.261834,10.309982465000074],[125.26172281800008,10.310916819000054],[125.26285347500004,10.312484196000069],[125.263592,10.312770786000044],[125.26541821600006,10.31272879600004],[125.26516811800002,10.314830999999998],[125.26399415600008,10.315451857000028],[125.26325562400007,10.315165270000023],[125.26270296500003,10.316160998000043],[125.26321150400008,10.31723684600007],[125.26295294700004,10.31815759500006],[125.26318090900008,10.31902071900004],[125.26113693800006,10.320338994000053],[125.26099237900009,10.321952892000068],[125.26169978900009,10.323337364000054],[125.26265247200001,10.324067913000022],[125.264919372,10.324599212000066],[125.26478915100006,10.323566165000042],[125.2655405180001,10.32015523000007],[125.26588084500008,10.317684909000036],[125.26590087600005,10.316371966000075],[125.26651203100005,10.315317452000043],[125.26651721855688,10.31194671460086],[125.26354045718055,10.308740231057888],[125.26020128356068,10.305785490815108],[125.25868701329448,10.304689660214539],[125.25867364600003,10.304695147000075]]]}},{"type":"Feature","properties":{"fid":84,"objectid":1943,"lccode":"06","liqcode":"2010600060000000","mappers":" ","project":"READY","province":"Southern Leyte","otherinfo":null,"datemapped":2008,"publishdate":null,"globalid":"{119DCA31-D744-48FD-9894-B5A52C9675C6}","st_area(shape)":0.0027393288830517767,"st_perimeter(shape)":1.3301022984600077,"liqcodepk":"201060006000000000143","creator":"SNOOPYPC","createdate":"2019-02-19T15:21:28","editor":"LENOVO","modifydate":"2019-03-10T17:50:55","codemove":"na"},"geometry":{"type":"Polygon","coordinates":[]}}]}