{"type":"FeatureCollection","features":[{"type":"Feature","properties":{"fid":97,"objectid":1953,"lccode":"01","liqcode":"2010600010000000","mappers":"DJLBuhay, MJVReyes, MITAbigania, KLPapiona, KMVitto","project":"MELP","province":"Masbate","otherinfo":null,"datemapped":2018,"publishdate":null,"globalid":"{40D12474-2C0F-4764-AF7B-985F1E55E0D2}","st_area(shape)":0.02447278181245312,"st_perimeter(shape)":18.320280805301095,"liqcodepk":"201060001000000000948","creator":null,"createdate":"2019-06-04T13:29:47","editor":"SDE","modifydate":"2019-06-04T11:39:42","codemove":"na"},"geometry":{"type":"Polygon","coordinates":[]}}]}