{"type":"FeatureCollection","features":[{"type":"Feature","properties":{"fid":13,"objectid":1844,"lccode":"01","liqcode":"2010600010000000","mappers":"DJLBuhay, MJVReyes, MITAbigania, KLPapiona, KMVitto","project":"MELP","province":"Kalinga","otherinfo":null,"datemapped":2018,"publishdate":null,"globalid":"{40A232C5-2457-4544-8DC2-C6ABDEDCF896}","st_area(shape)":0.01514121826809105,"st_perimeter(shape)":2.9651109694666844,"liqcodepk":"201060001000000000016","creator":"SNOOPYPC","createdate":"2019-02-19T15:21:28","editor":"LENOVO","modifydate":"2019-03-10T17:53:06","codemove":"na"},"geometry":{"type":"Polygon","coordinates":[[[121.43329209600005,17.507659687000054],[121.43355192700007,17.51071516700006],[121.43436008900005,17.51151342100008],[121.43461987500008,17.512641999999996],[121.4356589590001,17.514499999000066],[121.43537035000008,17.515078052000035],[121.43554356900007,17.517032384000064],[121.43609197900004,17.518215973000057],[121.43574565900009,17.519372049000022],[121.43681358300012,17.520252835000065],[121.43724655800008,17.522041957000052],[121.43796813800007,17.523087886000045],[121.43678481400003,17.52427147300006],[121.43707351700003,17.52776705900004],[121.43785283400007,17.52930838400005],[121.43883415400002,17.52947350600005],[121.44042160300013,17.53057442100004],[121.44050820800011,17.53134508000005],[121.4399887080001,17.532253366000074],[121.43868992600005,17.533079093000026],[121.44019079100008,17.534248797000036],[121.43975787300009,17.534964405000036],[121.43802616500011,17.536120404000034],[121.43866117300001,17.537771751000033],[121.43851692800001,17.540634078000043],[121.43926736600007,17.54148724500004],[121.43900763600004,17.542780780000037],[121.43759340800011,17.543716549000067],[121.43707390800013,17.54462477300007],[121.43573188800008,17.547831030000047],[121.43472177900001,17.55083081900005],[121.43486611600008,17.551959156000066],[121.43426003000002,17.552867340000034],[121.43429424021436,17.55296519180348],[121.43508383985193,17.554252859831138],[121.43780651918466,17.557835698661677],[121.44088229051421,17.561145249887108],[121.44428153898647,17.564149625546435],[121.44797152801344,17.566819876118565],[121.45191671453918,17.56913026993018],[121.4560790915843,17.571058541572917],[121.46041855476052,17.57258610691404],[121.46133756179852,17.572814523079924],[121.46269313300002,17.57109760500003],[121.46512258200006,17.568534186000022],[121.46880159900002,17.564976182000063],[121.46978373900004,17.563778710000065],[121.46950841500006,17.562729318000038],[121.46985958600011,17.561871270000033],[121.4706863450001,17.557803375000052],[121.47141416900001,17.557674401000043],[121.47387941900001,17.558660094000057],[121.47464217100004,17.558651627000078],[121.47478408000008,17.557777609000023],[121.47339797400004,17.557221772000045],[121.47330604300011,17.555700377000047],[121.47204035300003,17.55148720700004],[121.4718061210001,17.54910394700005],[121.47190200900002,17.54719699600003],[121.47148554500008,17.546318330000073],[121.47152343900007,17.545174021000037],[121.4724269070001,17.544618407000026],[121.472612345,17.54390253200006],[121.4727864460001,17.53918400400005],[121.47291302900008,17.538352905000067],[121.4738543310001,17.536652969000045],[121.47361383600003,17.535015658000077],[121.47380249700007,17.53391246000007],[121.47450991100004,17.532383132000067],[121.47442435399999,17.531373478000035],[121.4738820980001,17.53026609600004],[121.47268290500006,17.529234129000027],[121.47198485500007,17.527772659000046],[121.4720379370001,17.52651465200006],[121.47343287200012,17.526263125000064],[121.47532387700005,17.525416908000068],[121.47615297100003,17.523547190000045],[121.47742174800011,17.521213466000063],[121.47728949100008,17.519144212000075],[121.47743441100012,17.518200868000072],[121.47690227300008,17.517369643000052],[121.47692621100009,17.514897348000027],[121.47756876100004,17.514041510000023],[121.47763562900002,17.513139090000042],[121.47835977200009,17.512562749000043],[121.47877270700009,17.51159994000005],[121.47884394200003,17.510077399000068],[121.48039984200012,17.507255948000022],[121.47878995500004,17.505787474000044],[121.4788693690001,17.50462549500002],[121.47980323400009,17.503492674000032],[121.48027112800003,17.501789217000063],[121.48000205000005,17.500259127000046],[121.47912315700012,17.498982757000018],[121.47890224700005,17.49795315900008],[121.47919319100004,17.497123308000027],[121.48035436500005,17.495912771000068],[121.48115986000006,17.49432650400007],[121.48125765200008,17.493351709000024],[121.48280827300005,17.491612733000064],[121.48341785600009,17.490642434000055],[121.48370725600013,17.48819143600002],[121.48351129600007,17.487132091000035],[121.48382699000003,17.48637037700007],[121.4838001796951,17.485186109456883],[121.47944344586696,17.484531859135885],[121.4748306755064,17.4842789359807],[121.47021428899457,17.484461008731454],[121.46563871174936,17.485076322645703],[121.46114797680774,17.486118953689815],[121.4567853019979,17.487578865524124],[121.45259267489182,17.48944200597777],[121.44861044949036,17.49169044209099],[121.44487695848547,17.49430253243509],[121.4414281447993,17.497253135064867],[121.4382972159218,17.500513849118565],[121.4371740830956,17.50194233564361],[121.43739044400003,17.50372317700004],[121.43765022800005,17.504741695000064],[121.43765026500013,17.506338287000062],[121.4379389500001,17.509035939000054],[121.43851626800006,17.512173968000067],[121.43765040200003,17.512256566000076],[121.43765038000002,17.51129313800004],[121.43695767400006,17.510770147000073],[121.43600523000009,17.511238120000023],[121.43542797300006,17.51071512700002],[121.43499498900007,17.508540516000036],[121.43407135600012,17.50677880000006],[121.43380619921574,17.506737518043685],[121.43325751532419,17.507599724816465],[121.43329209600005,17.507659687000054]]]}},{"type":"Feature","properties":{"fid":26,"objectid":1872,"lccode":"07","liqcode":"2010600070000000","mappers":"PJDelosReyes, ACPidlaoan","project":"READY","province":"Cagayan","otherinfo":null,"datemapped":2012,"publishdate":null,"globalid":"{DED92A0E-07A3-4F4C-B4F3-8B0691B82188}","st_area(shape)":0.05559407556334115,"st_perimeter(shape)":12.110269661988962,"liqcodepk":"201060007000000000065","creator":"SNOOPYPC","createdate":"2019-02-19T15:21:28","editor":"LENOVO","modifydate":"2019-03-10T17:50:55","codemove":"na"},"geometry":{"type":"Polygon","coordinates":[]}},{"type":"Feature","properties":{"fid":33,"objectid":1879,"lccode":"07","liqcode":"2010600070000000","mappers":"PJDelosReyes, ACPidlaoan","project":"READY","province":"Isabela","otherinfo":null,"datemapped":2012,"publishdate":null,"globalid":"{91DB2F3C-1BB4-4146-BF15-299122E74073}","st_area(shape)":0.020995608528075003,"st_perimeter(shape)":7.369078683303569,"liqcodepk":"201060007000000000072","creator":"SNOOPYPC","createdate":"2019-02-19T15:21:28","editor":"LENOVO","modifydate":"2019-03-10T17:50:55","codemove":"na"},"geometry":{"type":"Polygon","coordinates":[]}},{"type":"Feature","properties":{"fid":53,"objectid":1902,"lccode":"05","liqcode":"2010600050000000","mappers":"PJDelosReyes, ACPidlaoan","project":"READY","province":"Cagayan","otherinfo":null,"datemapped":2012,"publishdate":null,"globalid":"{C3D84E80-F2D4-4567-B477-D6223763EFE3}","st_area(shape)":0.07022270502489089,"st_perimeter(shape)":22.490008235492827,"liqcodepk":"201060005000000000097","creator":"SNOOPYPC","createdate":"2019-02-19T15:21:28","editor":"LENOVO","modifydate":"2019-03-10T17:50:55","codemove":"na"},"geometry":{"type":"Polygon","coordinates":[]}},{"type":"Feature","properties":{"fid":60,"objectid":1909,"lccode":"05","liqcode":"2010600050000000","mappers":"PJDelosReyes, ACPidlaoan","project":"READY","province":"Isabela","otherinfo":null,"datemapped":2012,"publishdate":null,"globalid":"{CB433018-447B-4349-A32C-A82989A96D3F}","st_area(shape)":0.11608726533381088,"st_perimeter(shape)":15.125533415932647,"liqcodepk":"201060005000000000104","creator":"SNOOPYPC","createdate":"2019-02-19T15:21:28","editor":"LENOVO","modifydate":"2019-03-10T17:50:55","codemove":"na"},"geometry":{"type":"Polygon","coordinates":[]}},{"type":"Feature","properties":{"fid":67,"objectid":1931,"lccode":"06","liqcode":"2010600060000000","mappers":"PJDelosReyes, ACPidlaoan","project":"READY","province":"Cagayan","otherinfo":null,"datemapped":2012,"publishdate":null,"globalid":"{5942F6C7-E5B3-4D1E-B486-921A1828B34C}","st_area(shape)":0.07051556894172502,"st_perimeter(shape)":22.109814549125648,"liqcodepk":"201060006000000000130","creator":"SNOOPYPC","createdate":"2019-02-19T15:21:28","editor":"LENOVO","modifydate":"2019-03-10T17:50:55","codemove":"na"},"geometry":{"type":"Polygon","coordinates":[]}},{"type":"Feature","properties":{"fid":74,"objectid":1938,"lccode":"06","liqcode":"2010600060000000","mappers":"PJDelosReyes, ACPidlaoan","project":"READY","province":"Isabela","otherinfo":null,"datemapped":2012,"publishdate":null,"globalid":"{57DA03B8-A8DC-43FC-92E3-BCA08FF4E128}","st_area(shape)":0.09517793329217689,"st_perimeter(shape)":18.374122243984093,"liqcodepk":"201060006000000000137","creator":"SNOOPYPC","createdate":"2019-02-19T15:21:28","editor":"LENOVO","modifydate":"2019-03-10T17:50:55","codemove":"na"},"geometry":{"type":"Polygon","coordinates":[]}}]}