{"type":"FeatureCollection","features":[{"type":"Feature","properties":{"fid":194,"objectid":2170,"lccode":"01","liqcode":null,"mappers":"DJLBuhay, MJVReyes, MITAbigania, KLPapiona, KMVitto","project":"MELP","province":"Davao del Norte","otherinfo":null,"datemapped":2018,"publishdate":null,"globalid":"{9AB618B6-D0DC-4322-9386-ECE8955C87EA}","st_area(shape)":0.06864336268566588,"st_perimeter(shape)":8.586566217312162,"liqcodepk":null,"creator":null,"createdate":null,"editor":null,"modifydate":null,"codemove":null},"geometry":{"type":"Polygon","coordinates":[]}},{"type":"Feature","properties":{"fid":237,"objectid":9212,"lccode":"07","liqcode":null,"mappers":"DJLBuhay, BDBBrusas, CJMLegaspi, MITAbigania, JKAMarquez, HALVidal, MITAbigania","project":"LiquePhi Project","province":"Davao del Sur","otherinfo":null,"datemapped":2024,"publishdate":null,"globalid":"{AB7D2B81-4AEF-470C-9924-9BE0788AD6B8}","st_area(shape)":0.010657240155882559,"st_perimeter(shape)":3.1693888263058136,"liqcodepk":null,"creator":"SDE","createdate":"2024-07-12T08:00:00","editor":null,"modifydate":null,"codemove":null},"geometry":{"type":"MultiPolygon","coordinates":[[[[125.41628010000011,6.845997863000036],[125.41651243310828,6.8463308749987135],[125.41604077270993,6.845553273653634],[125.41628010000011,6.845997863000036]]],[[[125.41099960500004,6.839503914000033],[125.41124706900008,6.839818003000061],[125.41219277900008,6.840710896000075],[125.41288266683986,6.8411617717829065],[125.41280870610181,6.841063138000329],[125.41089639234187,6.83897546646991],[125.41099960500004,6.839503914000033]]]]}},{"type":"Feature","properties":{"fid":238,"objectid":9213,"lccode":"06","liqcode":null,"mappers":"DJLBuhay, BDBBrusas, CJMLegaspi, MITAbigania, JKAMarquez, HALVidal, MITAbigania","project":"LiquePhi Project","province":"Davao del Sur","otherinfo":null,"datemapped":2024,"publishdate":null,"globalid":"{D997888D-0F93-46DE-ACA0-5EB4E32C5A82}","st_area(shape)":0.00887826813287371,"st_perimeter(shape)":4.7210885749308416,"liqcodepk":null,"creator":"SDE","createdate":"2024-07-12T08:00:00","editor":null,"modifydate":null,"codemove":null},"geometry":{"type":"Polygon","coordinates":[[[125.40950038900007,6.83874295700002],[125.40969685000003,6.839665361000072],[125.41192402500009,6.841264359000034],[125.41304661400012,6.842497984000033],[125.4132338600001,6.842652186000065],[125.41387631400005,6.84365156000007],[125.41524989400011,6.845963863000065],[125.41542743000002,6.846183099000027],[125.41547678900008,6.8462440520000305],[125.41574691100006,6.84646506000007],[125.41665110600002,6.847588166000036],[125.41670821300012,6.847683345000064],[125.4174030160001,6.848397183000031],[125.41804904826436,6.848986212449422],[125.41777001119804,6.848404157349078],[125.41651243310828,6.8463308749987135],[125.41628010000011,6.845997863000036],[125.41604077270993,6.845553273653634],[125.41546975328146,6.844611859014923],[125.41288266683986,6.8411617717829065],[125.41219277900008,6.840710896000075],[125.41124706900008,6.839818003000061],[125.41099960500004,6.839503914000033],[125.41089639234187,6.83897546646991],[125.41005586011295,6.838057847826738],[125.40950038900007,6.83874295700002]]]}},{"type":"Feature","properties":{"fid":239,"objectid":9214,"lccode":"05","liqcode":null,"mappers":"DJLBuhay, BDBBrusas, CJMLegaspi, MITAbigania, JKAMarquez, HALVidal, MITAbigania","project":"LiquePhi Project","province":"Davao del Sur","otherinfo":null,"datemapped":2024,"publishdate":null,"globalid":"{F02B3348-FBC1-4E78-9026-FFF928AFF07F}","st_area(shape)":0.02374253236126774,"st_perimeter(shape)":7.103624433553948,"liqcodepk":null,"creator":"SDE","createdate":"2024-07-12T08:00:00","editor":null,"modifydate":null,"codemove":null},"geometry":{"type":"Polygon","coordinates":[[[125.39604816200006,6.829609065000055],[125.39753709000001,6.830803038000055],[125.40123041900006,6.832154348000073],[125.403538808,6.833242571000029],[125.40447732400003,6.834484501000076],[125.40461993100007,6.835900441000035],[125.40371675000006,6.8378827500000625],[125.4027455360001,6.838672722000069],[125.40107851000006,6.838614314000038],[125.40025437600003,6.839057027000023],[125.40065888400011,6.839691423000034],[125.40180102500005,6.83978660100007],[125.40586990400004,6.839358298000036],[125.4084635160001,6.8398341910000235],[125.4105336470001,6.841095305000066],[125.41165199400008,6.842641954000044],[125.41272275100003,6.8435461500000665],[125.41384910600004,6.845183371000075],[125.41601306700011,6.84727362500007],[125.4165675050001,6.848179116000038],[125.41807846200004,6.849773355000024],[125.41885384900002,6.851901212000028],[125.4194062848831,6.8518172974100935],[125.41804904826436,6.848986212449422],[125.4174030160001,6.848397183000031],[125.41670821300012,6.847683345000064],[125.41665110600002,6.847588166000036],[125.41574691100006,6.84646506000007],[125.41547678900008,6.8462440520000305],[125.41542743000002,6.846183099000027],[125.41524989400011,6.845963863000065],[125.41387631400005,6.84365156000007],[125.4132338600001,6.842652186000065],[125.41304661400012,6.842497984000033],[125.41192402500009,6.841264359000034],[125.40969685000003,6.839665361000072],[125.40950038900007,6.83874295700002],[125.41005586011295,6.838057847826738],[125.40981249630302,6.837792163607951],[125.40650997586783,6.834830430892786],[125.40293294438271,6.832206457584186],[125.39911584300438,6.829945509648052],[125.39540049144082,6.828211721922337],[125.39604816200006,6.829609065000055]]]}}]}