{"type":"FeatureCollection","features":[{"type":"Feature","properties":{"fid":171,"objectid":9613,"lccode":"01","liqcode":"2010600010000000","mappers":"DJLBuhay, MJVReyes, MITAbigania, KLPapiona, KMVitto","project":"MELP","province":"Nueva Ecija","otherinfo":"hazard boundary with Pangasinan updated on 2024","datemapped":2018,"publishdate":null,"globalid":"{142EC992-C228-490B-8C06-5B4A68BA1242}","st_area(shape)":0.21874224791512728,"st_perimeter(shape)":7.9099228422392365,"liqcodepk":"201060001000000000019","creator":"SNOOPYPC","createdate":"2019-02-19T15:21:28","editor":"LENOVO","modifydate":"2019-03-10T17:53:06","codemove":"na"},"geometry":{"type":"Polygon","coordinates":[[[121.04153711074827,15.5456588738146],[121.04090754279474,15.541267399190925],[121.03983703377398,15.536956893148563],[121.03833592036017,15.532768864954528],[121.03641868369695,15.528743641750307],[121.03410380899555,15.524919980406771],[121.03141360670398,15.521334694591642],[121.02837399700037,15.518022300628788],[121.0250142597095,15.515014685544745],[121.02136675206886,15.512340800481786],[121.01746659707086,15.510026382411207],[121.01335134538452,15.50809370680663],[121.00906061410504,15.506561373639132],[121.00463570579593,15.505444128735482],[121.00011921147019,15.50475272220161],[120.9955546013057,15.5044938052583],[120.99098580700273,15.504669866468948],[120.98645679976741,15.505279207962781],[120.98201116794516,15.50631596187532],[120.97769169832979,15.50777014684428],[120.97353996513894,15.50962776401727],[120.96959593057517,15.51187093165105],[120.96589756078339,15.514478057013992],[120.9624804608718,15.51742404394802],[120.95937753248644,15.520680534105367],[120.95661865721867,15.524216179554172],[120.95423040888363,15.527996944146512],[120.95223579743895,15.53198643076663],[120.95065404701445,15.536146231328354],[120.94950041020552,15.54043629617127],[120.948786020439,15.544815319317268],[120.94851778386194,15.54924113589436],[120.94869831182832,15.553671127915134],[120.94932589467183,15.55806263451344],[120.9503945170591,15.562373362696485],[120.95189391481811,15.56656179466053],[120.95380967273687,15.570587587747486],[120.95612336243148,15.574411963186257],[120.95881271899306,15.577998079866894],[120.96185185474458,15.581311389535859],[120.96521150807504,15.584319969976587],[120.96885932497366,15.586994832948669],[120.9727601705635,15.589310203900302],[120.97687646763661,15.591243770739135],[120.98116855892418,15.59277689924443],[120.98559508959838,15.593894813024969],[120.99011340629954,15.594586736270214],[120.99467996881684,15.594845997902413],[120.99925077042207,15.594670096111956],[121.00378176276945,15.594060722643176],[121.0082292812267,15.593023746589342],[121.01255046649764,15.591569157849563],[121.01670367843286,15.589710970792938],[121.02064889800253,15.587467089063091],[121.02434811352265,15.584859132833977],[121.02776568738425,15.581912230193456],[121.03086869972776,15.578654774679402],[121.03362726573555,15.575118151321789],[121.03601482347717,15.571336433849002],[121.03800838953433,15.567346055995435],[121.03958877995079,15.563185460096811],[121.04074079439557,15.558894726377838],[121.0414533617883,15.554515186521131],[121.04171964601463,15.55008902525552],[121.04153711074827,15.5456588738146]]]}}]}