{"type":"FeatureCollection","features":[{"type":"Feature","properties":{"fid":30,"objectid":1876,"lccode":"07","liqcode":"2010600070000000","mappers":"PJDelosReyes, ACPidlaoan","project":"READY","province":"Ilocos Norte","otherinfo":null,"datemapped":2012,"publishdate":null,"globalid":"{DDD7C418-83F8-494F-BE1F-501E5EB1EB53}","st_area(shape)":0.0068069229463748535,"st_perimeter(shape)":2.382699422788448,"liqcodepk":"201060007000000000069","creator":"SNOOPYPC","createdate":"2019-02-19T15:21:28","editor":"LENOVO","modifydate":"2019-03-10T17:50:55","codemove":"na"},"geometry":{"type":"Polygon","coordinates":[]}},{"type":"Feature","properties":{"fid":57,"objectid":1906,"lccode":"05","liqcode":"2010600050000000","mappers":"PJDelosReyes, ACPidlaoan","project":"READY","province":"Ilocos Norte","otherinfo":null,"datemapped":2012,"publishdate":null,"globalid":"{F206138B-2823-4B11-8CEA-F1A1A521E220}","st_area(shape)":0.04191862089529889,"st_perimeter(shape)":8.367222149982817,"liqcodepk":"201060005000000000101","creator":"SNOOPYPC","createdate":"2019-02-19T15:21:28","editor":"LENOVO","modifydate":"2019-03-10T17:50:55","codemove":"na"},"geometry":{"type":"Polygon","coordinates":[[[120.60349403700003,18.04783230000003],[120.60250374000009,18.045874638000043],[120.60175113800005,18.04513574900005],[120.59973432800007,18.043894882000078],[120.59707880600001,18.04288914800003],[120.59689642600006,18.042278969000048],[120.59724473900008,18.040033884000028],[120.59572889100001,18.039346349000027],[120.59362717500004,18.03968492100006],[120.59067537900012,18.041775917000052],[120.58883110300009,18.041874461000074],[120.58748767700001,18.04252646600003],[120.58541789800007,18.04517551300006],[120.58515626500004,18.045719378000058],[120.58279698000001,18.046297782000064],[120.5805086890001,18.04633000300004],[120.57941845800008,18.047045797000067],[120.57817710300002,18.049522809000056],[120.57703915000002,18.04908295300003],[120.5753652750001,18.046022346000022],[120.5751863070001,18.045168928000063],[120.57546213400008,18.04359185900006],[120.5763089520001,18.042082634000053],[120.57723342800013,18.039540884000072],[120.5772434180001,18.03881156100004],[120.57528047800008,18.038300586000048],[120.57374474400001,18.039071624000027],[120.57213463300002,18.040632023000054],[120.5705846730001,18.042436250000037],[120.56963157500002,18.04242426600007],[120.56782659300005,18.039665914000064],[120.56835076900005,18.03851748000005],[120.57111118500006,18.036485214000034],[120.57329897900001,18.034506576000066],[120.57438990300011,18.03372995800004],[120.57706585700011,18.03321629100003],[120.57802639800002,18.03268119500006],[120.5782336620001,18.03146798100005],[120.57741604600005,18.03084983400004],[120.5757691010001,18.030464377000044],[120.57335066200007,18.03073799200007],[120.57178984000006,18.028712283000058],[120.57385291500009,18.026549653000075],[120.57444051800007,18.025401898000037],[120.57477731400002,18.024007907000055],[120.57423469200013,18.02187334900003],[120.57328920000008,18.021314359000023],[120.57239813600006,18.021424722000067],[120.56977745100005,18.022546938000062],[120.56823015700002,18.024168880000044],[120.56758986600005,18.024525552000057],[120.56497504200003,18.025222184000025],[120.56401618500003,18.025635693000027],[120.56117303200006,18.029065028000048],[120.56034879400012,18.028932997000027],[120.55894115800005,18.025024576000078],[120.55889943700005,18.023443443000073],[120.55994274400007,18.021511188000034],[120.56097346700007,18.02049070400005],[120.56157535000013,18.018309782000074],[120.56109808300006,18.016054484000055],[120.56262695500006,18.015769800000044],[120.56410234500005,18.014754894000077],[120.5653344660001,18.01294660800005],[120.56605409000008,18.011435817000063],[120.56728616600003,18.009627512000066],[120.56730869700006,18.007986406000047],[120.56861841400007,18.005145575000025],[120.56960548100007,18.00266549400004],[120.57223160400008,18.001117819000058],[120.57313088500007,18.000399553000022],[120.57308485300007,17.999122394000036],[120.57429597300006,17.998833526000055],[120.57421061700006,17.99810300700005],[120.57341650100011,17.997117738000036],[120.57259401600002,17.998110973000053],[120.57139793500006,17.997587557000028],[120.5705571530001,17.998120990000075],[120.56891603000008,17.998129044000052],[120.56864715700009,17.99759715300007],[120.56732594400012,17.997525573000075],[120.5663796350001,17.99814147000006],[120.56544769600009,18.00007518700005],[120.56383792100007,18.00163555600005],[120.56299270600005,18.001883268000025],[120.56140672400011,18.001711325000027],[120.5598459580001,18.000855754000042],[120.55979186600007,18.00017114000008],[120.56126671000003,17.999186667000057],[120.56180518500004,17.998144792000065],[120.56024985900001,17.996200141000024],[120.55835766300004,17.995846257000036],[120.55746298200008,17.99611003300003],[120.55475379200004,17.998086224000076],[120.5547290080001,18.00103437800004],[120.5552592790001,18.004050313000047],[120.55727483800003,18.006477008000047],[120.55967073100008,18.008969345000025],[120.56053733200008,18.010636823000027],[120.56018152400009,18.01455352200002],[120.5587467460001,18.014930578000076],[120.55731921900009,18.01477575900003],[120.55540524000003,18.01534431400006],[120.55457037200006,18.015987263000056],[120.55388692600003,18.01716407700008],[120.55304818600008,18.019235597000034],[120.55302928700007,18.02060321400006],[120.55406616700009,18.024886953000077],[120.55370598100001,18.026812549000056],[120.55387572400004,18.02947437800003],[120.55517274500005,18.032180804000063],[120.55645231300001,18.033853616000048],[120.55878568300011,18.035144492000025],[120.55960717100004,18.03662909800005],[120.56038834700009,18.039891375000025],[120.56051344700006,18.04118478200007],[120.56350227400004,18.047219934000054],[120.56326016199999,18.048568218000067],[120.56163561400001,18.049892193000062],[120.55942642900004,18.049928317000024],[120.55896591500004,18.049346297000056],[120.55786543700003,18.04664344800005],[120.55726678000008,18.046379791000042],[120.55632109100009,18.04700805500005],[120.55447007400005,18.050185746000068],[120.553533215,18.05017388300007],[120.55264598400004,18.046577403000065],[120.55140205900011,18.044576866000053],[120.55116361400007,18.042461113000055],[120.55019975700009,18.03956781100004],[120.54850528700003,18.036281109000072],[120.54832405900005,18.03487032500004],[120.54761553300011,18.032876654000066],[120.54491215200005,18.02996126400006],[120.54387891900001,18.02725913100005],[120.54197052200006,18.02493009600005],[120.54097583900011,18.02427723300008],[120.53957251100007,18.02413134200003],[120.53875187300002,18.025401337000062],[120.53859129700005,18.02731994500004],[120.53869490400005,18.02949809300003],[120.53772788500011,18.031662518000076],[120.53823465900007,18.033717757000026],[120.53994048100004,18.036172297000068],[120.54152863400009,18.037473030000058],[120.54491182400011,18.039628754000034],[120.54442124600006,18.041223069000065],[120.5434799950001,18.041531306000024],[120.5403965480001,18.041876217000038],[120.53777715900002,18.042547098000057],[120.5373894529944,18.042858300744456],[120.53784378623291,18.04346093375036],[120.54090870497792,18.04678363739991],[120.54429943733173,18.049802919318225],[120.54798333054576,18.052489685860717],[120.55192490183049,18.05481804542402],[120.55608618025947,18.05676555843696],[120.56042707288891,18.05831345409231],[120.56490575155068,18.05944681170785],[120.56947905656703,18.060154704946886],[120.57410291346527,18.06043030748909],[120.57873275863753,18.06027095911642],[120.58332396980009,18.05967819156446],[120.58783229705634,18.058657713881033],[120.59021244742135,18.057876463231864],[120.58919570400008,18.057077429000056],[120.58869730000004,18.05634166400006],[120.58749740600003,18.055779544000078],[120.5883986770001,18.05493971200007],[120.59101639100004,18.054060429000057],[120.59389322200002,18.052819608000053],[120.59784039500005,18.052321600000028],[120.60092699776212,18.05280659436446],[120.60372221410671,18.050876820164415],[120.60349403700003,18.04783230000003]]]}},{"type":"Feature","properties":{"fid":71,"objectid":1935,"lccode":"06","liqcode":"2010600060000000","mappers":"PJDelosReyes, ACPidlaoan","project":"READY","province":"Ilocos Norte","otherinfo":null,"datemapped":2012,"publishdate":null,"globalid":"{E589EE25-8FDC-4504-BE01-5A3AF4CD900F}","st_area(shape)":0.013905399003380454,"st_perimeter(shape)":4.825147044260804,"liqcodepk":"201060006000000000134","creator":"SNOOPYPC","createdate":"2019-02-19T15:21:28","editor":"LENOVO","modifydate":"2019-03-10T17:50:55","codemove":"na"},"geometry":{"type":"Polygon","coordinates":[]}}]}