{"type":"FeatureCollection","features":[{"type":"Feature","properties":{"fid":17,"objectid":1863,"lccode":"07","liqcode":"2010600070000000","mappers":"MITAbigania, DJVRivera, PJDelosReyes, ACPidlaoan","project":"GMMA-READY","province":"Bulacan","otherinfo":null,"datemapped":2013,"publishdate":null,"globalid":"{70EE0B92-1310-4863-994B-262A0419985C}","st_area(shape)":0.05460415768202689,"st_perimeter(shape)":2.604001747145809,"liqcodepk":"201060007000000000055","creator":"SNOOPYPC","createdate":"2019-02-19T15:21:28","editor":"LENOVO","modifydate":"2019-03-10T17:50:55","codemove":"na"},"geometry":{"type":"Polygon","coordinates":[[[120.95836444200006,14.902303805000033],[120.95887142800007,14.900682147000051],[120.9579520320001,14.899095657000036],[120.95658499600007,14.89803123800004],[120.95539628918004,14.898020629400396],[120.95752089432644,14.901540532334453],[120.9584695877771,14.902808591264003],[120.95836444200006,14.902303805000033]]]}},{"type":"Feature","properties":{"fid":41,"objectid":1890,"lccode":"05","liqcode":"2010600050000000","mappers":"MITAbigania, DJVRivera, PJDelosReyes, ACPidlaoan","project":"GMMA-READY","province":"Bulacan","otherinfo":null,"datemapped":2013,"publishdate":null,"globalid":"{962B0335-0147-4964-AF91-92BBA0EB94A8}","st_area(shape)":0.006518104617901708,"st_perimeter(shape)":1.6741822690840518,"liqcodepk":"201060005000000000084","creator":"SNOOPYPC","createdate":"2019-02-19T15:21:28","editor":"LENOVO","modifydate":"2019-03-10T17:50:55","codemove":"na"},"geometry":{"type":"Polygon","coordinates":[[[121.03640317200008,14.897714570000062],[121.0352625600001,14.898756969000031],[121.03426205200005,14.900613684000064],[121.0323897840001,14.900980224000023],[121.03126174300007,14.900635795000024],[121.02949039000009,14.900716147000027],[121.028253961,14.901470831000042],[121.02808948100005,14.903334618000025],[121.02768600700006,14.904431202000062],[121.02660192100006,14.90466100700007],[121.02594601300008,14.906472851000045],[121.02691646900006,14.907916009000076],[121.02660787500008,14.909396023000053],[121.02540661500008,14.911681364000057],[121.02499170305441,14.912344896573497],[121.02553313552873,14.911961618347094],[121.02893864471281,14.90901323694798],[121.03203047045886,14.90575440777627],[121.03477883559499,14.902216528474863],[121.03715727607491,14.898433684272634],[121.0373860130923,14.897973901443214],[121.03640317200008,14.897714570000062]]]}},{"type":"Feature","properties":{"fid":92,"objectid":1921,"lccode":"06","liqcode":"2010600060000000","mappers":"MITAbigania, DJVRivera, PJDelosReyes, ACPidlaoan","project":"GMMA-READY","province":"Bulacan","otherinfo":null,"datemapped":2013,"publishdate":null,"globalid":"{AD30FD4E-4565-4937-AC43-8F5ADC174AC4}","st_area(shape)":0.01360742625474969,"st_perimeter(shape)":2.0316826783369253,"liqcodepk":"201060006000000000119","creator":"SNOOPYPC","createdate":"2019-02-19T15:21:28","editor":"LENOVO","modifydate":"2019-03-10T17:50:55","codemove":"na"},"geometry":{"type":"Polygon","coordinates":[[[120.95658499600007,14.89803123800004],[120.9579520320001,14.899095657000036],[120.95887142800007,14.900682147000051],[120.95836444200006,14.902303805000033],[120.9584695877771,14.902808591264003],[120.96020321842155,14.905125782776961],[120.96323409079041,14.908438073463687],[120.96658432921579,14.911445492604814],[120.97022167044237,14.914119063759966],[120.97129916215265,14.914760116434579],[120.97212813700003,14.913476509000077],[120.972047158,14.91279604500005],[120.97131162300003,14.912024856000075],[120.969086865,14.911665251000041],[120.96656462600004,14.910410840000054],[120.96539709500006,14.909125899000063],[120.96518791000005,14.908146884000075],[120.96550328600007,14.907130071000042],[120.96457938000002,14.903170960000068],[120.96480493100013,14.90240820700007],[120.96605081400003,14.899997709000047],[120.96669564200009,14.89820650200005],[120.96640740100008,14.897486524000046],[120.96348595100004,14.89435185000008],[120.96329954200007,14.893250172000021],[120.96424966700012,14.891584732000068],[120.9625879680001,14.890469940000061],[120.960376095,14.890354590000074],[120.95761784700005,14.890808299000065],[120.95630455400011,14.889266087000063],[120.95562963600003,14.887825328000076],[120.95490057900008,14.88691006300007],[120.9531415780001,14.88569876200006],[120.95172184600005,14.88501645700006],[120.95055934600008,14.883140848000036],[120.95036122491685,14.882555299967557],[120.9507380958628,14.885192987199009],[120.95180515235063,14.889503532919871],[120.9533015625465,14.89369160394051],[120.955212938907,14.897716861460202],[120.95539628918004,14.898020629400396],[120.95658499600007,14.89803123800004]]]}},{"type":"Feature","properties":{"fid":218,"objectid":8402,"lccode":"07","liqcode":null,"mappers":"PJDelosReyes, ACPidlaoan","project":"READY","province":"Pampanga","otherinfo":"as of October 2015, reupdate 2021","datemapped":2008,"publishdate":null,"globalid":"{523547B0-D8C4-4084-9EE8-AA20F7B2A472}","st_area(shape)":0.07539067039960894,"st_perimeter(shape)":2.422972172763333,"liqcodepk":null,"creator":null,"createdate":null,"editor":null,"modifydate":"1905-07-07T08:00:00","codemove":null},"geometry":{"type":"Polygon","coordinates":[]}}]}