{"type":"FeatureCollection","features":[{"type":"Feature","properties":{"fid":97,"objectid":1953,"lccode":"01","liqcode":"2010600010000000","mappers":"DJLBuhay, MJVReyes, MITAbigania, KLPapiona, KMVitto","project":"MELP","province":"Masbate","otherinfo":null,"datemapped":2018,"publishdate":null,"globalid":"{40D12474-2C0F-4764-AF7B-985F1E55E0D2}","st_area(shape)":0.02447278181245312,"st_perimeter(shape)":18.320280805301095,"liqcodepk":"201060001000000000948","creator":null,"createdate":"2019-06-04T13:29:47","editor":"SDE","modifydate":"2019-06-04T11:39:42","codemove":"na"},"geometry":{"type":"Polygon","coordinates":[]}},{"type":"Feature","properties":{"fid":183,"objectid":9622,"lccode":"07","liqcode":null,"mappers":"DJLBuhay, MITAbigania, CJMLegaspi, JKAMarquez, BDBBrusas, HALVidal, EMAACortes","project":"LiquePhi","province":"Albay","otherinfo":null,"datemapped":2024,"publishdate":null,"globalid":"{8E5ED226-E547-4B83-B774-07D16C659D39}","st_area(shape)":0.007338373366357547,"st_perimeter(shape)":4.710497907819426,"liqcodepk":null,"creator":null,"createdate":null,"editor":null,"modifydate":null,"codemove":null},"geometry":{"type":"Polygon","coordinates":[]}},{"type":"Feature","properties":{"fid":184,"objectid":9623,"lccode":"05","liqcode":null,"mappers":"DJLBuhay, MITAbigania, CJMLegaspi, JKAMarquez, BDBBrusas, HALVidal, EMAACortes","project":"LiquePhi","province":"Albay","otherinfo":null,"datemapped":2024,"publishdate":null,"globalid":"{55CC64ED-DF56-457A-ADBC-2E45CE875F47}","st_area(shape)":0.017499136663310114,"st_perimeter(shape)":9.399156011576952,"liqcodepk":null,"creator":null,"createdate":null,"editor":null,"modifydate":null,"codemove":null},"geometry":{"type":"MultiPolygon","coordinates":[[[[123.43706785200006,13.179459144000079],[123.43678231700007,13.17893566300006],[123.43840035000005,13.17853115500003],[123.43918557200006,13.177317629000074],[123.4380910200001,13.17524749800003],[123.439383915,13.173966506000056],[123.43887703600001,13.172035226000046],[123.43742794400009,13.170935915000028],[123.4356219330001,13.170564719000026],[123.43484384900012,13.171250004000056],[123.433044977,13.171328526000027],[123.43173865300002,13.171885320000056],[123.43055368100012,13.170293461000028],[123.42867152700002,13.170450505000078],[123.427553181,13.169950818000071],[123.42752938600006,13.168213812000033],[123.42646576700007,13.167007425000063],[123.42475397078363,13.166291316286864],[123.4213880318991,13.167858133276532],[123.42154991500001,13.167976847000034],[123.42294189900008,13.169511599000032],[123.4236557380001,13.170653740000033],[123.42676093400009,13.17208141700007],[123.42897383300011,13.172224184000068],[123.43033012600006,13.172795255000038],[123.43215041300004,13.174258624000059],[123.43372085800003,13.174187240000037],[123.43482730700009,13.173509093000062],[123.43539837800007,13.173580477000026],[123.43589806400009,13.175008154000066],[123.4353269940001,13.176971209000042],[123.43596944800002,13.179077032000068],[123.43575529700001,13.180219173000069],[123.43654051900013,13.180647476000047],[123.43886049300009,13.181111471000063],[123.43953864000002,13.18164685000005],[123.44003832700002,13.185358809000034],[123.43946725600006,13.187536016000024],[123.43989555900009,13.188820925000073],[123.4403952460001,13.189035076000037],[123.44207276600004,13.188820925000071],[123.44264383600012,13.18974891500005],[123.44339336700013,13.190177218000033],[123.44489242700001,13.19031998500003],[123.44596318400009,13.189784607000037],[123.4461773360001,13.18882092500007],[123.4454278060001,13.18800001100004],[123.44567764900013,13.186964945000055],[123.44796193200011,13.186750794000032],[123.44949668400011,13.185180350000053],[123.44956806800008,13.18353852100006],[123.44831885100007,13.183931133000042],[123.44696255800011,13.183252986000069],[123.44653425500007,13.183788365000055],[123.44674840700009,13.18525173300003],[123.44614164400002,13.18546588500004],[123.44568150100008,13.18400391500006],[123.44511043000011,13.183884942000075],[123.44396828900005,13.182481060000041],[123.44235830100003,13.18211084500007],[123.44182292200004,13.17996933000006],[123.44037530300011,13.179149814000024],[123.43806722600003,13.179221198000052],[123.43706785200006,13.179459144000079]]],[[[123.47827966500006,13.219084109000049],[123.47716521200005,13.218607707000043],[123.47499629600009,13.218362933000037],[123.47347400900003,13.219131331000028],[123.47240216000013,13.219251180000073],[123.47178309500009,13.21797865600007],[123.4706481410001,13.21784108600002],[123.46872216000008,13.216602955000042],[123.46695535000005,13.216053043000043],[123.46714203000012,13.217841497000052],[123.46569818800003,13.218781961000046],[123.46616925700006,13.21994860600006],[123.46820143100001,13.22019370500004],[123.4689649300001,13.221034439000048],[123.47072453300007,13.221758503000048],[123.47062898300011,13.22286876300006],[123.47129500200005,13.22380536500003],[123.47406680500002,13.224894351000044],[123.47566651900003,13.224998171000038],[123.47613189000003,13.224582894000035],[123.47672330000012,13.223044475000053],[123.47840961000009,13.223235314000021],[123.48038325100003,13.222855711000024],[123.4809552700001,13.223308744000065],[123.48194418400011,13.222827397000062],[123.48313806200008,13.222867002000045],[123.48347332300011,13.223737124000026],[123.48140812400005,13.224823037000023],[123.4812429640001,13.226057836000052],[123.482491965,13.228624735000038],[123.482491965,13.230493445000034],[123.48219450100008,13.230999372000042],[123.48051237800006,13.230994653000039],[123.47940712100001,13.231579800000075],[123.47961072100009,13.233014350000074],[123.47939742600009,13.233703308000035],[123.47806917900004,13.23418463400003],[123.4770317880001,13.233571180000071],[123.47635312200008,13.23404306800006],[123.47480188400004,13.234514955000066],[123.47373540800004,13.234184634000034],[123.4730276560001,13.23476033700007],[123.47328300900006,13.23638800300006],[123.47171880000009,13.237258963000045],[123.4706717140001,13.23712683600007],[123.47052599900009,13.237732852000022],[123.46887809600003,13.239245577000075],[123.46913017200006,13.240047768000066],[123.47111769500009,13.241435081000073],[123.47020634300009,13.242605325000056],[123.46783101000005,13.243596252000032],[123.46782616300005,13.24480895400006],[123.46716411152967,13.246217420164765],[123.4684563282728,13.24545546384045],[123.47208908310255,13.242805753972622],[123.47543914324758,13.239819944428847],[123.47847424437329,13.236526801791848],[123.48116516009557,13.23295805225636],[123.48348598331565,13.229148075646936],[123.48541437541093,13.225133573904532],[123.48693178089471,13.220953217250576],[123.48721136532748,13.219850604012224],[123.48457166800006,13.21973289400006],[123.481672752,13.219929647000068],[123.47827966500006,13.219084109000049]]],[[[123.46148261000008,13.248228163000022],[123.45943282000007,13.249129019000064],[123.45679957800009,13.249918012000025],[123.45537350200006,13.249918012000022],[123.45423264200008,13.249501577000041],[123.45287787000008,13.249964282000061],[123.45138541000004,13.252066385000035],[123.45094049136505,13.252367343429295],[123.45183185951223,13.252236208620108],[123.45622340015524,13.251150330283965],[123.46048509055811,13.249647950014513],[123.46457587026894,13.247743544548651],[123.46537854468833,13.247270262308477],[123.46452753200002,13.247295575000066],[123.4639299590001,13.247703374000027],[123.46148261000008,13.248228163000022]]]]}},{"type":"Feature","properties":{"fid":185,"objectid":9624,"lccode":"06","liqcode":null,"mappers":"DJLBuhay, MITAbigania, CJMLegaspi, JKAMarquez, BDBBrusas, HALVidal, EMAACortes","project":"LiquePhi","province":"Albay","otherinfo":null,"datemapped":2024,"publishdate":null,"globalid":"{B1E6E99D-58E5-41F1-B1D1-4A852A7E4988}","st_area(shape)":0.006334232450352406,"st_perimeter(shape)":4.633656865648006,"liqcodepk":null,"creator":null,"createdate":null,"editor":null,"modifydate":null,"codemove":null},"geometry":{"type":"Polygon","coordinates":[]}}]}