{"type":"FeatureCollection","features":[{"type":"Feature","properties":{"fid":31,"objectid":1877,"lccode":"07","liqcode":"2010600070000000","mappers":"PJDelosReyes, ACPidlaoan","project":"READY","province":"Ilocos Sur","otherinfo":null,"datemapped":2012,"publishdate":null,"globalid":"{9BD19C39-D43F-480F-8D4D-C2FF10071B57}","st_area(shape)":0.01783800115070572,"st_perimeter(shape)":3.398456363100086,"liqcodepk":"201060007000000000070","creator":"SNOOPYPC","createdate":"2019-02-19T15:21:28","editor":"LENOVO","modifydate":"2019-03-10T17:50:55","codemove":"na"},"geometry":{"type":"Polygon","coordinates":[]}},{"type":"Feature","properties":{"fid":58,"objectid":1907,"lccode":"05","liqcode":"2010600050000000","mappers":"PJDelosReyes, ACPidlaoan","project":"READY","province":"Ilocos Sur","otherinfo":null,"datemapped":2012,"publishdate":null,"globalid":"{7D41ABB3-20BB-4A8A-A22A-9DDDC45B8904}","st_area(shape)":0.029120699274048492,"st_perimeter(shape)":9.226907297832456,"liqcodepk":"201060005000000000102","creator":"SNOOPYPC","createdate":"2019-02-19T15:21:28","editor":"LENOVO","modifydate":"2019-03-10T17:50:55","codemove":"na"},"geometry":{"type":"MultiPolygon","coordinates":[[[[120.50579377699998,16.85817922700005],[120.50673158000006,16.859198171000063],[120.5069828500001,16.859979749000047],[120.50654444300005,16.86258478400003],[120.50879276800003,16.86703140100008],[120.50938912400012,16.868710113000077],[120.5102893280001,16.868973006000033],[120.51167056400006,16.87063840200005],[120.51120697200008,16.875166562000057],[120.51164734100007,16.876042006000038],[120.51145209000003,16.87823785100005],[120.51196622100008,16.880739962000064],[120.51128068900006,16.882242804000043],[120.51152208900008,16.88377993900002],[120.51198389600005,16.884838874000028],[120.511940073,16.88818136000003],[120.5115693250001,16.891062023000075],[120.5108592380001,16.89261043400006],[120.51072562700004,16.893730763000065],[120.51169826500006,16.895734729000022],[120.51295868200009,16.897558962000065],[120.51362937800003,16.899009654000054],[120.5142336770001,16.901902168000053],[120.51425557453463,16.902331837396318],[120.5158470852383,16.90406577562935],[120.51921878540823,16.907083084465818],[120.52055535134576,16.90806271357323],[120.52087450700004,16.905165590000024],[120.52066486000001,16.903010608000045],[120.52090983800007,16.902464066000046],[120.52003731000002,16.90007203400006],[120.51952613700007,16.89914995500004],[120.51930512100012,16.897865022000076],[120.51969453200003,16.897182787000073],[120.52113337200001,16.89628434100007],[120.52346806800006,16.89599202500006],[120.5254132980001,16.896381932000054],[120.5275065510001,16.896361450000033],[120.52860347500007,16.89614568500002],[120.530542684,16.896993416000043],[120.53182803600009,16.89691735400004],[120.53241551700012,16.89564217700007],[120.5317193620001,16.894305641000074],[120.53168787800007,16.893068784000036],[120.53293337400011,16.89239683900007],[120.53358737100007,16.88965696000002],[120.53334071300004,16.88667720800003],[120.53429486400012,16.88645977400006],[120.53471578400001,16.88701436100007],[120.53511164500004,16.889492179000058],[120.53663652000012,16.892945177000062],[120.53725004800005,16.893318936000068],[120.53868700800003,16.892557687000018],[120.54130345500005,16.89254335100003],[120.54357926700004,16.893120289000024],[120.54516180900009,16.892131719000073],[120.54777877500011,16.89207151900007],[120.54897495200008,16.891536236000032],[120.54980887700003,16.889576973000032],[120.5499371290001,16.887013951000032],[120.54962844900001,16.88513258100005],[120.54907076500001,16.884118343000072],[120.54704286400012,16.882765996000046],[120.54605337900011,16.87835761200006],[120.54663477800011,16.87754024900005],[120.54703173500003,16.87626272600005],[120.54852850800012,16.874540327000034],[120.5493839090001,16.87459634800007],[120.55046770200012,16.875387854000056],[120.55313850200002,16.874824464000028],[120.55444965800007,16.872733416000074],[120.55474677700012,16.87182105800002],[120.55566800400004,16.870458194000037],[120.55692159800003,16.86914498200002],[120.55854665000004,16.868523162000027],[120.56020522300001,16.869000960000054],[120.56060326100011,16.87134134500008],[120.56182384100009,16.872592376000053],[120.56281489900006,16.87319948200008],[120.56424038400007,16.87330809900004],[120.56580212100005,16.87392197500003],[120.56721244200003,16.87522111100003],[120.56771853600004,16.876555202000073],[120.5683820050001,16.876746225000034],[120.56934488000003,16.875841741000045],[120.5713963290001,16.875362331000076],[120.57283705900011,16.87428025500003],[120.57366019900007,16.87314506800004],[120.57522058500003,16.870140893000038],[120.57644627300012,16.867270194000067],[120.57766207300007,16.865177832000025],[120.5790028880001,16.864460903000065],[120.58272038800011,16.863863672000036],[120.58400903300004,16.863512479000065],[120.58405792400004,16.859666040000032],[120.58430614800012,16.858844618000035],[120.58403538200002,16.85769648000007],[120.58256550200007,16.853603117000038],[120.58262172000002,16.852916793000077],[120.58377349200009,16.85210601800003],[120.58298252200008,16.85072281600003],[120.582076142,16.850941069000044],[120.58006671400005,16.851879168000043],[120.57919565100008,16.85305961900008],[120.57907079200004,16.855393821000064],[120.58056806900004,16.857334996000077],[120.5804636150001,16.85806653500003],[120.57809905400006,16.860740676000038],[120.57656274600004,16.861867462000077],[120.5740965970001,16.865044087000054],[120.5734421310001,16.86787574900006],[120.57201675900001,16.871476917000052],[120.571046893,16.872930864000068],[120.56875594800012,16.87354488200003],[120.56411243700005,16.872161646000052],[120.56264636700007,16.87150301900004],[120.56170993900001,16.87034694600004],[120.56162428500011,16.86961316500003],[120.56083813700002,16.86786356500005],[120.55965809900012,16.867162541000024],[120.55727686100009,16.867408979000057],[120.5556006380001,16.86830489700003],[120.554153315,16.869890504000068],[120.55366128900003,16.871166913000028],[120.55235840000012,16.872616869000062],[120.5518446760001,16.87187797400003],[120.5524348780001,16.870373722000068],[120.55201039100008,16.87009393500006],[120.54999768800008,16.87126058600006],[120.54776257300011,16.87123384700004],[120.54531596700008,16.872853203000034],[120.54376873300009,16.874803903000043],[120.5414872020001,16.874684962000057],[120.54019784500007,16.87508164600007],[120.5396884270001,16.877685946000042],[120.54001005800001,16.87855991800006],[120.54113842900007,16.879581027000025],[120.54192908400013,16.88096436100005],[120.54328873100008,16.882491971000032],[120.54398316400012,16.883965808000028],[120.5471234360001,16.88757556500008],[120.54691657500007,16.88885545300008],[120.54648325800008,16.88926242300005],[120.54472290400008,16.88928710100004],[120.54291920900005,16.88899065300006],[120.54057985000009,16.889649526000024],[120.53778571600003,16.888699951000035],[120.53745814400008,16.88828384900006],[120.53635717200008,16.885156459000026],[120.53575139800012,16.88418749100003],[120.53314043300009,16.88378967500006],[120.53286164000009,16.883282495000056],[120.53158412000005,16.882763368000035],[120.53001173599999,16.882973425000042],[120.52628785400009,16.88402758800004],[120.52427434800008,16.885239725000076],[120.52309824300005,16.887881674000024],[120.52269982300004,16.88925067900004],[120.52313002100006,16.892736373000048],[120.52230770100005,16.893779749000032],[120.51906049300011,16.89474795000007],[120.51782325400006,16.894778731000027],[120.51693100800003,16.893897811000045],[120.51560950600005,16.893103247000052],[120.51543968900012,16.891544045000042],[120.51655936500003,16.889588428000025],[120.51761998600013,16.888502271000053],[120.51797326600003,16.886949411000046],[120.51827518000005,16.882052985000033],[120.51922782000008,16.878309245000025],[120.5210761830001,16.875171726000072],[120.5224672700001,16.874272580000028],[120.52216603900001,16.871841777000043],[120.52134405500009,16.869221444000058],[120.51970422900003,16.867324049000047],[120.51943983900003,16.86571791600005],[120.51888587900011,16.86442895500005],[120.51868161300001,16.861861880000053],[120.5164218320001,16.86009431800005],[120.51469238900007,16.85778356300005],[120.51346325800012,16.857219150000045],[120.51282090000008,16.855425292000067],[120.51118299000007,16.85339042700002],[120.51088130100004,16.851005405000024],[120.51051228100005,16.850130741000044],[120.51050007700009,16.847428647000072],[120.5105669557555,16.84728162629403],[120.50834575882814,16.85075035148474],[120.50632573996391,16.854732323062514],[120.50537974915488,16.857180299928704],[120.50579377699998,16.85817922700005]]],[[[120.5290031290001,16.83249382100007],[120.53013468000005,16.833240188000048],[120.5324044150001,16.834229162000042],[120.53402513100002,16.83392804700003],[120.53451596500008,16.832743243000035],[120.53576525300002,16.831750774000056],[120.53591495600007,16.831202962000074],[120.53535983800008,16.830005597000024],[120.53543079523882,16.829471965968246],[120.53202108540263,16.83060094512444],[120.52868044209914,16.832073725021214],[120.5290031290001,16.83249382100007]]],[[[120.51180484500004,16.845841640000064],[120.51447234600006,16.845507604000026],[120.51631714000008,16.84626268800002],[120.51748730300007,16.84769655300005],[120.51853040800005,16.847938101000064],[120.52095544300005,16.847967422000067],[120.5221055280001,16.847294447000024],[120.52353791100008,16.846853710000065],[120.52871301000006,16.847511508000025],[120.52965388000008,16.84830137600005],[120.53108396100004,16.848043789000023],[120.53129195200006,16.84667245400004],[120.53245388000006,16.845083484000043],[120.53333176900003,16.843399610000063],[120.533811365,16.84308478500003],[120.53465057000005,16.840713471000072],[120.53418514300007,16.839929342000065],[120.53313737800012,16.84005410700007],[120.53169073200003,16.841593785000047],[120.53133829300009,16.84310083100007],[120.52989644100002,16.844274175000066],[120.52885035900012,16.844261578000044],[120.5269537920001,16.84382656700006],[120.52350771300007,16.84552529800004],[120.5211754390001,16.845680273000028],[120.5192651530001,16.846298357000023],[120.51770084500005,16.84591306400006],[120.51643317900005,16.844661251000048],[120.5164041480001,16.843241198000044],[120.51471925106338,16.842239683576864],[120.51354898275389,16.843452113206784],[120.51155664033482,16.84597215960567],[120.51180484500004,16.845841640000064]]]]}},{"type":"Feature","properties":{"fid":72,"objectid":1936,"lccode":"06","liqcode":"2010600060000000","mappers":"PJDelosReyes, ACPidlaoan","project":"READY","province":"Ilocos Sur","otherinfo":null,"datemapped":2012,"publishdate":null,"globalid":"{33CDE2C7-9AFF-4DEC-86B5-45B4892EBDFF}","st_area(shape)":0.017363484289297154,"st_perimeter(shape)":5.7193106480781575,"liqcodepk":"201060006000000000135","creator":"SNOOPYPC","createdate":"2019-02-19T15:21:28","editor":"LENOVO","modifydate":"2019-03-10T17:50:55","codemove":"na"},"geometry":{"type":"Polygon","coordinates":[]}},{"type":"Feature","properties":{"fid":170,"objectid":9612,"lccode":"01","liqcode":"2010600010000000","mappers":"DJLBuhay, MJVReyes, MITAbigania, KLPapiona, KMVitto","project":"MELP","province":"La Union","otherinfo":"hazard boundary with Pangasinan updated on 2024","datemapped":2017,"publishdate":null,"globalid":"{556DE1FA-9488-4F33-9543-8B7DFFAA63AD}","st_area(shape)":0.022191914159391556,"st_perimeter(shape)":5.763901795210022,"liqcodepk":"201060001000000000017","creator":"SNOOPYPC","createdate":"2019-02-19T15:21:28","editor":"LENOVO","modifydate":"2019-03-10T17:53:06","codemove":"na"},"geometry":{"type":"Polygon","coordinates":[]}}]}