{"type":"FeatureCollection","features":[{"type":"Feature","properties":{"fid":5,"objectid":1834,"lccode":"01","liqcode":"2010600010000000","mappers":"DJLBuhay, MJVReyes, MITAbigania, KLPapiona, KMVitto","project":"MELP","province":"Apayao","otherinfo":null,"datemapped":2018,"publishdate":null,"globalid":"{1CF6B5C0-CFF1-4290-9A9E-3C6A72777FB9}","st_area(shape)":0.016612682616230664,"st_perimeter(shape)":4.8172609856160955,"liqcodepk":"201060001000000000006","creator":"SNOOPYPC","createdate":"2019-02-19T15:21:28","editor":"LENOVO","modifydate":"2019-03-10T17:53:06","codemove":"na"},"geometry":{"type":"Polygon","coordinates":[]}},{"type":"Feature","properties":{"fid":26,"objectid":1872,"lccode":"07","liqcode":"2010600070000000","mappers":"PJDelosReyes, ACPidlaoan","project":"READY","province":"Cagayan","otherinfo":null,"datemapped":2012,"publishdate":null,"globalid":"{DED92A0E-07A3-4F4C-B4F3-8B0691B82188}","st_area(shape)":0.05559407556334115,"st_perimeter(shape)":12.110269661988962,"liqcodepk":"201060007000000000065","creator":"SNOOPYPC","createdate":"2019-02-19T15:21:28","editor":"LENOVO","modifydate":"2019-03-10T17:50:55","codemove":"na"},"geometry":{"type":"Polygon","coordinates":[[[121.24020669900005,18.57614417900004],[121.24327789100005,18.573983072000026],[121.24513412100009,18.572308044000064],[121.24702538500001,18.570884602000035],[121.25086086600004,18.567581734000044],[121.25323771100011,18.565988366000056],[121.25442131400007,18.564871108000027],[121.25661507700009,18.56329651000004],[121.25868538200007,18.561166891000028],[121.26097134400005,18.559505905000037],[121.26666787700003,18.554491584000065],[121.268362947,18.553291741000066],[121.27046881200009,18.551341789000045],[121.27195694700004,18.550396428000052],[121.27431344400009,18.54811025200007],[121.27605058600012,18.54699276900004],[121.2791633380001,18.54434419000006],[121.28118666800003,18.542914816000067],[121.28601149600001,18.539731542000023],[121.28792730300006,18.537984454000018],[121.28917473800003,18.537290568000063],[121.29061580900009,18.536024713000067],[121.29181143900007,18.535497672000076],[121.29281229300011,18.534395149000034],[121.29481665000003,18.533182156000063],[121.29587845800008,18.532247498000057],[121.29725004600003,18.53166224500006],[121.3012349710001,18.529092490000036],[121.30263216500009,18.52844766200007],[121.30573663700011,18.52620455800007],[121.3111890873661,18.522947838865626],[121.30948203814434,18.520172299854952],[121.30868641630508,18.519128605602713],[121.30742029900011,18.519822808000065],[121.30476758900011,18.52203497600004],[121.30226555600008,18.523518408000026],[121.30053015300007,18.52487176000005],[121.29894585600005,18.52545070100007],[121.29826491100006,18.526585345000058],[121.29740121000007,18.52685135400003],[121.29582276500003,18.526837124000053],[121.29511119300003,18.52623751100003],[121.29493422500002,18.524970317000054],[121.29518024700008,18.52411148300007],[121.29912276600011,18.522087849000055],[121.30028019300005,18.521140042000063],[121.30287291500008,18.52015941300004],[121.30421930700004,18.519441359000044],[121.30576203200006,18.51822318100005],[121.30686361702061,18.51673740658441],[121.30674897623251,18.51658701496298],[121.30534941723528,18.515085804360158],[121.30526649600007,18.515097761000046],[121.303824856,18.515769264000028],[121.29920672900006,18.51842005600003],[121.29632296600005,18.51980865100006],[121.29525757300007,18.52112237700004],[121.29343185900008,18.52193295800004],[121.29219549299998,18.52119165600004],[121.29182123400007,18.52050674800006],[121.29207695600009,18.518698914000026],[121.29415526700006,18.516527366000044],[121.29440350200002,18.515617005000024],[121.29538337000008,18.513888904000055],[121.29274964300009,18.51353105400005],[121.29173055600008,18.51502724600004],[121.29010072800008,18.515377535000024],[121.2883347080001,18.51499653200005],[121.28604052100002,18.514838911000023],[121.28672221800002,18.51361298300003],[121.28422026300008,18.51268338700003],[121.28396158700002,18.51224755000004],[121.28487310400011,18.510837105000064],[121.28600848700013,18.51010236400003],[121.28654677200008,18.508330821000072],[121.28608788200006,18.507940325000053],[121.28475650000009,18.50802490600006],[121.28359058600006,18.50892484800005],[121.28291656400008,18.509801789000054],[121.28234697000005,18.511810960000048],[121.28123970600006,18.512628767000027],[121.27892148500008,18.513049117000037],[121.27649166200003,18.513063658000075],[121.27552785400009,18.513784999000052],[121.27388474400003,18.51545834400002],[121.27225364800007,18.51593971100004],[121.27115590900009,18.515701506000028],[121.26986318600007,18.51582652800005],[121.26866152800005,18.516408805000026],[121.267018559,18.518059231000052],[121.26565977200006,18.51878921200005],[121.26489894500004,18.51954565500006],[121.26405929300006,18.52105160500003],[121.26208746900011,18.522490007000044],[121.26045944300007,18.523383461000037],[121.25896286300008,18.52473860500004],[121.2564488810001,18.527362043000043],[121.25480044100006,18.529537100000027],[121.25333764900004,18.532261425000055],[121.24996167100005,18.53495374600004],[121.24785240700011,18.535390436000057],[121.24742566200008,18.535021463000074],[121.24575151600004,18.53500592200004],[121.24446283800013,18.534720165000067],[121.24464578500012,18.53556126200004],[121.245677311,18.53697622200007],[121.24519828100006,18.53764738400002],[121.24110864600004,18.53993644600007],[121.23995834500012,18.54015389600005],[121.23790709100001,18.539587201000078],[121.23560547200009,18.54011327500007],[121.23477536100008,18.541766255000024],[121.23560094500009,18.545099024000024],[121.23544277900008,18.54663690400002],[121.23466613500011,18.547724770000055],[121.23239857600004,18.549574404000055],[121.2264817140001,18.552718730000038],[121.22504798200009,18.55256831500003],[121.22419735500013,18.551556422000033],[121.22334146600008,18.551046512000028],[121.22299918162551,18.551069380135303],[121.22332136374536,18.55329187585524],[121.22440614183309,18.5576023138204],[121.2255360266605,18.560710350060546],[121.22568352900011,18.56053196900006],[121.22829180100008,18.55813807100003],[121.23161942900003,18.555568414000046],[121.23267565100004,18.55521320800005],[121.23525232000009,18.555876205000065],[121.23714894800003,18.55753662400002],[121.23870468200006,18.55978702300007],[121.23833572900003,18.56075226600007],[121.23396921800008,18.56431621100006],[121.23020705300007,18.567246922000038],[121.22919269679427,18.567961358794136],[121.22980222755757,18.568953210061675],[121.2310612760001,18.567946008000035],[121.23497256400003,18.564469114000076],[121.237014885,18.563598491000043],[121.23712845300008,18.564174684000026],[121.23423525300007,18.566360634000038],[121.23290594200013,18.567671473000075],[121.23022134340013,18.569635203853935],[121.23022477152672,18.569640782146816],[121.23235232119906,18.572433532973715],[121.2344838370001,18.570111332000067],[121.23641680600008,18.56825856600005],[121.23889681700007,18.566707519000033],[121.24082564600009,18.565242527000066],[121.24103857600005,18.565454633000055],[121.23843128300008,18.56775739800003],[121.23746106700004,18.569048772000034],[121.2355281760001,18.570901550000027],[121.23282461843057,18.57305348441389],[121.23295688021564,18.573227094230944],[121.23439991088776,18.574775744545413],[121.23858540300012,18.57140451300006],[121.24049530300012,18.569460256000067],[121.24172491500008,18.568536295000058],[121.24396305500012,18.566479620000052],[121.24464929500003,18.565634583000076],[121.24559924000005,18.56629271200006],[121.24125427500009,18.57008519300006],[121.23835960900011,18.572408214000056],[121.23683381500008,18.574219100000047],[121.2349350489705,18.575350041594337],[121.2360445477052,18.576540712258655],[121.23796391363015,18.57823265167881],[121.24020669900005,18.57614417900004]],[[121.23632392800003,18.55399732100005],[121.23586583600002,18.55202526200003],[121.23640279800009,18.550980769000034],[121.23717336000004,18.55048601900006],[121.23998108700005,18.547272450000037],[121.24180862800006,18.546331286000054],[121.24495948200001,18.542299476000036],[121.24698154700002,18.541040575000068],[121.24828795500002,18.539592550000062],[121.2502635630001,18.538196332000034],[121.25200767500007,18.536036393000074],[121.25326110500009,18.535089790000026],[121.25571534400001,18.533652317000076],[121.25798615100008,18.531437289000053],[121.25925199100006,18.529258677000033],[121.2601732380001,18.52803517500007],[121.26166384200008,18.527273155000046],[121.26310287500007,18.52687575600004],[121.26626569500003,18.526311524000047],[121.26812466800004,18.526967466000027],[121.26935820200002,18.527982591000068],[121.27281777100008,18.53120845500007],[121.27629394400005,18.532791693000036],[121.277425041,18.534490349000066],[121.27788818400006,18.536011828000024],[121.27901146900001,18.538486150000036],[121.278422889,18.539940953000038],[121.27365285700013,18.543319781000037],[121.26840656600005,18.54646584500006],[121.26715174000003,18.547549473000053],[121.26641808900001,18.549139833000023],[121.26467293400002,18.551405310000064],[121.26004441600003,18.554921895000064],[121.25579202300003,18.55908071800007],[121.25308840200012,18.561474141000073],[121.25059282200004,18.56222665900003],[121.24901362500009,18.56225771400005],[121.24547789600001,18.561788490000023],[121.24347837200001,18.560811599000033],[121.24282783100011,18.558934770000057],[121.24087898200003,18.557690235000052],[121.23930451300009,18.557264922000055],[121.23717050300002,18.55541975500006],[121.23632392800003,18.55399732100005]],[[121.28283682800009,18.529086635000056],[121.28188107700011,18.528986713000055],[121.27994833900004,18.526140021000064],[121.27890653400006,18.525081001000043],[121.27691184500009,18.523648271000067],[121.27605270900007,18.523457881000073],[121.27467479300003,18.52253271300003],[121.27497459400003,18.521275794000072],[121.2767147080001,18.519466389000062],[121.2794569140001,18.517900042000065],[121.28200454400009,18.51664550500004],[121.28350270200009,18.51510761800006],[121.28417322100006,18.51502247200006],[121.2856458870001,18.51603975300003],[121.28674774700006,18.515867186000037],[121.28700401400012,18.51653597800003],[121.28491188200007,18.51768054100006],[121.28318575400012,18.518098363000032],[121.28120971600005,18.519586283000024],[121.28153172500005,18.52088496600004],[121.28200502200002,18.521391137000023],[121.28358294900012,18.52145118000004],[121.28545787300004,18.52050989500003],[121.28882864900002,18.518258899000042],[121.28940253500002,18.518264093000024],[121.29044437100004,18.519323058000055],[121.29023672200005,18.52094586600003],[121.29051690600011,18.521650873000056],[121.2921726620001,18.523490911000067],[121.29202439700009,18.523973707000042],[121.29052803900005,18.52532912100003],[121.2867960960001,18.527805034000043],[121.28439724800013,18.52851330900006],[121.28283682800009,18.529086635000056]],[[121.28779123200002,18.52876755300002],[121.28892032700001,18.52827582200006],[121.29088544900003,18.527882879000057],[121.29150482200009,18.528139507000052],[121.29070380200007,18.529300602000035],[121.28920647600012,18.530747225000024],[121.28744829100003,18.531963387000072],[121.28571178200002,18.53340780900004],[121.28491069600011,18.534587012000028],[121.28315289900003,18.535757426000036],[121.28090577800003,18.53562859200002],[121.2803907330001,18.534648766000032],[121.28231655000002,18.53329809000007],[121.28275712800007,18.532298178000076],[121.28429775800011,18.531308257000035],[121.28596182400008,18.52993735100006],[121.28779123200002,18.52876755300002]],[[121.2713620060001,18.51898883100006],[121.27007476400003,18.518566329000063],[121.27008394100007,18.51767186900003],[121.27095037700008,18.51713222200004],[121.27512189700009,18.51612649000003],[121.27872689900005,18.51436839200005],[121.2815527570001,18.51399475200003],[121.28163428900007,18.515392092000067],[121.28028503600001,18.516383652000055],[121.27831904200002,18.516867717000025],[121.2767776610001,18.517943131000038],[121.2742363100001,18.51855875300004],[121.2713620060001,18.51898883100006]]]}},{"type":"Feature","properties":{"fid":53,"objectid":1902,"lccode":"05","liqcode":"2010600050000000","mappers":"PJDelosReyes, ACPidlaoan","project":"READY","province":"Cagayan","otherinfo":null,"datemapped":2012,"publishdate":null,"globalid":"{C3D84E80-F2D4-4567-B477-D6223763EFE3}","st_area(shape)":0.07022270502489089,"st_perimeter(shape)":22.490008235492827,"liqcodepk":"201060005000000000097","creator":"SNOOPYPC","createdate":"2019-02-19T15:21:28","editor":"LENOVO","modifydate":"2019-03-10T17:50:55","codemove":"na"},"geometry":{"type":"MultiPolygon","coordinates":[[[[121.25258377900002,18.54218813400007],[121.2510734010001,18.542781244000025],[121.2505324770001,18.544762993000063],[121.24930516900008,18.545965711000065],[121.24640344500004,18.546821823000066],[121.24483239400003,18.547690174000024],[121.24407293800003,18.548400583000042],[121.243187002,18.55015833200002],[121.24266064300002,18.55070524300004],[121.24033966500008,18.551345899000065],[121.23882577500001,18.552269918000036],[121.23909865600002,18.553872883000054],[121.24006798300002,18.554815575000074],[121.24081843600004,18.554988142000063],[121.24378271500008,18.553691191000045],[121.24692782200009,18.551678579000054],[121.24930947700011,18.55076245200007],[121.2537350880001,18.54798892200006],[121.25513936700008,18.54645666800008],[121.25561228700006,18.545467611000053],[121.25568192700007,18.544309346000034],[121.25494456900003,18.542980378000035],[121.25397111300003,18.542311349000045],[121.25258377900002,18.54218813400007]]],[[[121.25343747300008,18.560182506000046],[121.25501429700012,18.558762239000032],[121.25578553600006,18.556893079000073],[121.25615282400008,18.554909711000054],[121.25942309100004,18.551959799000034],[121.26175352500002,18.550380842000035],[121.2636138260001,18.549514916000078],[121.26465525700006,18.54952449400002],[121.26570337600003,18.548871840000064],[121.26531298900012,18.54787949200005],[121.26183278100007,18.548730527000036],[121.259624754,18.549648330000025],[121.25799249900001,18.550847372000078],[121.25681794600006,18.552547340000043],[121.25478123000005,18.553687424000035],[121.25344711000002,18.55400622400003],[121.25175071300009,18.555811705000053],[121.25185518900003,18.55691622300003],[121.25254220900001,18.557640225000057],[121.25217880600009,18.559237285000048],[121.2523364990001,18.560337881000066],[121.25343747300008,18.560182506000046]]],[[[121.22837279400005,18.56650661600003],[121.22979027800012,18.56592675000007],[121.23326059400007,18.563449644000055],[121.23413383200013,18.562282847000066],[121.23420049300013,18.56045823200003],[121.23377528800007,18.55992954200007],[121.23171548600011,18.560172557000048],[121.2304247730001,18.56006922500006],[121.22970414600002,18.560359098000053],[121.22818121400009,18.56189616400008],[121.227272136,18.564214802000034],[121.22715636645955,18.564330518717405],[121.22787451948481,18.565816328969433],[121.22830390645773,18.566515063688932],[121.22837279400005,18.56650661600003]]],[[[121.2622446370001,18.542332485000035],[121.25988486800007,18.543966377000057],[121.25626040300006,18.54763051500004],[121.25279214400008,18.55013711000004],[121.24777265900002,18.554395142000025],[121.24503276700011,18.556383985000025],[121.24554111900011,18.557142974000037],[121.24854303200004,18.55499098500007],[121.2534573700001,18.55111820200005],[121.25598291800009,18.548851290000076],[121.25850294300005,18.547122372000047],[121.26161552000006,18.54400538000004],[121.26342381200006,18.542559515000047],[121.26389744800008,18.541656409000044],[121.2622446370001,18.542332485000035]]],[[[121.262225477,18.538050773000062],[121.25967100700005,18.538910209000047],[121.25675992300012,18.54070455400006],[121.25703352700009,18.542252322000024],[121.2577204800001,18.542976139000075],[121.25939599300013,18.543212264000033],[121.2624278630001,18.54092236600007],[121.26348310700007,18.539552398000065],[121.26309099500008,18.538279408000054],[121.262225477,18.538050773000062]]],[[[121.26405929300006,18.52105160500003],[121.2631504000001,18.520231881000033],[121.261091124,18.517922670000072],[121.26013524700011,18.51805189500004],[121.25997806800001,18.51929210300005],[121.26208746900011,18.522490007000044],[121.26405929300006,18.52105160500003]]],[[[121.26335920500001,18.529373661000022],[121.26328692100005,18.530807864000053],[121.26379674300006,18.53158076600005],[121.26714869400007,18.531776987000057],[121.26744630300004,18.530951856000055],[121.2665936960001,18.529733707000045],[121.26538618300005,18.529171519000045],[121.26335920500001,18.529373661000022]]],[[[121.24323207200007,18.53610733600004],[121.24040906900008,18.53776421900005],[121.24025850000011,18.538342267000072],[121.24152249800011,18.53920944200007],[121.2445207400001,18.537388602000078],[121.24435756000003,18.536366112000056],[121.2438105320001,18.536112716000044],[121.24323207200007,18.53610733600004]]],[[[121.25111251200008,18.526398497000056],[121.25214782800003,18.526987530000042],[121.25250448500003,18.52605259200004],[121.25369956200008,18.525153133000057],[121.25520557400012,18.52497383300004],[121.25588063300006,18.524014275000063],[121.25324828100008,18.524017602000065],[121.25188642100012,18.52425332100006],[121.25107148300003,18.524742495000055],[121.25097714700009,18.525486647000037],[121.25111251200008,18.526398497000056]]],[[[121.23301006300005,18.520228462000034],[121.2318732780001,18.52107323100006],[121.23125341700006,18.522281520000032],[121.23141906500005,18.523055730000067],[121.23222772400004,18.52317367600006],[121.23386673700007,18.521312630000068],[121.23364527500007,18.520344781000055],[121.23301006300005,18.520228462000034]]]]}},{"type":"Feature","properties":{"fid":67,"objectid":1931,"lccode":"06","liqcode":"2010600060000000","mappers":"PJDelosReyes, ACPidlaoan","project":"READY","province":"Cagayan","otherinfo":null,"datemapped":2012,"publishdate":null,"globalid":"{5942F6C7-E5B3-4D1E-B486-921A1828B34C}","st_area(shape)":0.07051556894172502,"st_perimeter(shape)":22.109814549125648,"liqcodepk":"201060006000000000130","creator":"SNOOPYPC","createdate":"2019-02-19T15:21:28","editor":"LENOVO","modifydate":"2019-03-10T17:50:55","codemove":"na"},"geometry":{"type":"MultiPolygon","coordinates":[[[[121.2924168080001,18.512162750000076],[121.29031287800001,18.512098121000065],[121.28716881300012,18.51321043700005],[121.28604488700013,18.514400640000076],[121.28604052100002,18.514838911000023],[121.2883347080001,18.51499653200005],[121.29010072800008,18.515377535000024],[121.29173055600008,18.51502724600004],[121.29274964300009,18.51353105400005],[121.2924168080001,18.512162750000076]]],[[[121.29440350200002,18.515617005000024],[121.29415526700006,18.516527366000044],[121.29207695600009,18.518698914000026],[121.29182123400007,18.52050674800006],[121.29219549299998,18.52119165600004],[121.29343185900008,18.52193295800004],[121.29525757300007,18.52112237700004],[121.29632296600005,18.51980865100006],[121.29920672900006,18.51842005600003],[121.303824856,18.515769264000028],[121.30526649600007,18.515097761000046],[121.30534941723528,18.515085804360158],[121.30366081450377,18.513274510412057],[121.30247252288687,18.512227457886013],[121.30178994700009,18.512355561000053],[121.30112529600001,18.511847627000066],[121.3010931657537,18.511012025548638],[121.30050209632168,18.510491191724313],[121.29979788900005,18.510649301000058],[121.29733836500009,18.512680641000035],[121.29538337000008,18.513888904000055],[121.29440350200002,18.515617005000024]]],[[[121.30226555600008,18.523518408000026],[121.30476758900011,18.52203497600004],[121.30742029900011,18.519822808000065],[121.30868641630508,18.519128605602713],[121.30686361702061,18.51673740658441],[121.30576203200006,18.51822318100005],[121.30421930700004,18.519441359000044],[121.30287291500008,18.52015941300004],[121.30028019300005,18.521140042000063],[121.29912276600011,18.522087849000055],[121.29518024700008,18.52411148300007],[121.29493422500002,18.524970317000054],[121.29511119300003,18.52623751100003],[121.29582276500003,18.526837124000053],[121.29740121000007,18.52685135400003],[121.29826491100006,18.526585345000058],[121.29894585600005,18.52545070100007],[121.30053015300007,18.52487176000005],[121.30226555600008,18.523518408000026]]],[[[121.27007476400003,18.518566329000063],[121.2713620060001,18.51898883100006],[121.2742363100001,18.51855875300004],[121.2767776610001,18.517943131000038],[121.27831904200002,18.516867717000025],[121.28028503600001,18.516383652000055],[121.28163428900007,18.515392092000067],[121.2815527570001,18.51399475200003],[121.27872689900005,18.51436839200005],[121.27512189700009,18.51612649000003],[121.27095037700008,18.51713222200004],[121.27008394100007,18.51767186900003],[121.27007476400003,18.518566329000063]]],[[[121.28545787300004,18.52050989500003],[121.28358294900012,18.52145118000004],[121.28200502200002,18.521391137000023],[121.28153172500005,18.52088496600004],[121.28120971600005,18.519586283000024],[121.28318575400012,18.518098363000032],[121.28491188200007,18.51768054100006],[121.28700401400012,18.51653597800003],[121.28674774700006,18.515867186000037],[121.2856458870001,18.51603975300003],[121.28417322100006,18.51502247200006],[121.28350270200009,18.51510761800006],[121.28200454400009,18.51664550500004],[121.2794569140001,18.517900042000065],[121.2767147080001,18.519466389000062],[121.27497459400003,18.521275794000072],[121.27467479300003,18.52253271300003],[121.27605270900007,18.523457881000073],[121.27691184500009,18.523648271000067],[121.27890653400006,18.525081001000043],[121.27994833900004,18.526140021000064],[121.28188107700011,18.528986713000055],[121.28283682800009,18.529086635000056],[121.28439724800013,18.52851330900006],[121.2867960960001,18.527805034000043],[121.29052803900005,18.52532912100003],[121.29202439700009,18.523973707000042],[121.2921726620001,18.523490911000067],[121.29051690600011,18.521650873000056],[121.29023672200005,18.52094586600003],[121.29044437100004,18.519323058000055],[121.28940253500002,18.518264093000024],[121.28882864900002,18.518258899000042],[121.28545787300004,18.52050989500003]]],[[[121.28920647600012,18.530747225000024],[121.29070380200007,18.529300602000035],[121.29150482200009,18.528139507000052],[121.29088544900003,18.527882879000057],[121.28892032700001,18.52827582200006],[121.28779123200002,18.52876755300002],[121.28596182400008,18.52993735100006],[121.28429775800011,18.531308257000035],[121.28275712800007,18.532298178000076],[121.28231655000002,18.53329809000007],[121.2803907330001,18.534648766000032],[121.28090577800003,18.53562859200002],[121.28315289900003,18.535757426000036],[121.28491069600011,18.534587012000028],[121.28571178200002,18.53340780900004],[121.28744829100003,18.531963387000072],[121.28920647600012,18.530747225000024]]],[[[121.23466613500011,18.547724770000055],[121.23544277900008,18.54663690400002],[121.23560094500009,18.545099024000024],[121.23477536100008,18.541766255000024],[121.23560547200009,18.54011327500007],[121.23790709100001,18.539587201000078],[121.23995834500012,18.54015389600005],[121.24110864600004,18.53993644600007],[121.24519828100006,18.53764738400002],[121.245677311,18.53697622200007],[121.24464578500012,18.53556126200004],[121.24446283800013,18.534720165000067],[121.24575151600004,18.53500592200004],[121.24742566200008,18.535021463000074],[121.24785240700011,18.535390436000057],[121.24996167100005,18.53495374600004],[121.25333764900004,18.532261425000055],[121.25480044100006,18.529537100000027],[121.2564488810001,18.527362043000043],[121.25896286300008,18.52473860500004],[121.26045944300007,18.523383461000037],[121.26208746900011,18.522490007000044],[121.25997806800001,18.51929210300005],[121.26013524700011,18.51805189500004],[121.261091124,18.517922670000072],[121.2631504000001,18.520231881000033],[121.26405929300006,18.52105160500003],[121.26489894500004,18.51954565500006],[121.26565977200006,18.51878921200005],[121.2644961850001,18.518009153000033],[121.2641638340001,18.51654368200008],[121.26437633800003,18.515552199000073],[121.26401287100009,18.514307115000065],[121.26208146500005,18.513654722000073],[121.26080840100009,18.51369820700006],[121.25949911000009,18.514458827000052],[121.2587089440001,18.515362152000023],[121.25717356900009,18.515596316000025],[121.25742394500003,18.51372223400006],[121.2586217800001,18.512546717000077],[121.25802419800004,18.51157551200004],[121.25721828100008,18.511181751000034],[121.25371627600009,18.51139775300004],[121.25269816800005,18.511967803000058],[121.25227619900011,18.51364716900002],[121.24964232700005,18.51381592400003],[121.2487542230001,18.51440097400007],[121.24664308700005,18.51294654800006],[121.24434905200008,18.512414728000063],[121.24253376200012,18.51173567000006],[121.24144288700005,18.510925314000076],[121.23961718600003,18.511267017000023],[121.23767159500005,18.512021556000036],[121.23688392019541,18.51250635047247],[121.23670039011321,18.51266195099833],[121.23436078746407,18.51507665108864],[121.23505655800011,18.51599822000003],[121.23383263200003,18.516883560000057],[121.23238940087045,18.517375295969764],[121.23074178208365,18.519451721144538],[121.22831379017839,18.523231381884013],[121.22739899481573,18.525030488004145],[121.22917739500008,18.525152548000047],[121.23017378400004,18.526707110000075],[121.23167811400005,18.52669355400008],[121.23317141100006,18.52494153500004],[121.23449533100008,18.52277403800002],[121.23624394600006,18.521493535000044],[121.23839750800003,18.520216697000023],[121.23972911800001,18.520118723000053],[121.24141859400004,18.52179006600005],[121.24283697600004,18.521692877000078],[121.24346690100003,18.519491214000027],[121.24472518500012,18.518068045000064],[121.24571418000005,18.517525323000022],[121.2466975440001,18.51753444600007],[121.24816721200013,18.51807242600006],[121.24876391200007,18.519126482000047],[121.24892980000004,18.520590519000056],[121.24845678500002,18.521593293000024],[121.24890958500009,18.52684030200004],[121.24815204100003,18.52879240100003],[121.24758341100005,18.529242380000028],[121.2450789180001,18.529467534000048],[121.24363911800003,18.530240548000055],[121.24359951100007,18.531288703000026],[121.24400816600009,18.532341115000065],[121.24393712000006,18.533630425000066],[121.24294224900008,18.534745571000027],[121.2413940670001,18.534793308000076],[121.23985069800005,18.53437878200003],[121.23894863400004,18.534894634000068],[121.23840107600007,18.53610370900003],[121.2366610150001,18.536528901000054],[121.2358381250001,18.536383286000042],[121.23484884900007,18.53693967300006],[121.23522459600008,18.538378123000026],[121.23504341200011,18.53912144900005],[121.23363179800005,18.54135712700002],[121.23358630600002,18.542970848000035],[121.234116459,18.54486599400008],[121.23475252900006,18.546313654000077],[121.23435649400005,18.54684803000004],[121.23273631200004,18.54685355400005],[121.23229890100004,18.54437991600002],[121.23178694400008,18.543526589000063],[121.22996144800004,18.54381298200008],[121.22908543600012,18.544604974000034],[121.22839356500005,18.54717162700007],[121.22828288500013,18.549488377000046],[121.22763170100006,18.550917106000043],[121.22649382000009,18.55184464200005],[121.22505635600011,18.551670708000074],[121.2248532210001,18.55033051700008],[121.22394828100005,18.549715008000074],[121.22284086710457,18.549977270930633],[121.22299918162551,18.551069380135303],[121.22334146600008,18.551046512000028],[121.22419735500013,18.551556422000033],[121.22504798200009,18.55256831500003],[121.2264817140001,18.552718730000038],[121.23239857600004,18.549574404000055],[121.23466613500011,18.547724770000055]],[[121.24303625000006,18.51350633900006],[121.24241262100008,18.515094014000056],[121.24121953800011,18.515800392000077],[121.238783032,18.51646754000006],[121.23856373500006,18.515285909000053],[121.23952891800002,18.514246286000056],[121.24098430800007,18.513349239000036],[121.24223185200002,18.512974599000078],[121.24303625000006,18.51350633900006]],[[121.24152249800011,18.53920944200007],[121.24025850000011,18.538342267000072],[121.24040906900008,18.53776421900005],[121.24323207200007,18.53610733600004],[121.2438105320001,18.536112716000044],[121.24435756000003,18.536366112000056],[121.2445207400001,18.537388602000078],[121.24152249800011,18.53920944200007]],[[121.25097714700009,18.525486647000037],[121.25107148300003,18.524742495000055],[121.25188642100012,18.52425332100006],[121.25324828100008,18.524017602000065],[121.25588063300006,18.524014275000063],[121.25520557400012,18.52497383300004],[121.25369956200008,18.525153133000057],[121.25250448500003,18.52605259200004],[121.25214782800003,18.526987530000042],[121.25111251200008,18.526398497000056],[121.25097714700009,18.525486647000037]],[[121.23141906500005,18.523055730000067],[121.23125341700006,18.522281520000032],[121.2318732780001,18.52107323100006],[121.23301006300005,18.520228462000034],[121.23364527500007,18.520344781000055],[121.23386673700007,18.521312630000068],[121.23222772400004,18.52317367600006],[121.23141906500005,18.523055730000067]]],[[[121.26004441600003,18.554921895000064],[121.26467293400002,18.551405310000064],[121.26641808900001,18.549139833000023],[121.26715174000003,18.547549473000053],[121.26840656600005,18.54646584500006],[121.27365285700013,18.543319781000037],[121.278422889,18.539940953000038],[121.27901146900001,18.538486150000036],[121.27788818400006,18.536011828000024],[121.277425041,18.534490349000066],[121.27629394400005,18.532791693000036],[121.27281777100008,18.53120845500007],[121.26935820200002,18.527982591000068],[121.26812466800004,18.526967466000027],[121.26626569500003,18.526311524000047],[121.26310287500007,18.52687575600004],[121.26166384200008,18.527273155000046],[121.2601732380001,18.52803517500007],[121.25925199100006,18.529258677000033],[121.25798615100008,18.531437289000053],[121.25571534400001,18.533652317000076],[121.25326110500009,18.535089790000026],[121.25200767500007,18.536036393000074],[121.2502635630001,18.538196332000034],[121.24828795500002,18.539592550000062],[121.24698154700002,18.541040575000068],[121.24495948200001,18.542299476000036],[121.24180862800006,18.546331286000054],[121.23998108700005,18.547272450000037],[121.23717336000004,18.55048601900006],[121.23640279800009,18.550980769000034],[121.23586583600002,18.55202526200003],[121.23632392800003,18.55399732100005],[121.23717050300002,18.55541975500006],[121.23930451300009,18.557264922000055],[121.24087898200003,18.557690235000052],[121.24282783100011,18.558934770000057],[121.24347837200001,18.560811599000033],[121.24547789600001,18.561788490000023],[121.24901362500009,18.56225771400005],[121.25059282200004,18.56222665900003],[121.25308840200012,18.561474141000073],[121.25579202300003,18.55908071800007],[121.26004441600003,18.554921895000064]],[[121.24006798300002,18.554815575000074],[121.23909865600002,18.553872883000054],[121.23882577500001,18.552269918000036],[121.24033966500008,18.551345899000065],[121.24266064300002,18.55070524300004],[121.243187002,18.55015833200002],[121.24407293800003,18.548400583000042],[121.24483239400003,18.547690174000024],[121.24640344500004,18.546821823000066],[121.24930516900008,18.545965711000065],[121.2505324770001,18.544762993000063],[121.2510734010001,18.542781244000025],[121.25258377900002,18.54218813400007],[121.25397111300003,18.542311349000045],[121.25494456900003,18.542980378000035],[121.25568192700007,18.544309346000034],[121.25561228700006,18.545467611000053],[121.25513936700008,18.54645666800008],[121.2537350880001,18.54798892200006],[121.24930947700011,18.55076245200007],[121.24692782200009,18.551678579000054],[121.24378271500008,18.553691191000045],[121.24081843600004,18.554988142000063],[121.24006798300002,18.554815575000074]],[[121.26183278100007,18.548730527000036],[121.26531298900012,18.54787949200005],[121.26570337600003,18.548871840000064],[121.26465525700006,18.54952449400002],[121.2636138260001,18.549514916000078],[121.26175352500002,18.550380842000035],[121.25942309100004,18.551959799000034],[121.25615282400008,18.554909711000054],[121.25578553600006,18.556893079000073],[121.25501429700012,18.558762239000032],[121.25343747300008,18.560182506000046],[121.2523364990001,18.560337881000066],[121.25217880600009,18.559237285000048],[121.25254220900001,18.557640225000057],[121.25185518900003,18.55691622300003],[121.25175071300009,18.555811705000053],[121.25344711000002,18.55400622400003],[121.25478123000005,18.553687424000035],[121.25681794600006,18.552547340000043],[121.25799249900001,18.550847372000078],[121.259624754,18.549648330000025],[121.26183278100007,18.548730527000036]],[[121.25279214400008,18.55013711000004],[121.25626040300006,18.54763051500004],[121.25988486800007,18.543966377000057],[121.2622446370001,18.542332485000035],[121.26389744800008,18.541656409000044],[121.26342381200006,18.542559515000047],[121.26161552000006,18.54400538000004],[121.25850294300005,18.547122372000047],[121.25598291800009,18.548851290000076],[121.2534573700001,18.55111820200005],[121.24854303200004,18.55499098500007],[121.24554111900011,18.557142974000037],[121.24503276700011,18.556383985000025],[121.24777265900002,18.554395142000025],[121.25279214400008,18.55013711000004]],[[121.26348310700007,18.539552398000065],[121.2624278630001,18.54092236600007],[121.25939599300013,18.543212264000033],[121.2577204800001,18.542976139000075],[121.25703352700009,18.542252322000024],[121.25675992300012,18.54070455400006],[121.25967100700005,18.538910209000047],[121.262225477,18.538050773000062],[121.26309099500008,18.538279408000054],[121.26348310700007,18.539552398000065]],[[121.26714869400007,18.531776987000057],[121.26379674300006,18.53158076600005],[121.26328692100005,18.530807864000053],[121.26335920500001,18.529373661000022],[121.26538618300005,18.529171519000045],[121.2665936960001,18.529733707000045],[121.26744630300004,18.530951856000055],[121.26714869400007,18.531776987000057]]],[[[121.23683381500008,18.574219100000047],[121.23835960900011,18.572408214000056],[121.24125427500009,18.57008519300006],[121.24559924000005,18.56629271200006],[121.24464929500003,18.565634583000076],[121.24396305500012,18.566479620000052],[121.24172491500008,18.568536295000058],[121.24049530300012,18.569460256000067],[121.23858540300012,18.57140451300006],[121.23439991088776,18.574775744545413],[121.2349350489705,18.575350041594337],[121.23683381500008,18.574219100000047]]],[[[121.2355281760001,18.570901550000027],[121.23746106700004,18.569048772000034],[121.23843128300008,18.56775739800003],[121.24103857600005,18.565454633000055],[121.24082564600009,18.565242527000066],[121.23889681700007,18.566707519000033],[121.23641680600008,18.56825856600005],[121.2344838370001,18.570111332000067],[121.23235232119906,18.572433532973715],[121.23282461843057,18.57305348441389],[121.2355281760001,18.570901550000027]]],[[[121.23020705300007,18.567246922000038],[121.23396921800008,18.56431621100006],[121.23833572900003,18.56075226600007],[121.23870468200006,18.55978702300007],[121.23714894800003,18.55753662400002],[121.23525232000009,18.555876205000065],[121.23267565100004,18.55521320800005],[121.23161942900003,18.555568414000046],[121.22829180100008,18.55813807100003],[121.22568352900011,18.56053196900006],[121.2255360266605,18.560710350060546],[121.2259287383604,18.561790579254943],[121.22715636645955,18.564330518717405],[121.227272136,18.564214802000034],[121.22818121400009,18.56189616400008],[121.22970414600002,18.560359098000053],[121.2304247730001,18.56006922500006],[121.23171548600011,18.560172557000048],[121.23377528800007,18.55992954200007],[121.23420049300013,18.56045823200003],[121.23413383200013,18.562282847000066],[121.23326059400007,18.563449644000055],[121.22979027800012,18.56592675000007],[121.22837279400005,18.56650661600003],[121.22830390645773,18.566515063688932],[121.22919269679427,18.567961358794136],[121.23020705300007,18.567246922000038]]],[[[121.23290594200013,18.567671473000075],[121.23423525300007,18.566360634000038],[121.23712845300008,18.564174684000026],[121.237014885,18.563598491000043],[121.23497256400003,18.564469114000076],[121.2310612760001,18.567946008000035],[121.22980222755757,18.568953210061675],[121.23022134340013,18.569635203853935],[121.23290594200013,18.567671473000075]]]]}}]}