{"type":"FeatureCollection","features":[{"type":"Feature","properties":{"fid":27,"objectid":1873,"lccode":"07","liqcode":"2010600070000000","mappers":"MITAbigania, MRJSanDiego","project":"READY","province":"Catanduanes","otherinfo":null,"datemapped":2012,"publishdate":null,"globalid":"{6806FBE5-F17E-446D-A93D-3AE6AE77BE83}","st_area(shape)":0.005372229043825049,"st_perimeter(shape)":2.72076790618239,"liqcodepk":"201060007000000000066","creator":"SNOOPYPC","createdate":"2019-02-19T15:21:28","editor":"LENOVO","modifydate":"2019-03-10T17:50:55","codemove":"na"},"geometry":{"type":"MultiPolygon","coordinates":[[[[124.17443525400006,14.047245393000024],[124.17580798400003,14.046588234000067],[124.17669816100012,14.046463694000064],[124.1775125490001,14.045689034000075],[124.17684249700005,14.044956942000054],[124.17681720200005,14.04425009000005],[124.17858247100003,14.042473874000052],[124.17639344400004,14.042102756000078],[124.17520240300007,14.041458061000066],[124.17385680600013,14.040354257000047],[124.1723480300001,14.039845744000043],[124.17124290800008,14.039971073000062],[124.17009004800002,14.041588871000041],[124.16945974500004,14.041535430000067],[124.16769488400006,14.039135999000052],[124.16650342300011,14.03837508900005],[124.16401973200006,14.038291400000048],[124.16300702200009,14.038250599000039],[124.16156188800005,14.039346268000031],[124.1597340410001,14.04188302400007],[124.15950307900005,14.043829040000047],[124.15804097200011,14.04197921000002],[124.15761669100006,14.041060596000024],[124.15599377100011,14.038716038000075],[124.15475038600005,14.038446126000055],[124.1535714260001,14.039011136000056],[124.1534973470001,14.039710787000049],[124.15509084200006,14.041001813000035],[124.15597434000007,14.043520013000034],[124.15685131300008,14.044734459000038],[124.15644101700002,14.046419995000063],[124.15563417200008,14.045836993000023],[124.15498791200002,14.04363806800006],[124.15439320700013,14.043725869000069],[124.1541139608551,14.046648597890382],[124.15444565969058,14.046762679790378],[124.15885859188985,14.047819397684995],[124.16335639314806,14.048448672587405],[124.1678957219689,14.048644442673984],[124.17243283637733,14.048404823464015],[124.17448742940144,14.048097093296468],[124.17443525400006,14.047245393000024]]],[[[124.14162433600005,14.002595442000025],[124.14060782500007,14.002216522000023],[124.13821432400005,14.001414674000046],[124.13789260900012,14.000779788000047],[124.13816204300008,13.999618983000062],[124.13948728000003,13.998170408000018],[124.13985948100003,13.99729193100006],[124.13888551100001,13.996554090000073],[124.13817769000002,13.996903856000072],[124.13689570500001,13.99683918800002],[124.13681199000006,13.997482936000036],[124.13551984300013,13.998287987000023],[124.1345638890001,13.99826417100007],[124.13240143900009,13.997394385000064],[124.1324684340001,13.996202353000058],[124.13166749000004,13.995293931000045],[124.13122486700001,13.993627407000076],[124.13119775100007,13.992531621000069],[124.13167112800011,13.991652593000028],[124.13171692900005,13.990605998000033],[124.13236793200008,13.990549995000036],[124.13383285500004,13.989457727000058],[124.13466619700012,13.990172750000053],[124.13689202900004,13.989831343000047],[124.1357834590001,13.98842979200003],[124.13483205800001,13.986508240000036],[124.13650726000003,13.984824674000036],[124.13519162300008,13.983052606000054],[124.13335209800005,13.98148453300007],[124.13260158300012,13.980512243000023],[124.13051665600005,13.978347757000053],[124.12993482000003,13.979147746000022],[124.13037683800007,13.979943952000042],[124.13049832200012,13.983612095000069],[124.13026034100007,13.985010807000036],[124.13042033200009,13.986922571000036],[124.13004034800008,13.988165632000058],[124.12935398300009,13.988371112000038],[124.1277879070001,13.989684051000042],[124.12833981100006,13.990867609000075],[124.12773324500007,13.991992190000078],[124.12921948400002,13.991681850000075],[124.12989322500005,13.99274530500003],[124.13054640800011,13.995381155000073],[124.13058025400005,13.99845204300004],[124.13106331300003,13.999384376000021],[124.13218285700009,13.999558906000058],[124.13192091900011,14.001011986000039],[124.13031971200007,14.000798220000034],[124.12960050400012,14.001409969000065],[124.12846895100006,14.001677955000046],[124.12763146100009,14.001267035000069],[124.12618729800012,14.001315228000069],[124.12664602600013,14.00246075700005],[124.12777852900001,14.002386356000047],[124.1293430070001,14.003775622000038],[124.13186785500011,14.00463496100002],[124.13354030000006,14.004931345000045],[124.13443452400008,14.00535580500002],[124.13521756999998,14.006209425000065],[124.13728496400006,14.006185906000042],[124.13580414000012,14.007423469000061],[124.13529869900005,14.008310777000078],[124.13584286000004,14.009538847000046],[124.13661237900011,14.010516969000037],[124.138289299,14.011712061000024],[124.13916241900007,14.013264621000072],[124.14136553000004,14.011948956000026],[124.14244237200012,14.011519619000067],[124.14261674700003,14.010175418000072],[124.14197676100004,14.00961281100007],[124.14190908600007,14.006176906000064],[124.14278337000009,14.005627498000026],[124.14280224100004,14.004317743000058],[124.14162433600005,14.002595442000025]]]]}},{"type":"Feature","properties":{"fid":54,"objectid":1903,"lccode":"05","liqcode":"2010600050000000","mappers":"MITAbigania, MRJSanDiego","project":"READY","province":"Catanduanes","otherinfo":null,"datemapped":2012,"publishdate":null,"globalid":"{E007E964-0AF4-4562-904F-0A12E9A98ABE}","st_area(shape)":0.0010990424958159351,"st_perimeter(shape)":0.725596945134769,"liqcodepk":"201060005000000000098","creator":"SNOOPYPC","createdate":"2019-02-19T15:21:28","editor":"LENOVO","modifydate":"2019-03-10T17:50:55","codemove":"na"},"geometry":{"type":"MultiPolygon","coordinates":[[[[124.15035411100007,14.024578260000055],[124.14890904000004,14.023563694000073],[124.14792604300011,14.022390655000034],[124.14766964500006,14.01916426300005],[124.14792859300009,14.01737560400005],[124.14717710000002,14.016136476000039],[124.14807940700005,14.01515325300005],[124.14826767500007,14.013753489000061],[124.14723320000009,14.013012812000055],[124.14601621400004,14.013925123000034],[124.1457739210001,14.014918504000034],[124.1462897350001,14.015301552000038],[124.14496007700006,14.016960602000038],[124.14564096400012,14.01926705400007],[124.14668853600004,14.02210150600007],[124.14685607700005,14.023596747000056],[124.1459058590001,14.02453355600005],[124.14612696300004,14.025791195000068],[124.14665732300011,14.026837588000033],[124.14654354400012,14.02795689900006],[124.14554794200001,14.029383441000052],[124.14408785600006,14.02940842500004],[124.14385694900011,14.030207245000042],[124.14439870900004,14.031150189000074],[124.145247981,14.031482671000045],[124.14653621000002,14.031290109000052],[124.14648420300013,14.030427913000036],[124.14747597700011,14.028232218000026],[124.14857322800005,14.028040552000048],[124.14922035000008,14.028550227000036],[124.14900588600007,14.029626541000026],[124.1494737380001,14.031485954000063],[124.1503612680001,14.032567878000066],[124.15238729300006,14.031681877000036],[124.15176323900005,14.031008869000061],[124.15161045900004,14.029098342000054],[124.1517128800001,14.027146380000033],[124.15095462600004,14.025711305000069],[124.15035411100007,14.024578260000055]]],[[[124.15609863700001,13.984350643000026],[124.15738787500004,13.984414366000065],[124.15896272900011,13.985353080000037],[124.16004048500008,13.985031046000072],[124.16180683300003,13.98504591700004],[124.16300451600011,13.985879303000047],[124.16419767600007,13.98582694500004],[124.16547138200008,13.984518043000037],[124.16434426300007,13.981747227000028],[124.16367171800005,13.980911420000039],[124.1651073380001,13.979531245000032],[124.16570753100008,13.97853531900006],[124.16582271500009,13.976728810000052],[124.16543600200009,13.975775040000027],[124.16607684200007,13.974939891000075],[124.16495024000004,13.974099125000064],[124.16416824600003,13.975221735000046],[124.16398428500008,13.976621124000076],[124.16332119900004,13.977649885000064],[124.16304345100002,13.979376009000076],[124.16188244400006,13.981083131000045],[124.1628929750001,13.982686581000051],[124.16191850400003,13.983507051000057],[124.16107330200009,13.983344970000076],[124.15927127800013,13.983962588000056],[124.1577154370001,13.983084251000038],[124.15783020600009,13.982174623000049],[124.15727212800003,13.981341866000035],[124.15565434700012,13.981415823000074],[124.15439471400008,13.982494041000054],[124.1538531320001,13.98398840300007],[124.15294267200011,13.985085291000074],[124.1519043730001,13.985699137000042],[124.15160763900008,13.986411039000073],[124.15275309200003,13.986566319000072],[124.15417233000005,13.987353005000045],[124.15609863700001,13.984350643000026]]],[[[124.13846456100009,13.969018108000055],[124.14019620200008,13.969278069000042],[124.14019247500005,13.96852057400002],[124.14110810100011,13.967851951000057],[124.1416521310001,13.966858782000031],[124.14126752416567,13.966346039281225],[124.13817558427402,13.968608056376336],[124.13846456100009,13.969018108000055]]],[[[124.161077653,14.029129484000068],[124.16165185600006,14.027237625000055],[124.16153957700008,14.025758496000037],[124.161008637,14.025367966000033],[124.16086837000012,14.024000685000033],[124.15995330700002,14.024461055000074],[124.15979589200003,14.026334555000059],[124.16016909100007,14.029231546000062],[124.161077653,14.029129484000068]]],[[[124.15859146800005,14.026314564000073],[124.15779220300011,14.02590443100007],[124.15684815700001,14.026206397000061],[124.15630460400006,14.028036279000048],[124.15819981600009,14.029136766000018],[124.15876995600001,14.028574653000023],[124.15854936600012,14.027433623000034],[124.15859146800005,14.026314564000073]]]]}},{"type":"Feature","properties":{"fid":68,"objectid":1932,"lccode":"06","liqcode":"2010600060000000","mappers":"MITAbigania, MRJSanDiego","project":"READY","province":"Catanduanes","otherinfo":null,"datemapped":2012,"publishdate":null,"globalid":"{D676DE65-50B9-47A4-8AF0-BD7D44E0FC56}","st_area(shape)":0.0021118625030801673,"st_perimeter(shape)":1.6727362060815718,"liqcodepk":"201060006000000000131","creator":"SNOOPYPC","createdate":"2019-02-19T15:21:28","editor":"LENOVO","modifydate":"2019-03-10T17:50:55","codemove":"na"},"geometry":{"type":"MultiPolygon","coordinates":[[[[124.16156188800005,14.039346268000031],[124.16300702200009,14.038250599000039],[124.1633096070001,14.037973946000024],[124.1625866940001,14.036648877000058],[124.16358785800004,14.036341008000019],[124.16321149300006,14.035084140000036],[124.16326898700004,14.033463923000056],[124.16453429400006,14.034646558000075],[124.16477794000004,14.035612757000022],[124.16589023800009,14.036038527000072],[124.16604910400008,14.03677203500007],[124.16502459100002,14.037173212000027],[124.16502753500002,14.037755898000055],[124.16401973200006,14.038291400000048],[124.16650342300011,14.03837508900005],[124.16769488400006,14.039135999000052],[124.16785568700004,14.037567459000059],[124.16725339100003,14.036498151000044],[124.16723339700003,14.034901628000057],[124.16551038700004,14.034094135000036],[124.1646226920001,14.033235972000055],[124.16448672700005,14.032288053000057],[124.16353945800006,14.031469760000046],[124.16217286900009,14.03270002800002],[124.16148250600008,14.032496455000055],[124.16145778500005,14.031150494000029],[124.16245603000004,14.029964661000065],[124.16194472800011,14.029336873000034],[124.15925672400012,14.029028359000051],[124.15822482200007,14.02915567900004],[124.1569781390001,14.029892935000074],[124.15694572000007,14.030569068000034],[124.157787686,14.031846951000034],[124.1597210220001,14.03174450800003],[124.15948812300009,14.032911028000056],[124.15790114100002,14.033046791000059],[124.15629267200006,14.033648845000071],[124.156246526,14.032394633000024],[124.15554156500004,14.031486120000064],[124.15443050000012,14.031268628000074],[124.15431430900001,14.03189852300005],[124.15340269800004,14.032233855000074],[124.15235691100008,14.03195449000003],[124.15090265200001,14.03236931300006],[124.15110024400008,14.033696923000035],[124.15198975700002,14.034928053000044],[124.15290044100004,14.035611354000025],[124.15399693100005,14.037657291000075],[124.15433606700005,14.036245509000025],[124.15485950400013,14.035881657000061],[124.1580372860001,14.03817115400005],[124.15848213000005,14.039383958000032],[124.15941684600011,14.040693473000033],[124.1597340410001,14.04188302400007],[124.16156188800005,14.039346268000031]]],[[[124.15275309200003,13.986566319000072],[124.15160763900008,13.986411039000073],[124.15009175700004,13.986883358000053],[124.14961238300009,13.988890167000024],[124.14885279500005,13.988845770000065],[124.14698734900003,13.990515313000062],[124.14524010500008,13.99126977700007],[124.14277878300005,13.992959998000059],[124.14210624400003,13.994050759000057],[124.14070551400006,13.995447007000053],[124.14088913500007,13.996378548000052],[124.14200022600005,13.997101092000037],[124.14329168400002,13.997089766000041],[124.14296669300005,13.99912982200004],[124.14074739600007,14.001507073000028],[124.14060782500007,14.002216522000023],[124.14162433600005,14.002595442000025],[124.14280224100004,14.004317743000058],[124.14375833400004,14.004874158000064],[124.143200954,14.005605193000067],[124.14370914900007,14.006691020000062],[124.14443145100006,14.006440320000024],[124.14572686000008,14.00439721500004],[124.14530928900002,14.00203338500006],[124.14584566000008,14.001102245000029],[124.14568884400002,13.999129630000029],[124.14826210100013,13.995251102000054],[124.14878630900012,13.993182893000041],[124.15138922400001,13.990991215000061],[124.15271378700004,13.988560828000063],[124.15482235900004,13.98807737200008],[124.15417233000005,13.987353005000045],[124.15275309200003,13.986566319000072]]],[[[124.1723480300001,14.039845744000043],[124.17385680600013,14.040354257000047],[124.17415689100007,14.038906296000047],[124.1743539470001,14.03540905300002],[124.17349520700009,14.035221337000051],[124.17373792900003,14.03434850600007],[124.17632490200005,14.033922259000066],[124.17599985000005,14.033381993000036],[124.17438457700007,14.032052441000074],[124.17338037700007,14.03156120000006],[124.1718135740001,14.031741514000032],[124.17188834500008,14.029430688000046],[124.17111028600006,14.02840598500006],[124.17126650800003,14.027443823000056],[124.17086782600005,14.025916107000059],[124.1694602020001,14.026086053000029],[124.16975305300002,14.027343315000053],[124.16977244300004,14.030580204000042],[124.1704465050001,14.03228130000002],[124.17026465200001,14.034077008000054],[124.17063032400006,14.035566923000031],[124.17045316400004,14.036617218000059],[124.17111558200007,14.037102985000049],[124.17138306500011,14.038516818000062],[124.17124290800008,14.039971073000062],[124.1723480300001,14.039845744000043]]],[[[124.14114236000012,14.03886176100002],[124.14180873300006,14.038737682000031],[124.14123694400007,14.03746867900003],[124.14003597100009,14.03751076700007],[124.13925348600004,14.038598248000028],[124.13917430750382,14.039027665360614],[124.14043647533902,14.03993236492202],[124.14114236000012,14.03886176100002]]]]}}]}