{"type":"FeatureCollection","features":[{"type":"Feature","properties":{"fid":173,"objectid":9615,"lccode":"06","liqcode":"2010600060000000","mappers":"PJDelosReyes, ACPidlaoan","project":"READY","province":"Zambales","otherinfo":"hazard boundary with Pangasinan updated on 2024","datemapped":2009,"publishdate":null,"globalid":"{872CAE87-9525-4926-8B67-3D6FB0BEE51C}","st_area(shape)":0.022446667670869943,"st_perimeter(shape)":5.391899889166991,"liqcodepk":"201060006000000000146","creator":"SNOOPYPC","createdate":"2019-02-19T15:21:28","editor":"LENOVO","modifydate":"2019-03-10T17:50:55","codemove":"na"},"geometry":{"type":"Polygon","coordinates":[]}},{"type":"Feature","properties":{"fid":174,"objectid":9616,"lccode":"07","liqcode":null,"mappers":"DJLBuhay, MITAbigania","project":"LiquePhi","province":"Pangasinan","otherinfo":null,"datemapped":2024,"publishdate":null,"globalid":"{4C1C6B5C-6BC5-4098-AF34-1358D72BE295}","st_area(shape)":0.0990952810399136,"st_perimeter(shape)":16.14272038398808,"liqcodepk":null,"creator":null,"createdate":null,"editor":null,"modifydate":null,"codemove":null},"geometry":{"type":"Polygon","coordinates":[[[120.36904833800008,15.87309400600003],[120.3677438100001,15.870473469000046],[120.366594662,15.86896444600006],[120.36658021200003,15.866721992000066],[120.36800629000005,15.862926795000018],[120.36782328700008,15.860198257000043],[120.36711024800003,15.857969087000072],[120.3682154590001,15.85632291400003],[120.36885719400004,15.854539546000066],[120.36885719400004,15.852927641000061],[120.36810850300003,15.850595502000033],[120.36842937000004,15.848572006000042],[120.36974849300009,15.844970818000036],[120.37067544400009,15.84339313500004],[120.37135283100008,15.842810075000045],[120.37370586000009,15.840031943000042],[120.37449020300006,15.838694310000054],[120.37502498300013,15.836533500000034],[120.37509628700002,15.834784255000049],[120.37431194400004,15.832897798000037],[120.37359890400012,15.832589104000023],[120.37181630600001,15.832692002000044],[120.37088935500003,15.832246109000035],[120.37046153200005,15.831148523000026],[120.37081805200013,15.830291029000021],[120.37217282600011,15.828644631000031],[120.37270760500009,15.827272622000065],[120.37281456100006,15.825557598000044],[120.37238673800005,15.824425675000048],[120.37131717900003,15.822847831000047],[120.37081805200013,15.821235674000032],[120.37135283100008,15.819897916000059],[120.37459715900003,15.818285736000062],[120.37516759100002,15.81749679100005],[120.3751319390001,15.81622761400007],[120.37431194400004,15.815507266000054],[120.3723510860001,15.814649706000068],[120.3701763160001,15.814889823000046],[120.36835806600004,15.815678778000063],[120.36714590000008,15.81660493800007],[120.365584344,15.81932850900006],[120.36492834800005,15.819836174000038],[120.36374470300008,15.81982245300003],[120.3632099690001,15.819423978000035],[120.3627554210001,15.81908525600005],[120.36018848000002,15.81743876700005],[120.35933283300004,15.817061444000043],[120.35387808400004,15.816787028000018],[120.35248765700008,15.81685563200006],[120.34952854500011,15.817301559000036],[120.34850775900009,15.817612967000057],[120.34717551500012,15.817507371000032],[120.3458273650001,15.816469176000048],[120.34492037100006,15.816127324000032],[120.34307954800012,15.815945676000068],[120.34232684900007,15.815346334000028],[120.34104337800012,15.813391090000039],[120.3407938150001,15.81157304000004],[120.34211293700004,15.80917181600006],[120.34681899600002,15.805535622000036],[120.35049114700007,15.80237962800004],[120.35352156400008,15.800595784000045],[120.35555372600004,15.799086364000061],[120.35708676000003,15.798331650000021],[120.35940413700008,15.79757693400006],[120.36165021100008,15.79719957400005],[120.364309605,15.797026801000067],[120.36857189200009,15.794884594000052],[120.36935832000006,15.794026811000037],[120.37220132989448,15.792190005606395],[120.37144514999764,15.79183245135107],[120.36715541538591,15.790287421667198],[120.36273000076314,15.789156874985181],[120.35821150216479,15.788451688376465],[120.3536434089392,15.788178644586536],[120.3490696859255,15.788340367041476],[120.3445343511335,15.788935294817936],[120.34008105295187,15.789957697808582],[120.33575265091312,15.79139773193185],[120.33159080401073,15.793241533853083],[120.32763557049142,15.795471354307976],[120.3239250229397,15.798065728751096],[120.32049488232812,15.800999683696897],[120.31737817452999,15.804244976779948],[120.31460491258292,15.807770368239442],[120.31220180774967,15.811541921232571],[120.31019201215535,15.815523328105137],[120.30859489548327,15.819676259498689],[120.30742585789238,15.823960732953399],[120.30669618097836,15.828335497477184],[120.30641291824139,15.832758430396353],[120.3065788261487,15.837186942682067],[120.30719233649461,15.841578388862555],[120.30824757036594,15.845890477582977],[120.3097343936224,15.85008167886476],[120.31163851340102,15.854111624143739],[120.31394161475792,15.857941495231584],[120.3166215361706,15.861534398447606],[120.31965248224458,15.864855720306617],[120.32300527160449,15.86787346132275],[120.32549783899074,15.869710958105594],[120.326925,15.869064000000003],[120.32830982200007,15.867961299000058],[120.32925720600008,15.866567456000043],[120.32969616700008,15.864748391000035],[120.32955764100006,15.860588080000069],[120.33005009200008,15.85891929600007],[120.33122139900001,15.857901646000068],[120.33523629900004,15.856024963000035],[120.33835179100005,15.85510085800007],[120.34055032800008,15.855329495000037],[120.3419169870001,15.855958246000059],[120.34500682300006,15.858187438000073],[120.34601696200002,15.85938776300003],[120.34791840000003,15.86064523700003],[120.34976041800009,15.861502602000028],[120.35207779500001,15.86207417700007],[120.3540386530001,15.862131334000022],[120.35558357100001,15.862645750000077],[120.3568908090001,15.863903204000051],[120.35677936500008,15.866261174000044],[120.35635541600004,15.86711738300005],[120.35374155300006,15.869333032000043],[120.35207779500001,15.870190359000043],[120.35087905000012,15.870545145000051],[120.34857201900002,15.870704754000034],[120.34292712500006,15.870476134000063],[120.34037206800006,15.870647599000053],[120.33656919300007,15.872019313000067],[120.33365761600008,15.872762321000037],[120.33177433050334,15.87346678476121],[120.33465819872237,15.8748306973939],[120.33894926414703,15.876376595165045],[120.34337629090453,15.87750788979437],[120.34789662100589,15.878213675467167],[120.35246669471904,15.878487146416223],[120.35704247109577,15.878325662799941],[120.36157985321647,15.877730776363235],[120.36603511401468,15.876708215624785],[120.3689451698953,15.875740236691026],[120.36904833800008,15.87309400600003]]]}},{"type":"Feature","properties":{"fid":175,"objectid":9617,"lccode":"06","liqcode":null,"mappers":"DJLBuhay, MITAbigania","project":"LiquePhi","province":"Pangasinan","otherinfo":null,"datemapped":2024,"publishdate":null,"globalid":"{66023685-1332-44EF-8443-E51FD3597412}","st_area(shape)":0.04411879143836554,"st_perimeter(shape)":22.502158641584156,"liqcodepk":null,"creator":null,"createdate":null,"editor":null,"modifydate":null,"codemove":null},"geometry":{"type":"MultiPolygon","coordinates":[[[[120.33365761600008,15.872762321000037],[120.33656919300007,15.872019313000067],[120.34037206800006,15.870647599000053],[120.34292712500006,15.870476134000063],[120.34857201900002,15.870704754000034],[120.35087905000012,15.870545145000051],[120.35207779500001,15.870190359000043],[120.35374155300006,15.869333032000043],[120.35635541600004,15.86711738300005],[120.35677936500008,15.866261174000044],[120.3568908090001,15.863903204000051],[120.35558357100001,15.862645750000077],[120.3540386530001,15.862131334000022],[120.35207779500001,15.86207417700007],[120.34976041800009,15.861502602000028],[120.34791840000003,15.86064523700003],[120.34601696200002,15.85938776300003],[120.34500682300006,15.858187438000073],[120.3419169870001,15.855958246000059],[120.34055032800008,15.855329495000037],[120.33835179100005,15.85510085800007],[120.33523629900004,15.856024963000035],[120.33122139900001,15.857901646000068],[120.33005009200008,15.85891929600007],[120.32955764100006,15.860588080000069],[120.32969616700008,15.864748391000035],[120.32925720600008,15.866567456000043],[120.32830982200007,15.867961299000058],[120.326925,15.869064000000003],[120.32549783899074,15.869710958105594],[120.32664761760293,15.870558544696959],[120.33054443915692,15.872885096895208],[120.33177433050334,15.87346678476121],[120.33365761600008,15.872762321000037]]],[[[120.37494654800004,15.872055657000029],[120.37426203100006,15.870299862000024],[120.3725507370001,15.868434313000023],[120.37203734900004,15.86640413700007],[120.37266482300004,15.863496012000038],[120.37277890900009,15.86141091500002],[120.37249369400001,15.860148873000067],[120.37113067500002,15.857951141000056],[120.37112465800011,15.857021167000024],[120.37169217400002,15.855764706000059],[120.37306412500004,15.853509300000042],[120.37352047000003,15.85147897400003],[120.37340638400008,15.849613251000049],[120.37414794500013,15.847034135000062],[120.37490434900008,15.845400875000053],[120.37682406600005,15.842838131000061],[120.3776846190001,15.84116240700007],[120.37876843800007,15.838418551000077],[120.37941823300004,15.836175729000043],[120.37940691600012,15.833258050000037],[120.37905835800007,15.831882361000055],[120.37708169500003,15.829277559000047],[120.37724665500002,15.826712130000033],[120.37598042700004,15.822788640000057],[120.3759281460001,15.821223492000055],[120.37660079900003,15.819923986000047],[120.37727712700007,15.81796107900004],[120.37734454100006,15.817071368000025],[120.37694286900012,15.814196797000024],[120.37724262000006,15.812823311000045],[120.37851683500003,15.810884969000025],[120.379076757,15.809426949000056],[120.37955211600003,15.807231523000038],[120.38040776300011,15.805127549000074],[120.3817387700001,15.80311503300004],[120.38249934500003,15.800919538000072],[120.38375611747746,15.799380450661506],[120.38309621867455,15.798786711186441],[120.3794541052496,15.796102644229077],[120.37555791121427,15.793777096982675],[120.37220132989448,15.792190005606395],[120.36935832000006,15.794026811000037],[120.36857189200009,15.794884594000052],[120.364309605,15.797026801000067],[120.36165021100008,15.79719957400005],[120.35940413700008,15.79757693400006],[120.35708676000003,15.798331650000021],[120.35555372600004,15.799086364000061],[120.35352156400008,15.800595784000045],[120.35049114700007,15.80237962800004],[120.34681899600002,15.805535622000036],[120.34211293700004,15.80917181600006],[120.3407938150001,15.81157304000004],[120.34104337800012,15.813391090000039],[120.34232684900007,15.815346334000028],[120.34307954800012,15.815945676000068],[120.34492037100006,15.816127324000032],[120.3458273650001,15.816469176000048],[120.34717551500012,15.817507371000032],[120.34850775900009,15.817612967000057],[120.34952854500011,15.817301559000036],[120.35248765700008,15.81685563200006],[120.35387808400004,15.816787028000018],[120.35933283300004,15.817061444000043],[120.36018848000002,15.81743876700005],[120.3627554210001,15.81908525600005],[120.3632099690001,15.819423978000035],[120.36374470300008,15.81982245300003],[120.36492834800005,15.819836174000038],[120.365584344,15.81932850900006],[120.36714590000008,15.81660493800007],[120.36835806600004,15.815678778000063],[120.3701763160001,15.814889823000046],[120.3723510860001,15.814649706000068],[120.37431194400004,15.815507266000054],[120.3751319390001,15.81622761400007],[120.37516759100002,15.81749679100005],[120.37459715900003,15.818285736000062],[120.37135283100008,15.819897916000059],[120.37081805200013,15.821235674000032],[120.37131717900003,15.822847831000047],[120.37238673800005,15.824425675000048],[120.37281456100006,15.825557598000044],[120.37270760500009,15.827272622000065],[120.37217282600011,15.828644631000031],[120.37081805200013,15.830291029000021],[120.37046153200005,15.831148523000026],[120.37088935500003,15.832246109000035],[120.37181630600001,15.832692002000044],[120.37359890400012,15.832589104000023],[120.37431194400004,15.832897798000037],[120.37509628700002,15.834784255000049],[120.37502498300013,15.836533500000034],[120.37449020300006,15.838694310000054],[120.37370586000009,15.840031943000042],[120.37135283100008,15.842810075000045],[120.37067544400009,15.84339313500004],[120.36974849300009,15.844970818000036],[120.36842937000004,15.848572006000042],[120.36810850300003,15.850595502000033],[120.36885719400004,15.852927641000061],[120.36885719400004,15.854539546000066],[120.3682154590001,15.85632291400003],[120.36711024800003,15.857969087000072],[120.36782328700008,15.860198257000043],[120.36800629000005,15.862926795000018],[120.36658021200003,15.866721992000066],[120.366594662,15.86896444600006],[120.3677438100001,15.870473469000046],[120.36904833800008,15.87309400600003],[120.3689451698953,15.875740236691026],[120.37036531853553,15.875267830728344],[120.37452873851717,15.873423498488638],[120.37555144518738,15.872846954036312],[120.37494654800004,15.872055657000029]]]]}},{"type":"Feature","properties":{"fid":176,"objectid":9618,"lccode":"05","liqcode":null,"mappers":"DJLBuhay, MITAbigania","project":"LiquePhi","province":"Pangasinan","otherinfo":null,"datemapped":2024,"publishdate":null,"globalid":"{5ACB73C5-6107-4512-9787-F18573022798}","st_area(shape)":0.06533832536059311,"st_perimeter(shape)":23.271340040578984,"liqcodepk":null,"creator":null,"createdate":null,"editor":null,"modifydate":null,"codemove":null},"geometry":{"type":"Polygon","coordinates":[[[120.38249934500003,15.800919538000072],[120.3817387700001,15.80311503300004],[120.38040776300011,15.805127549000074],[120.37955211600003,15.807231523000038],[120.379076757,15.809426949000056],[120.37851683500003,15.810884969000025],[120.37724262000006,15.812823311000045],[120.37694286900012,15.814196797000024],[120.37734454100006,15.817071368000025],[120.37727712700007,15.81796107900004],[120.37660079900003,15.819923986000047],[120.3759281460001,15.821223492000055],[120.37598042700004,15.822788640000057],[120.37724665500002,15.826712130000033],[120.37708169500003,15.829277559000047],[120.37905835800007,15.831882361000055],[120.37940691600012,15.833258050000037],[120.37941823300004,15.836175729000043],[120.37876843800007,15.838418551000077],[120.3776846190001,15.84116240700007],[120.37682406600005,15.842838131000061],[120.37490434900008,15.845400875000053],[120.37414794500013,15.847034135000062],[120.37340638400008,15.849613251000049],[120.37352047000003,15.85147897400003],[120.37306412500004,15.853509300000042],[120.37169217400002,15.855764706000059],[120.37112465800011,15.857021167000024],[120.37113067500002,15.857951141000056],[120.37249369400001,15.860148873000067],[120.37277890900009,15.86141091500002],[120.37266482300004,15.863496012000038],[120.37203734900004,15.86640413700007],[120.3725507370001,15.868434313000023],[120.37426203100006,15.870299862000024],[120.37494654800004,15.872055657000029],[120.37555144518738,15.872846954036312],[120.37848525526026,15.871192988549865],[120.38219674686678,15.86859779195398],[120.3856274560848,15.865662913781444],[120.38874433518987,15.862416631876812],[120.39151736456132,15.858890224000744],[120.39391984187424,15.85511766605635],[120.39592863911888,15.851135304317507],[120.39752442497796,15.846981504837597],[120.39869185043499,15.842696283436474],[120.39941969584758,15.838320919849329],[120.39970097809909,15.833897559771483],[120.39953301683107,15.829468808647208],[120.3989174591586,15.825077321126704],[120.39786026267232,15.820765390153506],[120.39637163693465,15.816574539644082],[120.39446594407686,15.812545124682657],[120.39216155949534,15.808715943077809],[120.38948069402623,15.805123862013817],[120.38644917934371,15.801803463381088],[120.38375611747746,15.799380450661506],[120.38249934500003,15.800919538000072]]]}},{"type":"Feature","properties":{"fid":180,"objectid":9619,"lccode":"07","liqcode":null,"mappers":"DJLBuhay, MITAbigania","project":"EHM","province":"Tarlac","otherinfo":"merged into one feature in 2024","datemapped":2021,"publishdate":null,"globalid":"{86B5AD80-4B79-45B5-89D4-1FDEF062B016}","st_area(shape)":0.06253734240529021,"st_perimeter(shape)":3.2108098594058267,"liqcodepk":null,"creator":null,"createdate":null,"editor":null,"modifydate":null,"codemove":null},"geometry":{"type":"Polygon","coordinates":[]}}]}