{"type":"FeatureCollection","features":[{"type":"Feature","properties":{"fid":171,"objectid":9613,"lccode":"01","liqcode":"2010600010000000","mappers":"DJLBuhay, MJVReyes, MITAbigania, KLPapiona, KMVitto","project":"MELP","province":"Nueva Ecija","otherinfo":"hazard boundary with Pangasinan updated on 2024","datemapped":2018,"publishdate":null,"globalid":"{142EC992-C228-490B-8C06-5B4A68BA1242}","st_area(shape)":0.21874224791512728,"st_perimeter(shape)":7.9099228422392365,"liqcodepk":"201060001000000000019","creator":"SNOOPYPC","createdate":"2019-02-19T15:21:28","editor":"LENOVO","modifydate":"2019-03-10T17:53:06","codemove":"na"},"geometry":{"type":"Polygon","coordinates":[]}},{"type":"Feature","properties":{"fid":174,"objectid":9616,"lccode":"07","liqcode":null,"mappers":"DJLBuhay, MITAbigania","project":"LiquePhi","province":"Pangasinan","otherinfo":null,"datemapped":2024,"publishdate":null,"globalid":"{4C1C6B5C-6BC5-4098-AF34-1358D72BE295}","st_area(shape)":0.0990952810399136,"st_perimeter(shape)":16.14272038398808,"liqcodepk":null,"creator":null,"createdate":null,"editor":null,"modifydate":null,"codemove":null},"geometry":{"type":"MultiPolygon","coordinates":[[[[120.78319617900003,16.040362748000064],[120.79139798200005,16.041916549000067],[120.79218554300007,16.042796843000076],[120.79241371600006,16.044368390000038],[120.7921747900001,16.047082902000056],[120.79326877200005,16.047408753000074],[120.79383495400009,16.04428773500007],[120.79388690700011,16.043192221000027],[120.79431959000009,16.042327204000056],[120.7971629660001,16.040271017000062],[120.79851511600009,16.03846291100006],[120.79885102900005,16.035716486000073],[120.7971772530001,16.03392346100003],[120.79694931300003,16.032913835000045],[120.79824205900002,16.03264422900002],[120.80363219900006,16.034445508000026],[120.80579076700009,16.035358019000054],[120.80898518200001,16.037185466000043],[120.81160916600004,16.04063929600005],[120.81230319100008,16.041708326000045],[120.81484161100002,16.044814877000025],[120.81792194000002,16.04700770800003],[120.81918639600008,16.048533538000076],[120.8216107290001,16.050698918000016],[120.82502381000006,16.053184051000073],[120.82620270200006,16.05444487800002],[120.82793301000002,16.055130107000025],[120.82857949900007,16.055660016000044],[120.83082719700008,16.05653466700005],[120.83396627700006,16.05795341800006],[120.83483522900009,16.05784359100005],[120.83313344300007,16.056527967000022],[120.83164081400004,16.056253878000064],[120.82980592600006,16.055267153000045],[120.82834181900013,16.053522100000063],[120.82555621300001,16.051146610000046],[120.82372132500007,16.048807638000028],[120.82211461000009,16.046030074000043],[120.82076459000008,16.045417908000044],[120.81701875700003,16.042503242000066],[120.8144993520001,16.04009107300004],[120.81075351900006,16.03499252800003],[120.81034471000008,16.034279817000026],[120.80832918600004,16.03259854200007],[120.806884093,16.03111827700008],[120.80581928800007,16.030451241000033],[120.80427912400012,16.029939540000044],[120.80238719300007,16.02975678900003],[120.8003423780001,16.029785215000057],[120.79855721300011,16.02911327100003],[120.79785142326452,16.029017021920136],[120.79452857998031,16.03049532881474],[120.7905721621464,16.03273366547493],[120.78686156630644,16.035336180591404],[120.78343251461668,16.03827782275874],[120.78196701058583,16.03980826449427],[120.78319617900003,16.040362748000064]]],[[[120.77620079000008,16.050698316000027],[120.77775460200006,16.051092255000068],[120.77988506500003,16.051987217000033],[120.78165038600004,16.053396821000035],[120.784292853,16.053613915000028],[120.78545055500001,16.05423449100004],[120.78733021900007,16.055967160000026],[120.787186141,16.058472508000023],[120.78770923800006,16.060283790000028],[120.78889656700005,16.062364326000022],[120.79016527600004,16.065326989000024],[120.79085896500008,16.06608704600006],[120.79235277400005,16.066869748000048],[120.7929951540001,16.06848611000004],[120.79455224800006,16.069101805000056],[120.7952406620001,16.070145069000027],[120.7957289420001,16.071719027000032],[120.79624766500001,16.071481292000044],[120.79627971900004,16.070387925000027],[120.79533712800003,16.068756484000062],[120.79371650200005,16.067773011000043],[120.7925323060001,16.06609027300004],[120.791411562,16.065334922000034],[120.78976465600012,16.060525823000038],[120.78945567300003,16.058196098000053],[120.79004987200007,16.056894180000025],[120.79114319900009,16.056003390000054],[120.79071537500012,16.055044073000037],[120.78997856800005,16.055455210000048],[120.78909915300007,16.05527248200008],[120.78743539500012,16.053536566000044],[120.78546265300008,16.051846316000027],[120.78255466400005,16.050889212000072],[120.7774564340001,16.047931227000046],[120.7759895540626,16.047516613250778],[120.77514938015157,16.048839689428164],[120.77483883847744,16.049457358178376],[120.77620079000008,16.050698316000027]]],[[[120.78311842200002,16.09995241100006],[120.78321065800003,16.098047492000035],[120.78254342900006,16.096424512000056],[120.78243390400007,16.094215980000055],[120.7820789430001,16.09303594100004],[120.78072261000011,16.09220636400005],[120.77976416100012,16.09090881000003],[120.77825537000002,16.087971997000068],[120.77625261400011,16.08634376500004],[120.77458459900005,16.08395738300004],[120.77348784100002,16.083322356000053],[120.77136753600008,16.082925324000033],[120.77116673115715,16.082820463133174],[120.77126216614151,16.08320643563257],[120.77276013665903,16.08739593790084],[120.77455621222695,16.091172109221375],[120.77478706500004,16.09133879700005],[120.77747854300004,16.091995278000066],[120.77919938100003,16.09333564600007],[120.78019020700005,16.09467270800008],[120.78168532200006,16.09740242600003],[120.78166081500001,16.09948460800007],[120.78253640900004,16.10169624800005],[120.78263167756565,16.102053404100804],[120.78272457112773,16.102154652091954],[120.78527229785607,16.104435600367648],[120.78311842200002,16.09995241100006]]]]}},{"type":"Feature","properties":{"fid":175,"objectid":9617,"lccode":"06","liqcode":null,"mappers":"DJLBuhay, MITAbigania","project":"LiquePhi","province":"Pangasinan","otherinfo":null,"datemapped":2024,"publishdate":null,"globalid":"{66023685-1332-44EF-8443-E51FD3597412}","st_area(shape)":0.04411879143836554,"st_perimeter(shape)":22.502158641584156,"liqcodepk":null,"creator":null,"createdate":null,"editor":null,"modifydate":null,"codemove":null},"geometry":{"type":"MultiPolygon","coordinates":[[[[120.79177807500002,16.054781831000078],[120.78932997400013,16.05395955500006],[120.78773752000005,16.052406357000052],[120.78659665700002,16.050944512000058],[120.78426739600002,16.049870963000046],[120.78134393500011,16.048180682000062],[120.77987032100009,16.04701575100006],[120.77782627500004,16.046216284000025],[120.77693599929833,16.046026156602906],[120.7759895540626,16.047516613250778],[120.7774564340001,16.047931227000046],[120.78255466400005,16.050889212000072],[120.78546265300008,16.051846316000027],[120.78743539500012,16.053536566000044],[120.78909915300007,16.05527248200008],[120.78997856800005,16.055455210000048],[120.79071537500012,16.055044073000037],[120.79114319900009,16.056003390000054],[120.79004987200007,16.056894180000025],[120.78945567300003,16.058196098000053],[120.78976465600012,16.060525823000038],[120.791411562,16.065334922000034],[120.7925323060001,16.06609027300004],[120.79371650200005,16.067773011000043],[120.79533712800003,16.068756484000062],[120.79627971900004,16.070387925000027],[120.79624766500001,16.071481292000044],[120.7957289420001,16.071719027000032],[120.7952406620001,16.070145069000027],[120.79455224800006,16.069101805000056],[120.7929951540001,16.06848611000004],[120.79235277400005,16.066869748000048],[120.79085896500008,16.06608704600006],[120.79016527600004,16.065326989000024],[120.78889656700005,16.062364326000022],[120.78770923800006,16.060283790000028],[120.787186141,16.058472508000023],[120.78733021900007,16.055967160000026],[120.78545055500001,16.05423449100004],[120.784292853,16.053613915000028],[120.78165038600004,16.053396821000035],[120.77988506500003,16.051987217000033],[120.77775460200006,16.051092255000068],[120.77620079000008,16.050698316000027],[120.77483883847744,16.049457358178376],[120.77396114907418,16.05120305959627],[120.77523366900006,16.051692222000046],[120.77646960300001,16.052902809000045],[120.77801452200003,16.05349667900003],[120.77920292000012,16.05367940700006],[120.77974958400011,16.05447884400007],[120.78257797200001,16.05644316100006],[120.7843130340001,16.058453139000047],[120.78478839400009,16.058064849000065],[120.78433680200011,16.05696849800006],[120.78236406100007,16.054958505000055],[120.78260174000002,16.054593049000054],[120.78414665900004,16.05516407300007],[120.785382593,16.05676293100003],[120.78585795300013,16.05920687500003],[120.78661852800008,16.06130818700007],[120.78749794300006,16.06254155500005],[120.789137933,16.065396544000063],[120.79122951500007,16.06722371500007],[120.7918237140001,16.068662601000025],[120.79348747200002,16.069804567000062],[120.79415297500007,16.071723054000074],[120.79481847800002,16.07293351800007],[120.7965297720001,16.074874814000058],[120.79718767000008,16.07402064600006],[120.7961323720001,16.072723400000022],[120.7967412800001,16.071020026000042],[120.79675984600009,16.070695295000064],[120.79580912800009,16.068639762000032],[120.79373656000007,16.066995320000043],[120.79199198700009,16.064626045000068],[120.79146909100007,16.062913050000077],[120.79035199700002,16.058482034000065],[120.79080358800002,16.05724864100006],[120.79234850600005,16.056038081000057],[120.79177807500002,16.054781831000078]]],[[[120.78293414100006,16.041827936000058],[120.78438993000009,16.042170572000032],[120.7859051380001,16.041970701000025],[120.78851961500003,16.04202780700007],[120.79036163300009,16.042570314000045],[120.79137177200005,16.043626771000046],[120.79132357300011,16.04634943900004],[120.79145538400007,16.047871958000027],[120.79226891200007,16.049523149000034],[120.79376109700003,16.049156711000027],[120.79416904200002,16.04835728000006],[120.7948851210001,16.04554086800004],[120.79640187700011,16.043005907000065],[120.79912473900004,16.039555973000063],[120.80051533400001,16.03644504200002],[120.8016799710001,16.035716153000063],[120.80363845200007,16.03613646700006],[120.80630878700003,16.037441092000048],[120.80786080300004,16.038687074000045],[120.80964870700008,16.040649355000028],[120.81035045300007,16.04296904200004],[120.8122459120001,16.044229880000046],[120.81395134600007,16.046739003000027],[120.8149317750001,16.047338601000035],[120.81691967900008,16.04799894600006],[120.81864587300005,16.050088398000067],[120.82185419700012,16.051735603000054],[120.8246471770001,16.054118186000036],[120.82755776800002,16.055689433000055],[120.82856902500008,16.056410656000022],[120.82985360500004,16.056963341000028],[120.83126542300012,16.057223725000025],[120.83486332600012,16.05908812800004],[120.83708126200007,16.06012228900005],[120.83843507400002,16.062128232000077],[120.83800883500011,16.05977302100007],[120.83922694400009,16.058887954000053],[120.83827325400011,16.058525360000033],[120.836781814,16.05881657700007],[120.83460897200007,16.057073243000048],[120.83127639400004,16.054424677000036],[120.82903128700002,16.053463530000045],[120.82785886800004,16.052450231000016],[120.82574827200007,16.050093001000047],[120.82439346600007,16.047824863000073],[120.82249681300004,16.045104354000046],[120.82084256200005,16.04408102700006],[120.81580375200008,16.039987663000037],[120.81471978900005,16.03852809400007],[120.81438808000007,16.03667774000007],[120.81359808400009,16.034541898000043],[120.81288476400005,16.03342974500004],[120.81120980000003,16.03175305800005],[120.80992830900003,16.030028013000045],[120.8080862830001,16.028372143000063],[120.80522433700004,16.026998196000022],[120.80455937171759,16.02683850959514],[120.80302454715587,16.027193662101656],[120.79869273526486,16.0286427165599],[120.79785142326452,16.029017021920136],[120.79855721300011,16.02911327100003],[120.8003423780001,16.029785215000057],[120.80238719300007,16.02975678900003],[120.80427912400012,16.029939540000044],[120.80581928800007,16.030451241000033],[120.806884093,16.03111827700008],[120.80832918600004,16.03259854200007],[120.81034471000008,16.034279817000026],[120.81075351900006,16.03499252800003],[120.8144993520001,16.04009107300004],[120.81701875700003,16.042503242000066],[120.82076459000008,16.045417908000044],[120.82211461000009,16.046030074000043],[120.82372132500007,16.048807638000028],[120.82555621300001,16.051146610000046],[120.82834181900013,16.053522100000063],[120.82980592600006,16.055267153000045],[120.83164081400004,16.056253878000064],[120.83313344300007,16.056527967000022],[120.83483522900009,16.05784359100005],[120.83396627700006,16.05795341800006],[120.83082719700008,16.05653466700005],[120.82857949900007,16.055660016000044],[120.82793301000002,16.055130107000025],[120.82620270200006,16.05444487800002],[120.82502381000006,16.053184051000073],[120.8216107290001,16.050698918000016],[120.81918639600008,16.048533538000076],[120.81792194000002,16.04700770800003],[120.81484161100002,16.044814877000025],[120.81230319100008,16.041708326000045],[120.81160916600004,16.04063929600005],[120.80898518200001,16.037185466000043],[120.80579076700009,16.035358019000054],[120.80363219900006,16.034445508000026],[120.79824205900002,16.03264422900002],[120.79694931300003,16.032913835000045],[120.7971772530001,16.03392346100003],[120.79885102900005,16.035716486000073],[120.79851511600009,16.03846291100006],[120.7971629660001,16.040271017000062],[120.79431959000009,16.042327204000056],[120.79388690700011,16.043192221000027],[120.79383495400009,16.04428773500007],[120.79326877200005,16.047408753000074],[120.7921747900001,16.047082902000056],[120.79241371600006,16.044368390000038],[120.79218554300007,16.042796843000076],[120.79139798200005,16.041916549000067],[120.78319617900003,16.040362748000064],[120.78196701058583,16.03980826449427],[120.78125316836,16.04055372438066],[120.78293414100006,16.041827936000058]]],[[[120.77136753600008,16.082925324000033],[120.77348784100002,16.083322356000053],[120.77458459900005,16.08395738300004],[120.77625261400011,16.08634376500004],[120.77825537000002,16.087971997000068],[120.77976416100012,16.09090881000003],[120.78072261000011,16.09220636400005],[120.7820789430001,16.09303594100004],[120.78243390400007,16.094215980000055],[120.78254342900006,16.096424512000056],[120.78321065800003,16.098047492000035],[120.78311842200002,16.09995241100006],[120.78527229785607,16.104435600367648],[120.78575811873628,16.104870541141935],[120.785779595,16.103371240000058],[120.7853704810001,16.101975383000024],[120.78445731300008,16.100397463000032],[120.7841725080001,16.098289928000042],[120.78356007000001,16.09606704600003],[120.7835235780001,16.094603084000028],[120.78305324900008,16.09324014100002],[120.78127834500005,16.09149061300008],[120.78010335000012,16.08883232800002],[120.77891880200004,16.087123700000067],[120.77712845700012,16.085838437000064],[120.77583608700002,16.083941819000078],[120.77386796100006,16.082519224000063],[120.77229927500002,16.081605710000076],[120.77125348400011,16.08009840400007],[120.77040084256372,16.07972290096513],[120.77116673115715,16.082820463133174],[120.77136753600008,16.082925324000033]]],[[[120.78168532200006,16.09740242600003],[120.78019020700005,16.09467270800008],[120.77919938100003,16.09333564600007],[120.77747854300004,16.091995278000066],[120.77478706500004,16.09133879700005],[120.77455621222695,16.091172109221375],[120.77467569069654,16.09142330276447],[120.77514216946611,16.092194447514807],[120.77570032900007,16.092111941000045],[120.77729753700008,16.09239968300005],[120.77813892300003,16.093345118000055],[120.77842413900011,16.094290548000064],[120.77932256800011,16.095441501000035],[120.78072012500002,16.096249904000047],[120.78168532200006,16.09740242600003]]]]}},{"type":"Feature","properties":{"fid":176,"objectid":9618,"lccode":"05","liqcode":null,"mappers":"DJLBuhay, MITAbigania","project":"LiquePhi","province":"Pangasinan","otherinfo":null,"datemapped":2024,"publishdate":null,"globalid":"{5ACB73C5-6107-4512-9787-F18573022798}","st_area(shape)":0.06533832536059311,"st_perimeter(shape)":23.271340040578984,"liqcodepk":null,"creator":null,"createdate":null,"editor":null,"modifydate":null,"codemove":null},"geometry":{"type":"MultiPolygon","coordinates":[[[[120.80522433700004,16.026998196000022],[120.8080862830001,16.028372143000063],[120.80992830900003,16.030028013000045],[120.81120980000003,16.03175305800005],[120.81288476400005,16.03342974500004],[120.81359808400009,16.034541898000043],[120.81438808000007,16.03667774000007],[120.81471978900005,16.03852809400007],[120.81580375200008,16.039987663000037],[120.82084256200005,16.04408102700006],[120.82249681300004,16.045104354000046],[120.82439346600007,16.047824863000073],[120.82574827200007,16.050093001000047],[120.82785886800004,16.052450231000016],[120.82903128700002,16.053463530000045],[120.83127639400004,16.054424677000036],[120.83460897200007,16.057073243000048],[120.83343784500003,16.054937702000075],[120.83265825500007,16.054151972000053],[120.83113710500004,16.053220055000054],[120.82953989700003,16.05130139000004],[120.82933073900006,16.050278094000078],[120.82621238100012,16.04810357300005],[120.82436798700006,16.04439404000004],[120.8233412100001,16.042712851000033],[120.82280880800009,16.04037378000004],[120.82180104500003,16.039533170000023],[120.82220034700003,16.038802202000053],[120.82218133300012,16.037742293000065],[120.82062215400005,16.037029592000067],[120.82018482300008,16.035585909000076],[120.82024186600006,16.034690455000028],[120.82086934100006,16.033557426000073],[120.82524264800008,16.032022343000047],[120.82567997900003,16.031382722000046],[120.82537574900005,16.029737973000064],[120.8265166110001,16.029281095000044],[120.82664103700007,16.02811245400005],[120.82626074900008,16.026559054000074],[120.82626502464979,16.02648919411269],[120.82570556750292,16.026347622991153],[120.82117884171552,16.025651204967673],[120.81660336147665,16.02538715345089],[120.81202316214427,16.025558006074327],[120.80748232365559,16.02616211484243],[120.80455937171759,16.02683850959514],[120.80522433700004,16.026998196000022]]],[[[120.81007169000009,16.067826737000072],[120.81022618100008,16.068591858000048],[120.81145023200008,16.06964246700005],[120.81206819900001,16.069585368000048],[120.81369630500001,16.068591858000044],[120.81471832800004,16.068603277000022],[120.8164533900001,16.068112230000054],[120.81679802600001,16.06711871200002],[120.81585919100007,16.06578259400004],[120.81608498700007,16.06477764400006],[120.81690498200008,16.064583506000076],[120.81823598800008,16.06361281000005],[120.8187113480001,16.064092449000043],[120.82000670200011,16.063841210000078],[120.82139712900006,16.06490326300007],[120.82291827900009,16.064149548000046],[120.82228842800009,16.06293903000005],[120.82235973100002,16.061123240000033],[120.82325103000005,16.060552233000067],[120.82428493700002,16.058176827000064],[120.82365508600003,16.057297463000054],[120.82127828900002,16.057868479000028],[120.81991163000009,16.05993554400004],[120.81896091100009,16.060769216000036],[120.81724961700003,16.061545784000028],[120.81593049500009,16.061305961000077],[120.81465890800008,16.06138590200004],[120.81358935000003,16.060997618000044],[120.81388644900007,16.060106846000053],[120.81493224000008,16.06052939200003],[120.81634643400001,16.060243888000056],[120.81752294900002,16.060460871000032],[120.8187113480001,16.059707140000057],[120.82033945400006,16.057228941000066],[120.82120698500013,16.057206100000023],[120.82423740100012,16.056600821000067],[120.82539014800012,16.056874910000033],[120.82712521000009,16.055904176000073],[120.82856902500008,16.056410656000022],[120.82755776800002,16.055689433000055],[120.8246471770001,16.054118186000036],[120.82185419700012,16.051735603000054],[120.81864587300005,16.050088398000067],[120.81691967900008,16.04799894600006],[120.8149317750001,16.047338601000035],[120.81395134600007,16.046739003000027],[120.8122459120001,16.044229880000046],[120.81035045300007,16.04296904200004],[120.80964870700008,16.040649355000028],[120.80786080300004,16.038687074000045],[120.80630878700003,16.037441092000048],[120.80363845200007,16.03613646700006],[120.8016799710001,16.035716153000063],[120.80051533400001,16.03644504200002],[120.79912473900004,16.039555973000063],[120.79640187700011,16.043005907000065],[120.7948851210001,16.04554086800004],[120.79416904200002,16.04835728000006],[120.79376109700003,16.049156711000027],[120.79226891200007,16.049523149000034],[120.79145538400007,16.047871958000027],[120.79132357300011,16.04634943900004],[120.79137177200005,16.043626771000046],[120.79036163300009,16.042570314000045],[120.78851961500003,16.04202780700007],[120.7859051380001,16.041970701000025],[120.78438993000009,16.042170572000032],[120.78293414100006,16.041827936000058],[120.78125316836,16.04055372438066],[120.78031802332033,16.041530275907412],[120.77754808507068,16.045062231485495],[120.77693599929833,16.046026156602906],[120.77782627500004,16.046216284000025],[120.77987032100009,16.04701575100006],[120.78134393500011,16.048180682000062],[120.78426739600002,16.049870963000046],[120.78659665700002,16.050944512000058],[120.78773752000005,16.052406357000052],[120.78932997400013,16.05395955500006],[120.79177807500002,16.054781831000078],[120.79234850600005,16.056038081000057],[120.79080358800002,16.05724864100006],[120.79035199700002,16.058482034000065],[120.79146909100007,16.062913050000077],[120.79199198700009,16.064626045000068],[120.79373656000007,16.066995320000043],[120.79580912800009,16.068639762000032],[120.79675984600009,16.070695295000064],[120.79819373400007,16.069873452000024],[120.79859175900003,16.068751733000056],[120.79972073700004,16.068329205000055],[120.80077841200011,16.06756408300004],[120.80298883400009,16.068032292000055],[120.80443868000008,16.067449885000027],[120.80550823900012,16.067986613000073],[120.80680359300004,16.06725574900003],[120.80802764400006,16.066935996000044],[120.80869314700011,16.066387845000065],[120.81007169000009,16.067826737000072]]],[[[120.78749794300006,16.06254155500005],[120.78661852800008,16.06130818700007],[120.78585795300013,16.05920687500003],[120.785382593,16.05676293100003],[120.78414665900004,16.05516407300007],[120.78260174000002,16.054593049000054],[120.78236406100007,16.054958505000055],[120.78433680200011,16.05696849800006],[120.78478839400009,16.058064849000065],[120.7843130340001,16.058453139000047],[120.78257797200001,16.05644316100006],[120.77974958400011,16.05447884400007],[120.77920292000012,16.05367940700006],[120.77801452200003,16.05349667900003],[120.77646960300001,16.052902809000045],[120.77523366900006,16.051692222000046],[120.77396114907418,16.05120305959627],[120.77314501937343,16.052826285037458],[120.77155432112622,16.056983638645455],[120.7703926247507,16.06127172471464],[120.76967114204713,16.065649256840732],[120.76939684838028,16.07007408496812],[120.7695724144646,16.074503601008026],[120.77019617952595,16.0788951489653],[120.77040084256372,16.07972290096513],[120.77125348400011,16.08009840400007],[120.77229927500002,16.081605710000076],[120.77386796100006,16.082519224000063],[120.77583608700002,16.083941819000078],[120.77712845700012,16.085838437000064],[120.77891880200004,16.087123700000067],[120.78010335000012,16.08883232800002],[120.78127834500005,16.09149061300008],[120.78305324900008,16.09324014100002],[120.7835235780001,16.094603084000028],[120.78356007000001,16.09606704600003],[120.7841725080001,16.098289928000042],[120.78445731300008,16.100397463000032],[120.7853704810001,16.101975383000024],[120.78583576900007,16.100248469000064],[120.78641570800006,16.099280231000026],[120.78636817200002,16.097535564000054],[120.78606394200007,16.096338951000064],[120.78655831600008,16.094365894000077],[120.78850728900011,16.09252983700003],[120.78781326500007,16.09132405900004],[120.78887807000002,16.09050193400003],[120.79366018600003,16.09010914000004],[120.7950672500001,16.09063895500003],[120.79660741400004,16.091753390000058],[120.79970992700011,16.09348136100004],[120.80037543000003,16.09473279900005],[120.80058458900008,16.096788062000027],[120.80182052300007,16.097537086000045],[120.80139270000006,16.09608470800004],[120.80144974300003,16.095253468000067],[120.80210573900001,16.093307804000066],[120.80014725800004,16.091599623000036],[120.80017577900003,16.09066788200005],[120.79955781200012,16.09016547100003],[120.79825532700012,16.08992796700005],[120.79681023500007,16.089206318000038],[120.79663910500004,16.087945711000028],[120.795070419,16.086895199000026],[120.79413871400004,16.08489464300004],[120.79426230800006,16.08383498000006],[120.79510844800006,16.082738771000038],[120.79750425900012,16.08386238500003],[120.79940569700011,16.083588333000023],[120.79781799700004,16.082336826000073],[120.79694333500002,16.07981551600005],[120.79729510100002,16.078006731000073],[120.79705742100009,16.07675518800005],[120.79735214400013,16.07501032300007],[120.79785602500012,16.073886659000035],[120.79730460800012,16.073274579000042],[120.7967412800001,16.071020026000042],[120.7961323720001,16.072723400000022],[120.79718767000008,16.07402064600006],[120.7965297720001,16.074874814000058],[120.79481847800002,16.07293351800007],[120.79415297500007,16.071723054000074],[120.79348747200002,16.069804567000062],[120.7918237140001,16.068662601000025],[120.79122951500007,16.06722371500007],[120.789137933,16.065396544000063],[120.78749794300006,16.06254155500005]]]]}}]}