{"type":"FeatureCollection","features":[{"type":"Feature","properties":{"fid":34,"objectid":1880,"lccode":"07","liqcode":"2010600070000000","mappers":"PJDelosReyes, ACPidlaoan","project":"READY","province":"Northern Samar","otherinfo":null,"datemapped":2009,"publishdate":null,"globalid":"{0D9D6C7A-090D-4A5B-A004-F6233C7DF3DA}","st_area(shape)":0.03290017476223487,"st_perimeter(shape)":11.85341888630265,"liqcodepk":"201060007000000000074","creator":"SNOOPYPC","createdate":"2019-02-19T15:21:28","editor":"LENOVO","modifydate":"2019-03-10T17:50:55","codemove":"na"},"geometry":{"type":"MultiPolygon","coordinates":[[[[125.27812790700011,12.30380327700004],[125.27679547000002,12.305212045000076],[125.27592306600003,12.306503682000027],[125.27715995700011,12.307381030000045],[125.278583334,12.307614724000075],[125.27990359600007,12.309246839000023],[125.28155765900011,12.309497472000032],[125.28182496800001,12.311535079000066],[125.2797322040001,12.31387572500006],[125.27958447300011,12.314556905000074],[125.2776154190001,12.315649907000022],[125.27540524300002,12.315517187000069],[125.2748225460001,12.31699532600004],[125.2775712770001,12.317217879000056],[125.27897292800003,12.317149533000077],[125.2797282780001,12.317860938000026],[125.2782170710001,12.318591268000036],[125.27742189600009,12.319938917000059],[125.27741103700009,12.320902282000077],[125.27681751300008,12.321133914000027],[125.27619509200008,12.322461148000057],[125.27560277900011,12.322824945000034],[125.27210823200005,12.32300521600007],[125.2700691340001,12.322663330000063],[125.26951921600005,12.32349891600006],[125.27001082000002,12.324816964000034],[125.27165826200009,12.326522009000028],[125.27396275900003,12.326446161000035],[125.27469692600006,12.326931075000061],[125.27434059300002,12.327935087000071],[125.27267350900001,12.328421135000044],[125.271246624,12.33001960100006],[125.27025179300006,12.330500037000036],[125.26722713700008,12.329486390000055],[125.26374033700007,12.330573049000062],[125.26176631400006,12.333264704000042],[125.26134211500006,12.335287125000034],[125.26192039600005,12.33578158700004],[125.26343861000008,12.335161220000032],[125.26593889200001,12.333208376000071],[125.26822090000009,12.336684474000037],[125.26948144500011,12.336912768000046],[125.26972014700006,12.336433207000026],[125.26915063400008,12.334397283000044],[125.26927544200008,12.33350623600006],[125.27208312100004,12.333916969000029],[125.27275274100009,12.332196426000053],[125.27542336200008,12.332087330000036],[125.27638413700005,12.333403520000047],[125.278328202,12.333324219000078],[125.27903960000002,12.33239981300005],[125.28012953800011,12.333024118000026],[125.28065911700004,12.334666701000064],[125.27959008900007,12.33698625000005],[125.27973115100009,12.33814439400004],[125.28095195000004,12.33916475900003],[125.2827963520001,12.34034089100004],[125.28244220700005,12.34105235100003],[125.27948567400006,12.343846666000047],[125.27771438600007,12.347339455000055],[125.27637671700006,12.347962555000034],[125.27483898100002,12.348168655000054],[125.27422642200008,12.349300935000029],[125.27453062500001,12.35039330400002],[125.27641571000005,12.352470787000073],[125.27827477700008,12.35532147200007],[125.27903398700005,12.35599135800004],[125.27907880200009,12.357375810000065],[125.27821629900006,12.358152420000069],[125.27797376100011,12.35915991500008],[125.27699990300005,12.361424555000038],[125.27610475300001,12.364867286000047],[125.27629179200005,12.366684302000063],[125.27592610600004,12.367967209000028],[125.27477391700006,12.369425013000065],[125.27113382800007,12.372385473000064],[125.27007622500004,12.372899525000035],[125.26624410000011,12.37347032900004],[125.2612303750001,12.372097609000038],[125.25978408900004,12.371233990000063],[125.25888501800011,12.370264716000065],[125.25735713600011,12.367886181000072],[125.25641573300004,12.365974291000041],[125.25549370600005,12.366318755000067],[125.25543270100003,12.367194909000034],[125.255658089,12.370687049000026],[125.25505261,12.371422350000046],[125.25417782400007,12.371329410000044],[125.25388817500004,12.372591528000042],[125.25294953000002,12.373104984000065],[125.25122110600012,12.372292351000057],[125.24935874500011,12.37198396100007],[125.24813926600005,12.372234193000054],[125.2475022430001,12.372749927000031],[125.2465996970001,12.374348596000058],[125.24349140100004,12.375154878000046],[125.24293805200011,12.374739145000033],[125.24271200000001,12.373299866000025],[125.24200010800007,12.372194817000038],[125.24171374200013,12.370846110000059],[125.24063922900007,12.370194521000029],[125.24004723599998,12.368818244000066],[125.2403719030001,12.367494585000033],[125.23910295600001,12.365523424000061],[125.2391754140001,12.363271072000032],[125.23866887500003,12.361173555000052],[125.23704705400007,12.360796588000024],[125.23546343700002,12.361319984000032],[125.2351351750001,12.362223457000027],[125.235121219,12.364175104000024],[125.23657825600003,12.366715114000042],[125.23620372000005,12.36936034900003],[125.23751369900003,12.372562094000044],[125.23837362600011,12.373125475000052],[125.23897158600005,12.375192150000032],[125.23947374700003,12.376779318000047],[125.24030245300004,12.377252870000062],[125.24204572400004,12.377538720000075],[125.2429968030001,12.378041248000045],[125.24687077800002,12.377468871000078],[125.2479329240001,12.376679391000037],[125.24884909100003,12.376671811000048],[125.25129039600006,12.37734302800004],[125.25227723700004,12.377064440000025],[125.25336576900007,12.375916043000073],[125.25634182400007,12.375392091000037],[125.25833324300004,12.375896493000026],[125.260116121,12.377834979000053],[125.2601226590001,12.378594564000027],[125.25932173700005,12.380446025000024],[125.25879638900005,12.380971335000027],[125.25764745849385,12.38301271854309],[125.25896663171577,12.382809139244184],[125.26333255456491,12.381695402812834],[125.26756634619018,12.380166301761259],[125.27162721837631,12.378236572140693],[125.27547605192153,12.37592480920421],[125.27907577379254,12.37325328790151],[125.28239171441348,12.370247747916677],[125.28539194163875,12.36693714533639],[125.28804756819,12.363353373357661],[125.29033302959996,12.359530954741427],[125.29036624452907,12.35946035671766],[125.28924738800004,12.358626767000032],[125.28766833300007,12.356805666000069],[125.28620024600004,12.354223541000065],[125.28665136800011,12.351972310000061],[125.28704810900003,12.351208808000022],[125.28699773500011,12.349275740000053],[125.28795894800011,12.347697727000023],[125.28972699000009,12.347109920000037],[125.29125121000004,12.347741494000047],[125.29193663600006,12.347019847000068],[125.29269788400006,12.345357963000025],[125.29270175600004,12.344363],[125.29133467200006,12.342477657000074],[125.29015195600003,12.34135967700007],[125.28818076900005,12.340342078000047],[125.28751497200007,12.339157904000045],[125.28716114500003,12.337128182000072],[125.28746199600005,12.334993946000056],[125.28845149000007,12.333608829000067],[125.28910128400003,12.332154351000044],[125.29038397700005,12.330315806000046],[125.29172094500007,12.329687800000046],[125.293350324,12.32926797300007],[125.294647429835,12.329590383691018],[125.29461401476823,12.329381242588743],[125.29348092675203,12.325089632082008],[125.2920533543674,12.32126990670762],[125.29205140200008,12.321270743000069],[125.29138213600005,12.323826191000023],[125.28982203800003,12.325558027000053],[125.28820146600005,12.326969275000069],[125.28674766400003,12.32989006400004],[125.28639449000003,12.331252913000071],[125.28569389200003,12.33187727100005],[125.28397955000004,12.331879791000063],[125.28376284800004,12.331256083000026],[125.28080479500012,12.329070970000032],[125.28090633800002,12.327483641000068],[125.28187681800013,12.326417840000031],[125.28177824400007,12.323906677000027],[125.28125045400009,12.322853407000025],[125.2810455250001,12.321362960000044],[125.28146023700005,12.320452959000022],[125.28301214800001,12.319986624000023],[125.28425265200008,12.31684096200007],[125.28393529200001,12.31346286300004],[125.28479614200012,12.310830292000047],[125.28532805214654,12.31017814337164],[125.28489478737107,12.309613810880176],[125.2818383096384,12.306353937240342],[125.27847167454425,12.303404291726615],[125.2783396255751,12.303309686904587],[125.27812790700011,12.30380327700004]],[[125.27719368800003,12.329101145000037],[125.27737674900004,12.328060813000034],[125.27857239900004,12.328598598000042],[125.27864557500004,12.330392266000047],[125.27807650400008,12.331228117000023],[125.27719368800003,12.329101145000037]]],[[[125.2863200380001,12.31157301300004],[125.28676795700005,12.312286972000038],[125.28717172901064,12.312579514314484],[125.28633299709053,12.311487082280701],[125.2863200380001,12.31157301300004]]]]}},{"type":"Feature","properties":{"fid":56,"objectid":1905,"lccode":"05","liqcode":"2010600050000000","mappers":"PJDelosReyes, ACPidlaoan","project":"READY","province":"Eastern Samar","otherinfo":null,"datemapped":2009,"publishdate":null,"globalid":"{5449C31E-E45E-490E-9AB6-5AACF96F6899}","st_area(shape)":0.008694706737108626,"st_perimeter(shape)":4.649223283492149,"liqcodepk":"201060005000000000100","creator":"SNOOPYPC","createdate":"2019-02-19T15:21:28","editor":"LENOVO","modifydate":"2019-03-10T17:50:55","codemove":"na"},"geometry":{"type":"Polygon","coordinates":[]}},{"type":"Feature","properties":{"fid":70,"objectid":1934,"lccode":"06","liqcode":"2010600060000000","mappers":"PJDelosReyes, ACPidlaoan","project":"READY","province":"Eastern Samar","otherinfo":null,"datemapped":2009,"publishdate":null,"globalid":"{1E082AF3-CE25-4665-9081-FF755916BF3C}","st_area(shape)":0.013613834755412488,"st_perimeter(shape)":9.457887959290924,"liqcodepk":"201060006000000000133","creator":"SNOOPYPC","createdate":"2019-02-19T15:21:28","editor":"LENOVO","modifydate":"2019-03-10T17:50:55","codemove":"na"},"geometry":{"type":"Polygon","coordinates":[]}},{"type":"Feature","properties":{"fid":75,"objectid":1939,"lccode":"06","liqcode":"2010600060000000","mappers":"PJDelosReyes, ACPidlaoan","project":"READY","province":"Northern Samar","otherinfo":null,"datemapped":2009,"publishdate":null,"globalid":"{54FD4513-FD6A-47C1-904A-E307CDDE876E}","st_area(shape)":0.00865304678469956,"st_perimeter(shape)":4.666609657552388,"liqcodepk":"201060006000000000139","creator":"SNOOPYPC","createdate":"2019-02-19T15:21:28","editor":"LENOVO","modifydate":"2019-03-10T17:50:55","codemove":"na"},"geometry":{"type":"MultiPolygon","coordinates":[[[[125.27768589800007,12.358382455000024],[125.27541145000008,12.358633763000055],[125.27315096100006,12.35801923500003],[125.27216989000011,12.353846638000052],[125.27089354100008,12.352780446000056],[125.26855251800009,12.35277882200006],[125.26663917300004,12.352562476000056],[125.26610464200009,12.352841400000045],[125.26547016800009,12.353986951000024],[125.2654272000001,12.35647889800003],[125.26436866000007,12.358261311000033],[125.26376434200004,12.360420123000042],[125.26366592600006,12.361455597000027],[125.2630056160001,12.362094513000041],[125.26373754800012,12.364791157000068],[125.26292984000008,12.365769200000047],[125.25999379900009,12.366532653000032],[125.2590955830001,12.366983450000076],[125.25835884900006,12.366229477000047],[125.2580467470001,12.364901793000056],[125.2582722950001,12.363654121000023],[125.25929282000004,12.362442130000034],[125.25973479100004,12.361382660000057],[125.25800467900002,12.360003416000039],[125.25561607100008,12.359474275000023],[125.25452061300007,12.359462212000038],[125.2541475590001,12.35853625800007],[125.25503109800003,12.356375142000047],[125.25469624100003,12.354899828000041],[125.25311500900013,12.355842057000077],[125.25214044300003,12.357412597000065],[125.25193342200009,12.358322306000048],[125.25199845300006,12.360897853000036],[125.25291168100011,12.362199431000025],[125.25342343600005,12.364264425000044],[125.2528827210001,12.366338227000028],[125.25340227500011,12.369311149000055],[125.25417782400007,12.371329410000044],[125.25505261,12.371422350000046],[125.255658089,12.370687049000026],[125.25543270100003,12.367194909000034],[125.25549370600005,12.366318755000067],[125.25641573300004,12.365974291000041],[125.25735713600011,12.367886181000072],[125.25888501800011,12.370264716000065],[125.25978408900004,12.371233990000063],[125.2612303750001,12.372097609000038],[125.26624410000011,12.37347032900004],[125.27007622500004,12.372899525000035],[125.27113382800007,12.372385473000064],[125.27477391700006,12.369425013000065],[125.27592610600004,12.367967209000028],[125.27629179200005,12.366684302000063],[125.27610475300001,12.364867286000047],[125.27699990300005,12.361424555000038],[125.27797376100011,12.35915991500008],[125.27768589800007,12.358382455000024]]],[[[125.25060465200012,12.371253035000048],[125.24815303900006,12.370282564000036],[125.24601613600011,12.370390302000029],[125.24473223300004,12.37025083700007],[125.24324219800008,12.371013658000038],[125.24317093000003,12.36981333700004],[125.24435011800006,12.368422545000042],[125.24437220200004,12.367431514000033],[125.243798189,12.364584049000031],[125.23972277300004,12.362996334000057],[125.2391754140001,12.363271072000032],[125.23910295600001,12.365523424000061],[125.2403719030001,12.367494585000033],[125.24004723599998,12.368818244000066],[125.24063922900007,12.370194521000029],[125.24171374200013,12.370846110000059],[125.24200010800007,12.372194817000038],[125.24271200000001,12.373299866000025],[125.24293805200011,12.374739145000033],[125.24349140100004,12.375154878000046],[125.2465996970001,12.374348596000058],[125.2475022430001,12.372749927000031],[125.24813926600005,12.372234193000054],[125.24935874500011,12.37198396100007],[125.25122110600012,12.372292351000057],[125.25060465200012,12.371253035000048]]],[[[125.25879638900005,12.380971335000027],[125.25932173700005,12.380446025000024],[125.2601226590001,12.378594564000027],[125.260116121,12.377834979000053],[125.25833324300004,12.375896493000026],[125.25634182400007,12.375392091000037],[125.25336576900007,12.375916043000073],[125.25227723700004,12.377064440000025],[125.25129039600006,12.37734302800004],[125.25241688400001,12.378648342000076],[125.25510448700004,12.379256584000075],[125.25584239700004,12.380310957000063],[125.25531765405445,12.383372245891376],[125.25764745849385,12.38301271854309],[125.25879638900005,12.380971335000027]]],[[[125.23493028800009,12.37045166000007],[125.23469416600005,12.371414368000046],[125.23546755500001,12.37257892800005],[125.2361542440001,12.374314659000047],[125.23622760600006,12.375755206000063],[125.23748048100005,12.375834971000074],[125.23897158600005,12.375192150000032],[125.23837362600011,12.373125475000052],[125.23751369900003,12.372562094000044],[125.23620372000005,12.36936034900003],[125.23493028800009,12.37045166000007]]]]}},{"type":"Feature","properties":{"fid":199,"objectid":3198,"lccode":"01","liqcode":null,"mappers":"DJLBuhay, MJVReyes, MITAbigania, KLPapiona, KMVitto","project":"MELP","province":"Samar","otherinfo":null,"datemapped":2016,"publishdate":null,"globalid":"{E57C8B37-1D1A-44CC-92F6-03CB1610709E}","st_area(shape)":0.033024573453977024,"st_perimeter(shape)":19.781785712536593,"liqcodepk":null,"creator":null,"createdate":null,"editor":null,"modifydate":null,"codemove":null},"geometry":{"type":"Polygon","coordinates":[]}}]}