{"type":"FeatureCollection","features":[{"type":"Feature","properties":{"fid":31,"objectid":1877,"lccode":"07","liqcode":"2010600070000000","mappers":"PJDelosReyes, ACPidlaoan","project":"READY","province":"Ilocos Sur","otherinfo":null,"datemapped":2012,"publishdate":null,"globalid":"{9BD19C39-D43F-480F-8D4D-C2FF10071B57}","st_area(shape)":0.01783800115070572,"st_perimeter(shape)":3.398456363100086,"liqcodepk":"201060007000000000070","creator":"SNOOPYPC","createdate":"2019-02-19T15:21:28","editor":"LENOVO","modifydate":"2019-03-10T17:50:55","codemove":"na"},"geometry":{"type":"MultiPolygon","coordinates":[[[[120.43604182500006,17.48778096900003],[120.4360826620001,17.48629674600005],[120.4352069240001,17.482833750000054],[120.43558074600003,17.481970825000072],[120.43607712900007,17.479528293000044],[120.43620833400009,17.47733180000006],[120.43569484100009,17.479562005000044],[120.43494836400009,17.481210667000024],[120.43288412624845,17.483300478212822],[120.433495442824,17.484585334286074],[120.43581583268113,17.488416435695655],[120.43650886480928,17.489338836560947],[120.43604182500006,17.48778096900003]]],[[[120.4528652890001,17.424608857000067],[120.45160514600003,17.425618073000063],[120.45117376100006,17.428194897000026],[120.45019965900008,17.429967258000033],[120.4483161190001,17.43170899500006],[120.448064304,17.43275006300007],[120.44692714000008,17.43486208700006],[120.44676126500008,17.436834683000026],[120.447521745,17.43762298500008],[120.44817222900008,17.439207294000024],[120.44854242400005,17.44103479300003],[120.44857165100007,17.443199789000055],[120.44880866000007,17.444645878000074],[120.44787724100001,17.44619093800003],[120.44727935500009,17.44650608100005],[120.44385613100008,17.44657608300003],[120.44148564200009,17.446336754000072],[120.44043346500007,17.44518393800007],[120.43904691000012,17.445317975000023],[120.4384460980001,17.44584191100006],[120.43532221400005,17.445725725000038],[120.43487061500002,17.446897106000044],[120.4355271920001,17.448044849000038],[120.43830731900006,17.44728316400005],[120.44060212600004,17.447274777000075],[120.44241694100003,17.447639892000037],[120.44435734400008,17.447512858000042],[120.44538005200002,17.447943711000054],[120.44693112900006,17.45020418100006],[120.44835570200007,17.45018453600005],[120.45020810000004,17.450701949000063],[120.45206360200008,17.45099156300006],[120.45279883400006,17.452178197000023],[120.45444763600007,17.453110776000074],[120.45542179499999,17.45418650300007],[120.45675312000003,17.45519094400003],[120.46009604000007,17.453790609000066],[120.46128333100012,17.45376775400007],[120.46229232500004,17.452337570000054],[120.46183549000011,17.45104056100007],[120.46042878900005,17.449769352000025],[120.45913440800008,17.44895539800007],[120.45811067700004,17.44860053900004],[120.45640014700007,17.446414044000047],[120.45637217400008,17.445578247000064],[120.4555535930001,17.444694324000068],[120.45287747200008,17.443672673000034],[120.45225040500009,17.44324692600003],[120.45144135600003,17.441679556000054],[120.45083428000008,17.439811010000028],[120.44958652100003,17.438503853000043],[120.44908548400008,17.43754803900003],[120.44863880200012,17.435529663000068],[120.4493755850001,17.433754185000055],[120.45162600600008,17.431238677000067],[120.45330090200002,17.430272787000035],[120.45492945400007,17.429799859000067],[120.45611395400012,17.42996696800003],[120.45887218900009,17.43076169000005],[120.46118431500008,17.43234820600002],[120.46234888300013,17.43395799900003],[120.46342181800004,17.436478097000073],[120.46359119800003,17.438530941000067],[120.46329874199999,17.442514625000058],[120.46260257800009,17.44421474100005],[120.46259311800009,17.44489818200003],[120.46348755400004,17.443162667000028],[120.46460394300006,17.439683145000064],[120.46564496100005,17.43878492800007],[120.46632817900002,17.435147988000036],[120.46698994300006,17.433067704000056],[120.46681310400005,17.43154644400005],[120.4671727540001,17.431285179000046],[120.46858679700006,17.432024743000056],[120.46941797100011,17.431997293000048],[120.47041883500005,17.43113654900003],[120.4718320500001,17.429065785000034],[120.47348529700002,17.423922094000037],[120.47432009400006,17.42362882400005],[120.47445109000012,17.425605245000042],[120.47490954800004,17.426788292000026],[120.47472361000007,17.42879871000002],[120.47501972500005,17.430283557000045],[120.4750069500001,17.43408093900007],[120.474390136,17.435782121000045],[120.474288526,17.43741380600005],[120.47355927700005,17.438657725000045],[120.473855833,17.44010456400002],[120.47459118400002,17.44129112900003],[120.47572263400004,17.44244479300005],[120.47652213300012,17.441847308000035],[120.47650556100007,17.440176197000028],[120.47712611000009,17.43820930400005],[120.47776315400006,17.437913519000062],[120.47894095800007,17.43857408400004],[120.48059711600003,17.438974766000058],[120.48290382700009,17.440978721000022],[120.48365904600008,17.440722428000072],[120.48399535800002,17.439283598000024],[120.48342906800009,17.437301669000078],[120.48333069700003,17.43581932600006],[120.48387254900003,17.433813480000026],[120.4837923990001,17.431002242000037],[120.48239659700006,17.428933886000035],[120.48281505800003,17.42726817600004],[120.48393660500005,17.426256993000038],[120.48473236100006,17.425925259000053],[120.48541671400005,17.425060429000037],[120.48600745300007,17.42525778700008],[120.4874022370001,17.427402050000072],[120.48948407600005,17.428491682000075],[120.49083206900002,17.42828075400007],[120.49151277300007,17.427681789000076],[120.49196240600008,17.42662407400007],[120.49496588700003,17.426851779000053],[120.49576215099998,17.426481989000017],[120.49565753200012,17.42545530900003],[120.49484036900003,17.42445768400006],[120.49517284700006,17.42328452600003],[120.49546313637165,17.423099837781532],[120.49385666133387,17.422345564742976],[120.48953112155866,17.420798074075726],[120.4850684791267,17.41966495415569],[120.48051168549492,17.418957106282853],[120.4759045954667,17.418681338568465],[120.47129154597857,17.41884030070743],[120.46671693032968,17.419432458693887],[120.46222477190767,17.4204521097146],[120.45785830146892,17.421889437072014],[120.45365954199626,17.423730604607922],[120.45319996475813,17.42398711469745],[120.4528652890001,17.424608857000067]]]]}},{"type":"Feature","properties":{"fid":48,"objectid":1897,"lccode":"05","liqcode":"2010600050000000","mappers":"PJDelosReyes, ACPidlaoan","project":"READY","province":"Abra","otherinfo":null,"datemapped":2011,"publishdate":null,"globalid":"{6F1B2D48-A8B0-430F-BF24-324356CDBB9C}","st_area(shape)":0.01258216709511878,"st_perimeter(shape)":4.5647277548728225,"liqcodepk":"201060005000000000091","creator":"SNOOPYPC","createdate":"2019-02-19T15:21:28","editor":"LENOVO","modifydate":"2019-03-10T17:50:55","codemove":"na"},"geometry":{"type":"Polygon","coordinates":[]}},{"type":"Feature","properties":{"fid":58,"objectid":1907,"lccode":"05","liqcode":"2010600050000000","mappers":"PJDelosReyes, ACPidlaoan","project":"READY","province":"Ilocos Sur","otherinfo":null,"datemapped":2012,"publishdate":null,"globalid":"{7D41ABB3-20BB-4A8A-A22A-9DDDC45B8904}","st_area(shape)":0.029120699274048492,"st_perimeter(shape)":9.226907297832456,"liqcodepk":"201060005000000000102","creator":"SNOOPYPC","createdate":"2019-02-19T15:21:28","editor":"LENOVO","modifydate":"2019-03-10T17:50:55","codemove":"na"},"geometry":{"type":"MultiPolygon","coordinates":[[[[120.50604435600009,17.431396444000033],[120.50586534700007,17.431916775000044],[120.50670424400005,17.433440100000038],[120.50727497700007,17.433612227000022],[120.50876640100013,17.43561120500004],[120.51041383400002,17.43667696400007],[120.51266922800005,17.43940066300007],[120.51297577400011,17.44003705700004],[120.51267323400009,17.441216045000026],[120.51102936300005,17.441993124000074],[120.51026995900008,17.443056224000028],[120.5104978820001,17.44525945100002],[120.50979571200003,17.44632335400007],[120.50902693400009,17.448074063000035],[120.50822540700005,17.448008942000055],[120.50839404400007,17.450364484000033],[120.50884642300004,17.450810188000048],[120.51067860900004,17.450943113000047],[120.51320215400007,17.450809699000043],[120.51387452600012,17.451942358000053],[120.51351831300006,17.45284895700007],[120.51199783900006,17.455085311000058],[120.5099880450001,17.457477161000043],[120.50796842100009,17.460587386000043],[120.50760584100011,17.461958036000055],[120.50983215000008,17.46683014500007],[120.51197623200005,17.46933242700004],[120.5128699600001,17.471048865000053],[120.51400120700009,17.472163253000073],[120.51475065400007,17.471842577000075],[120.51446584500003,17.467493257000058],[120.51389539700006,17.464926167000044],[120.51334077100013,17.46381764200003],[120.51330621400007,17.462139410000074],[120.51449884600005,17.460837548000026],[120.51498492400003,17.458808318000028],[120.51533411900006,17.45419185900005],[120.51636702500002,17.45409477400005],[120.51704273400003,17.454983382000023],[120.51753161300007,17.45696980100007],[120.51848790500003,17.45830194900003],[120.51951644500004,17.45853484900005],[120.52192617500009,17.458344830000044],[120.52192947197223,17.458343820704165],[120.52154393892852,17.455604707432567],[120.52048033415633,17.45129239885029],[120.51958349498351,17.448784368985407],[120.5195617190001,17.448839975000055],[120.51629145700008,17.449101773000056],[120.51564991200007,17.449918849000028],[120.51464938700006,17.449741369000034],[120.514344316,17.44899491700005],[120.51435699700006,17.448059912000076],[120.51506325100002,17.44669353100005],[120.51678968400005,17.44616496900005],[120.51908624134002,17.447393763335015],[120.5189815248657,17.447100913873346],[120.51706197389024,17.44307061258539],[120.51474019222235,17.43924030003489],[120.51203855980008,17.43564685286663],[120.50898310921723,17.43232486461599],[120.50753221659231,17.43102908103334],[120.50604435600009,17.431396444000033]]],[[[120.48851914000011,17.428860130000032],[120.48761477100004,17.428913016000028],[120.48713347400007,17.429838660000026],[120.48728672200002,17.430868661000037],[120.4880273770001,17.432998527000052],[120.48845546100006,17.435959815000043],[120.48868754500006,17.438565196000074],[120.48860827600004,17.44190557300004],[120.48892051000007,17.44354810100003],[120.48876556400012,17.445088291000044],[120.48762195500001,17.447933296000027],[120.48701289300004,17.450849338000072],[120.48601898700008,17.45253956400006],[120.48528971200005,17.454458067000072],[120.48520688300006,17.455613671000037],[120.48633951500005,17.45601357200007],[120.48786411600008,17.457125198000025],[120.48776940400013,17.459148075000034],[120.48717887300008,17.460714903000053],[120.48590876900005,17.463012148000075],[120.48337777100005,17.464490203000025],[120.48224010400008,17.466885442000038],[120.48248223900009,17.46875193300002],[120.48116538500005,17.469570607000037],[120.48012645600012,17.469653785000045],[120.4783649200001,17.468731877000042],[120.47790690400008,17.467954999000025],[120.47743050300005,17.46608544500003],[120.4757280020001,17.465742545000065],[120.47500003700009,17.465122875000073],[120.47502883100003,17.463034890000074],[120.47426743800008,17.46241479500003],[120.47279876800008,17.462106992000027],[120.46937337800013,17.46289868100007],[120.46862731800003,17.463596042000063],[120.46918116100007,17.464695439000025],[120.4684993840001,17.465586405000064],[120.46722394500011,17.465827147000027],[120.46639117000008,17.46552739600003],[120.46443741700011,17.463992418000032],[120.46455827400007,17.46251604100007],[120.46422252500008,17.460166432000047],[120.46423809100007,17.45904214200004],[120.46473648900006,17.456895867000064],[120.46442135900008,17.455478224000046],[120.46138869300012,17.454507832000047],[120.46028111900013,17.454718623000073],[120.4581503920001,17.456297807000055],[120.45744534300002,17.456449434000035],[120.45775295800001,17.456716135000026],[120.45956835500012,17.456199352000052],[120.46117585700006,17.456181325000042],[120.46336413000006,17.45775191300004],[120.46335665300002,17.458291804000055],[120.46233248900013,17.45970563300006],[120.462832347,17.461331878000067],[120.46275475900008,17.46403054400003],[120.46325462900006,17.465656699000018],[120.4620311450001,17.466952304000074],[120.46254172400005,17.470699800000027],[120.46404874900009,17.472146026000072],[120.46518934200003,17.47393458700003],[120.46545565200005,17.475017865000044],[120.46455731000003,17.476047725000058],[120.46478823400004,17.476783445000024],[120.46591483800012,17.476682057000062],[120.46674842400013,17.477425464000078],[120.46653312100013,17.47846404100005],[120.46499351300007,17.479369958000056],[120.46386521200007,17.47958698900004],[120.46469096400006,17.483801289000038],[120.46612733100007,17.48455239500004],[120.46732087800001,17.482523531000023],[120.46850212100003,17.48138159500007],[120.46917486200005,17.479230493000042],[120.47038346700003,17.479014454000037],[120.47067487100001,17.478285389000067],[120.4703478680001,17.475774438000027],[120.47125052100012,17.474436051000055],[120.47187341200004,17.47297851600007],[120.47260862600002,17.46920831300002],[120.47217679800009,17.46847004400007],[120.47074424800006,17.46744904700006],[120.46949752400008,17.46461783700005],[120.47205472400003,17.462760597000063],[120.47394461000009,17.462668949000033],[120.47465555900008,17.463564991000055],[120.47419979600012,17.46456197200007],[120.473394631,17.46466741300003],[120.47370011200006,17.46582829900006],[120.47713201600004,17.467568796000023],[120.47727728900009,17.468689087000033],[120.47919097100011,17.469793262000053],[120.47994216300003,17.470689802000038],[120.48004248300002,17.47215663400004],[120.48082485600003,17.473709232000033],[120.48116626100013,17.475179122000046],[120.48451378800007,17.477227002000063],[120.4849484130001,17.477772497000043],[120.48666233100003,17.47879688000006],[120.48691182200002,17.481114059000046],[120.48625994100009,17.481761476000024],[120.48644864500011,17.48265088000005],[120.487290829,17.482777210000048],[120.4883535780001,17.481479410000077],[120.48923701000001,17.481529139000035],[120.49131644200008,17.48228820200006],[120.49324779900007,17.482119799000028],[120.49382772500006,17.48085433700004],[120.49170500600009,17.480326193000053],[120.49070998800003,17.479619398000068],[120.48876924400007,17.477550842000024],[120.48713502400007,17.476565953000033],[120.48622307900008,17.475667401000067],[120.48664029200006,17.474554225000077],[120.48613065600011,17.473622205000023],[120.48445160200002,17.472983844000055],[120.48431953300006,17.47089959100003],[120.48442262900005,17.46924245100007],[120.48589759200003,17.470109664000056],[120.49011050600005,17.470587150000025],[120.4926016280001,17.470618599000034],[120.49209566600005,17.46941664000008],[120.49235522900005,17.46807001800005],[120.49181814200006,17.466211997000073],[120.4906814540001,17.46411505700007],[120.49077134800007,17.46342196400008],[120.49162778900005,17.462507197000033],[120.49160714200002,17.46107992200006],[120.49055350200001,17.45879115100007],[120.48948833500003,17.45735069200003],[120.48939419300007,17.455421144000066],[120.48985249000009,17.454231356000037],[120.48922553200009,17.45013537400007],[120.4905576630001,17.449689396000053],[120.49072995100003,17.44884301700006],[120.48950091400002,17.44763193600005],[120.49030541200011,17.444633825000036],[120.49022293900009,17.441855961000037],[120.48983963700005,17.44050131800003],[120.48979260000009,17.438070926000023],[120.48921532300005,17.43621249000006],[120.48831932200005,17.431226005000035],[120.48845254200013,17.430302017000027],[120.48907750800002,17.429638246000025],[120.48851914000011,17.428860130000032]]]]}},{"type":"Feature","properties":{"fid":63,"objectid":1927,"lccode":"06","liqcode":"2010600060000000","mappers":"PJDelosReyes, ACPidlaoan","project":"READY","province":"Abra","otherinfo":null,"datemapped":2011,"publishdate":null,"globalid":"{2D7190C8-CD2C-4D21-8E96-CD4FC48D3C6E}","st_area(shape)":0.008103563302459305,"st_perimeter(shape)":1.7202435562194207,"liqcodepk":"201060006000000000125","creator":"SNOOPYPC","createdate":"2019-02-19T15:21:28","editor":"LENOVO","modifydate":"2019-03-10T17:50:55","codemove":"na"},"geometry":{"type":"Polygon","coordinates":[]}},{"type":"Feature","properties":{"fid":72,"objectid":1936,"lccode":"06","liqcode":"2010600060000000","mappers":"PJDelosReyes, ACPidlaoan","project":"READY","province":"Ilocos Sur","otherinfo":null,"datemapped":2012,"publishdate":null,"globalid":"{33CDE2C7-9AFF-4DEC-86B5-45B4892EBDFF}","st_area(shape)":0.017363484289297154,"st_perimeter(shape)":5.7193106480781575,"liqcodepk":"201060006000000000135","creator":"SNOOPYPC","createdate":"2019-02-19T15:21:28","editor":"LENOVO","modifydate":"2019-03-10T17:50:55","codemove":"na"},"geometry":{"type":"MultiPolygon","coordinates":[[[[120.44160991000001,17.494813985000064],[120.43942848200005,17.49274180000003],[120.4379659230001,17.488133587000053],[120.43769524000004,17.484504943000044],[120.43715916800011,17.482608291000076],[120.43723610100007,17.479986790000048],[120.4374928420001,17.478871684000065],[120.43715287600003,17.477324665000026],[120.43620833400009,17.47733180000006],[120.43607712900007,17.479528293000044],[120.43558074600003,17.481970825000072],[120.4352069240001,17.482833750000054],[120.4360826620001,17.48629674600005],[120.43604182500006,17.48778096900003],[120.43650886480928,17.489338836560947],[120.43851645662967,17.4920108099926],[120.44157132083096,17.495333828012544],[120.44172493622142,17.495471081445263],[120.44160991000001,17.494813985000064]]],[[[120.49436612000011,17.43940784200004],[120.49513461200003,17.441955683000057],[120.49670813700004,17.444385157000056],[120.49708301200009,17.44634975700006],[120.49803512900007,17.447711096000035],[120.49925937700003,17.448754654000027],[120.49945314600006,17.449271172000067],[120.49939121500007,17.451358778000042],[120.50022312800003,17.451722582000055],[120.50050576500006,17.45063376500008],[120.50142513700007,17.44948865200007],[120.50136342100005,17.448995557000043],[120.50228081100012,17.446861800000022],[120.50466474300005,17.44645158800006],[120.50531772700003,17.44689990400008],[120.50721048800006,17.446786100000057],[120.50822540700005,17.448008942000055],[120.50902693400009,17.448074063000035],[120.50979571200003,17.44632335400007],[120.5104978820001,17.44525945100002],[120.51026995900008,17.443056224000028],[120.51102936300005,17.441993124000074],[120.51267323400009,17.441216045000026],[120.51297577400011,17.44003705700004],[120.51266922800005,17.43940066300007],[120.51041383400002,17.43667696400007],[120.50876640100013,17.43561120500004],[120.50727497700007,17.433612227000022],[120.50670424400005,17.433440100000038],[120.50586534700007,17.431916775000044],[120.50604435600009,17.431396444000033],[120.50753221659231,17.43102908103334],[120.505603274468,17.429306313065187],[120.50193160716617,17.426620252845463],[120.49800346298424,17.42429253622418],[120.49546313637165,17.423099837781532],[120.49517284700006,17.42328452600003],[120.49484036900003,17.42445768400006],[120.49565753200012,17.42545530900003],[120.49576215099998,17.426481989000017],[120.49496588700003,17.426851779000053],[120.49196240600008,17.42662407400007],[120.49151277300007,17.427681789000076],[120.49083206900002,17.42828075400007],[120.48948407600005,17.428491682000075],[120.4874022370001,17.427402050000072],[120.48600745300007,17.42525778700008],[120.48541671400005,17.425060429000037],[120.48473236100006,17.425925259000053],[120.48393660500005,17.426256993000038],[120.48281505800003,17.42726817600004],[120.48239659700006,17.428933886000035],[120.4837923990001,17.431002242000037],[120.48387254900003,17.433813480000026],[120.48333069700003,17.43581932600006],[120.48342906800009,17.437301669000078],[120.48399535800002,17.439283598000024],[120.48365904600008,17.440722428000072],[120.48290382700009,17.440978721000022],[120.48059711600003,17.438974766000058],[120.47894095800007,17.43857408400004],[120.47776315400006,17.437913519000062],[120.47712611000009,17.43820930400005],[120.47650556100007,17.440176197000028],[120.47652213300012,17.441847308000035],[120.47572263400004,17.44244479300005],[120.47459118400002,17.44129112900003],[120.473855833,17.44010456400002],[120.47355927700005,17.438657725000045],[120.474288526,17.43741380600005],[120.474390136,17.435782121000045],[120.4750069500001,17.43408093900007],[120.47501972500005,17.430283557000045],[120.47472361000007,17.42879871000002],[120.47490954800004,17.426788292000026],[120.47445109000012,17.425605245000042],[120.47432009400006,17.42362882400005],[120.47348529700002,17.423922094000037],[120.4718320500001,17.429065785000034],[120.47041883500005,17.43113654900003],[120.46941797100011,17.431997293000048],[120.46858679700006,17.432024743000056],[120.4671727540001,17.431285179000046],[120.46681310400005,17.43154644400005],[120.46698994300006,17.433067704000056],[120.46632817900002,17.435147988000036],[120.46564496100005,17.43878492800007],[120.46460394300006,17.439683145000064],[120.46348755400004,17.443162667000028],[120.46259311800009,17.44489818200003],[120.46213870900011,17.446413647000043],[120.46240664400013,17.448094271000063],[120.4609502400001,17.448115600000044],[120.46035852500007,17.448786911000074],[120.45913440800008,17.44895539800007],[120.46042878900005,17.449769352000025],[120.46183549000011,17.45104056100007],[120.46229232500004,17.452337570000054],[120.46128333100012,17.45376775400007],[120.46009604000007,17.453790609000066],[120.45675312000003,17.45519094400003],[120.45542179499999,17.45418650300007],[120.45444763600007,17.453110776000074],[120.45279883400006,17.452178197000023],[120.45206360200008,17.45099156300006],[120.45020810000004,17.450701949000063],[120.44835570200007,17.45018453600005],[120.44693112900006,17.45020418100006],[120.44663324400005,17.451652344000024],[120.446813431,17.45313247000007],[120.44827573300006,17.45148063800007],[120.44845649200009,17.450519118000045],[120.45125344400002,17.451583020000044],[120.45359564000012,17.454054770000027],[120.45484690100011,17.45554869800003],[120.45744534300002,17.456449434000035],[120.4581503920001,17.456297807000055],[120.46028111900013,17.454718623000073],[120.46138869300012,17.454507832000047],[120.46442135900008,17.455478224000046],[120.46473648900006,17.456895867000064],[120.46423809100007,17.45904214200004],[120.46422252500008,17.460166432000047],[120.46455827400007,17.46251604100007],[120.46443741700011,17.463992418000032],[120.46639117000008,17.46552739600003],[120.46722394500011,17.465827147000027],[120.4684993840001,17.465586405000064],[120.46918116100007,17.464695439000025],[120.46862731800003,17.463596042000063],[120.46937337800013,17.46289868100007],[120.47279876800008,17.462106992000027],[120.47426743800008,17.46241479500003],[120.47502883100003,17.463034890000074],[120.47500003700009,17.465122875000073],[120.4757280020001,17.465742545000065],[120.47743050300005,17.46608544500003],[120.47790690400008,17.467954999000025],[120.4783649200001,17.468731877000042],[120.48012645600012,17.469653785000045],[120.48116538500005,17.469570607000037],[120.48248223900009,17.46875193300002],[120.48224010400008,17.466885442000038],[120.48337777100005,17.464490203000025],[120.48590876900005,17.463012148000075],[120.48717887300008,17.460714903000053],[120.48776940400013,17.459148075000034],[120.48786411600008,17.457125198000025],[120.48633951500005,17.45601357200007],[120.48520688300006,17.455613671000037],[120.48528971200005,17.454458067000072],[120.48601898700008,17.45253956400006],[120.48701289300004,17.450849338000072],[120.48762195500001,17.447933296000027],[120.48876556400012,17.445088291000044],[120.48892051000007,17.44354810100003],[120.48860827600004,17.44190557300004],[120.48868754500006,17.438565196000074],[120.48845546100006,17.435959815000043],[120.4880273770001,17.432998527000052],[120.48728672200002,17.430868661000037],[120.48713347400007,17.429838660000026],[120.48761477100004,17.428913016000028],[120.48851914000011,17.428860130000032],[120.48907750800002,17.429638246000025],[120.49013031000003,17.430968821000025],[120.4905455710001,17.432419854000045],[120.49143641800003,17.433362800000054],[120.49330651400011,17.436117314000057],[120.49461357000006,17.438447089000015],[120.49436612000011,17.43940784200004]],[[120.47478158500007,17.45486932900008],[120.474684367,17.452498550000033],[120.47513291200006,17.452005432000075],[120.47670443600009,17.45299808000004],[120.47825986400004,17.453267306000043],[120.4804983590001,17.45489190400002],[120.48182450800005,17.454833932000042],[120.48078733200008,17.452775510000038],[120.47808771700011,17.45067109000007],[120.47725566900012,17.45071047400006],[120.47716716000002,17.449586929000073],[120.47935808200009,17.450886754000063],[120.48141505200009,17.45248411600005],[120.48241464800005,17.453494493000044],[120.48310073400012,17.454625604000054],[120.48331744000006,17.45587547600007],[120.48412485400002,17.45763164000005],[120.483465722,17.458321677000065],[120.48237929000005,17.45795873500003],[120.48194465800009,17.459325064000037],[120.48023837100004,17.45867983800002],[120.47803063600008,17.456706345000043],[120.47752334000006,17.45580206300002],[120.47688342900007,17.45509556900004],[120.47378223000008,17.45572955900008],[120.47254238400001,17.45519006900002],[120.47278963600002,17.454220419000023],[120.47410400800004,17.455010350000062],[120.47478158500007,17.45486932900008]]]]}}]}