{"type":"FeatureCollection","features":[{"type":"Feature","properties":{"fid":31,"objectid":1877,"lccode":"07","liqcode":"2010600070000000","mappers":"PJDelosReyes, ACPidlaoan","project":"READY","province":"Ilocos Sur","otherinfo":null,"datemapped":2012,"publishdate":null,"globalid":"{9BD19C39-D43F-480F-8D4D-C2FF10071B57}","st_area(shape)":0.01783800115070572,"st_perimeter(shape)":3.398456363100086,"liqcodepk":"201060007000000000070","creator":"SNOOPYPC","createdate":"2019-02-19T15:21:28","editor":"LENOVO","modifydate":"2019-03-10T17:50:55","codemove":"na"},"geometry":{"type":"Polygon","coordinates":[]}},{"type":"Feature","properties":{"fid":48,"objectid":1897,"lccode":"05","liqcode":"2010600050000000","mappers":"PJDelosReyes, ACPidlaoan","project":"READY","province":"Abra","otherinfo":null,"datemapped":2011,"publishdate":null,"globalid":"{6F1B2D48-A8B0-430F-BF24-324356CDBB9C}","st_area(shape)":0.01258216709511878,"st_perimeter(shape)":4.5647277548728225,"liqcodepk":"201060005000000000091","creator":"SNOOPYPC","createdate":"2019-02-19T15:21:28","editor":"LENOVO","modifydate":"2019-03-10T17:50:55","codemove":"na"},"geometry":{"type":"Polygon","coordinates":[]}},{"type":"Feature","properties":{"fid":58,"objectid":1907,"lccode":"05","liqcode":"2010600050000000","mappers":"PJDelosReyes, ACPidlaoan","project":"READY","province":"Ilocos Sur","otherinfo":null,"datemapped":2012,"publishdate":null,"globalid":"{7D41ABB3-20BB-4A8A-A22A-9DDDC45B8904}","st_area(shape)":0.029120699274048492,"st_perimeter(shape)":9.226907297832456,"liqcodepk":"201060005000000000102","creator":"SNOOPYPC","createdate":"2019-02-19T15:21:28","editor":"LENOVO","modifydate":"2019-03-10T17:50:55","codemove":"na"},"geometry":{"type":"MultiPolygon","coordinates":[[[[120.4967529600001,17.209225786000044],[120.49568202800003,17.21115107800006],[120.49630882400004,17.213331095000058],[120.49596619200007,17.21531221800006],[120.49542030700003,17.21614632000006],[120.49244341800011,17.215221677000045],[120.49105329800011,17.213779569000046],[120.49100997184365,17.213762456861012],[120.4888998544592,17.216423999776545],[120.48647813439506,17.220195105386825],[120.48445258783936,17.224176142780387],[120.48284273823336,17.228328786995135],[120.48193574269919,17.23162570910593],[120.48229905300002,17.232098977000078],[120.48319381400006,17.232437157000053],[120.48409830800006,17.232051419000065],[120.48555171600003,17.228822895000064],[120.48643066900003,17.22853028700007],[120.48739952800007,17.22877591200006],[120.48859471600008,17.22846385500003],[120.49098787700007,17.225830989000027],[120.4914397980001,17.224762214000062],[120.4911607480001,17.223824470000068],[120.49225589600009,17.223721363000035],[120.49484242100004,17.22295937800004],[120.49512163500003,17.222075275000066],[120.4963505400001,17.221062931000056],[120.49882657300007,17.221280558000043],[120.49964841000008,17.221617756000054],[120.50149160900001,17.22371941500006],[120.50187369900006,17.22492328600004],[120.50283642300009,17.22536661400005],[120.50350335300004,17.22496618200006],[120.50574992300007,17.224812448000023],[120.50801403800007,17.22511294900005],[120.50850159600009,17.22575472000005],[120.50885432000007,17.227643709000063],[120.50954782100007,17.228787585000077],[120.5110542540001,17.229214942000056],[120.5109080530001,17.227782643000072],[120.51163859000006,17.22615683500004],[120.51165926500005,17.224613089000062],[120.51201734000007,17.222574048000066],[120.51337022200005,17.222113882000034],[120.51338540900008,17.220978778000074],[120.51401870100005,17.21955619900007],[120.51369618800004,17.21893914700007],[120.5127764760001,17.218814180000034],[120.5126017650001,17.217744909000025],[120.51322776100004,17.216867041000057],[120.51236085200001,17.21456308000006],[120.51211889200012,17.21322044100003],[120.51137853500008,17.212053243000067],[120.51258633100008,17.210070121000054],[120.51294070600012,17.208303381000068],[120.51166095200004,17.208605438000067],[120.51136626800007,17.207670860000057],[120.51273421400003,17.20607566800004],[120.51272242000005,17.205190009000038],[120.51145149500007,17.20483368400005],[120.51145306700005,17.20294916600006],[120.51205666700002,17.201980265000028],[120.51416125500008,17.20182455900004],[120.51598636300002,17.201370273000066],[120.51656168000012,17.20251266200006],[120.51940975800007,17.203297008000046],[120.52047901300011,17.204604498000037],[120.5213308760001,17.204501382000046],[120.52235987100003,17.203515012000025],[120.52258728900007,17.202405177000063],[120.52191045400001,17.201783777000056],[120.52171810700008,17.20026015300004],[120.5218997720001,17.19903624300002],[120.52147983150722,17.197279220745337],[120.51905485768695,17.19759451959788],[120.51723110000104,17.198009808180473],[120.51807282800007,17.19903455300005],[120.51694871200004,17.200065152000036],[120.51589010500005,17.199734231000033],[120.51561873600008,17.19882261300006],[120.51569300421309,17.198360033847226],[120.51456838917889,17.1986161010768],[120.51020765164776,17.200055331599895],[120.50601461331502,17.201898356628952],[120.50202963108255,17.204127435581842],[120.49829106280751,17.206721112351385],[120.49616118826283,17.208528795041403],[120.4967529600001,17.209225786000044]]],[[[120.48150466300001,17.240497521000066],[120.48328473200003,17.240075983000057],[120.48487856100006,17.240843355000038],[120.48530778500003,17.241456093000068],[120.48690060800004,17.24229351200006],[120.48715689900008,17.24311412600002],[120.48683271300001,17.245515886000078],[120.48738504800006,17.24601330900003],[120.48930595700006,17.245967242000056],[120.49049772300009,17.247710502000075],[120.4906778190001,17.249118453000047],[120.4917996580001,17.251981595000075],[120.49507534700003,17.253677335000077],[120.497172663,17.25401203800004],[120.4976105400001,17.25617733700005],[120.4995869380001,17.256818983000073],[120.5009412830001,17.255966319000038],[120.50108520600007,17.253948590000046],[120.49959361100002,17.251994584000045],[120.49803340100006,17.25079707900005],[120.49753245700003,17.249859555000057],[120.49778260000005,17.248628511000046],[120.49737935700011,17.247516116000043],[120.49655623500007,17.247272251000023],[120.49583527200002,17.244857443000054],[120.49611641700005,17.243833309000024],[120.49731264500006,17.24345105800006],[120.49923165100006,17.243545018000077],[120.49913405300005,17.241768643000054],[120.49783269700005,17.240934943000067],[120.49550028500005,17.240859211000043],[120.49464687200009,17.24105879900003],[120.49361731400008,17.239901479000025],[120.49350999300007,17.238849026000025],[120.492714008,17.238395357000062],[120.49240879300011,17.237597436000044],[120.49137390300008,17.236837098000024],[120.4901862370001,17.23658866500006],[120.4887486890001,17.236851013000035],[120.48751876200004,17.236134907000064],[120.48541586300007,17.235267821000036],[120.4812411769592,17.235126840565133],[120.48092808228223,17.23698770997182],[120.48066863127406,17.24099569192975],[120.48150466300001,17.240497521000066]]],[[[120.52572672400005,17.28649647700007],[120.52635282200005,17.282488405000034],[120.52705378100008,17.281451875000077],[120.52794852600005,17.278767431000063],[120.52916981500005,17.277352154000024],[120.53154780400007,17.275070999999993],[120.53329091900002,17.273167063000074],[120.53577889500002,17.271217259000025],[120.53527356900008,17.27046839300004],[120.53346073000012,17.27116124200006],[120.53077272600001,17.270935665000028],[120.52998045100004,17.270238253000056],[120.5289973580001,17.268823376000057],[120.52745573300001,17.268501876000073],[120.52587596900004,17.268895008000065],[120.52505577900003,17.268142242000064],[120.52569209500007,17.26550961000004],[120.52591667700007,17.26369700500004],[120.52657392900005,17.261642206000037],[120.52757678400008,17.25942667300006],[120.52726519300006,17.25702987900007],[120.52690043700011,17.256475259000066],[120.5253328890001,17.25596081800006],[120.52480748500012,17.25457911100005],[120.5254760570001,17.253817239000057],[120.52683107200005,17.253091267000062],[120.52728682300007,17.251116516000028],[120.52703690500003,17.24839042000008],[120.52790335800012,17.247313009000038],[120.5288401680001,17.24674216100004],[120.5293062500001,17.245117364000066],[120.53025397000012,17.24373137800006],[120.53081585300004,17.244010095000018],[120.53144101500004,17.245609474000048],[120.53421534800009,17.246614120000054],[120.53551163900012,17.246358204000046],[120.53689434900002,17.245676381000067],[120.5385147510001,17.24534684500003],[120.54089755300004,17.245414845000024],[120.54223523600002,17.24508181800007],[120.5426628790001,17.24330118200004],[120.54232444300011,17.24139468600003],[120.5433062620001,17.24047492300002],[120.54295813700003,17.239306009000074],[120.54223723300004,17.238831315000027],[120.54193206200011,17.237468770000078],[120.54125668200004,17.236606410000036],[120.5395182420001,17.23670163800006],[120.53731022000012,17.238693362000053],[120.53563808500009,17.239876449000057],[120.53486798800009,17.24006107200006],[120.53313828800005,17.23949631400006],[120.5309166410001,17.239469041000063],[120.52933820900012,17.23968263300003],[120.52876127800005,17.24052963800006],[120.5271026050001,17.240703304000025],[120.52527347600005,17.241534887000057],[120.52469297400013,17.242653647000054],[120.52495911900007,17.243899231000057],[120.5242983720001,17.244978079000074],[120.52209839000011,17.24634859600007],[120.52152088600009,17.247234395000078],[120.52159031000008,17.24808934100003],[120.52289711900006,17.249728390000023],[120.52328237100006,17.250888392000032],[120.52280606200009,17.25225775200004],[120.52077914900006,17.253993124000036],[120.52064335700004,17.255586747000052],[120.52158600200005,17.258197492000015],[120.52105037100011,17.25921781200003],[120.51979090900011,17.260467952000052],[120.51980812200009,17.26104131900007],[120.52068359100008,17.262485063000042],[120.52128441800005,17.267586852000022],[120.52166968100006,17.26874685900003],[120.5225100010001,17.270132461000056],[120.525194627,17.27087536400006],[120.52640032600003,17.271797777000074],[120.52656309900011,17.272635633000053],[120.52600563800002,17.274191374000054],[120.52342363000002,17.276919469000063],[120.52243551100003,17.27831627200004],[120.52239881000003,17.279199438000035],[120.52353977100005,17.281243452000066],[120.52357196900003,17.282557401000076],[120.52310891,17.28372183500005],[120.52030125300007,17.285478308000048],[120.51978114567142,17.286463794165318],[120.52242465202903,17.28687396282253],[120.52627103310502,17.287103116231467],[120.52572672400005,17.28649647700007]]]]}},{"type":"Feature","properties":{"fid":72,"objectid":1936,"lccode":"06","liqcode":"2010600060000000","mappers":"PJDelosReyes, ACPidlaoan","project":"READY","province":"Ilocos Sur","otherinfo":null,"datemapped":2012,"publishdate":null,"globalid":"{33CDE2C7-9AFF-4DEC-86B5-45B4892EBDFF}","st_area(shape)":0.017363484289297154,"st_perimeter(shape)":5.7193106480781575,"liqcodepk":"201060006000000000135","creator":"SNOOPYPC","createdate":"2019-02-19T15:21:28","editor":"LENOVO","modifydate":"2019-03-10T17:50:55","codemove":"na"},"geometry":{"type":"Polygon","coordinates":[]}}]}