{"type":"FeatureCollection","features":[{"type":"Feature","properties":{"fid":6,"objectid":1835,"lccode":"01","liqcode":"2010600010000000","mappers":"DJLBuhay, MJVReyes, MITAbigania, KLPapiona, KMVitto","project":"MELP","province":"Bataan","otherinfo":null,"datemapped":2017,"publishdate":null,"globalid":"{8E614FC0-BB8D-468F-9704-E22C5F7BF8A3}","st_area(shape)":0.015609538694369198,"st_perimeter(shape)":5.084058587510767,"liqcodepk":"201060001000000000007","creator":"SNOOPYPC","createdate":"2019-02-19T15:21:28","editor":"LENOVO","modifydate":"2019-03-10T17:53:06","codemove":"na"},"geometry":{"type":"Polygon","coordinates":[[[120.57004878200007,14.669455662000072],[120.57063674300002,14.668032706000078],[120.57282645500004,14.665825820000068],[120.57301800800006,14.66528576400003],[120.57475401400006,14.663542205000049],[120.57532566700002,14.662193025000027],[120.57684059200005,14.65945336200002],[120.57730850200005,14.659096867000073],[120.57807612500005,14.656801115000064],[120.57949123900006,14.654692787000043],[120.57992514400009,14.653206638000034],[120.58062747600002,14.652626716000043],[120.581161586,14.650464029000032],[120.58197601300003,14.648123567000024],[120.58146769000007,14.647937594000043],[120.58208762100003,14.646408199000064],[120.58200425100006,14.645549069000026],[120.58311664000009,14.64565097400003],[120.58342411,14.644405735000074],[120.58300123300012,14.64348152700006],[120.58431691200009,14.643376056000019],[120.58443789300009,14.640802515000075],[120.58363697200004,14.64050678900003],[120.5841132380001,14.639382438000045],[120.58504952200009,14.634378075000022],[120.58497305700007,14.632886608000028],[120.585257812,14.632302327000046],[120.5852277900001,14.626565179000067],[120.58701760400005,14.625515982000021],[120.58642395700008,14.624651562000052],[120.58667415400011,14.622982791000029],[120.58575186200007,14.622476341000041],[120.58582490900007,14.62003781100003],[120.58448269100008,14.619752866000054],[120.58481430400002,14.619123896000072],[120.58662333400004,14.619142643000032],[120.58607904800012,14.61800770400004],[120.58608941200008,14.617059200000027],[120.58465740500003,14.616502296000021],[120.58489134700005,14.614907324000058],[120.58611017300005,14.613745480000034],[120.58584222900004,14.612794092000058],[120.58595920000005,14.607745488000036],[120.58581162000009,14.607102101000072],[120.58624912000005,14.605280932000033],[120.5862517060001,14.600782570000034],[120.58536538100009,14.600328633000062],[120.58350137300012,14.602436748000057],[120.58158655800001,14.602952708000032],[120.58191242100008,14.604161495000024],[120.58161914400011,14.604907787000059],[120.57980483100006,14.604668377000054],[120.57738672800009,14.605086511000025],[120.57703200500009,14.604762593000034],[120.5766232410001,14.602903205000073],[120.5757552980001,14.601115493000068],[120.57435595600009,14.599849891000076],[120.57453950800004,14.598537996000061],[120.57369929400012,14.597174107000063],[120.57340779300011,14.596082146000073],[120.57253745800007,14.595080595000072],[120.57181725200007,14.594832045000025],[120.571165091,14.59339849100007],[120.57042246200001,14.59578485600002],[120.57326854000007,14.598556114000075],[120.57266964300004,14.59944865100005],[120.57238174800011,14.600631264000068],[120.57303422100007,14.60201489100007],[120.57441193700002,14.603520798000027],[120.57462079200003,14.604173144000072],[120.5742056790001,14.605637377000052],[120.57467331200009,14.606499542000057],[120.57550580000007,14.607139252000028],[120.57479153400004,14.607805900000075],[120.5731779140001,14.607215426000037],[120.57250356600001,14.607332666000048],[120.57224315200006,14.60834064900007],[120.572689576,14.608808640000063],[120.573866371,14.60890061200007],[120.57376841000008,14.609774457000064],[120.5716298970001,14.610039029000061],[120.57060922000007,14.61044033800005],[120.57332201000008,14.61141857000007],[120.57356382200011,14.613128507000052],[120.57272677800006,14.61365048500005],[120.57075042300005,14.614073466000036],[120.57032260100004,14.615531396000053],[120.56902053200008,14.616017371000051],[120.56790447300013,14.615783383000062],[120.56730924100009,14.615099418000058],[120.56647219700005,14.615333406000044],[120.56598857100003,14.617925260000051],[120.5653375370001,14.61850122300007],[120.56329142800006,14.618879198000055],[120.56165454200004,14.620067115000042],[120.56109651200006,14.620805061000056],[120.559906049,14.621363018000071],[120.55871558600006,14.622820899000033],[120.556990573,14.622982886000045],[120.555475461,14.62269315100002],[120.5550093400001,14.621435012000065],[120.55424669900002,14.620733066000069],[120.55363286700003,14.621093039000073],[120.55313064000006,14.622496927000041],[120.55234333200008,14.623140597000033],[120.5506753100001,14.622676912000031],[120.54884884700004,14.622438154000065],[120.54831258600008,14.621546913000033],[120.54809722400012,14.62004615900003],[120.54768738700012,14.619372561000027],[120.54662029600003,14.619113182000033],[120.5474715150001,14.62333818400003],[120.54787710900005,14.624394186000075],[120.54777101400009,14.625291632000025],[120.54702450500007,14.626010609000042],[120.54538623000009,14.625289703000021],[120.54364916500003,14.624899398000025],[120.54191448000007,14.62636307400004],[120.53988208900012,14.626375569000063],[120.5389148370001,14.627257479000036],[120.53698033500007,14.626915514000071],[120.53692453200007,14.625637643000065],[120.53528764500005,14.62437776200005],[120.53513053300004,14.62576435700004],[120.53428361500004,14.626755672000057],[120.5340739310001,14.628175380000075],[120.53267885700006,14.629417241000056],[120.52960969500009,14.63008316400004],[120.52851223700007,14.628283369000027],[120.52657773400004,14.62576363000005],[120.52611270900002,14.626213586000063],[120.52469903500004,14.62565564100004],[120.52443862100007,14.624449755000057],[120.522820335,14.624647737000034],[120.52255992100004,14.62362183000005],[120.52298774400005,14.622199951000034],[120.52481064000007,14.62068807000003],[120.52518266000004,14.61993212500005],[120.52486644300006,14.619005190000056],[120.52317375400004,14.620661072000074],[120.5220390940001,14.62082306000007],[120.521295054,14.622406934000022],[120.52038360600011,14.622568921000036],[120.52006738900002,14.624044792000062],[120.51919314300005,14.625142690000075],[120.5206254190001,14.626114596000033],[120.5206998230001,14.626780528000037],[120.51822589200003,14.627014504000044],[120.51684941900011,14.626726534000051],[120.51644019700008,14.627734428000055],[120.51810994900008,14.628582868000025],[120.52044270400006,14.630918143000033],[120.52008259900002,14.631757341000021],[120.51909548800006,14.630704090000048],[120.51781202000008,14.63095605900003],[120.51673316300004,14.63149599300004],[120.51745860100004,14.632512864000034],[120.51998833500011,14.632998801000038],[120.51890947800007,14.634186642000031],[120.5185932610001,14.63539247400007],[120.5173097930001,14.634888545000027],[120.51539389200003,14.635230497000068],[120.51416622700002,14.636094373000043],[120.51277115300002,14.636364334000062],[120.51141328100005,14.637030235000054],[120.51174809900012,14.63791210200003],[120.51293856200004,14.638092074000044],[120.51474285700012,14.637354187000026],[120.51552409900013,14.636418326000072],[120.51650995100009,14.637246203000077],[120.5185932610001,14.638002088000063],[120.51933730100006,14.639351876000037],[120.5206021680001,14.640053763000022],[120.52093698500005,14.640629668000026],[120.52097883800002,14.643014259000047],[120.51991858100008,14.643896102000038],[120.5194721580001,14.64328421100004],[120.51863511300007,14.643410189000063],[120.51785387200005,14.644220043000075],[120.518300296,14.64592972500003],[120.52064402000008,14.645965718000074],[120.5217414780001,14.647513418000075],[120.52410380300012,14.647477425000028],[120.52520126099999,14.647009517000077],[120.52715436500013,14.647135492000077],[120.52724737000004,14.648269267000043],[120.52657773400004,14.649034113000024],[120.52652193100005,14.649969919000057],[120.52748918200007,14.650437821000024],[120.529163271,14.65040182900003],[120.53086451700004,14.65142414900004],[120.53166475500007,14.652243864000068],[120.53229543300006,14.65347557200005],[120.53266055600011,14.656497163000042],[120.53234131300007,14.657599273000072],[120.5314039860001,14.659083235000029],[120.53117880000002,14.660007071000054],[120.5314699270001,14.661414446000032],[120.53197667000006,14.662395976000028],[120.53396697500013,14.663763609000055],[120.53437619700003,14.66430346200008],[120.53450640400003,14.666876742000056],[120.53419018700004,14.667794478000072],[120.534432,14.669198066000034],[120.53398627647394,14.669323167020693],[120.53405927298475,14.669357730373795],[120.5383293792579,14.670896410952164],[120.54273390729523,14.672020154631964],[120.54723041771608,14.672718129173646],[120.55177558239524,14.672983604721857],[120.55632560267425,14.672814018926102],[120.56083663218054,14.67221100183638],[120.56526520014265,14.67118036032574],[120.56956863108385,14.669732022184991],[120.57010968878544,14.669489793747234],[120.57004878200007,14.669455662000072]]]}}]}