{"type":"FeatureCollection","features":[{"type":"Feature","properties":{"fid":4,"objectid":1833,"lccode":"01","liqcode":"2010600010000000","mappers":"DJLBuhay, MITAbigania, KLPapiona, KMVitto","project":"MELP","province":"Aklan","otherinfo":null,"datemapped":2017,"publishdate":null,"globalid":"{2610B680-7BB1-4235-9EBC-A203F48D9AEE}","st_area(shape)":0.031193944395976114,"st_perimeter(shape)":7.591260939778177,"liqcodepk":"201060001000000000004","creator":"SNOOPYPC","createdate":"2019-02-19T15:21:28","editor":"LENOVO","modifydate":"2019-03-10T17:53:06","codemove":"na"},"geometry":{"type":"Polygon","coordinates":[[[122.30145468700005,11.748071383000022],[122.30612906800002,11.745305085000036],[122.30912566400002,11.743869016000078],[122.31411012600006,11.74171490200007],[122.31728813900007,11.740492968000067],[122.32613253500006,11.737399062000065],[122.32858745300008,11.73637111100004],[122.3300490810001,11.73557998900003],[122.33162650800011,11.735456533000045],[122.3362725810001,11.736053654000044],[122.33871206100002,11.736771710000026],[122.34061629500003,11.737729113000054],[122.34301974700008,11.73806168400006],[122.34615787400003,11.738321191000066],[122.3485664740001,11.73868399500003],[122.351711033,11.738855319000038],[122.35265285700008,11.73874950100003],[122.35890852300008,11.738678956000056],[122.35992240000009,11.738568099000073],[122.36068152000007,11.73909214800005],[122.36305924000011,11.738996408000048],[122.36551673200006,11.738210334000026],[122.36602624200009,11.739742170000055],[122.36675191000008,11.73968674200006],[122.36927888000004,11.738920824000047],[122.37704764200011,11.737792100000037],[122.38224311300009,11.73595791400004],[122.3827578821199,11.735686832391442],[122.38370259591517,11.73200450121072],[122.3843730217068,11.727616744121622],[122.38460377633712,11.72318535637268],[122.38439265837633,11.718753016748089],[122.38374172208134,11.714362411203462],[122.38265725680279,11.710055821776667],[122.38114972563054,11.705874719464965],[122.37923366389826,11.701859364986099],[122.37692753855211,11.698048421262106],[122.37425356976266,11.694478581349511],[122.37123751651829,11.691184215388313],[122.3679084282802,11.688197039957576],[122.36429836510098,11.68554581300812],[122.36044208890618,11.68325605729593],[122.3563767289103,11.681349814965046],[122.35214142438198,11.67984543562916],[122.3477769481856,11.678757399979292],[122.34332531470652,11.678096180604202],[122.34122964973496,11.67798989481727],[122.34117076400001,11.67912474700006],[122.34062476000008,11.680061384000052],[122.33951873600007,11.679675991000067],[122.33855104300005,11.678295588000022],[122.33819478109521,11.677897403957259],[122.3371097352192,11.677947434607438],[122.33740421000006,11.678733153000051],[122.33848827900012,11.68017125400007],[122.33794106800008,11.681605547000059],[122.33722556200009,11.680340574000068],[122.3336755360001,11.678743558000066],[122.33235516700006,11.678663890000054],[122.33206117700001,11.679773370000019],[122.33263858400007,11.681918512000038],[122.33133497200004,11.682929909000054],[122.33011592100002,11.68110864700003],[122.32906677100004,11.681297575000032],[122.32868200600001,11.679803675000072],[122.32877223599952,11.6789863710047],[122.32550813600079,11.679784108764295],[122.32126577213569,11.681268956891966],[122.31719145017168,11.683156438170295],[122.31332439375007,11.685428382160298],[122.30970183369578,11.688062917136332],[122.30635864988876,11.69103468040622],[122.30332703563606,11.694315062213363],[122.30063618776572,11.697872480885158],[122.29831202542199,11.70167268659223],[122.29637694027012,11.705679090807843],[122.29484958052299,11.709853118309367],[122.29374467088208,11.71415457834579],[122.29307287014352,11.71854205140971],[122.29284066786367,11.722973287900079],[122.29305032110453,11.727405614845472],[122.29369983189751,11.731796346777536],[122.29478296567315,11.73610319680143],[122.29628931051036,11.740284683905307],[122.29820437666571,11.744300532584123],[122.30050973545251,11.748112060924035],[122.30080675599129,11.748508746922315],[122.30145468700005,11.748071383000022]]]}}]}