{"type":"FeatureCollection","features":[{"type":"Feature","properties":{"fid":13,"objectid":1844,"lccode":"01","liqcode":"2010600010000000","mappers":"DJLBuhay, MJVReyes, MITAbigania, KLPapiona, KMVitto","project":"MELP","province":"Kalinga","otherinfo":null,"datemapped":2018,"publishdate":null,"globalid":"{40A232C5-2457-4544-8DC2-C6ABDEDCF896}","st_area(shape)":0.01514121826809105,"st_perimeter(shape)":2.9651109694666844,"liqcodepk":"201060001000000000016","creator":"SNOOPYPC","createdate":"2019-02-19T15:21:28","editor":"LENOVO","modifydate":"2019-03-10T17:53:06","codemove":"na"},"geometry":{"type":"Polygon","coordinates":[[[121.43542769000011,17.49850664100006],[121.43661106000003,17.49924988400005],[121.43693235500007,17.499952673000053],[121.43739044400003,17.50372317700004],[121.43765022800005,17.504741695000064],[121.43765026500013,17.506338287000062],[121.4379389500001,17.509035939000054],[121.4382903473515,17.510945979708822],[121.44007970105561,17.5146543761411],[121.44242284641892,17.518475886009323],[121.4451452048784,17.522058605478176],[121.44822057131677,17.52536801700808],[121.45161933475408,17.528372234015226],[121.45530876326343,17.53104230854104],[121.45925331919261,17.5333525106436],[121.46341500165612,17.53528057679688],[121.46775371299043,17.536807924881803],[121.47222764562419,17.537919833676057],[121.47308179700484,17.538048122828403],[121.4738543310001,17.536652969000045],[121.47361383600003,17.535015658000077],[121.47380249700007,17.53391246000007],[121.47450991100004,17.532383132000067],[121.47442435399999,17.531373478000035],[121.4738820980001,17.53026609600004],[121.47268290500006,17.529234129000027],[121.47198485500007,17.527772659000046],[121.4720379370001,17.52651465200006],[121.47343287200012,17.526263125000064],[121.47532387700005,17.525416908000068],[121.47615297100003,17.523547190000045],[121.47742174800011,17.521213466000063],[121.47728949100008,17.519144212000075],[121.47743441100012,17.518200868000072],[121.47690227300008,17.517369643000052],[121.47692621100009,17.514897348000027],[121.47756876100004,17.514041510000023],[121.47763562900002,17.513139090000042],[121.47835977200009,17.512562749000043],[121.47877270700009,17.51159994000005],[121.47884394200003,17.510077399000068],[121.48039984200012,17.507255948000022],[121.47878995500004,17.505787474000044],[121.4788693690001,17.50462549500002],[121.47980323400009,17.503492674000032],[121.48027112800003,17.501789217000063],[121.48000205000005,17.500259127000046],[121.47912315700012,17.498982757000018],[121.47890224700005,17.49795315900008],[121.47919319100004,17.497123308000027],[121.48035436500005,17.495912771000068],[121.48115986000006,17.49432650400007],[121.48125765200008,17.493351709000024],[121.48280827300005,17.491612733000064],[121.48341785600009,17.490642434000055],[121.48370725600013,17.48819143600002],[121.48351129600007,17.487132091000035],[121.48382699000003,17.48637037700007],[121.48377248400004,17.483962746000035],[121.48456339300003,17.48228731400007],[121.48456487500003,17.48138638000006],[121.48408534000009,17.48044734600006],[121.48412664000013,17.479070421000074],[121.48502607900002,17.478761662000068],[121.48545480599999,17.477531151000054],[121.48457958400003,17.476721088000033],[121.4842151470001,17.47555701200002],[121.48403547700002,17.473833340000052],[121.48309136700004,17.47231977900003],[121.4830998010001,17.470752439000027],[121.48420073400008,17.469988345000043],[121.4842582330001,17.468458915000042],[121.4838367100001,17.467015891000074],[121.48536647200001,17.465978129000064],[121.48703210100005,17.461795465000023],[121.48707039400006,17.460929001000068],[121.48560250300011,17.45768991400007],[121.4858713440001,17.455300911000055],[121.4853793200001,17.450784058000067],[121.48483513751205,17.44864610940795],[121.48215804731254,17.448499419173086],[121.47754255878453,17.448681733489483],[121.4729678961751,17.449297289933842],[121.46847808379182,17.450340162140538],[121.46411633065468,17.451800311443954],[121.45992461553028,17.453663683375897],[121.45594328369931,17.455912342730446],[121.45221065930002,17.45852464590613],[121.44876267694805,17.46147544888024],[121.44563253615225,17.464736348829764],[121.44285038183651,17.46827595709215],[121.44044301403426,17.47206020085879],[121.43843362955046,17.476052650718618],[121.43684159808818,17.480214870919898],[121.43568227501312,17.484506788999397],[121.43496685258577,17.488887081239174],[121.43472384647461,17.492952317999766],[121.43482145800012,17.493138514000062],[121.43477006262627,17.494904719031585],[121.43488926256877,17.497701661775462],[121.43542769000011,17.49850664100006]]]}},{"type":"Feature","properties":{"fid":26,"objectid":1872,"lccode":"07","liqcode":"2010600070000000","mappers":"PJDelosReyes, ACPidlaoan","project":"READY","province":"Cagayan","otherinfo":null,"datemapped":2012,"publishdate":null,"globalid":"{DED92A0E-07A3-4F4C-B4F3-8B0691B82188}","st_area(shape)":0.05559407556334115,"st_perimeter(shape)":12.110269661988962,"liqcodepk":"201060007000000000065","creator":"SNOOPYPC","createdate":"2019-02-19T15:21:28","editor":"LENOVO","modifydate":"2019-03-10T17:50:55","codemove":"na"},"geometry":{"type":"Polygon","coordinates":[]}},{"type":"Feature","properties":{"fid":33,"objectid":1879,"lccode":"07","liqcode":"2010600070000000","mappers":"PJDelosReyes, ACPidlaoan","project":"READY","province":"Isabela","otherinfo":null,"datemapped":2012,"publishdate":null,"globalid":"{91DB2F3C-1BB4-4146-BF15-299122E74073}","st_area(shape)":0.020995608528075003,"st_perimeter(shape)":7.369078683303569,"liqcodepk":"201060007000000000072","creator":"SNOOPYPC","createdate":"2019-02-19T15:21:28","editor":"LENOVO","modifydate":"2019-03-10T17:50:55","codemove":"na"},"geometry":{"type":"Polygon","coordinates":[]}},{"type":"Feature","properties":{"fid":53,"objectid":1902,"lccode":"05","liqcode":"2010600050000000","mappers":"PJDelosReyes, ACPidlaoan","project":"READY","province":"Cagayan","otherinfo":null,"datemapped":2012,"publishdate":null,"globalid":"{C3D84E80-F2D4-4567-B477-D6223763EFE3}","st_area(shape)":0.07022270502489089,"st_perimeter(shape)":22.490008235492827,"liqcodepk":"201060005000000000097","creator":"SNOOPYPC","createdate":"2019-02-19T15:21:28","editor":"LENOVO","modifydate":"2019-03-10T17:50:55","codemove":"na"},"geometry":{"type":"Polygon","coordinates":[]}},{"type":"Feature","properties":{"fid":60,"objectid":1909,"lccode":"05","liqcode":"2010600050000000","mappers":"PJDelosReyes, ACPidlaoan","project":"READY","province":"Isabela","otherinfo":null,"datemapped":2012,"publishdate":null,"globalid":"{CB433018-447B-4349-A32C-A82989A96D3F}","st_area(shape)":0.11608726533381088,"st_perimeter(shape)":15.125533415932647,"liqcodepk":"201060005000000000104","creator":"SNOOPYPC","createdate":"2019-02-19T15:21:28","editor":"LENOVO","modifydate":"2019-03-10T17:50:55","codemove":"na"},"geometry":{"type":"Polygon","coordinates":[]}},{"type":"Feature","properties":{"fid":67,"objectid":1931,"lccode":"06","liqcode":"2010600060000000","mappers":"PJDelosReyes, ACPidlaoan","project":"READY","province":"Cagayan","otherinfo":null,"datemapped":2012,"publishdate":null,"globalid":"{5942F6C7-E5B3-4D1E-B486-921A1828B34C}","st_area(shape)":0.07051556894172502,"st_perimeter(shape)":22.109814549125648,"liqcodepk":"201060006000000000130","creator":"SNOOPYPC","createdate":"2019-02-19T15:21:28","editor":"LENOVO","modifydate":"2019-03-10T17:50:55","codemove":"na"},"geometry":{"type":"Polygon","coordinates":[]}},{"type":"Feature","properties":{"fid":74,"objectid":1938,"lccode":"06","liqcode":"2010600060000000","mappers":"PJDelosReyes, ACPidlaoan","project":"READY","province":"Isabela","otherinfo":null,"datemapped":2012,"publishdate":null,"globalid":"{57DA03B8-A8DC-43FC-92E3-BCA08FF4E128}","st_area(shape)":0.09517793329217689,"st_perimeter(shape)":18.374122243984093,"liqcodepk":"201060006000000000137","creator":"SNOOPYPC","createdate":"2019-02-19T15:21:28","editor":"LENOVO","modifydate":"2019-03-10T17:50:55","codemove":"na"},"geometry":{"type":"Polygon","coordinates":[]}}]}