{"type":"FeatureCollection","features":[{"type":"Feature","properties":{"fid":49,"objectid":1898,"lccode":"05","liqcode":"2010600050000000","mappers":" ","project":"READY","province":"Antique","otherinfo":null,"datemapped":2010,"publishdate":null,"globalid":"{F799DDD2-325B-4E56-934A-EE54555B99CC}","st_area(shape)":0.01053919356163067,"st_perimeter(shape)":4.296469707330003,"liqcodepk":"201060005000000000092","creator":"SNOOPYPC","createdate":"2019-02-19T15:21:28","editor":"LENOVO","modifydate":"2019-03-10T17:50:55","codemove":"na"},"geometry":{"type":"Polygon","coordinates":[]}},{"type":"Feature","properties":{"fid":59,"objectid":1908,"lccode":"05","liqcode":"2010600050000000","mappers":"PJDelosReyes, ACPidlaoan","project":"READY","province":"Iloilo","otherinfo":null,"datemapped":2010,"publishdate":null,"globalid":"{282D04BA-68E2-41E5-9B8A-0D8D85396F2D}","st_area(shape)":0.06128738608791496,"st_perimeter(shape)":10.692281506054618,"liqcodepk":"201060005000000000103","creator":"SNOOPYPC","createdate":"2019-02-19T15:21:28","editor":"LENOVO","modifydate":"2019-03-10T17:50:55","codemove":"na"},"geometry":{"type":"MultiPolygon","coordinates":[[[[122.20634378300007,10.640214150000073],[122.2055950240001,10.639030001000037],[122.2043435800001,10.638435702000036],[122.20353409400003,10.638376415000037],[122.20305446100008,10.63751707800003],[122.20051101800004,10.637091085000066],[122.1995470510001,10.637126782000053],[122.1985609740001,10.638268362000073],[122.19782865900004,10.638190181000029],[122.1974270830001,10.636949670000037],[122.19835414500005,10.636265618000039],[122.19845235400011,10.635579355000063],[122.19776354800003,10.633594456000026],[122.19720687100005,10.632715837000033],[122.19579998800009,10.63259786100002],[122.19562900200003,10.631624931000033],[122.1943775100001,10.63106866000004],[122.19363002000013,10.629426814000055],[122.19247465300008,10.628985337000074],[122.19073832000004,10.629514760000065],[122.19046613900002,10.630391253000024],[122.18892199500011,10.631188152000052],[122.18793562400003,10.63240600600005],[122.18739149100008,10.634063599000058],[122.18544344700001,10.634478068000023],[122.18424947900007,10.634036370000047],[122.18341959900012,10.634396499000047],[122.18280484000002,10.633632169000064],[122.18446528000004,10.632625845000065],[122.18589484000007,10.631466294000061],[122.18718801600005,10.630821379000054],[122.186615662,10.628588757000044],[122.18686850300003,10.627731386000049],[122.18837474300005,10.626724638000045],[122.18779853,10.625922172000061],[122.18620004500009,10.625384141000039],[122.18602982400013,10.624163295000072],[122.18504784100001,10.623760306000065],[122.18313959700004,10.623717195000037],[122.18232868600013,10.624210914000061],[122.18134680900005,10.623769759000028],[122.1820818740001,10.622799185000074],[122.18169982800009,10.621501477000036],[122.1802741680001,10.621211692000031],[122.17977451400009,10.620657418000063],[122.17707866100011,10.619620649000067],[122.17685061100008,10.618418726000074],[122.1770645690001,10.617675544000067],[122.17679976200009,10.615787106000026],[122.17562625100005,10.61494499200006],[122.1740245190001,10.61564637500004],[122.17346228200007,10.61684622100006],[122.17184190700003,10.617299538000053],[122.17155657700005,10.615906781000033],[122.17088512300006,10.61472276400002],[122.1711953460001,10.61403707200003],[122.17299160900006,10.612668873000075],[122.17201004000002,10.612132398000028],[122.17198590523113,10.61207809111612],[122.16932430068881,10.611680328490333],[122.1685042462265,10.61163830025203],[122.1695609410001,10.612822846000029],[122.16873920500007,10.614342062000047],[122.16998287700005,10.615154186000039],[122.16989614700003,10.618466434000029],[122.1706337160001,10.619257963000054],[122.17151055700003,10.618971405000025],[122.17234510800006,10.619917340000027],[122.17555791800008,10.619656173000065],[122.17584926800008,10.619907292000049],[122.17671742000003,10.62283688800005],[122.17772455500007,10.624765335000063],[122.179379014,10.624885211000048],[122.1794336800001,10.626291285000034],[122.18054401600013,10.626024571000073],[122.18249081899998,10.626029645000072],[122.18326684800002,10.627033086000042],[122.18513443800009,10.627519300000072],[122.18548356100005,10.628021008000076],[122.18510840000009,10.630003620000021],[122.18475643800002,10.630599708000034],[122.18368411499999,10.63119392200002],[122.181322678,10.633364027000027],[122.18018924400009,10.634959580000043],[122.18035986000008,10.63667399600007],[122.18010396600006,10.637732522000023],[122.17889191499998,10.639597476000061],[122.17968864800002,10.640138786000021],[122.18103205900002,10.640123039000057],[122.18296655300001,10.63745111900005],[122.18477933400004,10.636627736000033],[122.18630129200004,10.63534139400002],[122.19082365600002,10.633176829000035],[122.19177644300011,10.633602963000042],[122.19120859800013,10.634853370000029],[122.19151820800006,10.635566719000051],[122.19340523800008,10.636110803000062],[122.19465131400011,10.636094746000026],[122.19564203000003,10.636925388000067],[122.19563935600002,10.637946063000072],[122.19491822200008,10.638233086000069],[122.19388344700009,10.639366749000033],[122.19380294400003,10.640367966000044],[122.19489387300007,10.640101154000035],[122.19621730900008,10.640258614000059],[122.19849741500002,10.639397831000053],[122.20205854000005,10.640042431000039],[122.20318541200005,10.64091191400007],[122.20403574900003,10.643359863000057],[122.20392342800007,10.644345994000048],[122.20417606600004,10.643583903000035],[122.20504561100006,10.642785221000054],[122.20587507300002,10.642558485000052],[122.20753557300009,10.641552037000054],[122.20764240585991,10.641264832396814],[122.20729407596782,10.640294017044893],[122.20634378300007,10.640214150000073]]],[[[122.20685490600009,10.643857593000062],[122.20663914500007,10.645287307000046],[122.20704955100007,10.64485047000005],[122.20903255600001,10.645953197000036],[122.20907499835047,10.645950542627016],[122.20849996880153,10.643654884354962],[122.20844825487339,10.64351075719751],[122.20685490600009,10.643857593000062]]]]}},{"type":"Feature","properties":{"fid":73,"objectid":1937,"lccode":"06","liqcode":"2010600060000000","mappers":"PJDelosReyes, ACPidlaoan","project":"READY","province":"Iloilo","otherinfo":null,"datemapped":2010,"publishdate":null,"globalid":"{DBB85F45-4FB4-4F72-8BD3-A1308397A487}","st_area(shape)":0.017575391436836466,"st_perimeter(shape)":7.287100410898002,"liqcodepk":"201060006000000000136","creator":"SNOOPYPC","createdate":"2019-02-19T15:21:28","editor":"LENOVO","modifydate":"2019-03-10T17:50:55","codemove":"na"},"geometry":{"type":"MultiPolygon","coordinates":[[[[122.20753557300009,10.641552037000054],[122.20587507300002,10.642558485000052],[122.20504561100006,10.642785221000054],[122.20417606600004,10.643583903000035],[122.20392342800007,10.644345994000048],[122.2041717620001,10.645242899000035],[122.20540344000007,10.646027833000062],[122.20617462200005,10.646010709000052],[122.20663914500007,10.645287307000046],[122.20685490600009,10.643857593000062],[122.20844825487339,10.64351075719751],[122.20764240585991,10.641264832396814],[122.20753557300009,10.641552037000054]]],[[[122.17201004000002,10.612132398000028],[122.17299160900006,10.612668873000075],[122.1711953460001,10.61403707200003],[122.17088512300006,10.61472276400002],[122.17155657700005,10.615906781000033],[122.17184190700003,10.617299538000053],[122.17346228200007,10.61684622100006],[122.1740245190001,10.61564637500004],[122.17562625100005,10.61494499200006],[122.17679976200009,10.615787106000026],[122.1770645690001,10.617675544000067],[122.17685061100008,10.618418726000074],[122.17707866100011,10.619620649000067],[122.17977451400009,10.620657418000063],[122.1802741680001,10.621211692000031],[122.18169982800009,10.621501477000036],[122.1820818740001,10.622799185000074],[122.18134680900005,10.623769759000028],[122.18232868600013,10.624210914000061],[122.18313959700004,10.623717195000037],[122.18504784100001,10.623760306000065],[122.18602982400013,10.624163295000072],[122.18620004500009,10.625384141000039],[122.18779853,10.625922172000061],[122.18837474300005,10.626724638000045],[122.18686850300003,10.627731386000049],[122.186615662,10.628588757000044],[122.18718801600005,10.630821379000054],[122.18589484000007,10.631466294000061],[122.18446528000004,10.632625845000065],[122.18280484000002,10.633632169000064],[122.18341959900012,10.634396499000047],[122.18424947900007,10.634036370000047],[122.18544344700001,10.634478068000023],[122.18739149100008,10.634063599000058],[122.18793562400003,10.63240600600005],[122.18892199500011,10.631188152000052],[122.19046613900002,10.630391253000024],[122.19073832000004,10.629514760000065],[122.19247465300008,10.628985337000074],[122.19363002000013,10.629426814000055],[122.1943775100001,10.63106866000004],[122.19562900200003,10.631624931000033],[122.19579998800009,10.63259786100002],[122.19720687100005,10.632715837000033],[122.19776354800003,10.633594456000026],[122.19845235400011,10.635579355000063],[122.19835414500005,10.636265618000039],[122.1974270830001,10.636949670000037],[122.19782865900004,10.638190181000029],[122.1985609740001,10.638268362000073],[122.1995470510001,10.637126782000053],[122.20051101800004,10.637091085000066],[122.20305446100008,10.63751707800003],[122.20353409400003,10.638376415000037],[122.2043435800001,10.638435702000036],[122.2055950240001,10.639030001000037],[122.20634378300007,10.640214150000073],[122.20729407596782,10.640294017044893],[122.2069995305529,10.639473097523016],[122.20577211578039,10.636888870440254],[122.20471643900011,10.635403311000063],[122.20269023800005,10.634403547000034],[122.20106928600002,10.633303683000065],[122.20006036500001,10.631954231000066],[122.19912808800007,10.631360353000048],[122.19788344100004,10.631361573000047],[122.19605115600007,10.630604432000041],[122.195038726,10.629327175000068],[122.19386802600003,10.627435440000054],[122.19246081800009,10.626073426000064],[122.18969916800006,10.624754435000055],[122.18713581100008,10.623147508000049],[122.18467374000011,10.622368888000041],[122.18056938300005,10.620246184000049],[122.17898347800008,10.618920866000051],[122.17754059900005,10.61687019800007],[122.17731804300001,10.615687998000054],[122.17765046900001,10.614470035000066],[122.17753684750413,10.613289726101538],[122.17375933849502,10.612343108337686],[122.17198590523113,10.61207809111612],[122.17201004000002,10.612132398000028]]]]}}]}