{"type":"FeatureCollection","features":[{"type":"Feature","properties":{"fid":171,"objectid":9613,"lccode":"01","liqcode":"2010600010000000","mappers":"DJLBuhay, MJVReyes, MITAbigania, KLPapiona, KMVitto","project":"MELP","province":"Nueva Ecija","otherinfo":"hazard boundary with Pangasinan updated on 2024","datemapped":2018,"publishdate":null,"globalid":"{142EC992-C228-490B-8C06-5B4A68BA1242}","st_area(shape)":0.21874224791512728,"st_perimeter(shape)":7.9099228422392365,"liqcodepk":"201060001000000000019","creator":"SNOOPYPC","createdate":"2019-02-19T15:21:28","editor":"LENOVO","modifydate":"2019-03-10T17:53:06","codemove":"na"},"geometry":{"type":"Polygon","coordinates":[[[120.97803877199719,15.360628334361985],[120.97741063373117,15.356236834827385],[120.97634194515456,15.351926222339063],[120.97484302512225,15.347738007369875],[120.97292833342776,15.343712519056766],[120.97061633061563,15.339888517028871],[120.96792929939446,15.336302818440593],[120.96489312940017,15.332989943789372],[120.961537067407,15.329981784914375],[120.95789343540878,15.327307298356287],[120.9539973192948,15.32499222701227],[120.94988623112036,15.32305885274719],[120.94559974821718,15.321525782323304],[120.94117913260587,15.320407768690746],[120.93666693435311,15.319715569341463],[120.9321065826664,15.31945584307447],[120.92754196863058,15.319631086152803],[120.92301702356728,15.320239608456234],[120.9185752970381,15.321275549852007],[120.91425953851433,15.322728936622346],[120.91011128670065,15.32458577740546],[120.90617047042984,15.326828197730187],[120.90247502493509,15.329434611856314],[120.89906052716583,15.332379930277057],[120.89595985363316,15.335635800899382],[120.8932028640621,15.33917088159642],[120.89081611388681,15.342951141525806],[120.88882259835435,15.34694018833189],[120.8872415307072,15.351099618101207],[120.88608815659396,15.355389384720866],[120.8853736065167,15.35976818510183],[120.88510478776283,15.364193856574282],[120.88528431689639,15.368623782642695],[120.88591049349598,15.373015303204529],[120.88697731543323,15.37732612529],[120.88847453558706,15.38151473037159],[120.89038775948937,15.385540774320589],[120.89269858300197,15.389365476155138],[120.89538476873612,15.392951991827717],[120.89842045954765,15.396265769440824],[120.90177642707711,15.399274882454986],[120.905420352961,15.4019503376625],[120.90931714001627,15.404266354941528],[120.91342925040385,15.406200616075425],[120.91771706750895,15.407734480220004],[120.92213927803833,15.408853163922842],[120.92665327063345,15.40954588394153],[120.93121554713116,15.409805961467972],[120.93578214247707,15.409630886740413],[120.94030904920884,15.40902234340945],[120.94475264237886,15.407986192415933],[120.9490701007819,15.4065324155324],[120.95321982038769,15.404675019112503],[120.95716181595716,15.40243189898029],[120.96085810693728,15.399824667769208],[120.96427308388726,15.396878446386207],[120.96737385188148,15.393621621624678],[120.97013054756484,15.390085572278503],[120.97251662679729,15.386304366414702],[120.97450912011584,15.382314432740609],[120.97608885356117,15.378154209251482],[120.97724063275722,15.373863772562373],[120.97795338849372,15.369484451512669],[120.97822028243864,15.365058428781134],[120.97803877199719,15.360628334361985]]]}}]}