{"type":"FeatureCollection","features":[{"type":"Feature","properties":{"fid":38,"objectid":1885,"lccode":"07","liqcode":"2010600070000000","mappers":"JSPerez ","project":"READY","province":"Surigao del Sur","otherinfo":null,"datemapped":2007,"publishdate":null,"globalid":"{FDA7F772-DEDF-47F9-B8FA-912035EE9393}","st_area(shape)":0.04086090170713132,"st_perimeter(shape)":12.6212836285462,"liqcodepk":"201060007000000000079","creator":"SNOOPYPC","createdate":"2019-02-19T15:21:28","editor":"LENOVO","modifydate":"2019-03-10T17:50:55","codemove":"na"},"geometry":{"type":"Polygon","coordinates":[]}},{"type":"Feature","properties":{"fid":81,"objectid":1916,"lccode":"05","liqcode":"2010600050000000","mappers":"JSPerez","project":"READY","province":"Surigao del Sur","otherinfo":null,"datemapped":2007,"publishdate":null,"globalid":"{436AF97F-3789-427C-9D93-46719D182001}","st_area(shape)":0.0045057935314115815,"st_perimeter(shape)":1.4887365100085943,"liqcodepk":"201060005000000000114","creator":"SNOOPYPC","createdate":"2019-02-19T15:21:28","editor":"LENOVO","modifydate":"2019-03-10T17:50:55","codemove":"na"},"geometry":{"type":"Polygon","coordinates":[]}},{"type":"Feature","properties":{"fid":86,"objectid":1945,"lccode":"06","liqcode":"2010600060000000","mappers":"JSPerez","project":"READY","province":"Surigao del Sur","otherinfo":null,"datemapped":2007,"publishdate":null,"globalid":"{E4D44F91-040C-4614-A92C-CD665C28A96D}","st_area(shape)":0.00901660285265909,"st_perimeter(shape)":4.024381446086732,"liqcodepk":"201060006000000000145","creator":"SNOOPYPC","createdate":"2019-02-19T15:21:28","editor":"LENOVO","modifydate":"2019-03-10T17:50:55","codemove":"na"},"geometry":{"type":"Polygon","coordinates":[]}},{"type":"Feature","properties":{"fid":89,"objectid":1949,"lccode":"01","liqcode":"2010600010000000","mappers":"DJLBuhay, MITAbigania, KLPapiona, KMVitto","project":"MELP","province":"Agusan del Sur","otherinfo":null,"datemapped":2018,"publishdate":null,"globalid":"{1E6CEE5B-C387-4818-8ED8-6D59425E2C9E}","st_area(shape)":0.13568303251391492,"st_perimeter(shape)":20.45926534020769,"liqcodepk":"201060001000000000548","creator":null,"createdate":"2019-06-04T13:29:47","editor":"SDE","modifydate":"2019-06-04T10:20:42","codemove":"na"},"geometry":{"type":"MultiPolygon","coordinates":[[[[125.96094458200002,8.529391935000035],[125.96280650900007,8.529224794000072],[125.96268715300003,8.528690311000048],[125.96166094900002,8.52762733800006],[125.96182838000006,8.526918583000052],[125.96108720800011,8.52545189400007],[125.9613592290001,8.523493384000062],[125.96229325600005,8.52318512200003],[125.96323190600003,8.523479138000026],[125.96357201400009,8.522745168000029],[125.96311873800005,8.521873825000059],[125.96346665300008,8.521218671000044],[125.96517051800004,8.520796990000065],[125.9667745170001,8.519565810000072],[125.9671042120001,8.521226830000044],[125.96669352000004,8.522147768000023],[125.96819517800009,8.522595231000027],[125.96853708600008,8.52396933800003],[125.97049927400006,8.52435591400007],[125.97112459800007,8.523246907000045],[125.97279879000006,8.523650010000042],[125.97343906200001,8.522612590000051],[125.97291009800004,8.521268602000022],[125.97253164400001,8.518890932000032],[125.97184843200012,8.518093063000036],[125.97338268600004,8.517163552000056],[125.97373905200004,8.516673249000062],[125.97585854500007,8.516915202000062],[125.97700934600006,8.518569928000034],[125.97809402300004,8.519120924000049],[125.97781267300003,8.519997855000042],[125.97671757000013,8.51996320200004],[125.97587744400005,8.519367313000028],[125.9760856030001,8.522076110000055],[125.97689239200008,8.522084284000073],[125.97682725200002,8.521109617000034],[125.9785453090001,8.521598405000077],[125.97909105400004,8.519514839000067],[125.978936384,8.518139321000032],[125.97775198400007,8.517732496000065],[125.97642788400003,8.516021732000072],[125.97672855700013,8.51547090500003],[125.97895877000008,8.515750238000068],[125.97920887800001,8.517048544000032],[125.98092702200005,8.518173092000039],[125.98131668500002,8.518887141000048],[125.97999106500005,8.520092336000062],[125.98178073300006,8.521770831000026],[125.98168418200008,8.522947499000054],[125.98218688000009,8.524616719000052],[125.98269511700006,8.524517222000041],[125.9829917070001,8.523128693000043],[125.98270190700009,8.521668173000023],[125.98305382700005,8.51998284900003],[125.98430364600006,8.520154924000053],[125.98581740100009,8.519684425000035],[125.98706594700003,8.518451128000038],[125.98796369900003,8.519046546000027],[125.9883025690001,8.51828390000003],[125.99011744500001,8.51825563500006],[125.99153298800003,8.518746685000055],[125.99293864000003,8.517961504000025],[125.99385108400008,8.516735556000071],[125.9960168360001,8.516990013000054],[125.9964447430001,8.516441787000074],[125.99875317600005,8.515047352000067],[125.99889254400011,8.514443984000023],[126.00033402100009,8.512712046000047],[126.00196192900012,8.51272819400003],[126.00365461,8.511811716000066],[126.00501329100007,8.512403539000047],[126.00587631600001,8.512239143000045],[126.00682185300003,8.513422096000056],[126.00735145700001,8.514837698000063],[126.00975306000008,8.514317251000017],[126.01060984000003,8.515199729000074],[126.00964310300003,8.518691877000037],[126.00968253200004,8.520053896000036],[126.01059482200004,8.520663476000038],[126.00991134700007,8.521686916000023],[126.01019968600006,8.52356325900007],[126.01077075200011,8.524749082000028],[126.01001726500009,8.526031191000072],[126.00945842100009,8.528258250000022],[126.00874232300009,8.528794377000054],[126.00932466900008,8.52957858700006],[126.01033741300012,8.531979913000042],[126.01144188400008,8.531369074000054],[126.01134615700005,8.530179577000071],[126.011718287,8.528025664000038],[126.0126943350001,8.527573562000041],[126.01226136900004,8.525626645000045],[126.01320232900002,8.524371765000067],[126.01413347200003,8.52370490800007],[126.01517178100005,8.522004728000068],[126.01547825900003,8.520668718000023],[126.01437736600006,8.51988853000006],[126.01612097300007,8.519209051000075],[126.01649163500008,8.519942310000035],[126.01756054600004,8.52031643500004],[126.01841385900002,8.520137741000042],[126.02020475499998,8.520834491000073],[126.02057084900002,8.521596457000044],[126.02234832200008,8.521702168000047],[126.02235786900009,8.522921001000043],[126.02334535200009,8.523319637000043],[126.0237487940001,8.522719001000043],[126.02316157200003,8.521313453000062],[126.02386587400008,8.519276476000071],[126.02456132900011,8.51917547600004],[126.02459526100006,8.52044191800007],[126.02522431600006,8.521058435000041],[126.02664392300005,8.521453706000043],[126.02656701400008,8.523892109000027],[126.02621271600005,8.52463576400004],[126.02696013100001,8.52503625500003],[126.028121671,8.523139120000053],[126.02822651699998,8.52120240200003],[126.02978247300008,8.520616701000051],[126.03044153600001,8.518938575000051],[126.03167244100008,8.516706302000044],[126.033844078,8.511981118000051],[126.03420584900005,8.509134214000028],[126.03499954300004,8.506260051000025],[126.03599315800011,8.504388130000052],[126.03603666700008,8.503814195000075],[126.03445340700011,8.503969909000032],[126.03365408200011,8.506127117000062],[126.03056501300011,8.508056039000053],[126.02941718000011,8.507713542000035],[126.02832117600009,8.505714450000028],[126.02714019700011,8.505126113000074],[126.02648455100007,8.504175197000052],[126.02640243400003,8.502885229000071],[126.0255538130001,8.501816305000034],[126.02358401700009,8.50166426800007],[126.0232773560001,8.502359747000073],[126.02105170000004,8.503261289000024],[126.01946300400006,8.50272387900003],[126.01865276500007,8.503494954000075],[126.0186628370001,8.504785489000028],[126.01789724800007,8.505126015000032],[126.0165210580001,8.50413284500007],[126.0160770550001,8.50568979600007],[126.01480806900008,8.506129810000058],[126.01388669700007,8.504965812000021],[126.01387217000003,8.503101698000023],[126.01329285400004,8.502699865000066],[126.01159975300004,8.502566663000037],[126.01099066600011,8.501424143000063],[126.01004940200004,8.500786091000068],[126.00807550300011,8.500108193000074],[126.005196424,8.500345470000068],[126.00359282500007,8.500979226000025],[126.00300119900008,8.50208320300004],[126.00044047700011,8.503130623000061],[125.9991446780001,8.503212285000073],[125.99647753400005,8.502922063000026],[125.99515402200008,8.502525910000031],[125.992764974,8.500942883000052],[125.99161408600003,8.49865244600005],[125.99060377300009,8.497688763000044],[125.98976127500009,8.496135524000069],[125.989723,8.494760141000027],[125.98930198100004,8.494141847000037],[125.98834511700011,8.49404090100006],[125.98587002900003,8.492274343000076],[125.98384147800004,8.492160779000073],[125.98288461400011,8.491416297000058],[125.98114950100012,8.491605572000026],[125.97988644100008,8.490482540000071],[125.97751341800006,8.491340587000025],[125.976236072,8.491400759000042],[125.97591281800011,8.491823881000071],[125.97479099100009,8.490799891000052],[125.97371491800004,8.490731596000048],[125.9721810010001,8.491068320000068],[125.97178121300011,8.491530264000064],[125.9693963970001,8.491108607000058],[125.96911853300003,8.48996518700005],[125.96841683300012,8.488892623000027],[125.96780444,8.487214371000046],[125.96600553600001,8.486331077000044],[125.96554328100001,8.484541085000046],[125.96624318500005,8.483139938000022],[125.96591173000002,8.482492334000026],[125.96491454000011,8.482691104000024],[125.96379466600003,8.481915623000022],[125.96376450200013,8.480481766000024],[125.96296843200001,8.47903777500005],[125.96137473800002,8.477830862000076],[125.96122532200003,8.477126900000028],[125.95930850000003,8.477619424000068],[125.95846692700003,8.47744652400007],[125.95874488400011,8.476117889000024],[125.96028879100005,8.475520632000041],[125.96135668100011,8.47546475400003],[125.96097383600011,8.474057462000076],[125.9597108050001,8.473708488000055],[125.959692334,8.472860123000032],[125.95896697500007,8.472184411000054],[125.9590224691656,8.471444969957654],[125.9565579334975,8.474806600550554],[125.95429820980374,8.47862573582344],[125.9524253336845,8.482647000559247],[125.95095735555405,8.486831670053142],[125.94990842776674,8.491139444199861],[125.94928866775307,8.495528835582602],[125.94910405998391,8.499957569062694],[125.94935639773007,8.504382989020238],[125.95004326520088,8.508762470320086],[125.9511580602569,8.513053829039045],[125.95269005749894,8.517215728990518],[125.95462451114518,8.521208080121456],[125.95694279672185,8.524992424933243],[125.95769380029243,8.525984477054791],[125.9577106270001,8.525981883000041],[125.9586273650001,8.526548552000067],[125.95933214600007,8.526089067000042],[125.96000026700005,8.526951264000045],[125.95989931800011,8.528348223000023],[125.95954557028858,8.528430570905641],[125.95962259021559,8.528532309192517],[125.96082338318854,8.529831005967846],[125.96094458200002,8.529391935000035]],[[125.98426406000011,8.51018374900002],[125.98640149600008,8.509769426000048],[125.98698926000009,8.50865712800004],[125.9889062530001,8.508800188000064],[125.98945626600005,8.507275879000076],[125.9905066660001,8.50712442300005],[125.99149325500004,8.50803465000007],[125.99303406400007,8.507965468000066],[125.99314118200004,8.508920322000051],[125.9918181390001,8.509064672000022],[125.9910291220001,8.50948659900007],[125.99034836600005,8.510868507000055],[125.98774582900012,8.511490758000035],[125.98591458300008,8.511260997000019],[125.98563402800004,8.512238303000059],[125.98319168600004,8.513088752000044],[125.98270004900007,8.512848724000035],[125.98304864900001,8.511354636000021],[125.98426406000011,8.51018374900002]]],[[[126.03569574800008,8.518083038000041],[126.03531668246039,8.519156465440979],[126.03581136909762,8.518093739548311],[126.03569574800008,8.518083038000041]]],[[[126.03877394100006,8.50617859700003],[126.0392619546661,8.50647235153866],[126.0394770109925,8.504946591515218],[126.03877394100006,8.50617859700003]]]]}}]}