{"type":"FeatureCollection","features":[{"type":"Feature","properties":{"fid":195,"objectid":2253,"lccode":"01","liqcode":"<Null>","mappers":"DJLBuhay, MJVReyes, MITAbigania, KLPapiona, KMVitto","project":"MELP","province":"Davao Oriental","otherinfo":null,"datemapped":2018,"publishdate":null,"globalid":"{106618BF-C9C2-442C-8DFA-3A2107C26CAB}","st_area(shape)":0.03977934253941522,"st_perimeter(shape)":14.106801890447542,"liqcodepk":null,"creator":null,"createdate":null,"editor":null,"modifydate":null,"codemove":null},"geometry":{"type":"MultiPolygon","coordinates":[[[[126.55702823000003,7.445545329000027],[126.5558517520001,7.444355135000024],[126.55453268100005,7.442658229000074],[126.55342752500007,7.440819916000065],[126.55242203700006,7.438718753000046],[126.55187083900013,7.436872254000036],[126.55050427900007,7.4335255500000725],[126.55001709800003,7.43138082900003],[126.54948235700009,7.4300963420000725],[126.5492684840001,7.428729370000043],[126.54865537900002,7.426913776000048],[126.54811587000006,7.424157042000048],[126.54830607200006,7.422118354000076],[126.54847119900013,7.418037531000035],[126.54838949500004,7.413822073000063],[126.5488292760001,7.411229464000027],[126.54973323200012,7.408600029000069],[126.55090911100001,7.406209224000066],[126.55196345900004,7.405244409000033],[126.55415354500008,7.402226032000044],[126.5566492280001,7.400387653000053],[126.556542293,7.39964519600005],[126.55460518100006,7.400593832000027],[126.5534834670001,7.401384148000033],[126.55244528800006,7.401455565000047],[126.55130143700002,7.400758727000037],[126.54960202300003,7.401029733000029],[126.54895467000006,7.402148776000047],[126.54728541800011,7.402890651000064],[126.54569626400009,7.401672999000028],[126.54487250500007,7.401906485000042],[126.54397045800012,7.403147200000038],[126.54330276000007,7.402780738000048],[126.54434733727693,7.399511446457687],[126.5433030759366,7.399660195400303],[126.5431845309388,7.399689143275553],[126.54303870500007,7.400274496000063],[126.54232515600008,7.400824824000037],[126.5411500460001,7.401113646000055],[126.53943486400011,7.401198912000041],[126.53996638700005,7.402377068000023],[126.53957190100004,7.403221443000062],[126.53824090000012,7.4031271270000625],[126.53768236500004,7.402738209000059],[126.53623252300008,7.402726383000072],[126.53543626900013,7.403739861000076],[126.53403395500006,7.403975519000028],[126.53201736173472,7.403478275150316],[126.53150042000397,7.403718840634204],[126.53094412200005,7.404116849000046],[126.53068163377647,7.404111057368139],[126.52959535498651,7.404752831596835],[126.52947048500005,7.40504781100003],[126.53081337000003,7.405130343000056],[126.53211881100005,7.405814906000047],[126.5329405970001,7.405189327000074],[126.535388699,7.404953700000019],[126.53599479400009,7.404470538000053],[126.53704058000007,7.404564847000073],[126.53800319200002,7.404152404000057],[126.53850925800008,7.4048756060000755],[126.5394654270001,7.405040025000063],[126.54119291700009,7.403793650000069],[126.54287342400005,7.40476226900006],[126.5425038100001,7.405350253000049],[126.54243583700008,7.4066626980000505],[126.54086714700009,7.406910135000032],[126.53857356000003,7.406309045000057],[126.53523417400002,7.406120393000036],[126.53417650900009,7.405849313000033],[126.53309506500013,7.405990700000076],[126.53150256700008,7.407664095000029],[126.52991010500013,7.408100086000047],[126.52892369500012,7.40953779600005],[126.52884048500005,7.410327369000073],[126.526879612,7.4110343950000575],[126.52501383200001,7.410998988000072],[126.52266079100004,7.4115999400000305],[126.5200225420001,7.411988759000055],[126.51993202405274,7.412034235037932],[126.51868071935861,7.413396986189832],[126.51865584500001,7.413450015000023],[126.51759813800003,7.414675583000077],[126.51751972416193,7.414661371270999],[126.51705516661211,7.415167295408094],[126.51438888383026,7.418714216073445],[126.51208367758413,7.422504902706882],[126.51174464920733,7.423210150803678],[126.51275220600009,7.42341951800006],[126.51339451700005,7.424827375000064],[126.5149977420001,7.4247908280000265],[126.51571190100003,7.424307396000071],[126.51662723900007,7.42203065600006],[126.51707194500011,7.4216483990000475],[126.51823966900008,7.421793431000026],[126.51850114600008,7.420768195000053],[126.51940435100006,7.419884388000069],[126.5213057970001,7.41946020200004],[126.52237533800009,7.419990533000031],[126.52298137600009,7.421522524000069],[126.52396774700004,7.421428277000075],[126.52354293500002,7.420049488000076],[126.52470757200001,7.419707772000037],[126.52638852100006,7.419848576000049],[126.52729528100008,7.42050918700005],[126.52907786000003,7.421015968000064],[126.5297433380001,7.4218644630000785],[126.53088418500009,7.422312302000022],[126.53157345800003,7.422194478000052],[126.53285687800008,7.4238443250000605],[126.53247656500002,7.424787060000028],[126.53154964700002,7.423702875000064],[126.53112182000007,7.423867844000027],[126.53119307600002,7.425541218000034],[126.53213187700008,7.426660751000044],[126.53236952200005,7.427850967000042],[126.53215557200008,7.42922971300004],[126.53158869400009,7.429027586000075],[126.53140691600004,7.428039487000034],[126.52999275200011,7.42708492400004],[126.52945800700003,7.425941835000058],[126.52817451800001,7.4266842080000375],[126.52787740500003,7.42720270600006],[126.52579773300012,7.4264838080000555],[126.5254908600001,7.427858377000063],[126.52615566200006,7.428456957000038],[126.52760702600007,7.427850832000045],[126.52892613900008,7.428062985000053],[126.53196538100008,7.430891276000065],[126.53158508300008,7.431303710000066],[126.53227414700008,7.432152412000051],[126.53250028600009,7.434099973000061],[126.53317744900006,7.434261563000063],[126.53483215700011,7.435453352000026],[126.53606768500005,7.43582575000005],[126.53700073000006,7.435782493000032],[126.53821131500001,7.43453062800006],[126.53956143700009,7.434269046000055],[126.53958113400006,7.4352363940000705],[126.53854896700012,7.435345847000065],[126.53872761800007,7.436246528000028],[126.54001068500008,7.435628705000055],[126.54117168800008,7.436609285000028],[126.54259968400005,7.440097633000049],[126.54348773700008,7.440413050000072],[126.54465674300002,7.441442889000027],[126.54616640700011,7.441532634000055],[126.54723594900008,7.44202758700004],[126.54792519000011,7.443041016000051],[126.55100310000012,7.444278403000055],[126.55176368800005,7.443736370000065],[126.553368018,7.443901388000026],[126.5554239170001,7.444808798000054],[126.5565766310001,7.445857585000057],[126.55692124500001,7.446594078000034],[126.55784817200002,7.447324695000018],[126.5599159840001,7.447230484000044],[126.563160282,7.447996516000044],[126.56558947100008,7.448156420000035],[126.56675576200007,7.4485158730000744],[126.56783372700012,7.448393605000035],[126.56896655515513,7.447755028033132],[126.56812183800002,7.447878820000027],[126.56765837400006,7.447489945000028],[126.56644619800012,7.447955367000076],[126.56416447800007,7.447949410000034],[126.56206697100002,7.447560489000068],[126.55982092300009,7.446829835000075],[126.55831272900004,7.447073176000063],[126.55720957000005,7.446219057000062],[126.55702823000003,7.445545329000027]],[[126.5361366750001,7.430019366000068],[126.5345323250001,7.430561392000074],[126.5335403140001,7.430354693000026],[126.53375410100011,7.428182700000034],[126.53617179200012,7.428499207000074],[126.5361366750001,7.430019366000068]],[[126.5352482720001,7.432729692000064],[126.534214388,7.43201083200006],[126.53535149300001,7.43147825400007],[126.53640994700005,7.432093383000051],[126.53699223000001,7.433165753000024],[126.53602959300008,7.434450189000074],[126.53526893600008,7.433729265000068],[126.5352482720001,7.432729692000064]]],[[[126.56976977561645,7.447637315706295],[126.56910227000003,7.447678525000072],[126.56896655515513,7.447755028033132],[126.56976977561645,7.447637315706295]]],[[[126.57163870700003,7.448427718000062],[126.5731606160001,7.448568308000059],[126.5716513640001,7.448202972000045],[126.57017182900006,7.447578394000059],[126.56976977561645,7.447637315706295],[126.5699584900001,7.447625665000033],[126.57163870700003,7.448427718000062]]],[[[126.59627308300001,7.451842507000038],[126.5954352870001,7.45104709000003],[126.59460347600007,7.448708015000024],[126.59335565900007,7.448784574000056],[126.59270797200008,7.449155740000039],[126.59022426100012,7.447906601000056],[126.58882195500007,7.4478712100000735],[126.58732238300001,7.448250180000061],[126.58720826900003,7.449230578000026],[126.58843634700008,7.450055745000043],[126.5883490670001,7.45137994300006],[126.58732226200003,7.452473431000042],[126.58713208000006,7.453830890000059],[126.58857706700007,7.45745081700005],[126.5903263470001,7.458808316000047],[126.59097280300013,7.459901832000072],[126.59101081000007,7.460655968000026],[126.5893755100001,7.463031437000038],[126.58933744000001,7.464464281000062],[126.58899515400003,7.465482343000076],[126.5879683610001,7.466123320000066],[126.586801121,7.46759660600003],[126.58554135500005,7.469929630000022],[126.58454308100012,7.470683719000021],[126.58302193100009,7.470825073000074],[126.58114427200007,7.470589358000039],[126.58009845700008,7.471531974000074],[126.57888619000006,7.47516110500004],[126.57824442900005,7.476115505000053],[126.57826811600013,7.478966966000028],[126.5792646141307,7.47996029837009],[126.58041720627283,7.479116906215379],[126.58372577723937,7.4761568848473425],[126.58672767575894,7.472887411465713],[126.58939398887647,7.469339979704442],[126.5916990382029,7.465548760658183],[126.5936206272205,7.461550273510731],[126.59514025495116,7.4573830335402285],[126.59624329393475,7.453087180902416],[126.59636802146527,7.452278283962464],[126.59627308300001,7.451842507000038]]]]}}]}