{"type":"FeatureCollection","features":[{"type":"Feature","properties":{"fid":38,"objectid":1885,"lccode":"07","liqcode":"2010600070000000","mappers":"JSPerez ","project":"READY","province":"Surigao del Sur","otherinfo":null,"datemapped":2007,"publishdate":null,"globalid":"{FDA7F772-DEDF-47F9-B8FA-912035EE9393}","st_area(shape)":0.04086090170713132,"st_perimeter(shape)":12.6212836285462,"liqcodepk":"201060007000000000079","creator":"SNOOPYPC","createdate":"2019-02-19T15:21:28","editor":"LENOVO","modifydate":"2019-03-10T17:50:55","codemove":"na"},"geometry":{"type":"Polygon","coordinates":[[[126.12795339900003,8.655745572000058],[126.1279173280001,8.654158301000052],[126.12671372500006,8.653754118000052],[126.12581995500011,8.65451809900003],[126.12485818800009,8.654800077000063],[126.12361033500008,8.653793778000022],[126.12362324800006,8.65535840000007],[126.12276063600007,8.656304324000075],[126.1221585730001,8.655895756000065],[126.1220462460001,8.654800218000046],[126.12120658900005,8.653360252000025],[126.12004883600002,8.653366010000068],[126.11874445900003,8.652462939000031],[126.11740724800005,8.651006234000022],[126.11638339800005,8.65146568600005],[126.11574044400002,8.652152589000025],[126.11456888100007,8.651331992000053],[126.11306229500008,8.651218482000044],[126.11233780800002,8.650727299000037],[126.11077320600009,8.650898419000042],[126.10905472600007,8.649675615000033],[126.10803706400009,8.650871184000039],[126.10713080500011,8.650238416000034],[126.10580761700011,8.649948774000052],[126.10465342500004,8.650053471000033],[126.10313089500005,8.647735825000039],[126.10528910400001,8.646393405000028],[126.10594331900008,8.645552879000036],[126.10347032700008,8.645277373000056],[126.10042564100003,8.643601982000062],[126.09783857000002,8.64336997000004],[126.09642005400008,8.642536244000041],[126.09598982000011,8.641854428000045],[126.09539604600002,8.639414990000034],[126.09541676000003,8.63773583400007],[126.09576386000003,8.636670814000068],[126.09685822100003,8.635759655000074],[126.09690805100003,8.63483409400004],[126.09555501400007,8.63383063300006],[126.09565446600004,8.631703267000034],[126.09622653800012,8.628671901000075],[126.09699452100006,8.627146611000056],[126.09789322400002,8.624763646000078],[126.09748349200004,8.623264306000067],[126.09623111400003,8.621634980000067],[126.0950886800001,8.621428318000026],[126.09421195600008,8.620875726000067],[126.09328043900007,8.619641745000024],[126.09183761500002,8.619627057000061],[126.09188275699998,8.618448521000062],[126.09067025200011,8.617203632000042],[126.08925813500002,8.617159076000062],[126.08855443000006,8.616628855000043],[126.08707106400006,8.616747432000068],[126.08486510900002,8.615194326000049],[126.08392903700009,8.614154781000023],[126.08334271900004,8.611603752000063],[126.08361903600007,8.610802160000048],[126.08284063900011,8.610505568000063],[126.08349902400005,8.609150940000065],[126.08466565000003,8.608733402000043],[126.0856155550001,8.60729591000006],[126.08875563500008,8.605327938000077],[126.08995255700006,8.605043090000038],[126.09068757500005,8.60430866200005],[126.0918501540001,8.604067876000045],[126.09470245900003,8.602536541000063],[126.09655606100013,8.601905073000069],[126.09922230300005,8.600093470000047],[126.0994929597617,8.599822041759055],[126.09914723039735,8.59969597379893],[126.09581909921378,8.598839522607877],[126.09580704900009,8.598844059000044],[126.09345519600005,8.599143564000029],[126.09268060000012,8.599710776000052],[126.09258851600009,8.600619094000026],[126.09174472700012,8.60084035700004],[126.09077503000005,8.601887760000064],[126.08966843800012,8.60240815000003],[126.09015472900012,8.603080817000034],[126.08821934100001,8.603624392000027],[126.08823079300008,8.602997212000046],[126.08660997100003,8.603488765000066],[126.08577921600012,8.60531060000005],[126.08461923000004,8.605385927000041],[126.08449103600003,8.605931415000043],[126.08336740700008,8.606402533000052],[126.08172240500006,8.605953628000066],[126.0777803650001,8.608493418000023],[126.07652237200013,8.608751027000038],[126.07507405600006,8.610082739000061],[126.07302984900002,8.611534722000044],[126.07140627000001,8.613742372000047],[126.0693090630001,8.614798679000044],[126.06687725300003,8.615478176000066],[126.06781167100009,8.616213223000045],[126.06773434400009,8.616906957000024],[126.06849967300002,8.617230825000036],[126.06895947200006,8.618728791000022],[126.07058160100009,8.618385739000074],[126.07039167300002,8.619509425000045],[126.07162122600006,8.619829569000046],[126.07157686900007,8.620489984000073],[126.07228383100005,8.621804443000025],[126.07528501600008,8.621813357000065],[126.07666858300003,8.620680193000053],[126.07782702200008,8.620406933000027],[126.07794198500005,8.622320074000072],[126.07863243100007,8.623634645000038],[126.07819151200012,8.624463231000052],[126.0787983770001,8.625695930000061],[126.0798402160001,8.62535758100006],[126.08051461600007,8.62469210900002],[126.08192402000009,8.624697311000034],[126.08276184400005,8.623733504000027],[126.08352939400004,8.624337898000022],[126.0843072030001,8.624150126000075],[126.08524534000001,8.62330101200007],[126.08633987700011,8.623325167000074],[126.08682472900011,8.623816326000052],[126.08555960800004,8.625245586000062],[126.0849151560001,8.625514828000066],[126.08352183000012,8.62544349500007],[126.08309558700012,8.626040961000054],[126.0832744830001,8.627656648000025],[126.08413554700007,8.62751769300007],[126.08487029700005,8.628155307000041],[126.08485014900009,8.629756066000027],[126.08578423000007,8.630441650000021],[126.08618655300006,8.628936791000056],[126.08686443000012,8.628700329000024],[126.087564616,8.629173223000064],[126.08867272900011,8.63086386200007],[126.0890494450001,8.632329388000072],[126.08880962100011,8.633420417000025],[126.08985374400002,8.633362509000053],[126.09203136400004,8.63200831800003],[126.09286290500006,8.632315150000066],[126.09330325500004,8.63345017300003],[126.09237581200011,8.635619318000067],[126.09100746700007,8.63658733900007],[126.08945398300011,8.637210435000041],[126.08758246000004,8.637473060000046],[126.08675883100011,8.63813975100004],[126.08366976000003,8.639567196000028],[126.08314410500009,8.640181994000045],[126.0818769030001,8.639317666000068],[126.08101272800002,8.639077090000056],[126.07997581700009,8.640025981000063],[126.08066002100009,8.640565027000038],[126.08121615400012,8.63962000400005],[126.0826672190001,8.640664371000067],[126.08233548800003,8.642696690000035],[126.08242485300002,8.64348796100006],[126.08186597900009,8.64408650200005],[126.08064197700003,8.644459392000044],[126.08119464600007,8.645131522000042],[126.08270090500002,8.644805843000029],[126.08396895800003,8.643739577000078],[126.08517829200002,8.643597801000055],[126.08561946900011,8.642802254000062],[126.0879490750001,8.641776818000038],[126.08797267999998,8.642634720000046],[126.08877606800002,8.643552251000074],[126.08863772900008,8.64488999200006],[126.08779223200008,8.644913343000042],[126.08778644900006,8.646233399000037],[126.08678028400003,8.646885134000057],[126.08647401400003,8.647960176000026],[126.08581022600004,8.64789951800003],[126.08467425300013,8.648898713000051],[126.08346597700007,8.649172514000044],[126.08259705600005,8.650384032000032],[126.08338115500008,8.650971748000073],[126.08365359600008,8.651844172000038],[126.0846037460001,8.652463506000062],[126.08532471000001,8.651401642000051],[126.08666493700002,8.651044319000052],[126.08706489300005,8.651288529000054],[126.08668874900002,8.653964729000052],[126.08696470000007,8.655266075000041],[126.08787551500006,8.655126779000055],[126.08869663200007,8.656176186000039],[126.08974041400006,8.656068772000026],[126.0891691260001,8.653119652000044],[126.08927484000003,8.651848278000045],[126.08986511100011,8.651034906000062],[126.09123426200006,8.652195471000027],[126.09139351100008,8.651385582000046],[126.09283696400009,8.651489409000021],[126.09360718900007,8.650377652000033],[126.09448136900005,8.651839133000067],[126.0951621590001,8.653978746000064],[126.09479317400007,8.655499865000023],[126.09616385000004,8.654812192000064],[126.09666260400003,8.654973140000038],[126.09829143000003,8.653408850000059],[126.09874568100008,8.654213763000028],[126.0999125520001,8.654963318000057],[126.10051955900008,8.656195939000044],[126.10153017000005,8.65608876300007],[126.1017889950001,8.655294594000052],[126.10136808800007,8.654522469000026],[126.10268281900004,8.654070928000065],[126.10307312600003,8.653493238000069],[126.1043783990001,8.653331378000075],[126.10588161700002,8.655073069000023],[126.10565626200001,8.653532672000038],[126.10470272300006,8.652119198000037],[126.10505817600006,8.650997522000068],[126.10626955400005,8.650503829000058],[126.10706726800005,8.651434802000042],[126.10622341900012,8.65228835800002],[126.10750929500013,8.653457198000071],[126.1085627870001,8.652239090000023],[126.10890696100012,8.653445833000033],[126.11058306400002,8.654036966000035],[126.11077780399998,8.655547259000057],[126.10992899100006,8.655796094000038],[126.10969293700008,8.65664471100007],[126.11097230000006,8.657027392000032],[126.11082758100007,8.657905518000062],[126.11120912300011,8.659958644000028],[126.11182082400013,8.660437422000031],[126.11266857400005,8.660067671000034],[126.11263122100002,8.659221281000043],[126.11329498500004,8.658641356000032],[126.11239986200007,8.656955262000054],[126.111324996,8.655573057000026],[126.11216975400009,8.654840492000062],[126.1138222720001,8.656248240000025],[126.11525157000004,8.65638775900004],[126.11526252400006,8.657718211000029],[126.11681137600011,8.657614823000072],[126.11733565700001,8.658547901000075],[126.1159920340001,8.661431526000058],[126.11730055400005,8.661662771000067],[126.11782684000003,8.662837754000067],[126.11871070600012,8.663163215000052],[126.11986488000004,8.663093282000034],[126.11941782000008,8.664155295000057],[126.11808988000006,8.665254666000065],[126.11803933400007,8.666494862000036],[126.11621888900004,8.66684231900007],[126.11701691900011,8.66780350000005],[126.11862259000009,8.667215868000028],[126.12055458900012,8.665657870000075],[126.12149948400008,8.666012984000075],[126.12163002100012,8.66710052600007],[126.1228135140001,8.666909424000039],[126.12404935500003,8.665689786000028],[126.12425581100001,8.664932167000073],[126.12354368900003,8.663335379000042],[126.12399398300009,8.66266643000006],[126.12615355800004,8.662920929000054],[126.12621208302915,8.662963555551986],[126.12744404772901,8.6604214241905],[126.12864406870791,8.657161801974258],[126.12795339900003,8.655745572000058]]]}},{"type":"Feature","properties":{"fid":81,"objectid":1916,"lccode":"05","liqcode":"2010600050000000","mappers":"JSPerez","project":"READY","province":"Surigao del Sur","otherinfo":null,"datemapped":2007,"publishdate":null,"globalid":"{436AF97F-3789-427C-9D93-46719D182001}","st_area(shape)":0.0045057935314115815,"st_perimeter(shape)":1.4887365100085943,"liqcodepk":"201060005000000000114","creator":"SNOOPYPC","createdate":"2019-02-19T15:21:28","editor":"LENOVO","modifydate":"2019-03-10T17:50:55","codemove":"na"},"geometry":{"type":"Polygon","coordinates":[]}},{"type":"Feature","properties":{"fid":86,"objectid":1945,"lccode":"06","liqcode":"2010600060000000","mappers":"JSPerez","project":"READY","province":"Surigao del Sur","otherinfo":null,"datemapped":2007,"publishdate":null,"globalid":"{E4D44F91-040C-4614-A92C-CD665C28A96D}","st_area(shape)":0.00901660285265909,"st_perimeter(shape)":4.024381446086732,"liqcodepk":"201060006000000000145","creator":"SNOOPYPC","createdate":"2019-02-19T15:21:28","editor":"LENOVO","modifydate":"2019-03-10T17:50:55","codemove":"na"},"geometry":{"type":"Polygon","coordinates":[]}},{"type":"Feature","properties":{"fid":89,"objectid":1949,"lccode":"01","liqcode":"2010600010000000","mappers":"DJLBuhay, MITAbigania, KLPapiona, KMVitto","project":"MELP","province":"Agusan del Sur","otherinfo":null,"datemapped":2018,"publishdate":null,"globalid":"{1E6CEE5B-C387-4818-8ED8-6D59425E2C9E}","st_area(shape)":0.13568303251391492,"st_perimeter(shape)":20.45926534020769,"liqcodepk":"201060001000000000548","creator":null,"createdate":"2019-06-04T13:29:47","editor":"SDE","modifydate":"2019-06-04T10:20:42","codemove":"na"},"geometry":{"type":"Polygon","coordinates":[]}}]}