{"type":"FeatureCollection","features":[{"type":"Feature","properties":{"fid":170,"objectid":9612,"lccode":"01","liqcode":"2010600010000000","mappers":"DJLBuhay, MJVReyes, MITAbigania, KLPapiona, KMVitto","project":"MELP","province":"La Union","otherinfo":"hazard boundary with Pangasinan updated on 2024","datemapped":2017,"publishdate":null,"globalid":"{556DE1FA-9488-4F33-9543-8B7DFFAA63AD}","st_area(shape)":0.022191914159391556,"st_perimeter(shape)":5.763901795210022,"liqcodepk":"201060001000000000017","creator":"SNOOPYPC","createdate":"2019-02-19T15:21:28","editor":"LENOVO","modifydate":"2019-03-10T17:53:06","codemove":"na"},"geometry":{"type":"MultiPolygon","coordinates":[[[[120.39703509600008,16.499330883000024],[120.39755276200005,16.502294628000072],[120.39906531100007,16.502642054000038],[120.40022721400011,16.503474699000034],[120.40009124000005,16.504381108000075],[120.39915925700006,16.504996812000062],[120.39776105400006,16.50489575700004],[120.39709753700004,16.505425180000028],[120.39653785100006,16.50744947700002],[120.39601476200005,16.50859002700003],[120.39675736000004,16.509555178000028],[120.39687389900008,16.512728894000073],[120.39721030300008,16.513726640000073],[120.39705338600005,16.514673074000026],[120.39592773000004,16.51786549800005],[120.39682961900009,16.519969732000053],[120.395013919,16.521251870000068],[120.39340236100008,16.521719252000025],[120.39226747600003,16.521002495000065],[120.39097589900007,16.520885985000053],[120.38996649500007,16.52000712100005],[120.38849678200005,16.520654242000035],[120.38765933800006,16.519926847000022],[120.38765566100005,16.519095179000033],[120.38817964700003,16.518120061000047],[120.38735977700003,16.51788705900003],[120.38745993200007,16.517071030000068],[120.3884409210001,16.51596491700007],[120.39022484400004,16.514407181000024],[120.39071748300013,16.511884306000066],[120.38922994000006,16.510339827000053],[120.38748761800002,16.51059046400007],[120.38630380200004,16.51020285500005],[120.38609227300002,16.509354248000022],[120.3874522210001,16.508185420000075],[120.38795858200001,16.507214746000045],[120.38778055800005,16.505299210000032],[120.388353,16.503499918000045],[120.3882687900001,16.50216863800005],[120.3895615130001,16.50153292300007],[120.38861198500003,16.499934281000034],[120.38745268300012,16.49993890600007],[120.38713841300012,16.50120630700008],[120.38608089400009,16.50248352500006],[120.38709811900004,16.502908465000075],[120.38673603700012,16.50380813000004],[120.38571254300008,16.504370114000036],[120.38589554100008,16.50509498200006],[120.38548165300006,16.505906275000026],[120.38480230200003,16.50575871500007],[120.38442931100008,16.504850822000037],[120.3836698,16.50460505200005],[120.3822594390001,16.505051209000044],[120.38117138700011,16.50589589500004],[120.38092214900009,16.506658478000073],[120.3800319180001,16.507081546000048],[120.37976005900009,16.50772776500003],[120.37816525800007,16.509017417000045],[120.37852440800009,16.50937409100004],[120.37846840300006,16.51077136400005],[120.37753444700003,16.512062024000045],[120.37685496000007,16.51193400300002],[120.3761330210001,16.510914090000032],[120.37637861100008,16.51030967200006],[120.37407299800009,16.508288589000067],[120.37239214600004,16.507775927000065],[120.37009276900005,16.507511655000027],[120.36961816400004,16.50688913800008],[120.3709866480001,16.50619582900003],[120.37047342800007,16.50464165000005],[120.37160384100002,16.50331391800006],[120.37153330700006,16.501792854000026],[120.37424645500003,16.501516648000067],[120.37406853700008,16.500611196000023],[120.37250909700003,16.500706432000072],[120.37169089100006,16.500360963000045],[120.37218397200003,16.498604705000048],[120.37111579600004,16.498308220000066],[120.37134167200009,16.49728017100006],[120.37024436000003,16.496980494000066],[120.370371513,16.49911955400006],[120.3696981700001,16.49929379400004],[120.36939242000007,16.501455584000045],[120.36992105500008,16.502336523000046],[120.36988013100006,16.50314497500005],[120.36877954800003,16.503350053000073],[120.36903094500008,16.50461227900007],[120.36773207600005,16.506479544000058],[120.36778157400009,16.507396032000027],[120.36709092500007,16.509236942000026],[120.36718814800008,16.509740002000058],[120.36545849300002,16.511797211000044],[120.36440521100006,16.512199723000037],[120.3631479280001,16.511287644000046],[120.36175306200006,16.510637118000034],[120.35878133500012,16.51130754000007],[120.35819379400006,16.51170635100004],[120.35546841100006,16.511383897000034],[120.35349182800007,16.510771136000074],[120.35157527900003,16.51132478300007],[120.3502692950001,16.511183952000064],[120.35005565100003,16.511592262000022],[120.34721902000001,16.513009501000056],[120.34677129800004,16.514112260000047],[120.34573890600007,16.514252074000073],[120.34504410900001,16.515065278000062],[120.34338719200001,16.515225813000026],[120.34285954500001,16.514683817000037],[120.34309716400004,16.513952372000066],[120.34178101000009,16.513402036000056],[120.34126202530422,16.513469162174527],[120.3403110257542,16.51467262355932],[120.33789762739494,16.518443030838533],[120.33588435184144,16.522412602273516],[120.33726925700013,16.52218335300006],[120.33882038900005,16.52252530000004],[120.34094365700004,16.52232296100004],[120.3429584370001,16.522807435000065],[120.3444486960001,16.52252053100006],[120.34560655100006,16.521904395000035],[120.34712312300009,16.52225324400007],[120.34782862800012,16.522039584000026],[120.34882584700006,16.522710007000054],[120.3497354860001,16.522855382000046],[120.35052425000002,16.522309405000044],[120.35077839400003,16.521369608000043],[120.35142351800005,16.52068067000004],[120.3567057260001,16.517911757000036],[120.35759275800001,16.51778702300004],[120.36011262000011,16.518273765000064],[120.36165214500011,16.518759033000038],[120.36373976000004,16.516792378000048],[120.36487226500002,16.51654416200006],[120.36559941500002,16.51772428300006],[120.36832015000005,16.519861526000057],[120.3696071190001,16.51994944100005],[120.37085866000005,16.520411816000035],[120.37143239000011,16.522362126000072],[120.3713480580001,16.523101868000023],[120.37253884700011,16.523561200000074],[120.37344330400003,16.523316597000072],[120.37405606700008,16.522562289000067],[120.37519423600008,16.52212815200005],[120.37572342900012,16.521496294000023],[120.37674618100004,16.521608250000043],[120.3769466330001,16.519189681000057],[120.37790418200007,16.519058512000072],[120.37843782200002,16.52027719400007],[120.37857820300006,16.52202894200008],[120.37775182400001,16.523734672000046],[120.37811365100004,16.524642436000025],[120.37967167100011,16.525339421000066],[120.37954612100009,16.52619590100005],[120.3797589080001,16.528682423000074],[120.38058243300009,16.53163576600002],[120.3807611310001,16.53284866700005],[120.38151189300005,16.534846321000032],[120.38120993700011,16.53710057600006],[120.38025724300007,16.537521474000073],[120.37984504700012,16.538280413000052],[120.38103020000007,16.538639068000066],[120.38151462300006,16.540193680000073],[120.38337771500005,16.542516719000048],[120.38418359500007,16.54430050400003],[120.38459042800002,16.548884862000023],[120.38506834900011,16.550561816000023],[120.3854910560001,16.55088324700006],[120.38558955100007,16.552058669000072],[120.3851235300001,16.553904421000023],[120.3858655160001,16.557074870000054],[120.38787895600001,16.561472255000066],[120.38905891200012,16.56234225700007],[120.39027517500006,16.562533657000074],[120.39160035700002,16.563455853000054],[120.39263508800002,16.56477824100006],[120.3935513670001,16.567593862000024],[120.39553959700005,16.56876274900003],[120.39655617500011,16.568814947000078],[120.39791766300006,16.568345162000067],[120.39860748400008,16.569215133000057],[120.39949699000009,16.571598833000053],[120.40103440300005,16.57275534000007],[120.40148813600001,16.574786989000074],[120.40231622500006,16.576231165000024],[120.4030345252184,16.578881216710418],[120.40439327539505,16.578118702649043],[120.40811924006871,16.575525093595235],[120.41156355209151,16.572591702102276],[120.41204083197022,16.57209682917435],[120.41182081000012,16.571447958000014],[120.41184956900008,16.570097257000047],[120.41339378100008,16.56777608200002],[120.41356210000002,16.56681823400004],[120.41426856000011,16.565871109000057],[120.415113258,16.565413327000048],[120.41451420200008,16.56398654400005],[120.41489541900012,16.562524951000054],[120.41484095900013,16.56059354300004],[120.4156033920001,16.55894052000002],[120.41629321200004,16.55840111000003],[120.41649289600002,16.556104249000036],[120.41676519400004,16.555564830000034],[120.41587568700002,16.550457683000047],[120.41667442700009,16.550457683000047],[120.41683780500013,16.54923960300005],[120.4174005530001,16.548352141000066],[120.41645658800009,16.54784750400006],[120.41620623500012,16.546920510000067],[120.41889756800002,16.545758978000038],[120.41905701500004,16.544948434000048],[120.41813539200008,16.54345536800002],[120.41734523200012,16.543254399000034],[120.41600372300002,16.543524545000025],[120.41352524800004,16.543589397000062],[120.41275333900002,16.54343622200002],[120.41023004900002,16.54630748300008],[120.40973991300008,16.54761258700006],[120.41012113000012,16.54834344200003],[120.40886822400013,16.55093977000007],[120.40816116600001,16.551934668000058],[120.40763566600003,16.554174488000058],[120.40688032000003,16.55507318900004],[120.40666742400005,16.556169819000047],[120.406585897,16.55855854400005],[120.40633336100008,16.55891386000007],[120.40418840900008,16.55996251900007],[120.40339359000006,16.56072210500002],[120.40174885600004,16.560682474000032],[120.40032306500008,16.56131468800004],[120.39780195600008,16.560849674000046],[120.39664307400005,16.55974201400005],[120.3961183770001,16.55853787300003],[120.39532223400012,16.55757804500007],[120.3968773780001,16.557371617000054],[120.39738016400007,16.556833042000047],[120.39721509700007,16.55436478400003],[120.397599989,16.553748263000045],[120.39928057600002,16.554065576000024],[120.39979983700005,16.554784317000042],[120.40147055700004,16.554828940000053],[120.40267342300001,16.554557172000038],[120.40457697500005,16.553768386000055],[120.40551072800008,16.551666383000054],[120.40554653100003,16.550518589000035],[120.405074548,16.54930051000002],[120.40393985000003,16.547801513000024],[120.40389459000006,16.54578544000003],[120.40492647700013,16.543484916000068],[120.40556468200009,16.54256613600006],[120.40585513200006,16.540773744000035],[120.4062363490001,16.540390900000034],[120.4064904930001,16.538929128000063],[120.40659941100012,16.536614633000053],[120.40620004100002,16.535727112000075],[120.4069443210001,16.53499621000003],[120.40707139300004,16.533952059000057],[120.40681724800004,16.53214218300007],[120.40537078200008,16.532002962000035],[120.40213051,16.530903975000058],[120.40066578200003,16.529879176000065],[120.40015888100004,16.528884334000054],[120.40047815000003,16.527026528000018],[120.40231072100006,16.525964117000058],[120.40249225200013,16.52526798500003],[120.40185689100008,16.523353607000047],[120.4031457660001,16.522831501000045],[120.40523338100002,16.52304034300005],[120.40695793300006,16.52269227100004],[120.40674009500005,16.522117952000034],[120.40485746000002,16.52187506100006],[120.40476706900006,16.52122392700005],[120.40370650500006,16.52050337200006],[120.40327915700004,16.51952185000005],[120.40330791600002,16.518474086000026],[120.40392625100003,16.51759175500007],[120.40491846400005,16.516971363000035],[120.40423908300012,16.51569000200004],[120.4046174030001,16.51499305300007],[120.40357368100001,16.51350213300003],[120.40341240700003,16.511365136000055],[120.40416234100007,16.51060510800005],[120.4036540510001,16.50848172700006],[120.40439833100005,16.507663697000055],[120.40508815200006,16.508238058000074],[120.4062318020001,16.50799439000002],[120.40759329000001,16.50726338200008],[120.40875509300008,16.506201676000046],[120.40897072204636,16.50565761567898],[120.40539777647399,16.503031779145378],[120.40148862041096,16.500704764060668],[120.39736196156338,16.49875854471551],[120.3970099723431,16.498632069957107],[120.39703509600008,16.499330883000024]],[[120.39189287100011,16.53367581500003],[120.39114307400007,16.53372725500003],[120.39044188900004,16.532700195000075],[120.39038644100003,16.531886599000067],[120.3911304720001,16.531181971000024],[120.39201310700003,16.532001193000042],[120.39189287100011,16.53367581500003]]],[[[120.41440095500002,16.51106300800006],[120.41475023350662,16.51128529179786],[120.41435393461121,16.51085244103169],[120.41440095500002,16.51106300800006]]],[[[120.41006818600012,16.507880007000036],[120.41157893340066,16.507984608553155],[120.41086495467381,16.50734401677675],[120.41006818600012,16.507880007000036]]],[[[120.33379554200006,16.532191069000074],[120.33396810100011,16.530812522000076],[120.33333538600006,16.53015081600006],[120.33331424280425,16.530074806152154],[120.33309901609827,16.530859367081792],[120.33278394797202,16.53273643241169],[120.33379554200006,16.532191069000074]]],[[[120.34330383600002,16.567892789000037],[120.34286816000008,16.56745780100005],[120.34287808800002,16.566323249000053],[120.34452009800009,16.565752638000053],[120.344229647,16.564499856000058],[120.34304969100002,16.564795653000036],[120.34254140200004,16.56378646300004],[120.34274108700005,16.563003467000044],[120.34245063500009,16.56155926600007],[120.34201495900005,16.560898063000025],[120.3420875710001,16.55812272100007],[120.34165189500003,16.557148298000072],[120.3420875710001,16.556556681000075],[120.34088946100007,16.55613906800005],[120.33963689200006,16.55662628300007],[120.33929198200009,16.557583309000055],[120.338032385,16.558646483000075],[120.33646107600009,16.557598855000037],[120.33545987100001,16.556534614000043],[120.33596995000003,16.555199436000066],[120.33567949900011,16.553946586000052],[120.3360970220001,16.55316355000002],[120.33665187900012,16.54935941500003],[120.33703011400007,16.547796652000045],[120.33700492000003,16.546744893000035],[120.33653745900006,16.54614629200006],[120.33475133700006,16.546314628000058],[120.33393974800002,16.547680671000023],[120.33450155700007,16.54862459100008],[120.33393722200003,16.549305583000034],[120.33362736300013,16.550562608000067],[120.33341573713015,16.550756308268596],[120.33391392247174,16.552788582752378],[120.33540422850074,16.556980234632668],[120.33731340675463,16.561010809234666],[120.33962309453321,16.564841481783414],[120.34231106760235,16.5684353502873],[120.34303010332074,16.569221103459284],[120.34330383600002,16.567892789000037]]]]}}]}