{"type":"FeatureCollection","features":[{"type":"Feature","properties":{"fid":38,"objectid":1885,"lccode":"07","liqcode":"2010600070000000","mappers":"JSPerez ","project":"READY","province":"Surigao del Sur","otherinfo":null,"datemapped":2007,"publishdate":null,"globalid":"{FDA7F772-DEDF-47F9-B8FA-912035EE9393}","st_area(shape)":0.04086090170713132,"st_perimeter(shape)":12.6212836285462,"liqcodepk":"201060007000000000079","creator":"SNOOPYPC","createdate":"2019-02-19T15:21:28","editor":"LENOVO","modifydate":"2019-03-10T17:50:55","codemove":"na"},"geometry":{"type":"MultiPolygon","coordinates":[[[[126.26423260000001,8.937376337000048],[126.26544924500001,8.937755398000036],[126.26653107600009,8.937671641000065],[126.26691442800006,8.93670314600007],[126.26870359300007,8.93639039900006],[126.27007022100008,8.936842340000055],[126.27123863100009,8.935996751000062],[126.27508457300006,8.933995450000054],[126.27749470800006,8.934252504000028],[126.27811744900009,8.93500795500006],[126.27956674600011,8.934271280000072],[126.27934753300008,8.93271419300004],[126.28016290800008,8.932057346000022],[126.28196817000004,8.931465953000043],[126.28309082100007,8.931771571000068],[126.28448598000013,8.931239508000031],[126.2866155900001,8.931443374000024],[126.28767480800002,8.930914279000032],[126.28945066800009,8.931214083000041],[126.28971843500005,8.931935549000059],[126.29233153000007,8.931930947000067],[126.29244175100007,8.933804533000057],[126.29316979300006,8.933816572000067],[126.29500851900002,8.93487673200002],[126.29594222800006,8.934924135000074],[126.29800354100009,8.93375507600007],[126.29886601900013,8.934192788000075],[126.2986563190001,8.935772252000048],[126.29714789700006,8.936156943000068],[126.29589756800011,8.936186577000058],[126.29557182200006,8.937321686000075],[126.29763882800012,8.936783595000065],[126.29853717800007,8.93705395400002],[126.29969913800005,8.93550311800004],[126.300851899,8.93501035300005],[126.30084604600007,8.934360787000061],[126.30177690600009,8.934092646000066],[126.30269447000013,8.93441853300004],[126.30281411800001,8.93527122300003],[126.30373185300003,8.935615703000053],[126.30503727100005,8.935492737000061],[126.30557417600005,8.935005362000025],[126.30528464300005,8.933950051000068],[126.30638312300005,8.93364329700006],[126.30757976100004,8.933873865000065],[126.30738556300003,8.935100521000038],[126.30946291200007,8.93571307700006],[126.30941957400012,8.934992565000073],[126.30830403000006,8.934926068000037],[126.30793321600004,8.93420466300006],[126.30854490900003,8.933394734000043],[126.30689062400008,8.932740481000051],[126.30512663700006,8.933243645000061],[126.3039175030001,8.93420904900006],[126.3023176280001,8.933507623000027],[126.30025644700004,8.933564215000047],[126.29901324700006,8.933197763000067],[126.29742710400001,8.933292155000062],[126.29604440000003,8.933859755000071],[126.29366556500008,8.933331347000035],[126.29279442700012,8.932673059000022],[126.29249019100007,8.931420725000066],[126.29142222500003,8.931301183000073],[126.29112969400013,8.929765013000065],[126.29137219100005,8.92687933700006],[126.29226322500007,8.92516306300007],[126.2934352080001,8.92373762600005],[126.29656246700006,8.92152998800003],[126.29725320400007,8.920735874000059],[126.29973316700011,8.921334113000055],[126.30244099500011,8.921236660000032],[126.30371955600005,8.921005324000017],[126.30310233700006,8.92405787000007],[126.3038368330001,8.926106179000042],[126.30372133900005,8.927688965000069],[126.30446793700003,8.927454600000031],[126.30443854100008,8.926532567000038],[126.3051725360001,8.926075164000055],[126.30706379700008,8.926568131000066],[126.30812863400003,8.926545576000024],[126.31110972800002,8.925309722000065],[126.31181057000003,8.923553209000033],[126.31176805200006,8.922585232000074],[126.31083766700011,8.922263806000046],[126.30974707200005,8.92069656600006],[126.30934533700008,8.918995185000027],[126.3097279540001,8.917010937000043],[126.31037378400003,8.916166733000066],[126.31136046800009,8.915760125000077],[126.31274352800006,8.915656992000038],[126.3150474700001,8.915889699000044],[126.3159587010001,8.916220847000034],[126.31724259300006,8.917375371000047],[126.31744011,8.917961381000055],[126.31682873600005,8.919033190000052],[126.3180725850001,8.91905351300005],[126.31876848700006,8.91818844000005],[126.32020625200006,8.918820700000024],[126.3210121190001,8.919721432000076],[126.32148522000011,8.92102176800006],[126.32213677100005,8.921331325000041],[126.32369762500004,8.92069612600005],[126.32463715068069,8.919899093258753],[126.32508852238634,8.917017190747552],[126.32519285640527,8.915177234655081],[126.32270648400004,8.912849544000037],[126.3225090200001,8.911991912000076],[126.3227614860001,8.910773919000066],[126.32350240300003,8.909960297000055],[126.3235024600001,8.90647030100007],[126.32376792400011,8.905524685000044],[126.32457387678564,8.904075397897698],[126.3245307375044,8.903771040540489],[126.32347878617382,8.899462743926689],[126.32244707131008,8.896528526272704],[126.32192406100012,8.895676707000064],[126.3210377060001,8.894900921000044],[126.32013177000012,8.894617507000019],[126.31791678800003,8.894642040000065],[126.31548489300008,8.89325091400002],[126.31542923900008,8.891080205000033],[126.31516500500003,8.890552125000058],[126.31544483100004,8.889458971000067],[126.31643255800009,8.889135759000055],[126.3144667140001,8.888245462000043],[126.31408968500013,8.889065972000026],[126.31245151600001,8.888248905000069],[126.31147119600007,8.887052356000028],[126.30917651400011,8.88503661300007],[126.30906367500005,8.88418110200007],[126.30822555200005,8.882385877000047],[126.30778043900011,8.880933019000052],[126.30782408100002,8.879836067000042],[126.30924523400007,8.878497819000074],[126.31015578977768,8.878619977644533],[126.30954862994443,8.878064667775257],[126.30928068800007,8.878160614000018],[126.30860669900007,8.877925349000066],[126.30704741500006,8.878848556000035],[126.30605652500002,8.878653206000024],[126.30520194300004,8.879087662000073],[126.30478159200003,8.880075069000043],[126.30382972200005,8.880064908000065],[126.30199165200008,8.879041895000054],[126.30144183300003,8.878081590000022],[126.30024252300008,8.879614189000051],[126.30110309800011,8.87984781800003],[126.30232551000007,8.880894889000045],[126.30314939200002,8.881203143000048],[126.30311125800004,8.88318935500007],[126.30343698000001,8.884133041000041],[126.30228510500001,8.886797345000046],[126.30306780800004,8.888757769000051],[126.30212955900005,8.890269468000042],[126.30027943800008,8.889988916000052],[126.29944280200006,8.89034890400006],[126.29857978000008,8.889836854000066],[126.29727895500002,8.888382190000073],[126.29665908700008,8.89002098800006],[126.29507103000005,8.88983081300006],[126.29466264900009,8.890075767000042],[126.29249626900003,8.889909298000019],[126.29098070400005,8.889477213000019],[126.29028241100004,8.88861110600004],[126.28910705000008,8.888658597000074],[126.287959773,8.88766643300005],[126.28772562600012,8.888615088000051],[126.28859070100009,8.889349894000075],[126.28988198200013,8.889746772000024],[126.29042865500004,8.890354460000026],[126.29309954100006,8.89059069600006],[126.2942237100001,8.891081851000024],[126.29479110300007,8.891912086000048],[126.29566736400011,8.89181151300005],[126.29645756600007,8.89252835600007],[126.2956524320001,8.894317230000068],[126.29467435900006,8.895550830000046],[126.29685525600009,8.895253156000026],[126.29871714100011,8.894754068000054],[126.29917745200008,8.896142044000044],[126.2980103960001,8.89711747800004],[126.2986716040001,8.898002486000053],[126.30064943100002,8.895869142000038],[126.30051394500005,8.895332049000045],[126.30147551200002,8.89433983500004],[126.30188862800003,8.894614617000059],[126.3021641890001,8.896208275000049],[126.30310112400004,8.896626928000046],[126.30392736100009,8.895116217000066],[126.30537579800011,8.896383989000071],[126.30613758900004,8.893927278000037],[126.3087653440001,8.893514157000027],[126.30955717400002,8.892319302000033],[126.30958228300007,8.890964234000023],[126.3103236060001,8.890382245000067],[126.31179596500012,8.890165013000056],[126.31215724600008,8.890904226000032],[126.3124940240001,8.893072714000025],[126.31007251900007,8.893595349000067],[126.30942973200001,8.894751771000076],[126.30842565900002,8.89516906700004],[126.30717435300005,8.897147546000042],[126.30772105900007,8.897755102000076],[126.30759774300009,8.898572845000045],[126.30866617900007,8.899083035000045],[126.30987516100002,8.898626804000058],[126.3118276360001,8.899908651000032],[126.31292593700006,8.897523249000075],[126.31376306400011,8.897218841000042],[126.31469849900009,8.89747026200007],[126.31616987200006,8.897141690000069],[126.3171782840001,8.897206915000028],[126.31788357500012,8.896773753000048],[126.31873073600002,8.897582835000037],[126.32030205600006,8.895917033000044],[126.32064732100002,8.896953233000032],[126.32216085800006,8.899222597000062],[126.32230669400008,8.900910180000038],[126.32119924300001,8.90227499100007],[126.32019886400008,8.903100562000077],[126.3205110450001,8.904601034000054],[126.32129987900011,8.905150780000042],[126.32183636000002,8.906686442000021],[126.32133814300006,8.907321902000035],[126.31939834400008,8.907450646000031],[126.32119334200002,8.90988442500003],[126.31984108700009,8.91101009700003],[126.31969899400009,8.911809495000057],[126.32020871600002,8.912454456000034],[126.3195837630001,8.913518012000052],[126.3181390310001,8.914737236000063],[126.31629751300011,8.915421895000064],[126.31358778200001,8.915037721000035],[126.31256301700013,8.915232494000065],[126.31062124000005,8.915156997000054],[126.30997433500012,8.913789321000024],[126.3100689590001,8.911858237000049],[126.30933504700009,8.911196653000049],[126.30887549800002,8.909901518000026],[126.30793358100004,8.911004997000019],[126.30717240700005,8.911457160000055],[126.30632846700007,8.911000687000069],[126.30532396000001,8.909302115000058],[126.30412569300007,8.90680720900002],[126.30346006100001,8.907499852000058],[126.30280172800008,8.906930301000045],[126.30305280400012,8.905795956000077],[126.30294916800007,8.904646164000042],[126.3020566670001,8.905025264000074],[126.30102731800002,8.904700343000059],[126.30031148700006,8.903964263000033],[126.29968346000008,8.902614980000067],[126.29962012500005,8.901798890000068],[126.30205353200006,8.90051525000007],[126.30221215000007,8.899474452000051],[126.30113173300005,8.899706782000065],[126.29895781700007,8.898705276000042],[126.29728274900003,8.899221226000067],[126.29697083400005,8.897739205000052],[126.29579561900006,8.897805236000067],[126.29500623400008,8.897181204000049],[126.29360785800009,8.899420817000019],[126.29401123300009,8.900697893000027],[126.2928964250001,8.901264574000036],[126.2920495290001,8.900474013000064],[126.29085731600003,8.900725815000042],[126.29093832500007,8.899351629000023],[126.2899835710001,8.899026007000032],[126.29008633,8.90008301000006],[126.28935481300005,8.901759910000068],[126.29060237700003,8.90143331400003],[126.29157528500002,8.901703153000026],[126.29194013200004,8.902850649000072],[126.29265445300005,8.903419642000074],[126.2916434770001,8.905154728000069],[126.29254523200007,8.905814875000033],[126.29249777700011,8.906761878000054],[126.29166591400006,8.907660122000037],[126.291505109,8.908459696000024],[126.29288743500001,8.908595883000032],[126.29267143900006,8.911567470000024],[126.2929998510001,8.91280800900006],[126.29252178400009,8.913610396000024],[126.29460739900003,8.913072202000025],[126.29495845900011,8.912679314000057],[126.29581312200004,8.91016614800003],[126.29653112900007,8.911143465000066],[126.297111146,8.91130535000002],[126.29796415500006,8.91276396200004],[126.29892178400007,8.913405078000041],[126.30035629700001,8.913113976000034],[126.30109546800009,8.914369447000066],[126.30216495700006,8.914990957000043],[126.30051365000008,8.916082138000034],[126.29997738500003,8.914565016000038],[126.29896307500007,8.91385019100005],[126.29771506600002,8.914121124000076],[126.29687288000002,8.91386875300003],[126.29662262000011,8.915095911000035],[126.2955895000001,8.91436264300006],[126.29369671700012,8.915585867000063],[126.29478794100011,8.916559875000074],[126.2943841980001,8.917324406000034],[126.29327708300002,8.916666096000029],[126.29236197300007,8.91659999500007],[126.29203870700007,8.918013437000072],[126.29044094900009,8.918844262000048],[126.28875579600003,8.91824667900005],[126.28792949200012,8.917678589000047],[126.28684634300011,8.917613964000056],[126.28564227400011,8.916548108000029],[126.28552052900011,8.91545416200006],[126.28678429600006,8.91484905700003],[126.28679247600007,8.913679655000069],[126.28781063300005,8.912742655000045],[126.28718809800013,8.912005720000025],[126.28689906200009,8.910987473000034],[126.2858854410001,8.910346811000068],[126.2854321420001,8.911835712000025],[126.28420201900008,8.912032134000071],[126.28269668700013,8.908574725000049],[126.28091348200006,8.907439736000072],[126.28124168400007,8.908661793000022],[126.28235183700008,8.909672798000033],[126.28074577800008,8.911654388000043],[126.27963935500009,8.911070234000022],[126.27883825900007,8.913323077000026],[126.27626139500002,8.913197381000032],[126.27412485600007,8.912213913000073],[126.27304013100002,8.911963619000064],[126.27178340700004,8.911269434000076],[126.27079380400004,8.911222439000028],[126.2691043210001,8.91014226900006],[126.2696769260001,8.911566345000038],[126.27091252700008,8.911982360000023],[126.2729203780001,8.91318963800006],[126.27555931100007,8.914001645000038],[126.27573902500001,8.915317839000068],[126.27652106500013,8.915106794000053],[126.278258735,8.915314201000058],[126.2794698260001,8.915080763000047],[126.28139573500006,8.913374707000058],[126.28362542200011,8.914338700000027],[126.2837833650001,8.91530249400006],[126.2830414460001,8.915828759000021],[126.28210752000007,8.915744198000025],[126.28234253200004,8.916985674000044],[126.28225016500005,8.919176545000026],[126.28241209600003,8.920585700000059],[126.28282533200002,8.920879006000062],[126.28476839100007,8.919005832000037],[126.28628774900005,8.919846154000027],[126.28569697100009,8.920575231000042],[126.28346719200012,8.921689992000038],[126.28297061400008,8.922511051000072],[126.28383588000007,8.923264350000068],[126.283729246,8.923859215000052],[126.28258403900008,8.925205720000065],[126.28185218700003,8.924766709000039],[126.28109001900009,8.925107612000033],[126.28019156900007,8.926915837000026],[126.27909007000007,8.926888470000053],[126.278874888,8.927874076000025],[126.27811005400008,8.927917947000024],[126.2770198300001,8.929152633000056],[126.27803442900006,8.929904624000073],[126.27790880900012,8.93046255000007],[126.2751884690001,8.931006302000068],[126.2742800200001,8.929603729000064],[126.27306986800012,8.929948487000045],[126.27118561600003,8.930057936000026],[126.27005276500005,8.93069896900005],[126.26848132300006,8.930304444000058],[126.26775117200009,8.932148381000047],[126.267761929,8.93335474600002],[126.2661744740001,8.933257412000046],[126.26468875900004,8.93410569200006],[126.26371058600013,8.935357882000062],[126.26283319600009,8.935347010000044],[126.2618011940001,8.934743653000053],[126.2599334680001,8.934611561000054],[126.25845118700012,8.933752295000032],[126.25782072100003,8.934221845000025],[126.25670135400003,8.934287304000064],[126.25661497400007,8.935067638000017],[126.25546631600004,8.936042857000075],[126.2542907620001,8.936090385000057],[126.25392560000012,8.937003009000021],[126.2531444760001,8.937325439000062],[126.25236846000007,8.938223161000055],[126.25284514400006,8.93935114200002],[126.25579334800013,8.937135128000024],[126.25637035500006,8.936944417000063],[126.25840623600006,8.937093555000043],[126.2595044840001,8.936749816000031],[126.26116976500009,8.937199166000028],[126.26277671800005,8.93738916300003],[126.26343640900008,8.938107303000038],[126.26423260000001,8.937376337000048]]],[[[126.29351249400008,8.954721820000032],[126.29322249300002,8.953773037000076],[126.2939126340001,8.952283908000023],[126.29329235000012,8.952149486000051],[126.29259716700005,8.953079053000065],[126.29167409400009,8.953702856000064],[126.29069049600004,8.953851557000062],[126.28940737700007,8.955122136000055],[126.28869304700002,8.95392530600003],[126.2878548660001,8.954604327000025],[126.2873659820001,8.953433387000073],[126.28881513800002,8.951853544000073],[126.28782819400008,8.951638493000074],[126.28649108200013,8.950027347000058],[126.2860038980001,8.952186326000058],[126.28510142800006,8.951970517000063],[126.2841607470001,8.950635733000071],[126.28351004500009,8.950249746000056],[126.28250535100005,8.948048025000046],[126.28255606900007,8.947431985000039],[126.28356832300005,8.947339125000042],[126.28321910400008,8.94605497300006],[126.2820840080001,8.94500179700003],[126.28153829200004,8.946909389000039],[126.28025464400002,8.948123965000036],[126.2797028980001,8.949360132000036],[126.27918683400003,8.951435312000058],[126.27994783600002,8.951568513000039],[126.27987673800011,8.95305214500007],[126.27824209399999,8.952786832000072],[126.27858980600001,8.953903067000054],[126.27775518600005,8.954973805000066],[126.27815914300004,8.95608945200007],[126.27726669600008,8.956992856000056],[126.27624813700004,8.956386200000052],[126.27447927200001,8.956849619000025],[126.27426968213534,8.95705254357561],[126.27512414441335,8.957185011078417],[126.2795757492119,8.957435322404205],[126.28403060806278,8.957250527431071],[126.28844580200294,8.95663240178545],[126.29239451823071,8.95567962011244],[126.29351249400008,8.954721820000032]]]]}},{"type":"Feature","properties":{"fid":81,"objectid":1916,"lccode":"05","liqcode":"2010600050000000","mappers":"JSPerez","project":"READY","province":"Surigao del Sur","otherinfo":null,"datemapped":2007,"publishdate":null,"globalid":"{436AF97F-3789-427C-9D93-46719D182001}","st_area(shape)":0.0045057935314115815,"st_perimeter(shape)":1.4887365100085943,"liqcodepk":"201060005000000000114","creator":"SNOOPYPC","createdate":"2019-02-19T15:21:28","editor":"LENOVO","modifydate":"2019-03-10T17:50:55","codemove":"na"},"geometry":{"type":"Polygon","coordinates":[]}},{"type":"Feature","properties":{"fid":86,"objectid":1945,"lccode":"06","liqcode":"2010600060000000","mappers":"JSPerez","project":"READY","province":"Surigao del Sur","otherinfo":null,"datemapped":2007,"publishdate":null,"globalid":"{E4D44F91-040C-4614-A92C-CD665C28A96D}","st_area(shape)":0.00901660285265909,"st_perimeter(shape)":4.024381446086732,"liqcodepk":"201060006000000000145","creator":"SNOOPYPC","createdate":"2019-02-19T15:21:28","editor":"LENOVO","modifydate":"2019-03-10T17:50:55","codemove":"na"},"geometry":{"type":"Polygon","coordinates":[[[126.24460062900006,8.939742825000053],[126.24554153800013,8.940301075000036],[126.24797101000001,8.940482029000066],[126.24798886400004,8.939429879000043],[126.24745597800005,8.938989503000073],[126.24535948600011,8.938131231000053],[126.2438519220001,8.937901640000065],[126.2433847860001,8.937231336000023],[126.24341704700008,8.936273502000065],[126.2424534590001,8.936214488000074],[126.24261692900008,8.93475645800004],[126.24195745400004,8.933804675000033],[126.24203324700011,8.931646019000024],[126.24164979400007,8.931231227000067],[126.24032879700006,8.932159971000033],[126.23960847300009,8.931990919000041],[126.23985436000011,8.930653520000021],[126.23873148100007,8.929449524000061],[126.2391976130001,8.92847435200002],[126.23855731400012,8.928156245000025],[126.2376557360234,8.928793472087243],[126.23781203314816,8.929238312036457],[126.2396879540848,8.933259930285587],[126.24195129744258,8.937079346155386],[126.24396628380131,8.939823575478401],[126.24460062900006,8.939742825000053]]]}}]}