{"type":"FeatureCollection","features":[{"type":"Feature","properties":{"fid":183,"objectid":9622,"lccode":"07","liqcode":null,"mappers":"DJLBuhay, MITAbigania, CJMLegaspi, JKAMarquez, BDBBrusas, HALVidal, EMAACortes","project":"LiquePhi","province":"Albay","otherinfo":null,"datemapped":2024,"publishdate":null,"globalid":"{8E5ED226-E547-4B83-B774-07D16C659D39}","st_area(shape)":0.007338373366357547,"st_perimeter(shape)":4.710497907819426,"liqcodepk":null,"creator":null,"createdate":null,"editor":null,"modifydate":null,"codemove":null},"geometry":{"type":"Polygon","coordinates":[]}},{"type":"Feature","properties":{"fid":184,"objectid":9623,"lccode":"05","liqcode":null,"mappers":"DJLBuhay, MITAbigania, CJMLegaspi, JKAMarquez, BDBBrusas, HALVidal, EMAACortes","project":"LiquePhi","province":"Albay","otherinfo":null,"datemapped":2024,"publishdate":null,"globalid":"{55CC64ED-DF56-457A-ADBC-2E45CE875F47}","st_area(shape)":0.017499136663310114,"st_perimeter(shape)":9.399156011576952,"liqcodepk":null,"creator":null,"createdate":null,"editor":null,"modifydate":null,"codemove":null},"geometry":{"type":"Polygon","coordinates":[]}},{"type":"Feature","properties":{"fid":185,"objectid":9624,"lccode":"06","liqcode":null,"mappers":"DJLBuhay, MITAbigania, CJMLegaspi, JKAMarquez, BDBBrusas, HALVidal, EMAACortes","project":"LiquePhi","province":"Albay","otherinfo":null,"datemapped":2024,"publishdate":null,"globalid":"{B1E6E99D-58E5-41F1-B1D1-4A852A7E4988}","st_area(shape)":0.006334232450352406,"st_perimeter(shape)":4.633656865648006,"liqcodepk":null,"creator":null,"createdate":null,"editor":null,"modifydate":null,"codemove":null},"geometry":{"type":"Polygon","coordinates":[]}},{"type":"Feature","properties":{"fid":186,"objectid":9626,"lccode":"01","liqcode":"2010600010000000","mappers":"DJLBuhay, MJVReyes, MITAbigania, KLPapiona, KMVitto","project":"MELP","province":"Camarines Sur","otherinfo":"hazard boundary with Albay updated on 2024","datemapped":2017,"publishdate":null,"globalid":"{FACCEE19-027B-4BCC-AA3E-C446A7485A33}","st_area(shape)":0.06258623447864109,"st_perimeter(shape)":16.64832304604979,"liqcodepk":"201060001000000000012","creator":"SNOOPYPC","createdate":"2019-02-19T15:21:28","editor":"LENOVO","modifydate":"2019-03-10T17:53:06","codemove":"na"},"geometry":{"type":"Polygon","coordinates":[[[123.29815258200007,13.386970262000034],[123.29693189200009,13.388214329000052],[123.29611809800008,13.390363158000072],[123.29648821800005,13.39160336000003],[123.29841679200001,13.39509617300007],[123.3005770100001,13.39725919700004],[123.30101822800009,13.39833526700005],[123.30145176200007,13.401046671000074],[123.30236157500008,13.402637050000065],[123.3043182900001,13.403950536000025],[123.30448188000004,13.405090822000036],[123.30371153600004,13.407300671000026],[123.3023461460001,13.408469871000024],[123.30055390200005,13.408858840000052],[123.29866204100006,13.408878046000037],[123.2975265120001,13.40835305200005],[123.29599770400011,13.408474472000027],[123.29453250900009,13.409409234000064],[123.29424069700008,13.410605791000021],[123.29463248,13.411227366000048],[123.29684677700006,13.413306186000057],[123.29731505900008,13.414121160000034],[123.29727605300003,13.415274475000047],[123.29627564800012,13.415914607000046],[123.29329387100007,13.415798471000072],[123.29182087100003,13.41663024100006],[123.29124739300006,13.417513213000062],[123.29090746100006,13.419452085000044],[123.29090950400008,13.421149001000058],[123.29051103400003,13.421723459000075],[123.28924717000008,13.422140456000022],[123.28854590600007,13.423307569000032],[123.28890891700007,13.42487477000003],[123.29181311900003,13.42775139300005],[123.29345283900012,13.428665431000068],[123.29378860700001,13.429989096000043],[123.29216828400001,13.430967124000063],[123.29155217500012,13.433511809000038],[123.28941963200009,13.435202925000056],[123.28734075600005,13.435427590000074],[123.28524814400011,13.435992962000057],[123.28356243000007,13.437293312000067],[123.28129543400007,13.44068549800005],[123.280307256,13.441759680000073],[123.27722646700009,13.444134171000025],[123.27478508700005,13.446678242000077],[123.26978607100011,13.448996150000026],[123.26862350899998,13.449787626000045],[123.2675772030001,13.451087902000038],[123.2640895180001,13.452670837000026],[123.26240380300008,13.453123102000063],[123.2606599600001,13.454649490000065],[123.26036932000011,13.455440947000058],[123.26054370400006,13.458889408000063],[123.25972991100004,13.46075494800004],[123.25862547700002,13.461772509000072],[123.25746291500002,13.463807618000033],[123.25647473700009,13.465164348000032],[123.25502825699928,13.465822336004765],[123.25891969768217,13.467618789492125],[123.2631897295487,13.469109083444271],[123.26758849531154,13.470182504120203],[123.27207361058899,13.470828708754839],[123.27660185765367,13.47104147108636],[123.28112960255578,13.470818741433868],[123.2856132162871,13.470162666462972],[123.2900094958938,13.469079568447949],[123.29427608144488,13.467579884232691],[123.2983718648065,13.465678064484266],[123.3022573862527,13.463392434218585],[123.30589521506556,13.460745015953428],[123.30925031043671,13.45776131720639],[123.31229035917839,13.454470084400509],[123.31498608698233,13.45090302556492],[123.31731154022654,13.44709450451887],[123.31924433562135,13.443081209501752],[123.32076587530199,13.438901799457],[123.32186152531554,13.434596531391254],[123.32252075580709,13.430206872410304],[123.32273724158438,13.42577510017813],[123.32250892212507,13.421343895654037],[123.32183802048421,13.416955932033623],[123.32073102095512,13.412653463852822],[123.3191986057353,13.408477920209053],[123.31725555124054,13.40446950601073],[123.31492058509718,13.40066681508605],[123.31221620521568,13.39710645886519],[123.3091684627099,13.393822714197903],[123.30580671076778,13.39084719368267],[123.302163321901,13.388208541665742],[123.29912943460764,13.386433130145134],[123.29815258200007,13.386970262000034]]]}}]}