{"type":"FeatureCollection","features":[{"type":"Feature","properties":{"fid":33,"objectid":1879,"lccode":"07","liqcode":"2010600070000000","mappers":"PJDelosReyes, ACPidlaoan","project":"READY","province":"Isabela","otherinfo":null,"datemapped":2012,"publishdate":null,"globalid":"{91DB2F3C-1BB4-4146-BF15-299122E74073}","st_area(shape)":0.020995608528075003,"st_perimeter(shape)":7.369078683303569,"liqcodepk":"201060007000000000072","creator":"SNOOPYPC","createdate":"2019-02-19T15:21:28","editor":"LENOVO","modifydate":"2019-03-10T17:50:55","codemove":"na"},"geometry":{"type":"Polygon","coordinates":[]}},{"type":"Feature","properties":{"fid":60,"objectid":1909,"lccode":"05","liqcode":"2010600050000000","mappers":"PJDelosReyes, ACPidlaoan","project":"READY","province":"Isabela","otherinfo":null,"datemapped":2012,"publishdate":null,"globalid":"{CB433018-447B-4349-A32C-A82989A96D3F}","st_area(shape)":0.11608726533381088,"st_perimeter(shape)":15.125533415932647,"liqcodepk":"201060005000000000104","creator":"SNOOPYPC","createdate":"2019-02-19T15:21:28","editor":"LENOVO","modifydate":"2019-03-10T17:50:55","codemove":"na"},"geometry":{"type":"MultiPolygon","coordinates":[[[[121.84585776700011,17.00256486400002],[121.84694759400008,16.99987901800006],[121.84822780800006,16.998366127000054],[121.84844770500001,16.995892847000047],[121.84784151000008,16.99291989800003],[121.8486360280001,16.98842714200003],[121.85011775900013,16.985311468000077],[121.85053563000008,16.984060703000065],[121.84932943500009,16.982955381000068],[121.85016178500005,16.978085205000063],[121.8503693440001,16.976215365000034],[121.85220197700005,16.97404573500006],[121.85220865400004,16.97294716500005],[121.85169736700006,16.97196585900002],[121.85018766500002,16.970910340000046],[121.84976761800009,16.96958626300005],[121.84990415800006,16.96766451600007],[121.85059413200008,16.965660134000068],[121.85001175800004,16.96464408700006],[121.84582638000006,16.960724001000074],[121.84489075800002,16.95913947000002],[121.84482926435007,16.95711197578807],[121.84394312563809,16.958516046033058],[121.84194847778595,16.962513709599843],[121.84037050288387,16.966680262628874],[121.83922442063438,16.970975590056533],[121.83875189594582,16.97392097413354],[121.84002827200003,16.97582715400005],[121.84154022700012,16.977874738000025],[121.84176501099999,16.979144225000024],[121.84128293600008,16.981901548000053],[121.84191899200005,16.983521442000036],[121.84497413300006,16.986771340000068],[121.84585482800003,16.986428261000068],[121.84705838200011,16.98399822900007],[121.84819438800002,16.984153838000054],[121.84810836400004,16.985545811000065],[121.84750659100007,16.986760831000026],[121.84623348100001,16.98789750000003],[121.84439333100012,16.98878218400006],[121.84130564100009,16.99082857100007],[121.83997180354609,16.9919794220989],[121.84020933022937,16.99291533460603],[121.84173628751624,16.997099527260254],[121.84368219004253,17.001119544317383],[121.84492371514055,17.003139507611188],[121.84585776700011,17.00256486400002]]],[[[121.8562371390001,17.01490661900004],[121.85708134700008,17.01497913300005],[121.85790799900009,17.015775244000054],[121.85980944200004,17.01707264600003],[121.85962571795119,17.01789515246705],[121.86146714407971,17.018971101114513],[121.86246537900001,17.018746718000045],[121.86364965200005,17.01787295200006],[121.86434432900012,17.016488527000035],[121.86475844800009,17.014933198000048],[121.86651580100012,17.01240340100003],[121.8676286660001,17.011698457000016],[121.87044872100012,17.010935308000057],[121.87235453100004,17.010048591000043],[121.87344350300009,17.010393205000067],[121.8750617710001,17.01050372300006],[121.87802593000005,17.009182558000077],[121.87895902500009,17.009103122000056],[121.88012397300008,17.00849995800007],[121.88076647100003,17.006979729000022],[121.88033122100002,17.006198511000033],[121.87825532300008,17.00611940100003],[121.87675358400008,17.00712696100004],[121.87391695800011,17.00772077400006],[121.872321896,17.00668760900004],[121.87173963200007,17.006946882000022],[121.870602328,17.008802916000032],[121.8687180710001,17.009029469000033],[121.86721127600003,17.007954466000058],[121.86609327900008,17.006593821000024],[121.86383712300005,17.00429556100005],[121.86224434700011,17.002898360000074],[121.86094685900004,17.002129182000036],[121.85958171800007,17.000919470000046],[121.85770358600008,17.000147020000043],[121.85666208800001,17.000699966000074],[121.85666478100005,17.003154902000055],[121.85735742400003,17.005004228000075],[121.85857476400008,17.00738140200002],[121.85927246200005,17.00840114900006],[121.86128894700006,17.012492683000062],[121.86150970000006,17.013814541000045],[121.86087152800008,17.014589789000066],[121.8575847730001,17.01394489000006],[121.85588127600012,17.013376619000038],[121.85418047000007,17.012368112000047],[121.85253003200013,17.011766318000067],[121.85176617835864,17.011751741960065],[121.85182730844814,17.01181740463312],[121.85522433709203,17.014814738625642],[121.85594529698399,17.015335497209715],[121.8562371390001,17.01490661900004]]]]}},{"type":"Feature","properties":{"fid":74,"objectid":1938,"lccode":"06","liqcode":"2010600060000000","mappers":"PJDelosReyes, ACPidlaoan","project":"READY","province":"Isabela","otherinfo":null,"datemapped":2012,"publishdate":null,"globalid":"{57DA03B8-A8DC-43FC-92E3-BCA08FF4E128}","st_area(shape)":0.09517793329217689,"st_perimeter(shape)":18.374122243984093,"liqcodepk":"201060006000000000137","creator":"SNOOPYPC","createdate":"2019-02-19T15:21:28","editor":"LENOVO","modifydate":"2019-03-10T17:50:55","codemove":"na"},"geometry":{"type":"MultiPolygon","coordinates":[[[[121.84130564100009,16.99082857100007],[121.84439333100012,16.98878218400006],[121.84623348100001,16.98789750000003],[121.84750659100007,16.986760831000026],[121.84810836400004,16.985545811000065],[121.84819438800002,16.984153838000054],[121.84705838200011,16.98399822900007],[121.84585482800003,16.986428261000068],[121.84497413300006,16.986771340000068],[121.84191899200005,16.983521442000036],[121.84128293600008,16.981901548000053],[121.84176501099999,16.979144225000024],[121.84154022700012,16.977874738000025],[121.84002827200003,16.97582715400005],[121.83875189594582,16.97392097413354],[121.8385212952309,16.97535833445296],[121.83826792777813,16.97978629397088],[121.83846678965803,16.984216828523813],[121.83911599752679,16.988607270291624],[121.83997180354609,16.9919794220989],[121.84130564100009,16.99082857100007]]],[[[121.85980944200004,17.01707264600003],[121.85790799900009,17.015775244000054],[121.85708134700008,17.01497913300005],[121.8562371390001,17.01490661900004],[121.85594529698399,17.015335497209715],[121.8589104691368,17.017477223671953],[121.85962571795119,17.01789515246705],[121.85980944200004,17.01707264600003]]]]}}]}