{"type":"FeatureCollection","features":[{"type":"Feature","properties":{"fid":4,"objectid":1833,"lccode":"01","liqcode":"2010600010000000","mappers":"DJLBuhay, MITAbigania, KLPapiona, KMVitto","project":"MELP","province":"Aklan","otherinfo":null,"datemapped":2017,"publishdate":null,"globalid":"{2610B680-7BB1-4235-9EBC-A203F48D9AEE}","st_area(shape)":0.031193944395976114,"st_perimeter(shape)":7.591260939778177,"liqcodepk":"201060001000000000004","creator":"SNOOPYPC","createdate":"2019-02-19T15:21:28","editor":"LENOVO","modifydate":"2019-03-10T17:53:06","codemove":"na"},"geometry":{"type":"MultiPolygon","coordinates":[[[[122.14057149200006,11.790069633000025],[122.14127154000005,11.78946766100006],[122.14148177800007,11.788248128000077],[122.14220046300012,11.787508640000055],[122.14127970400011,11.786865844000033],[122.14031484100009,11.788669240000049],[122.13895455600004,11.788796676000063],[122.13792654600002,11.789439509000031],[122.13779048000002,11.790234597000053],[122.13819691373914,11.79131853474862],[122.14079177884892,11.791967252825806],[122.14057149200006,11.790069633000025]]],[[[122.18209101700008,11.779872145000066],[122.18226005800013,11.778561533000074],[122.18152300600002,11.778176591000031],[122.18137054300007,11.77719042900003],[122.18016543500006,11.777416611000032],[122.17950569200003,11.777165871000024],[122.179712332,11.776276453000037],[122.18072234500005,11.776327239000068],[122.1817257900001,11.775325292000048],[122.18208894400004,11.774063093000052],[122.18205372200009,11.772847588000047],[122.18139782000003,11.77131447100004],[122.1824405220001,11.770169082000052],[122.1819305150001,11.768569397000018],[122.18131121400006,11.767792424000048],[122.17968921600004,11.76777814500002],[122.17889440600003,11.767230338000045],[122.17876218400009,11.765976271000055],[122.17953172000011,11.765232041000043],[122.1787885780001,11.76365081500006],[122.17924747500003,11.762848262000034],[122.17953690000002,11.760255606000046],[122.18048158400006,11.759397040000067],[122.17944848000002,11.757346039000028],[122.1801592280001,11.75676432600005],[122.17898896100007,11.755114870000051],[122.17948872400007,11.753632957000038],[122.17874643700009,11.751774200000053],[122.17812523100007,11.751647983000057],[122.17730768900005,11.752219811000034],[122.17678659000002,11.75109859200006],[122.17697516600002,11.74974975600003],[122.17863713800011,11.749352647000023],[122.17978708100009,11.748044881000059],[122.18059358100005,11.747913238000024],[122.18152379600009,11.748633690000073],[122.18254618700007,11.747756199000037],[122.18132535200006,11.746786085000053],[122.18127016300004,11.745752353000055],[122.1806589370001,11.745540040000037],[122.17957673400008,11.74693413800003],[122.17795425700002,11.74712082700006],[122.17711244000009,11.74607523800006],[122.17819825800007,11.743475327000056],[122.17714224400005,11.742610946000068],[122.17680182500008,11.739537952000035],[122.1770378010001,11.738572058000045],[122.17778823800006,11.737693789000046],[122.17762832300002,11.735961135000023],[122.1768337200001,11.735375048000035],[122.17808355800004,11.733120135000036],[122.17805705600006,11.732239606000064],[122.17882835200011,11.730873319000066],[122.18004590700004,11.729661442000065],[122.18012953300001,11.727671100000064],[122.17934051400005,11.72521886300007],[122.18091146200004,11.72272560700003],[122.18163444300001,11.721263467000028],[122.18155495700012,11.71860274200003],[122.18060458800007,11.718159769000065],[122.17928595400008,11.720720748000076],[122.1784130420001,11.720354553000048],[122.17688886300004,11.720197007000024],[122.17618892200005,11.72044379600004],[122.17588492700008,11.721428634000059],[122.17503776400008,11.722191778000022],[122.17536516200005,11.723121032000048],[122.17451110000003,11.726180981000027],[122.17394471400009,11.727222471000061],[122.1752487650001,11.729551808000055],[122.175001242,11.731130155000075],[122.17397927000003,11.731883214000051],[122.17356793600004,11.733030426000028],[122.17359215100011,11.734666983000068],[122.1728018560001,11.735880078000037],[122.17169156000011,11.73692954100005],[122.17141470000001,11.738565217000032],[122.17051819200003,11.739567450000035],[122.1698966990001,11.73954648700004],[122.17054264500007,11.74111787700002],[122.17049125500013,11.742055595000068],[122.16967138400003,11.743402572000035],[122.1682436540001,11.74342708800003],[122.1670339860001,11.745203563000075],[122.16685229000008,11.74747113600006],[122.16639100300006,11.749058410000035],[122.16563040900007,11.750061025000036],[122.1661447140001,11.753402498000073],[122.16675417100011,11.754198612000037],[122.16561391200003,11.755487207000042],[122.16378651800007,11.755969879000077],[122.1627158030001,11.756741884000066],[122.16188352600011,11.755763269000056],[122.16064111700007,11.75551076200003],[122.15932796900007,11.756157622000046],[122.15927776500007,11.75669339600006],[122.1617009260001,11.758308364000072],[122.16223235900007,11.759209527000053],[122.16208079700004,11.761132659000053],[122.16103155800012,11.761225246000034],[122.16044459200009,11.762601590000028],[122.15970471199999,11.763164023000057],[122.16020721200003,11.763998111000033],[122.160500038,11.76669773700007],[122.16092487500008,11.767522024000074],[122.16077675400005,11.768315898000028],[122.16145450500005,11.769016527000073],[122.16057631500007,11.770334583000022],[122.15948669300008,11.770915114000045],[122.15858319800009,11.770979412000031],[122.15797900500002,11.771628374000045],[122.15603672300006,11.774684986000066],[122.15519276000009,11.77433793800003],[122.15490798600001,11.772193398000068],[122.15429672800009,11.771981027000036],[122.15365963000009,11.773845273000065],[122.15276415100004,11.774455068000066],[122.1523411070001,11.776195543000028],[122.15284191800004,11.777575131000047],[122.15400470100006,11.778478203000077],[122.15325451800005,11.779212845000075],[122.15257066500011,11.78048360400004],[122.15340460100003,11.780935900000031],[122.15171972400003,11.782385481000059],[122.15082530900008,11.782641181000033],[122.14939426100011,11.783670429000038],[122.1490812080001,11.784387237000033],[122.14822754300006,11.784030569000036],[122.14819226400004,11.782882060000075],[122.14719284900002,11.782544090000046],[122.14608398200004,11.779928122000058],[122.14382032800007,11.780083952000043],[122.14304121500005,11.780741916000066],[122.14284233900003,11.782215092000058],[122.144529497,11.783158075000072],[122.14616271700005,11.782713233000035],[122.146501037,11.783240609000073],[122.14577754200003,11.784750478000033],[122.14570626500006,11.785802964000027],[122.14515879300006,11.786930565000036],[122.14525380400005,11.787610324000068],[122.14412205800011,11.789205080000047],[122.14503281500005,11.789944734000073],[122.1440566230001,11.791492112000071],[122.14459812400003,11.792278496000051],[122.14638206200006,11.791975470000065],[122.14689651300012,11.792307891000062],[122.14653123731824,11.792912162939983],[122.15082126655798,11.793132671144658],[122.15218962367099,11.793070531885213],[122.15234325900009,11.792097539000055],[122.15174419500009,11.791071746000059],[122.15281626500007,11.789916997000033],[122.15390224700002,11.790542310000035],[122.15373525300004,11.791144721000023],[122.15485467400003,11.79229929500002],[122.15461465638009,11.792960391027473],[122.15532005598695,11.792928349067948],[122.15977684262936,11.79229050108522],[122.16414868441636,11.791225271558508],[122.16839345865513,11.789742922749069],[122.17247026844582,11.787857735848432],[122.17400363264989,11.786958286018933],[122.17514677600002,11.785433186000033],[122.17638255900009,11.784709474000064],[122.1756368240001,11.783979969000029],[122.17711900000002,11.782070283000051],[122.17771196800005,11.78191889100003],[122.17889439700002,11.782783645000054],[122.17987641100001,11.78246112100004],[122.17984125800002,11.781226477000075],[122.18064814100002,11.78099914100005],[122.1815068552692,11.781586313684587],[122.18322768735361,11.780058609269767],[122.18209101700008,11.779872145000066]],[[122.1558418950001,11.778043942000068],[122.156506938,11.777389282000058],[122.15716140700012,11.775474432000065],[122.1577913970001,11.774690704000024],[122.15880683600007,11.77509526500006],[122.15829494400009,11.77631391500006],[122.15763168600006,11.776684333000048],[122.15775590700004,11.777535258000055],[122.1560837200001,11.779265648000033],[122.1558418950001,11.778043942000068]]]]}},{"type":"Feature","properties":{"fid":23,"objectid":1869,"lccode":"07","liqcode":"2010600070000000","mappers":" ","project":"READY","province":"Antique","otherinfo":null,"datemapped":2010,"publishdate":null,"globalid":"{D10F3743-B08E-4BB0-8330-C339D6ABD38B}","st_area(shape)":0.008955404678814158,"st_perimeter(shape)":4.103226410979217,"liqcodepk":"201060007000000000061","creator":"SNOOPYPC","createdate":"2019-02-19T15:21:28","editor":"LENOVO","modifydate":"2019-03-10T17:50:55","codemove":"na"},"geometry":{"type":"Polygon","coordinates":[]}},{"type":"Feature","properties":{"fid":49,"objectid":1898,"lccode":"05","liqcode":"2010600050000000","mappers":" ","project":"READY","province":"Antique","otherinfo":null,"datemapped":2010,"publishdate":null,"globalid":"{F799DDD2-325B-4E56-934A-EE54555B99CC}","st_area(shape)":0.01053919356163067,"st_perimeter(shape)":4.296469707330003,"liqcodepk":"201060005000000000092","creator":"SNOOPYPC","createdate":"2019-02-19T15:21:28","editor":"LENOVO","modifydate":"2019-03-10T17:50:55","codemove":"na"},"geometry":{"type":"MultiPolygon","coordinates":[[[[122.10699537300002,11.741941841000028],[122.107507401,11.741175175000024],[122.10717961400007,11.740018679000059],[122.10825373400006,11.736253299000055],[122.10873503000006,11.732421424000052],[122.10919083400005,11.731836746000054],[122.1105219440001,11.731655739000074],[122.11129134400005,11.730917710000028],[122.11104479000005,11.729698366000036],[122.11008003500002,11.727905967000028],[122.11008620998454,11.727468736352384],[122.10862484585884,11.73048883249725],[122.10709457246999,11.734661657018055],[122.1059866802149,11.738962187261896],[122.10549486530485,11.742159345213894],[122.10699537300002,11.741941841000028]]],[[[122.10569360400007,11.751544065000074],[122.10623464100001,11.751315859000044],[122.1063364900001,11.750190992000055],[122.10567767200008,11.746982792000042],[122.10567720100006,11.745228474000044],[122.1052792406195,11.743963374636541],[122.1050766198867,11.747779891139109],[122.10524371267483,11.751363953999524],[122.10569360400007,11.751544065000074]]]]}},{"type":"Feature","properties":{"fid":64,"objectid":1928,"lccode":"06","liqcode":"2010600060000000","mappers":" ","project":"READY","province":"Antique","otherinfo":null,"datemapped":2010,"publishdate":null,"globalid":"{59F7BC3E-69F7-4D6A-8910-A1F9D73ECE42}","st_area(shape)":0.010710328066056169,"st_perimeter(shape)":5.351824083433743,"liqcodepk":"201060006000000000126","creator":"SNOOPYPC","createdate":"2019-02-19T15:21:28","editor":"LENOVO","modifydate":"2019-03-10T17:50:55","codemove":"na"},"geometry":{"type":"Polygon","coordinates":[]}}]}