{"type":"FeatureCollection","features":[{"type":"Feature","properties":{"fid":186,"objectid":9626,"lccode":"01","liqcode":"2010600010000000","mappers":"DJLBuhay, MJVReyes, MITAbigania, KLPapiona, KMVitto","project":"MELP","province":"Camarines Sur","otherinfo":"hazard boundary with Albay updated on 2024","datemapped":2017,"publishdate":null,"globalid":"{FACCEE19-027B-4BCC-AA3E-C446A7485A33}","st_area(shape)":0.06258623447864109,"st_perimeter(shape)":16.64832304604979,"liqcodepk":"201060001000000000012","creator":"SNOOPYPC","createdate":"2019-02-19T15:21:28","editor":"LENOVO","modifydate":"2019-03-10T17:53:06","codemove":"na"},"geometry":{"type":"Polygon","coordinates":[[[123.2640895180001,13.452670837000026],[123.26240380300008,13.453123102000063],[123.2606599600001,13.454649490000065],[123.26036932000011,13.455440947000058],[123.26054370400006,13.458889408000063],[123.25972991100004,13.46075494800004],[123.25862547700002,13.461772509000072],[123.25746291500002,13.463807618000033],[123.25647473700009,13.465164348000032],[123.25475859500011,13.465945001000023],[123.25028882900007,13.466736252000034],[123.24953162300005,13.467141169000058],[123.24855358700006,13.469102182000027],[123.24790595800005,13.46943951000003],[123.2466877820001,13.46865120700005],[123.245881198,13.468752480000033],[123.244840758,13.46965783400003],[123.24327336400006,13.469575757000028],[123.24160411400008,13.46833795200007],[123.24061167100001,13.468412],[123.23838956100009,13.469124770000064],[123.2368525060001,13.470104474000035],[123.23570175500004,13.471980053000037],[123.23438948600004,13.469933359000034],[123.23362499400002,13.469646979000059],[123.23197379500006,13.469906768000044],[123.23133431100008,13.470374679000027],[123.23137910700007,13.471256771000073],[123.23276902600001,13.472506803000043],[123.23301634900008,13.47600308600005],[123.2318955410001,13.477757156000054],[123.23092175800002,13.477634466000039],[123.23036670600005,13.475985146000024],[123.22971188300006,13.475836612000023],[123.22895933700009,13.476732871000026],[123.22856282200007,13.478894156000022],[123.22977992500012,13.480462805000055],[123.23148697500005,13.480724636000046],[123.22955038300005,13.481626587000049],[123.2280255820001,13.480943122000042],[123.225903549,13.48189270900002],[123.22213049200002,13.482426928000054],[123.22081144900004,13.483590813000033],[123.21951379700012,13.484227110000065],[123.21937587400011,13.485659132000022],[123.21842531100003,13.48617471600005],[123.21757370200008,13.485228053000071],[123.21664935500009,13.484941761000073],[123.21562573300002,13.488445161000072],[123.21554617100001,13.489230726000073],[123.21625862800009,13.490685883000022],[123.21618538800011,13.491143832000036],[123.21499822100009,13.492048700000055],[123.21358334900005,13.49276763700004],[123.2112436560001,13.493517020000068],[123.21130501800008,13.494292],[123.21384227800002,13.495272291000049],[123.21525938900002,13.497144153000024],[123.21531811900003,13.498682803000062],[123.21275478100006,13.49991213100003],[123.21192373200007,13.50125887000007],[123.2107057930001,13.500698527000054],[123.20983286800003,13.500824366000073],[123.20838389900008,13.501856066000073],[123.20767896300002,13.501850750000072],[123.20667595700003,13.50113384900004],[123.20587006100004,13.502187181000064],[123.2040527460001,13.502237091000042],[123.2034536000001,13.502850614000065],[123.20280373100002,13.504510337000056],[123.20089662700002,13.504392251000068],[123.19891202000008,13.505483716000073],[123.19860783000003,13.506464456000062],[123.19780576200003,13.506952615000044],[123.19660442900012,13.507021661000065],[123.19565707700008,13.50661672600006],[123.19528175800008,13.505892355000073],[123.1938883900001,13.506166173000052],[123.1939462900001,13.505204372000037],[123.19233550900003,13.504558012000075],[123.19181200600009,13.504746040000045],[123.19115177800005,13.505964021000066],[123.19082701406562,13.506014442815575],[123.19167748487308,13.507400463341297],[123.19438137534661,13.510962093581886],[123.19742909007327,13.514247199690391],[123.20079127994694,13.517224132499859],[123.20443556246339,13.519864210785018],[123.20832683368477,13.5221419979323],[123.2124276065965,13.524035547343077],[123.21669837258625,13.525526614189738],[123.22109798254706,13.52660083146965],[123.22326031581339,13.526912711704252],[123.2245368350001,13.525945737000031],[123.22916399400005,13.523892415000034],[123.23525808900001,13.52227475700005],[123.24234873900001,13.522267995000051],[123.24554183700003,13.522825566000051],[123.25009036882277,13.522936804567319],[123.25188954138099,13.522101970368213],[123.25577642105586,13.519817044074845],[123.25941561703777,13.517170284800855],[123.26188266001716,13.514977683345176],[123.26231262500006,13.514109127000037],[123.26283627800001,13.513538551000067],[123.26386566411398,13.513003983259852],[123.26581346922845,13.510896511512815],[123.26851051168187,13.507329940898613],[123.27083723625717,13.503521841090645],[123.27277124739477,13.499508896356415],[123.27429393552364,13.495329762358855],[123.27539065566074,13.491024693543507],[123.27605086770221,13.486635155195387],[123.27626823708457,13.482203423911798],[123.27604069487917,13.47777218034607],[123.27537045677649,13.473384098148095],[123.27426400081339,13.469081433060971],[123.27273200409412,13.464905616128053],[123.2707892391481,13.460896854921767],[123.26845443095392,13.457093746625576],[123.26575007603313,13.453532906683293],[123.26469502515114,13.452396023980452],[123.2640895180001,13.452670837000026]]]}}]}