{"type":"FeatureCollection","features":[{"type":"Feature","properties":{"fid":194,"objectid":2170,"lccode":"01","liqcode":null,"mappers":"DJLBuhay, MJVReyes, MITAbigania, KLPapiona, KMVitto","project":"MELP","province":"Davao del Norte","otherinfo":null,"datemapped":2018,"publishdate":null,"globalid":"{9AB618B6-D0DC-4322-9386-ECE8955C87EA}","st_area(shape)":0.06864336268566588,"st_perimeter(shape)":8.586566217312162,"liqcodepk":null,"creator":null,"createdate":null,"editor":null,"modifydate":null,"codemove":null},"geometry":{"type":"Polygon","coordinates":[[[125.57978983500003,7.433980376000024],[125.57929070900003,7.434781692000057],[125.57819738400009,7.435441598000068],[125.57551160900005,7.43665535200006],[125.57449553000004,7.437863211000035],[125.5731110480001,7.437061900000059],[125.57085903700012,7.436908708000033],[125.57097223900006,7.43765247400006],[125.56994397200003,7.438623276000044],[125.57025889700003,7.43943047600004],[125.57025295500013,7.441474982000044],[125.57054523400006,7.44240740200007],[125.5701816520001,7.444214724000061],[125.56852383900004,7.444020291000072],[125.56634907400007,7.444798022000046],[125.56394257100011,7.442453043000057],[125.56317605600009,7.44191687700004],[125.56146390200003,7.442789727000047],[125.56115318100001,7.443738358000074],[125.55970593900007,7.443990832000053],[125.55821450100007,7.444939427000065],[125.55789363400002,7.4454638050000295],[125.55784015600011,7.447219582000059],[125.55827392100004,7.447190123000042],[125.55920267400008,7.445523398000037],[125.55976359700004,7.445155745000021],[125.56084768300002,7.445590764000031],[125.56158929800006,7.447078487000058],[125.5629842510001,7.447213911000063],[125.56333408600007,7.448058313000047],[125.56320996300008,7.448962831000075],[125.56430858200007,7.450046797000026],[125.56608935500003,7.449792639000066],[125.56648263300008,7.4488439170000325],[125.56754996900008,7.44822894200007],[125.56811089200005,7.447097706000023],[125.56959933700011,7.447573094000061],[125.57022918700012,7.448621843000069],[125.57171468300011,7.44835081800005],[125.57210685400003,7.447514175000037],[125.57305757100005,7.447019259000056],[125.57424596700004,7.447054610000064],[125.57537494300004,7.444768562000035],[125.57520856800011,7.443802291000053],[125.57552943500002,7.4429067210000435],[125.57493819200009,7.441535594000072],[125.57649816300011,7.440393237000024],[125.57641065200005,7.439150693000043],[125.57687650300011,7.438556782000036],[125.57821701400009,7.438273967000044],[125.5788203960001,7.436869823000051],[125.57984662700005,7.43621831400003],[125.58091756300007,7.435016618000075],[125.58252213500009,7.4349594990000565],[125.58424145700009,7.434040956000046],[125.58462066600008,7.435235378000072],[125.58406212000013,7.435965988000022],[125.58415719200003,7.437226876000068],[125.58503660500004,7.437733587000024],[125.585595151,7.437403636000059],[125.58724702200006,7.43767466700007],[125.5886968650001,7.437462556000069],[125.58948120700008,7.438039970000033],[125.58963569800005,7.439383340000065],[125.58906526800001,7.440208214000052],[125.58635119800012,7.441508467000063],[125.58581468900002,7.441930004000027],[125.58534590700005,7.443696070000045],[125.58591881000007,7.444380145000025],[125.58768729300004,7.444698619000063],[125.58885170400004,7.444123990000037],[125.58969338800013,7.444686945000057],[125.59011746300007,7.445521314000077],[125.59025278000003,7.448180472000045],[125.58989889400006,7.449109032000022],[125.58915506100006,7.449920315000043],[125.5888911730001,7.450878238000028],[125.58676527900002,7.4508906150000485],[125.58545742000001,7.4525420170000425],[125.5840802460001,7.452579914000069],[125.58348558400009,7.453300664000039],[125.58240887700005,7.453516133000051],[125.58140225100011,7.454503091000048],[125.5814238800001,7.455703777000052],[125.58076190200008,7.456508873000075],[125.58294806500011,7.457124690000059],[125.58390746200007,7.457734560000063],[125.5841554760001,7.45837844700003],[125.58365970300008,7.460556258000055],[125.58232939800008,7.460420540000028],[125.58152449800002,7.4611901010000565],[125.58276829700002,7.462065539000037],[125.58389574400006,7.461536565000076],[125.58709253000008,7.460994532000028],[125.58792440800006,7.461560132000047],[125.58782933600003,7.462526364000043],[125.58711629800008,7.463233362000042],[125.58768672900008,7.46388144200006],[125.58778345700013,7.465242442000033],[125.58681919900005,7.466014209000035],[125.58550007900011,7.466391271000021],[125.58560703500008,7.467275011000027],[125.586529272,7.468285728000069],[125.58393142800004,7.4703744530000336],[125.58288152600005,7.470865888000046],[125.57974286900003,7.470788524000057],[125.5788548600001,7.470506773000066],[125.57776664600009,7.470924189000072],[125.57698036900001,7.472431141000072],[125.57572084800007,7.472376811000059],[125.57593349000003,7.4736378800000685],[125.57435178800006,7.474106277000032],[125.57294798400005,7.473644052000052],[125.57210685400003,7.474945792000027],[125.57350916100006,7.474934009000038],[125.57560705900006,7.475743983000029],[125.57613551700001,7.476524707000066],[125.57860738100011,7.4760769560000435],[125.57794187900002,7.477514472000052],[125.5790589720001,7.479234772000041],[125.57983142900002,7.47870454300005],[125.58075837800004,7.478987332000031],[125.58218445400007,7.477903308000066],[125.58320647500013,7.478233228000022],[125.5841690760001,7.47598269200006],[125.5847709000001,7.476264447000061],[125.58508525800006,7.47758242900005],[125.58600525100007,7.477596186000028],[125.58647908600005,7.476694416000043],[125.58739840300007,7.476593408000039],[125.58848295400003,7.477066722000075],[125.58860179400004,7.477702998000041],[125.58769861300004,7.478468886000028],[125.58768672900008,7.4800360060000335],[125.58612608000011,7.481860967000046],[125.58759165700008,7.482015517000035],[125.58772238000006,7.483653321000077],[125.5887681690001,7.482899225000041],[125.5887444010001,7.4815795540000645],[125.58910092000008,7.480142051000028],[125.59011210500012,7.478547701000022],[125.59125925700006,7.478081927000063],[125.59215783900005,7.478500841000026],[125.59407795400011,7.47833321300004],[125.59459533300003,7.479969758000038],[125.59571883100013,7.4803511240000375],[125.5956668550001,7.48128868200007],[125.59505093400003,7.481691073000037],[125.59487956400005,7.483391570000039],[125.5954816840001,7.485333362000062],[125.59542147200013,7.488755042000035],[125.59572570200008,7.489584536000053],[125.59408523200011,7.489974830000054],[125.59418725600007,7.492101460000073],[125.59315335100005,7.492714150000041],[125.59310581600005,7.493515359000071],[125.59475673400004,7.49377239100005],[125.59609973500005,7.494826086000046],[125.59700586300004,7.494921181000055],[125.59794437800008,7.495632948000036],[125.59791472300002,7.497914084000058],[125.59811932900006,7.498804674000041],[125.59790693600009,7.49988962800006],[125.59892080800013,7.5003996160000375],[125.59986779000008,7.499972104000049],[125.60062836400004,7.499100213000074],[125.60130575000005,7.498911696000049],[125.602470378,7.499606853000047],[125.604157901,7.499182690000054],[125.60554477100005,7.49975931800003],[125.60729777800009,7.499793061000047],[125.61104852000005,7.499641791000044],[125.61264909800003,7.5004930550000495],[125.6130446000001,7.501738773000058],[125.6147667250001,7.502063312000075],[125.61515947900013,7.50240808700005],[125.6142562980001,7.503833734000068],[125.61401861900005,7.505259377000075],[125.61526748400003,7.505713652000051],[125.61551513453479,7.506117778213556],[125.61739633060574,7.503554513541209],[125.61965759607176,7.499737835804006],[125.62153310038666,7.495718337819125],[125.6230047934417,7.491534731579067],[125.62405851521102,7.487227307986757],[125.62468413160944,7.482837548815346],[125.6248756315543,7.478407727260065],[125.62463118431764,7.473980500927036],[125.6239531566368,7.469598501174535],[125.62284808943899,7.465303922755231],[125.62132663442254,7.461138117703128],[125.61940345112149,7.4571411973666315],[125.61709706545815,7.45335164640943],[125.61442969115616,7.449805952485248],[125.61142701573957,7.446538255140976],[125.60811795318143,7.443580017318176],[125.60453436558257,7.4409597226055855],[125.60071075655473,7.438702601148686],[125.59668393925244,7.436830386847608],[125.59249268223776,7.435361108175214],[125.58817733657331,7.43430891462528],[125.58377944771757,7.433683940459765],[125.58093734788527,7.433561161952094],[125.57978983500003,7.433980376000024]]]}}]}