{"type":"FeatureCollection","features":[{"type":"Feature","properties":{"fid":207,"objectid":7271,"lccode":"01","liqcode":null,"mappers":"DJLBuhay, MJVReyes, MITAbigania, KLPapiona, KMVitto","project":"MELP","province":"Zamboanga del Norte","otherinfo":null,"datemapped":2020,"publishdate":2021,"globalid":"{6B0290BE-0A77-4263-894C-1C10E652B59E}","st_area(shape)":0.033021563613966895,"st_perimeter(shape)":18.189103020785044,"liqcodepk":null,"creator":null,"createdate":null,"editor":null,"modifydate":null,"codemove":null},"geometry":{"type":"Polygon","coordinates":[]}},{"type":"Feature","properties":{"fid":208,"objectid":7461,"lccode":"01","liqcode":null,"mappers":"DJLBuhay, MJVReyes, MITAbigania, KLPapiona, KMVitto","project":"MELP","province":"Zamboanga del Sur","otherinfo":null,"datemapped":2020,"publishdate":2021,"globalid":"{956CA67A-D8B3-4AFB-A15B-79E0A6393BB2}","st_area(shape)":0.059065434056611577,"st_perimeter(shape)":16.76855550220317,"liqcodepk":null,"creator":null,"createdate":null,"editor":null,"modifydate":null,"codemove":null},"geometry":{"type":"Polygon","coordinates":[[[123.019545955,7.814975734000027],[123.0198758570001,7.813300406000051],[123.0134206780001,7.813060005000067],[123.01126631800003,7.811266415000035],[123.00985641000011,7.811266450000061],[123.00902302725261,7.812121344472292],[123.0122774686285,7.813656279426825],[123.0164679982275,7.815151416518459],[123.01823263366109,7.815592148677184],[123.019545955,7.814975734000027]]]}},{"type":"Feature","properties":{"fid":209,"objectid":7568,"lccode":"01","liqcode":null,"mappers":"DJLBuhay, MJVReyes, MITAbigania, KLPapiona, KMVitto","project":"MELP","province":"Zamboanga Sibugay","otherinfo":null,"datemapped":2021,"publishdate":2021,"globalid":"{08423ED1-E932-4EA1-95BF-6D5A5DF8C9A2}","st_area(shape)":0.03611593413386012,"st_perimeter(shape)":14.29973412419831,"liqcodepk":null,"creator":null,"createdate":null,"editor":null,"modifydate":null,"codemove":null},"geometry":{"type":"MultiPolygon","coordinates":[[[[123.00974984200003,7.811291844000036],[123.01117054800011,7.811234370000022],[123.0133592630001,7.81301492400007],[123.01881174100005,7.813206181000055],[123.01771735800004,7.812038296000023],[123.01612382100006,7.811061892000051],[123.01491425500001,7.809817418000024],[123.01387751400013,7.80945367100003],[123.01261036600012,7.80824748500004],[123.01237995400005,7.807309317000036],[123.01161199200011,7.806620067000038],[123.01067126200006,7.806543506000025],[123.00998010100012,7.80598827600005],[123.00972398100009,7.8050475100000645],[123.00992768800006,7.804088514000055],[123.01153508400013,7.8024652910000345],[123.01165024800002,7.801507966000032],[123.01017196200009,7.800837878000039],[123.00969199000009,7.800186911000027],[123.00823292300004,7.800225234000036],[123.00771454500011,7.798808407000023],[123.00638985900001,7.798138304000075],[123.00552592200005,7.7965874540000755],[123.00418829300008,7.796358669000031],[123.002352459,7.793235419000039],[123.00156054100013,7.792230234000044],[123.00094860300011,7.790112159000046],[123.00022868500002,7.788712076000027],[123.00015669400013,7.787886385000035],[122.99864488600008,7.784691318000057],[122.99871688100005,7.783111735000031],[122.99774962000004,7.781844674000071],[122.99731768800007,7.780312955000059],[122.99736568700006,7.779499230000056],[122.99794161000011,7.778757308000024],[122.99777363700002,7.778063248000022],[122.99623786300005,7.7774170440000585],[122.99527800300007,7.777393101000028],[122.99458211900003,7.776220372000069],[122.99467811200009,7.775598113000059],[122.99587794300011,7.774569003000068],[122.9958539610001,7.773180884000054],[122.99496612300004,7.771122629000048],[122.99431823400006,7.770572160000029],[122.99350235600004,7.771218342000051],[122.99359832400012,7.772295332000054],[122.99333434000006,7.773922778000041],[122.99278240100013,7.775263022000048],[122.99191853200011,7.775215140000055],[122.99076672000001,7.7745210570000705],[122.99011884100003,7.77356371900004],[122.98858310000003,7.772749956000039],[122.98728733500003,7.771672930000021],[122.98721538300005,7.770476273000043],[122.98555974200008,7.767771781000022],[122.9857517570001,7.766383668000058],[122.9852958580001,7.765737459000034],[122.98477453843316,7.7655987843090015],[122.98450099104691,7.767437605384791],[122.98428246773615,7.77187074256034],[122.98450066585339,7.776303894858742],[122.98515349767656,7.780694367969865],[122.98623468921978,7.784999877315193],[122.98773384014795,7.789178955341879],[122.98963652346795,7.793191350995971],[122.99192442405494,7.796998417523362],[122.99457551469528,7.800563484857712],[122.9975642679651,7.8038522130014725],[123.00086190191348,7.8068329229880025],[123.00443665719143,7.809476902227694],[123.00825410295974,7.811758681287349],[123.00903948449647,7.8121291065100475],[123.00974984200003,7.811291844000036]]],[[[123.05495182100003,7.757835592000047],[123.05359612100006,7.7581468950000385],[123.05342804700003,7.757309258000021],[123.05390777200012,7.75587321200004],[123.05516745300007,7.755322589000062],[123.0564152500001,7.7556574890000425],[123.05751884100005,7.754245289000041],[123.05864665100012,7.754508399000032],[123.05951028900006,7.753156059000047],[123.05786624000007,7.750356113000065],[123.0579141060001,7.749446649000049],[123.05702629500001,7.7494587350000765],[123.05715792700005,7.746933775000058],[123.05612620200009,7.747316842000032],[123.05485447300009,7.747281108000038],[123.05370277100008,7.747664184000029],[123.05289888400013,7.74717365600003],[123.0526708110001,7.746192427000041],[123.0548901410001,7.744780094000018],[123.05588590700008,7.7446842320000515],[123.05605370800004,7.743463622000036],[123.05547774100012,7.742721771000049],[123.0561014660001,7.741716498000073],[123.05528559300001,7.741249909000031],[123.05406196700005,7.741968059000046],[123.05199831100005,7.740915259000078],[123.05106241200008,7.739946081000026],[123.04991063900003,7.73958722100002],[123.0494907850001,7.739994133000038],[123.04999496000006,7.7424831180000515],[123.04922734900003,7.744326057000025],[123.04773979700008,7.745343383000033],[123.04748794000011,7.74612123700007],[123.0465402420001,7.746982933000025],[123.04506447300004,7.746133467000051],[123.04374476000011,7.746109671000055],[123.0437448440001,7.746923397000047],[123.04230510900004,7.74644488000007],[123.04086541000002,7.7463014220000455],[123.03910182900006,7.746660584000041],[123.0382499530001,7.745978568000056],[123.03800992400011,7.745069131000034],[123.0368102760001,7.746050494000028],[123.0352985940001,7.7458950570000376],[123.03415887500012,7.746266113000046],[123.03304022200007,7.74603987300003],[123.03196039500006,7.745192724000052],[123.03131246500006,7.7442019410000285],[123.03021826600002,7.743584545000033],[123.03056612700004,7.742735693000045],[123.03063787000008,7.739404197000056],[123.03173199300012,7.739145640000059],[123.03305649300013,7.739303498000027],[123.03419379600007,7.73893005100007],[123.03387700500002,7.738111564000063],[123.03294122800003,7.73811163700003],[123.03248049100013,7.737508558000057],[123.0333298060001,7.736460222000064],[123.03374720600003,7.735225240000033],[123.03299858600008,7.7351822190000235],[123.03237946900003,7.734277594000047],[123.03115581200005,7.734823360000062],[123.03069517200002,7.735469588000056],[123.0307960350001,7.736690170000031],[123.02960115100007,7.737077971000076],[123.02924127200002,7.737580592000029],[123.02797437400011,7.737551957000053],[123.02718260100006,7.738140763000048],[123.0259732820001,7.738025959000028],[123.02454796700012,7.737092652000057],[123.0230938850001,7.736503978000028],[123.02389044300004,7.735622597000029],[123.02379443100007,7.734990768000045],[123.02674084600005,7.734014122000076],[123.02679834300012,7.7326164230000245],[123.02591536800003,7.732664344000053],[123.02537803900009,7.731598754000061],[123.02615783600005,7.731502974000023],[123.0280053900001,7.731849888000054],[123.0300209520001,7.732866908000058],[123.03077680700005,7.733477149000065],[123.03318819500011,7.733333370000024],[123.03390806700008,7.733967541000023],[123.0350333880001,7.733969844000055],[123.03608441600011,7.735018027000023],[123.03716420900004,7.735678488000077],[123.03835909200006,7.735391185000024],[123.04001469700007,7.7355059120000655],[123.04083514600005,7.733940608000069],[123.04152615800001,7.733768223000026],[123.04184276500008,7.7326050420000465],[123.04278136000005,7.73291398600003],[123.04370270100004,7.732641055000045],[123.04440815400005,7.732928179000054],[123.04505590500004,7.7321095990000694],[123.04663953800004,7.732410986000048],[123.0471291650001,7.733760760000051],[123.04805053400003,7.73374629800003],[123.04770488000008,7.732497027000025],[123.04855409100003,7.730960425000031],[123.04946114100005,7.731663955000047],[123.04938460500011,7.733767685000032],[123.05063711100001,7.733911137000065],[123.05095395,7.7348875710000575],[123.05190404400003,7.734298702000044],[123.05258057000003,7.733437026000046],[123.05128476800009,7.732403273000047],[123.05111839089706,7.732049826535465],[123.05100187207117,7.731980183783522],[123.04697911287926,7.7300829428216105],[123.04485784304119,7.729326117084007],[123.04473890400004,7.729438695000057],[123.04361599700007,7.729467531000068],[123.04256516200007,7.7304010290000615],[123.04226294400007,7.731449330000034],[123.04151154100009,7.731513724000022],[123.04080605800004,7.7308675980000325],[123.04094031100009,7.729699648000064],[123.04030198300006,7.728713664000052],[123.0411654190001,7.7282463200000375],[123.0411607135928,7.728181353448949],[123.0392821405096,7.727712171403724],[123.03850242400006,7.72841227300006],[123.03778263100003,7.728627735000031],[123.03678924600001,7.728125226000032],[123.0354072010001,7.728039184000069],[123.0348669030001,7.727576095000074],[123.03505722518416,7.727004961880483],[123.03407121627835,7.726859151718032],[123.0296268382406,7.72664169616506],[123.0251824903786,7.726859768126898],[123.02480476642472,7.726915679447432],[123.02478251900004,7.726949180000075],[123.02336213700005,7.727734266000027],[123.02341019600011,7.729017080000063],[123.02288237000006,7.729715956000061],[123.0214139110001,7.728969318000054],[123.02225846600004,7.728471466000029],[123.02253862874362,7.727251109551249],[123.02078096067027,7.727511268148364],[123.02041363027811,7.727603066224989],[123.01993586700007,7.728385421000043],[123.01923523800008,7.7281269760000555],[123.01914892600007,7.729562968000039],[123.02001273500004,7.730242629000032],[123.01975362700011,7.730797890000079],[123.02083822100009,7.732243399000027],[123.0202623900001,7.732741236000037],[123.021059035,7.733650656000064],[123.0223260230001,7.735593962000054],[123.02225531600003,7.737037133000058],[123.02267645100007,7.7377245900000275],[123.02269091600012,7.739002618000029],[123.02413064200006,7.7401513290000725],[123.02498002300003,7.739806643000067],[123.02509526800007,7.741012865000071],[123.02555600300002,7.741716472000063],[123.02529691600012,7.742606799000043],[123.02423159000011,7.743166896000047],[123.02441879800007,7.744028477000028],[123.024030519,7.74478335500004],[123.0243870380001,7.745466337000038],[123.02374707800004,7.746353538000052],[123.02163074400005,7.746411090000039],[123.02209814700008,7.748078365000023],[123.02306573500005,7.748338907000061],[123.02409268800011,7.747860188000062],[123.02412143400011,7.747008167000049],[123.02617546700003,7.748290861000044],[123.02516782200006,7.750626793000036],[123.0227645450001,7.749698898000078],[123.02294108900001,7.750675902000071],[123.02177501400001,7.752284268000038],[123.021688659,7.752815587000047],[123.01974507600006,7.753289557000075],[123.01912608300007,7.755084569000076],[123.01962999000013,7.755242504000022],[123.02073852800004,7.754352140000036],[123.02161677600009,7.754811612000024],[123.02020592200006,7.756190228000037],[123.02020798700005,7.757213801000035],[123.02070988800007,7.757511311000029],[123.02309168600004,7.756523424000023],[123.02507210000012,7.75499810100007],[123.02685722100013,7.753016331000028],[123.026295633,7.751379341000072],[123.02764896200006,7.7515084940000625],[123.02810972200007,7.75234133600003],[123.02958848800007,7.753326482000035],[123.0309418510001,7.753828981000023],[123.03112896900006,7.7532258530000595],[123.03301499800011,7.753354950000072],[123.03528989800007,7.755278989000034],[123.0355059220001,7.756068763000032],[123.03682322600002,7.757011855000029],[123.037097334,7.757558369000037],[123.0362355220001,7.759141951000061],[123.03720735800006,7.759357265000061],[123.03961903700008,7.760781067000037],[123.04044691500008,7.761104085000055],[123.0415388670001,7.762659631000079],[123.04279878100012,7.764047625000045],[123.04628537000008,7.765090330000021],[123.04761019800003,7.766440423000062],[123.04936186200005,7.766129093000076],[123.04937374900008,7.765183734000061],[123.05064274700011,7.7647326640000625],[123.052528918,7.762921680000031],[123.053540085,7.7626337610000755],[123.05344060000006,7.761700978000022],[123.05432831800009,7.76076747600007],[123.05702773800012,7.760168795000025],[123.05726742400009,7.758182316000042],[123.05563573100005,7.758146633000024],[123.05495182100003,7.757835592000047]],[[123.0286083960001,7.74606731800003],[123.02912434000008,7.746901751000054],[123.03033706700013,7.7472849620000375],[123.03102474400009,7.747131375000038],[123.03120302700006,7.7492127050000486],[123.03204707300004,7.749127321000059],[123.03344365400007,7.750103684000069],[123.03327108100007,7.752530514000057],[123.03238857500003,7.751967981000063],[123.03158658100006,7.751941888000032],[123.0310394390001,7.75119521600004],[123.02988762800011,7.750491665000027],[123.0290381440001,7.74960141200006],[123.02788634900001,7.749027094000041],[123.0281598050001,7.747734688000037],[123.02765785700001,7.747140501000046],[123.02746623400003,7.745875928000033],[123.0286083960001,7.74606731800003]],[[123.04680580600008,7.761653894000061],[123.04609788000006,7.761139410000057],[123.04564203400002,7.761797619000047],[123.043974337,7.761785828000029],[123.04301429100008,7.75960801500003],[123.04385404700008,7.758770271000059],[123.04438181200008,7.75748979600007],[123.04493366800011,7.757130741000027],[123.04565371100011,7.7588179480000585],[123.04676964900013,7.760170046000038],[123.04750157200012,7.760696493000069],[123.04680580600008,7.761653894000061]],[[123.05160311500003,7.746766952000026],[123.051015258,7.746886689000064],[123.05006740300009,7.746372239000038],[123.0507271260001,7.745259272000057],[123.05121904000009,7.745450678000054],[123.05160311500003,7.746766952000026]]],[[[123.02918505200013,7.757419868000056],[123.03028885100002,7.757575356000076],[123.03079268600003,7.756641929000066],[123.02986879800004,7.755684671000038],[123.0289329510001,7.755230007000023],[123.0289688910001,7.754452179000056],[123.02774511700011,7.754177029000061],[123.02656180300005,7.754768911000042],[123.02668944100003,7.755972080000049],[123.02772127700008,7.756546408000078],[123.02828524200002,7.75767122700006],[123.02918505200013,7.757419868000056]]],[[[123.01826316333124,7.815599773639346],[123.0207853239853,7.816229689298952],[123.02205245446325,7.816417070153203],[123.02183857700004,7.815851115000041],[123.01951546300006,7.815027932000019],[123.01826316333124,7.815599773639346]]]]}}]}