{"type":"FeatureCollection","features":[{"type":"Feature","properties":{"fid":21,"objectid":1867,"lccode":"07","liqcode":"2010600070000000","mappers":"DJLBuhay","project":"Negros Occidental Multi-Hazard Mapping","province":"Negros Occidental","otherinfo":null,"datemapped":2018,"publishdate":null,"globalid":"{BDFFB75F-E1DC-47A8-B9CF-113E0CE8D2E7}","st_area(shape)":0.051419613090430895,"st_perimeter(shape)":11.901738684521376,"liqcodepk":"201060007000000000059","creator":"SNOOPYPC","createdate":"2019-02-19T15:21:28","editor":"LENOVO","modifydate":"2019-03-10T17:50:55","codemove":"na"},"geometry":{"type":"Polygon","coordinates":[]}},{"type":"Feature","properties":{"fid":32,"objectid":1878,"lccode":"07","liqcode":"2010600070000000","mappers":"PJDelosReyes, ACPidlaoan","project":"READY","province":"Iloilo","otherinfo":null,"datemapped":2010,"publishdate":null,"globalid":"{2F92972A-C07C-4633-B325-DF2A08960C6C}","st_area(shape)":0.031106077518548395,"st_perimeter(shape)":5.287074988133156,"liqcodepk":"201060007000000000071","creator":"SNOOPYPC","createdate":"2019-02-19T15:21:28","editor":"LENOVO","modifydate":"2019-03-10T17:50:55","codemove":"na"},"geometry":{"type":"Polygon","coordinates":[[[122.75015295900005,10.965398504000062],[122.75168529500003,10.967112935000042],[122.75275169100007,10.967805692000066],[122.7559188470001,10.968302478000055],[122.75798712400001,10.967019176000067],[122.75892084000009,10.966888174000077],[122.7606537150001,10.968108577000065],[122.76135203600006,10.970415366000053],[122.76131505400008,10.97492899000002],[122.76071259100003,10.977761904000031],[122.76144590400008,10.978157793000037],[122.76221298300003,10.97786190800002],[122.764348648,10.975787988000034],[122.76538208100011,10.976151187000028],[122.7666147530001,10.977404084000051],[122.76898191200007,10.977801203000068],[122.77001444000007,10.979251682000042],[122.76971322100009,10.980701060000056],[122.76994565300005,10.981920272000025],[122.77117808900003,10.983634380000069],[122.77161016500008,10.985446803000059],[122.77160862000005,10.987456557000028],[122.77327501800005,10.988577920000065],[122.77511063400004,10.986437786000065],[122.7756107560001,10.986536984000049],[122.77700832000005,10.99045869400004],[122.77900727000008,10.992865222000033],[122.78013932500005,10.995106367000062],[122.780549242,10.998501103000022],[122.78091901500012,10.999131413000041],[122.78227636500003,10.99959985700002],[122.78404459600006,11.000861295000051],[122.78560674100004,11.00269158800006],[122.78692307900009,11.003017663000037],[122.78770518800002,11.002449200000054],[122.78854961800005,11.001067636000073],[122.78999018700006,11.00023532900008],[122.7905667660001,10.999422765000075],[122.79204760400013,10.999809963000073],[122.79392044200006,10.998652784000058],[122.79542235000008,10.998369248000072],[122.79661590900002,10.997760259000076],[122.79894503100002,10.997227971000028],[122.8000787940001,10.99729463500006],[122.8007395940001,10.99836762600006],[122.80068370600009,10.999537981000058],[122.79988436500001,11.000299512000026],[122.7985340340001,11.001006244000052],[122.79586215900007,11.000487351000062],[122.79409883500013,11.00089440600004],[122.79362910200008,11.00296261500006],[122.79426129,11.005004356000029],[122.79469996500006,11.007998624000038],[122.79514064200009,11.00821665200004],[122.79585672500004,11.008380432000024],[122.79632332900007,11.010966382000046],[122.79502813900001,11.011537143000057],[122.7945595650001,11.01180898900003],[122.79240851500005,11.014964702000043],[122.79213123300008,11.017577364000033],[122.7933698490001,11.019156843000077],[122.79499437000005,11.020518849000041],[122.79695064400006,11.020166353000034],[122.79948448900006,11.021229473000064],[122.800476376,11.02114847800004],[122.80127478900012,11.021965580000028],[122.80243177600003,11.022102418000033],[122.80339571500008,11.022620153000048],[122.80328506800004,11.02327327200004],[122.80232000000001,11.02444303400006],[122.8015207200001,11.024905188000046],[122.7994821100001,11.02474054900006],[122.79882011100004,11.025910410000053],[122.79686325900003,11.02705227800004],[122.79689027100007,11.027841567000051],[122.7995621340001,11.02863270700004],[122.80146323900011,11.028443444000061],[122.8022620930001,11.028634480000047],[122.80270240700008,11.029451255000021],[122.80341881700006,11.029206774000045],[122.80325509000012,11.026920412000038],[122.80394477300001,11.02553273900003],[122.80568108900003,11.024499639000053],[122.80741676100003,11.024555178000067],[122.80807729500009,11.025589815000046],[122.80854455300005,11.027250393000031],[122.809674168,11.027142240000048],[122.8105570790001,11.025155915000024],[122.81097180499998,11.02292434800006],[122.81224058400007,11.02058444600004],[122.81277985467676,11.020459447411149],[122.81315172384895,11.019434699061957],[122.81424585253757,11.01513070515547],[122.81490767537599,11.010741482257286],[122.81513083742712,11.006309304075602],[122.81491320910189,11.001876856175361],[122.81447924315844,10.998974059234305],[122.81294774200002,10.998725145000039],[122.81175226300002,10.997968947000057],[122.80860596100001,10.997298693000062],[122.80396707000013,10.995622804000048],[122.80283277700003,10.996219928000071],[122.8029592360001,10.997692185000062],[122.80212613900007,10.997468880000042],[122.80053870900008,10.996518677000038],[122.79923952000001,10.995132965000037],[122.79930810400002,10.992933308000035],[122.79836900900011,10.992571092000047],[122.79781971500006,10.99305285400004],[122.79712580000012,10.99094308800005],[122.79612545400005,10.990966525000033],[122.79514289100008,10.991786626000021],[122.79452785900001,10.991431594000062],[122.7928235490001,10.991424864000068],[122.79224931100009,10.99169624500007],[122.79033578400004,10.991742197000065],[122.78661086300008,10.991166521000025],[122.78624650800009,10.990604996000059],[122.7848597100001,10.989942312000041],[122.78390440600003,10.987968331000049],[122.78312129900007,10.98766646100006],[122.78269140100008,10.98680357300003],[122.78125770600002,10.984900139000047],[122.78030841600003,10.982932060000053],[122.77928046200009,10.982234161000061],[122.7795086430001,10.980393850000041],[122.77940630300009,10.979053695000061],[122.77880061300004,10.977177141000027],[122.77761259700003,10.976755108000077],[122.77732952000008,10.975299956000073],[122.77738240000006,10.974043764000042],[122.77671855700011,10.973972315000028],[122.77654519600003,10.972899920000028],[122.77590254100006,10.972343457000022],[122.77587083800006,10.969967235000066],[122.77653729800011,10.965579367000032],[122.777409067,10.964295930000048],[122.7768142550001,10.962488524000035],[122.7752067360001,10.962341727000021],[122.77270106000003,10.962935573000038],[122.77260778700008,10.962273610000066],[122.77319790700007,10.961413587000038],[122.77319303387657,10.961245461567906],[122.76939609834079,10.961058288905551],[122.76491038829967,10.961272609448601],[122.76046752275191,10.961920291682402],[122.75611027004348,10.962995100414009],[122.75188057540323,10.964486688728492],[122.75012340612925,10.965306139876835],[122.75015295900005,10.965398504000062]]]}},{"type":"Feature","properties":{"fid":46,"objectid":1895,"lccode":"05","liqcode":"2010600050000000","mappers":"DJLBuhay","project":"Negros Occidental Multi-Hazard Mapping","province":"Negros Occidental","otherinfo":null,"datemapped":2018,"publishdate":null,"globalid":"{149718D2-4D93-4457-9604-37CB70EA27A9}","st_area(shape)":0.01745435689673941,"st_perimeter(shape)":6.697527242466418,"liqcodepk":"201060005000000000089","creator":"SNOOPYPC","createdate":"2019-02-19T15:21:28","editor":"LENOVO","modifydate":"2019-03-10T17:50:55","codemove":"na"},"geometry":{"type":"Polygon","coordinates":[]}},{"type":"Feature","properties":{"fid":59,"objectid":1908,"lccode":"05","liqcode":"2010600050000000","mappers":"PJDelosReyes, ACPidlaoan","project":"READY","province":"Iloilo","otherinfo":null,"datemapped":2010,"publishdate":null,"globalid":"{282D04BA-68E2-41E5-9B8A-0D8D85396F2D}","st_area(shape)":0.06128738608791496,"st_perimeter(shape)":10.692281506054618,"liqcodepk":"201060005000000000103","creator":"SNOOPYPC","createdate":"2019-02-19T15:21:28","editor":"LENOVO","modifydate":"2019-03-10T17:50:55","codemove":"na"},"geometry":{"type":"MultiPolygon","coordinates":[[[[122.78930123700003,11.04565794700005],[122.78585861400005,11.044238119000056],[122.78511222300007,11.044634531000042],[122.78482432900013,11.045824967000046],[122.78505312200002,11.046902384000076],[122.78464860807041,11.048843300990145],[122.78684625186878,11.048068289940327],[122.7902900523943,11.046462240503056],[122.78930123700003,11.04565794700005]]],[[[122.74384268800009,10.969641353000041],[122.74471982700005,10.97142678800003],[122.74530512500009,10.97205433700003],[122.74559631700005,10.973983951000035],[122.74603532200001,10.97446670500005],[122.7483777240001,10.975336857000059],[122.75101394400009,10.975242546000059],[122.75150163800004,10.975821719000066],[122.75120746400012,10.977316836000057],[122.74939916900009,10.979775304000043],[122.74925144800012,10.981222255000034],[122.74973878100002,10.982235625000044],[122.75071455000011,10.982959871000046],[122.75159185000007,10.984648900000026],[122.75212682300003,10.987109287000065],[122.75319996800012,10.988123128000039],[122.75393122600008,10.989377837000058],[122.75515093100012,10.990343506000041],[122.75676018800006,10.99251531600004],[122.75719841400007,10.993914544000063],[122.75812587500002,10.994059955000063],[122.75856607100003,10.993047336000076],[122.75856822900005,10.990394432000075],[122.75900990500008,10.98754892100004],[122.7601326900001,10.987598092000042],[122.76262151100003,10.988757685000053],[122.7636460540001,10.989626690000021],[122.76388935000013,10.990543371000056],[122.76296089400013,10.991748482000048],[122.76281311500009,10.993340111000062],[122.76408108800003,10.995077603000025],[122.76383510200003,10.99744088500006],[122.7648309330001,10.998864768000033],[122.76580583200008,10.99965931300005],[122.76597599400009,11.002210809000074],[122.76448113700009,11.005724888000033],[122.76430796700005,11.006972089000046],[122.76310069300008,11.009692591000034],[122.762353876,11.010599184000055],[122.76068861100009,11.011901904000071],[122.76028568700006,11.013375692000064],[122.76062945600006,11.014113061000046],[122.76194825900006,11.015531511000061],[122.76286606200006,11.016042556000057],[122.76596511500007,11.015988179000034],[122.76791583700003,11.016556697000055],[122.76894895500006,11.01644409900007],[122.77153306600007,11.014404929000024],[122.77239478900005,11.013158241000042],[122.77423192200001,11.012309129000071],[122.77537950400006,11.01253684200003],[122.77704296000003,11.013558542000055],[122.77784519600006,11.01520340700006],[122.77945088500009,11.01679207100005],[122.78019557000006,11.018606967000037],[122.77984967300006,11.020761139000058],[122.77996369700008,11.021725092000056],[122.78093778100005,11.023880310000038],[122.7816829950001,11.02501479600005],[122.7814525130001,11.026261965000058],[122.7805910080001,11.027111827000054],[122.78007366900012,11.02824540100005],[122.78035984600001,11.029266172000064],[122.78156440100008,11.030230822000023],[122.78162081100004,11.031534980000059],[122.78213681400007,11.03221566700006],[122.78328456200008,11.032329875000073],[122.78391626100007,11.031820090000053],[122.7844914110001,11.03017622400006],[122.78518039300002,11.029779863000046],[122.79017359900001,11.029556589000038],[122.79287143400006,11.02893473100005],[122.79373208000005,11.029275566000026],[122.79384504300003,11.031940393000072],[122.79413162700007,11.032450824000023],[122.79332731300009,11.033584226000073],[122.79200696300006,11.034036957000069],[122.79148981500009,11.034943688000054],[122.79148901500004,11.03607763700006],[122.7928081440001,11.037382570000032],[122.79343979800001,11.036929458000033],[122.79521902400005,11.03687397300007],[122.79579244100012,11.037554765000042],[122.79510282600006,11.03885832800006],[122.79303699900002,11.03840328900003],[122.79240522200008,11.039026569000042],[122.79251940800009,11.039933825000048],[122.79556012500007,11.04152338500006],[122.79573177600004,11.04231729200006],[122.79498485200007,11.043507429000043],[122.79366426100012,11.044243540000023],[122.7935890221439,11.044589203779507],[122.7947632725214,11.04389502013644],[122.7983732539196,11.041253943320937],[122.79916084817835,11.040549726017742],[122.79808496200009,11.039676456000052],[122.79674903000013,11.036849957000072],[122.7948589030001,11.03484336200006],[122.79495164000002,11.034250997000068],[122.79638214800002,11.033659534000039],[122.79855005400007,11.034162268000044],[122.80131870900006,11.033115864000026],[122.80196521800008,11.032204860000034],[122.80233587400005,11.029835208000065],[122.80182907300002,11.028877788000045],[122.80127549300005,11.028786282000057],[122.79855300300005,11.029832718000023],[122.79578509300008,11.029830866000054],[122.79477104900002,11.02850852000006],[122.79320352800005,11.027185795000037],[122.7939887560001,11.02568238300006],[122.79509598100002,11.02563756200004],[122.79611217000003,11.02372415800005],[122.7959284000001,11.022675802000037],[122.79505291800001,11.021216836000066],[122.79399246700007,11.020350261000033],[122.79200933300001,11.019710818000018],[122.7906726120001,11.018205952000072],[122.78975036700001,11.01770402900007],[122.78933580700004,11.016837794000025],[122.79002926600002,11.014650757000025],[122.78869371500004,11.011550793000026],[122.78855603400007,11.010593607000033],[122.78754199900006,11.009499095000024],[122.78578922800011,11.009315578000042],[122.78551301900006,11.008495097000038],[122.78616062900007,11.005943374000024],[122.78330370100004,11.001839649000033],[122.781228702,11.000790020000066],[122.77979849400002,11.001153558000054],[122.77919939600008,11.000332747000074],[122.77907999000003,10.997485803000076],[122.77838937400008,10.996118700000066],[122.77844368700006,10.994646981000074],[122.77746197500007,10.991334830000028],[122.77586700000002,10.990045813000052],[122.77506901000004,10.99007153600007],[122.77448295800002,10.991201165000062],[122.77456034500004,10.994355055000028],[122.77479875300003,10.995695520000027],[122.7740273170001,10.995721259000048],[122.77232534200003,10.995168069000043],[122.77224642500003,10.994037947000038],[122.77163532800012,10.993065027000057],[122.77001358300005,10.991960054000058],[122.76873818900003,10.990224480000053],[122.76881932100004,10.98849002400004],[122.76932544400006,10.987570571000047],[122.76937986100005,10.986020008000025],[122.77020577100006,10.984233491000055],[122.7697544570001,10.983103087000071],[122.76603296200007,10.980209265000042],[122.76510317800012,10.978657944000078],[122.76382692900006,10.978105036000045],[122.76169851500003,10.978734144000041],[122.7600499560001,10.978075861000038],[122.76013062600008,10.97697208300002],[122.75909453800011,10.975420661000044],[122.75699423700007,10.974262618000065],[122.7562242030001,10.972737710000045],[122.7552939740001,10.971817127000064],[122.75252823700009,10.971315505000064],[122.7516765380001,10.971998112000051],[122.75048012100002,10.971445305000028],[122.75064075400009,10.970157591000032],[122.74949833000005,10.968684896000068],[122.74870066300004,10.968395168000031],[122.74588135600004,10.968366518000037],[122.74552289563547,10.967738071583828],[122.74396511766696,10.968658893369348],[122.7437759914149,10.968797244689506],[122.74384268800009,10.969641353000041]],[[122.77297647800002,11.003009912000039],[122.77504211000007,11.003351607000072],[122.7763616210001,11.003862818000073],[122.77762211000005,11.006585278000045],[122.77796558500008,11.007662696000068],[122.7789403710001,11.008797358000038],[122.7789968510001,11.00998804200003],[122.77825024200001,11.010781290000066],[122.77738928500001,11.010950739000064],[122.7755530170001,11.010779308000053],[122.77291355200009,11.010267108000047],[122.77205039900004,11.011554533000039],[122.76975657300011,11.011115125000057],[122.76987241100005,11.009697799000035],[122.77067639500001,11.00901809100003],[122.76964400800013,11.00822351800002],[122.76918562000003,11.007315992000029],[122.76912909100008,11.006238693000057],[122.76769539400006,11.004933571000036],[122.76752391500008,11.004139739000035],[122.76890348800009,11.002670286000065],[122.76924823800005,11.000569034000021],[122.76896199200009,10.999718422000054],[122.77005263800004,10.999322308000044],[122.77074012000004,11.000797026000045],[122.77297647800002,11.003009912000039]],[[122.78204314200002,11.003583482000067],[122.78272969700004,11.006418806000054],[122.7833024470001,11.007893414000021],[122.78307252600007,11.008403487000066],[122.78157950100001,11.009763139000029],[122.78089103000002,11.009422485000071],[122.78014611000003,11.007947838000062],[122.78003196300007,11.007153963000064],[122.78032034800002,11.005169736000028],[122.78112488200009,11.003696208000065],[122.78204314200002,11.003583482000067]],[[122.77638614500007,10.991855128000052],[122.77741077300003,10.992579417000059],[122.77770179700008,10.995136061000036],[122.77731100500012,10.995473401000027],[122.7759933540001,10.994845374000022],[122.77535911100006,10.994217847000074],[122.77521362800009,10.992963621000056],[122.77570245400011,10.992144058000065],[122.77638614500007,10.991855128000052]],[[122.80153509300008,11.029812261000076],[122.80176363200007,11.031343302000037],[122.8014760850001,11.032136815000056],[122.80009841800008,11.03253285100004],[122.79889340500007,11.032248498000058],[122.79918146000013,11.030604503000061],[122.80015751500002,11.029981435000021],[122.80153509300008,11.029812261000076]],[[122.78472782200004,11.020764640000033],[122.78409693400009,11.02019726200007],[122.78398364800013,11.018099361000049],[122.78604902500003,11.019064695000054],[122.78673638600002,11.020879535000065],[122.78472782200004,11.020764640000033]],[[122.79264354400006,11.023853095000048],[122.7917833140001,11.022945328000052],[122.79172674500013,11.02169795300006],[122.79270250300011,11.02158523500003],[122.79361994500005,11.022719811000057],[122.79373401500003,11.023683760000035],[122.79264354400006,11.023853095000048]]]]}},{"type":"Feature","properties":{"fid":61,"objectid":1925,"lccode":"06","liqcode":"2010600060000000","mappers":"DJLBuhay","project":"Negros Occidental Multi-Hazard Mapping","province":"Negros Occidental","otherinfo":null,"datemapped":2018,"publishdate":null,"globalid":"{E5539A65-5F4C-46A4-8778-850E85BFF908}","st_area(shape)":0.021565408471292534,"st_perimeter(shape)":8.733756823540528,"liqcodepk":"201060006000000000123","creator":"SNOOPYPC","createdate":"2019-02-19T15:21:28","editor":"LENOVO","modifydate":"2019-03-10T17:50:55","codemove":"na"},"geometry":{"type":"Polygon","coordinates":[]}},{"type":"Feature","properties":{"fid":73,"objectid":1937,"lccode":"06","liqcode":"2010600060000000","mappers":"PJDelosReyes, ACPidlaoan","project":"READY","province":"Iloilo","otherinfo":null,"datemapped":2010,"publishdate":null,"globalid":"{DBB85F45-4FB4-4F72-8BD3-A1308397A487}","st_area(shape)":0.017575391436836466,"st_perimeter(shape)":7.287100410898002,"liqcodepk":"201060006000000000136","creator":"SNOOPYPC","createdate":"2019-02-19T15:21:28","editor":"LENOVO","modifydate":"2019-03-10T17:50:55","codemove":"na"},"geometry":{"type":"Polygon","coordinates":[[[122.74588135600004,10.968366518000037],[122.74870066300004,10.968395168000031],[122.74949833000005,10.968684896000068],[122.75064075400009,10.970157591000032],[122.75048012100002,10.971445305000028],[122.7516765380001,10.971998112000051],[122.75252823700009,10.971315505000064],[122.7552939740001,10.971817127000064],[122.7562242030001,10.972737710000045],[122.75699423700007,10.974262618000065],[122.75909453800011,10.975420661000044],[122.76013062600008,10.97697208300002],[122.7600499560001,10.978075861000038],[122.76169851500003,10.978734144000041],[122.76382692900006,10.978105036000045],[122.76510317800012,10.978657944000078],[122.76603296200007,10.980209265000042],[122.7697544570001,10.983103087000071],[122.77020577100006,10.984233491000055],[122.76937986100005,10.986020008000025],[122.76932544400006,10.987570571000047],[122.76881932100004,10.98849002400004],[122.76873818900003,10.990224480000053],[122.77001358300005,10.991960054000058],[122.77163532800012,10.993065027000057],[122.77224642500003,10.994037947000038],[122.77232534200003,10.995168069000043],[122.7740273170001,10.995721259000048],[122.77479875300003,10.995695520000027],[122.77456034500004,10.994355055000028],[122.77448295800002,10.991201165000062],[122.77506901000004,10.99007153600007],[122.77586700000002,10.990045813000052],[122.77746197500007,10.991334830000028],[122.77844368700006,10.994646981000074],[122.77838937400008,10.996118700000066],[122.77907999000003,10.997485803000076],[122.77919939600008,11.000332747000074],[122.77979849400002,11.001153558000054],[122.781228702,11.000790020000066],[122.78330370100004,11.001839649000033],[122.78616062900007,11.005943374000024],[122.78551301900006,11.008495097000038],[122.78578922800011,11.009315578000042],[122.78754199900006,11.009499095000024],[122.78855603400007,11.010593607000033],[122.78869371500004,11.011550793000026],[122.79002926600002,11.014650757000025],[122.78933580700004,11.016837794000025],[122.78975036700001,11.01770402900007],[122.7906726120001,11.018205952000072],[122.79200933300001,11.019710818000018],[122.79399246700007,11.020350261000033],[122.79505291800001,11.021216836000066],[122.7959284000001,11.022675802000037],[122.79611217000003,11.02372415800005],[122.79509598100002,11.02563756200004],[122.7939887560001,11.02568238300006],[122.79320352800005,11.027185795000037],[122.79477104900002,11.02850852000006],[122.79578509300008,11.029830866000054],[122.79855300300005,11.029832718000023],[122.80127549300005,11.028786282000057],[122.80182907300002,11.028877788000045],[122.80233587400005,11.029835208000065],[122.80196521800008,11.032204860000034],[122.80131870900006,11.033115864000026],[122.79855005400007,11.034162268000044],[122.79638214800002,11.033659534000039],[122.79495164000002,11.034250997000068],[122.7948589030001,11.03484336200006],[122.79674903000013,11.036849957000072],[122.79808496200009,11.039676456000052],[122.79916084817835,11.040549726017742],[122.80170373296032,11.038276000690429],[122.80472263301492,11.034989880982774],[122.80740088201709,11.031427240913697],[122.80971269237722,11.02762239993461],[122.81163580911776,11.023612009359601],[122.81277985467676,11.020459447411149],[122.81224058400007,11.02058444600004],[122.81097180499998,11.02292434800006],[122.8105570790001,11.025155915000024],[122.809674168,11.027142240000048],[122.80854455300005,11.027250393000031],[122.80807729500009,11.025589815000046],[122.80741676100003,11.024555178000067],[122.80568108900003,11.024499639000053],[122.80394477300001,11.02553273900003],[122.80325509000012,11.026920412000038],[122.80341881700006,11.029206774000045],[122.80270240700008,11.029451255000021],[122.8022620930001,11.028634480000047],[122.80146323900011,11.028443444000061],[122.7995621340001,11.02863270700004],[122.79689027100007,11.027841567000051],[122.79686325900003,11.02705227800004],[122.79882011100004,11.025910410000053],[122.7994821100001,11.02474054900006],[122.79870088900009,11.02394931400005],[122.79855977500006,11.02254572900006],[122.79948448900006,11.021229473000064],[122.79695064400006,11.020166353000034],[122.79499437000005,11.020518849000041],[122.7933698490001,11.019156843000077],[122.79213123300008,11.017577364000033],[122.79240851500005,11.014964702000043],[122.7945595650001,11.01180898900003],[122.79502813900001,11.011537143000057],[122.79387944200005,11.011267548000038],[122.79331216900006,11.00986367000007],[122.7938812960001,11.008600897000063],[122.79514064200009,11.00821665200004],[122.79469996500006,11.007998624000038],[122.79426129,11.005004356000029],[122.79362910200008,11.00296261500006],[122.792322322,11.003313186000073],[122.79165843400006,11.00462272900006],[122.79066332200011,11.00560454400005],[122.7883432320001,11.00532218300003],[122.78753883700007,11.004432708000024],[122.7892922520001,11.002609353000025],[122.78986141500003,11.001299840000058],[122.78999018700006,11.00023532900008],[122.78854961800005,11.001067636000073],[122.78770518800002,11.002449200000054],[122.78692307900009,11.003017663000037],[122.78560674100004,11.00269158800006],[122.78404459600006,11.000861295000051],[122.78227636500003,10.99959985700002],[122.78091901500012,10.999131413000041],[122.780549242,10.998501103000022],[122.78013932500005,10.995106367000062],[122.77900727000008,10.992865222000033],[122.77700832000005,10.99045869400004],[122.7756107560001,10.986536984000049],[122.77511063400004,10.986437786000065],[122.77327501800005,10.988577920000065],[122.77160862000005,10.987456557000028],[122.77161016500008,10.985446803000059],[122.77117808900003,10.983634380000069],[122.76994565300005,10.981920272000025],[122.76971322100009,10.980701060000056],[122.77001444000007,10.979251682000042],[122.76898191200007,10.977801203000068],[122.7666147530001,10.977404084000051],[122.76538208100011,10.976151187000028],[122.764348648,10.975787988000034],[122.76221298300003,10.97786190800002],[122.76144590400008,10.978157793000037],[122.76071259100003,10.977761904000031],[122.76131505400008,10.97492899000002],[122.76135203600006,10.970415366000053],[122.7606537150001,10.968108577000065],[122.75892084000009,10.966888174000077],[122.75798712400001,10.967019176000067],[122.7559188470001,10.968302478000055],[122.75275169100007,10.967805692000066],[122.75168529500003,10.967112935000042],[122.75015295900005,10.965398504000062],[122.75012340612925,10.965306139876835],[122.7478191576556,10.966380697481123],[122.74552289563547,10.967738071583828],[122.74588135600004,10.968366518000037]]]}}]}