{"type":"FeatureCollection","features":[{"type":"Feature","properties":{"fid":101,"objectid":1958,"lccode":"01","liqcode":"2010600010000000","mappers":"DJLBuhay, MJVReyes, MITAbigania, KLPapiona, KMVitto","project":"MELP","province":"Bukidnon","otherinfo":null,"datemapped":2018,"publishdate":null,"globalid":"{A5D2276A-AD83-4D6E-864E-FDB93B8103F6}","st_area(shape)":0.03131405547495108,"st_perimeter(shape)":7.842158519871042,"liqcodepk":"201060001000000001354","creator":"SDE","createdate":"2019-06-04T14:00:05","editor":"SDE","modifydate":"2019-06-04T14:01:32","codemove":"na"},"geometry":{"type":"Polygon","coordinates":[]}},{"type":"Feature","properties":{"fid":233,"objectid":9207,"lccode":"05","liqcode":null,"mappers":"DJLBuhay, BDBBrusas, CJMLegaspi, MITAbigania, JKAMarquez, HALVidal, MITAbigania","project":"LiquePhi Project","province":"Cotabato","otherinfo":null,"datemapped":2024,"publishdate":null,"globalid":"{0A4358E8-2438-4617-BE2C-2A3EAF7F303E}","st_area(shape)":0.07866121498552288,"st_perimeter(shape)":16.126339153406974,"liqcodepk":null,"creator":"DJLB-PC","createdate":"2024-07-12T08:00:00","editor":null,"modifydate":null,"codemove":null},"geometry":{"type":"Polygon","coordinates":[]}}]}