{"type":"FeatureCollection","features":[{"type":"Feature","properties":{"fid":29,"objectid":1875,"lccode":"07","liqcode":"2010600070000000","mappers":"PJDelosReyes, ACPidlaoan","project":"READY","province":"Eastern Samar","otherinfo":null,"datemapped":2009,"publishdate":null,"globalid":"{D5672507-FBAD-4ABD-B8D4-BDE6B091D8D6}","st_area(shape)":0.012796244732220548,"st_perimeter(shape)":5.603456702340647,"liqcodepk":"201060007000000000068","creator":"SNOOPYPC","createdate":"2019-02-19T15:21:28","editor":"LENOVO","modifydate":"2019-03-10T17:50:55","codemove":"na"},"geometry":{"type":"Polygon","coordinates":[[[125.38825081100003,11.125431670000069],[125.38876595900003,11.12430547500003],[125.38977736000004,11.123290526000062],[125.39122848700002,11.122617198000057],[125.39166000700006,11.121952070000077],[125.39314799600005,11.122227887000067],[125.39442296200002,11.121383388000025],[125.39467449200005,11.120086729000036],[125.39577698400001,11.119531352000022],[125.39661000500007,11.118086137000033],[125.397908184,11.116522202000054],[125.39846179654731,11.114884483152778],[125.39624180528632,11.113594290360634],[125.39216802038068,11.111730916718992],[125.38792895343745,11.110270804114485],[125.38502551151987,11.109576952335564],[125.38528344800012,11.11016429300002],[125.38478631300008,11.111863676000038],[125.38494117000005,11.113315671000066],[125.38595290500008,11.114579272000068],[125.38574416300003,11.116558882000048],[125.3853217530001,11.117389806000062],[125.38384060500006,11.11871347400006],[125.38271303800002,11.120801378000065],[125.38303500600011,11.122696102000074],[125.38244432700003,11.122943005000026],[125.3819331730001,11.120403890000034],[125.38387223300003,11.117582899000071],[125.38516820000007,11.116099251000035],[125.38536430300007,11.11508852600002],[125.38509143600004,11.114202585000044],[125.3839362440001,11.112879584000039],[125.38380282200002,11.111548482000048],[125.3840802200001,11.110476581000055],[125.3839537050408,11.109320808432466],[125.38356541082325,11.10922801147446],[125.37911939625695,11.10861258072285],[125.37463370703935,11.10843044009687],[125.37015152266487,11.108683347003245],[125.36571598974835,11.109368870966431],[125.36451765310707,11.10967535499995],[125.36448243900008,11.109723350000024],[125.36333578600012,11.110357651000072],[125.36335738900003,11.11091718000006],[125.36499103800007,11.111609265000027],[125.36454105200006,11.112830845000078],[125.36482728600005,11.114455300000033],[125.3645549050001,11.115405690000046],[125.363415529,11.114881109000065],[125.36228173700012,11.115469651000067],[125.3617749450001,11.117119901000025],[125.36108139700004,11.117935312000043],[125.36054506500011,11.119230199000068],[125.35809238500009,11.119399142000075],[125.35568807500012,11.11890203000007],[125.3536817470001,11.119576857000025],[125.3529933860001,11.119421670000065],[125.3523197810001,11.120495790000062],[125.35121329200001,11.120114073000025],[125.35020620400007,11.12037077000002],[125.3494427390001,11.121083421000035],[125.34641226800011,11.120437267000055],[125.34535280600004,11.12079245600006],[125.34386084895186,11.120581024978815],[125.34239137344008,11.121917362538236],[125.33940252334342,11.125226165036153],[125.33685488616771,11.128675020720266],[125.33685680900008,11.128684142000056],[125.33800858700009,11.130631691000076],[125.33862357400007,11.131029680000037],[125.33915693300003,11.132147572000063],[125.33887273100005,11.133041713000068],[125.338970678,11.134364474000053],[125.33955769900001,11.134906513000033],[125.34132673700003,11.13388578200005],[125.34269276900011,11.133472261000065],[125.34224884000004,11.132612621000021],[125.34269658000007,11.13030739900006],[125.34143172800009,11.128792352000058],[125.34139685500008,11.128073355000026],[125.34205721,11.126859790000024],[125.34163950800009,11.125625897000075],[125.34224000100006,11.124211410000042],[125.34304688600001,11.123111808000033],[125.34400229700009,11.122356268000033],[125.3465013330001,11.121559949000073],[125.34944634900012,11.121882255000056],[125.35130679500004,11.12137856000004],[125.35367172200006,11.122021761000042],[125.35585405300003,11.12168817300005],[125.35684633000007,11.121910601000025],[125.35748812500003,11.122020671000028],[125.36039822000009,11.121623790000058],[125.36208180400003,11.120862484000044],[125.36289794800007,11.120913621000057],[125.36417480400009,11.120299425000043],[125.36655817000008,11.11961896500003],[125.36868352200008,11.119458303000044],[125.3699387480001,11.119764896000047],[125.37185061700008,11.11842641100003],[125.37178376200005,11.117362377000063],[125.37215359100004,11.116266168000038],[125.37363759400013,11.116053074000035],[125.374816312,11.117712477000051],[125.37655923200009,11.117094465000037],[125.377495349,11.117576202000064],[125.37756556600004,11.119042971000054],[125.37821948700004,11.120648953000057],[125.37705636500004,11.120917088000054],[125.37665385600008,11.121581972000056],[125.37701211600005,11.122643696000065],[125.37620786800007,11.12405982900003],[125.37496761800003,11.125594511000031],[125.37593475300002,11.126306117000071],[125.37614841700008,11.127512817000024],[125.37537195600008,11.128756079000027],[125.37451480400013,11.130834332000065],[125.3752859960001,11.136122113000054],[125.37578266500009,11.136290745000053],[125.37679290900009,11.135131910000041],[125.37799222000002,11.135726651000027],[125.37927571000013,11.135917864000017],[125.3802032420001,11.135335094000025],[125.38164322300008,11.133280938000038],[125.38267436400008,11.131115012000066],[125.38294250900003,11.128264530000024],[125.38322726900005,11.127456742000048],[125.38513894300002,11.126089356000021],[125.38627505500006,11.12608033400005],[125.38729014500007,11.125525585000046],[125.38825081100003,11.125431670000069]]]}},{"type":"Feature","properties":{"fid":56,"objectid":1905,"lccode":"05","liqcode":"2010600050000000","mappers":"PJDelosReyes, ACPidlaoan","project":"READY","province":"Eastern Samar","otherinfo":null,"datemapped":2009,"publishdate":null,"globalid":"{5449C31E-E45E-490E-9AB6-5AACF96F6899}","st_area(shape)":0.008694706737108626,"st_perimeter(shape)":4.649223283492149,"liqcodepk":"201060005000000000100","creator":"SNOOPYPC","createdate":"2019-02-19T15:21:28","editor":"LENOVO","modifydate":"2019-03-10T17:50:55","codemove":"na"},"geometry":{"type":"Polygon","coordinates":[]}},{"type":"Feature","properties":{"fid":70,"objectid":1934,"lccode":"06","liqcode":"2010600060000000","mappers":"PJDelosReyes, ACPidlaoan","project":"READY","province":"Eastern Samar","otherinfo":null,"datemapped":2009,"publishdate":null,"globalid":"{1E082AF3-CE25-4665-9081-FF755916BF3C}","st_area(shape)":0.013613834755412488,"st_perimeter(shape)":9.457887959290924,"liqcodepk":"201060006000000000133","creator":"SNOOPYPC","createdate":"2019-02-19T15:21:28","editor":"LENOVO","modifydate":"2019-03-10T17:50:55","codemove":"na"},"geometry":{"type":"MultiPolygon","coordinates":[[[[125.3802032420001,11.135335094000025],[125.37927571000013,11.135917864000017],[125.37799222000002,11.135726651000027],[125.37679290900009,11.135131910000041],[125.37578266500009,11.136290745000053],[125.3752859960001,11.136122113000054],[125.37451480400013,11.130834332000065],[125.37537195600008,11.128756079000027],[125.37614841700008,11.127512817000024],[125.37546262600006,11.12773850700006],[125.37349083100003,11.131146263000064],[125.37349739600008,11.13195626300006],[125.37402034700004,11.133217801000056],[125.37367258000005,11.13458759100007],[125.37374803000012,11.13757404800003],[125.37242131200004,11.13834399500007],[125.37176140000007,11.139159263000066],[125.3703805650001,11.139575199000033],[125.37007827100001,11.140235766000046],[125.3699413080001,11.142312666000068],[125.36944056300003,11.143784854000046],[125.37052043000006,11.144181350000053],[125.37102855400009,11.143620344000054],[125.37188240500008,11.14143659000007],[125.3726452730001,11.140671101000066],[125.37418316700007,11.14065893700007],[125.37418973900003,11.141468936000022],[125.37301932100002,11.142541399000036],[125.37277080500007,11.143505380000022],[125.37303287300007,11.144212080000043],[125.37421356800007,11.14440529500007],[125.37462949200005,11.145110775000035],[125.37438180200003,11.146175938000056],[125.37320718600006,11.14674213300003],[125.37100604600005,11.14716456900004],[125.37106466900003,11.148075437000044],[125.3718381530001,11.148626220000041],[125.37256780000007,11.150088677000038],[125.37339671300003,11.151145320000069],[125.3741156860001,11.151291501000058],[125.3738420970001,11.149167261000056],[125.37409102200003,11.148253961000021],[125.37566258100003,11.14606451700007],[125.37549482500005,11.144344467000055],[125.37574538800004,11.143633712000055],[125.37774189100004,11.14326346400003],[125.38018694400012,11.141320235000025],[125.378903722,11.141127854000045],[125.37817942700009,11.140323547000037],[125.37781069900008,11.139111395000043],[125.37811043000009,11.138147098000047],[125.37887574000001,11.137685325000064],[125.38115791500002,11.13462950500002],[125.38164322300008,11.133280938000038],[125.3802032420001,11.135335094000025]]],[[[125.35585405300003,11.12168817300005],[125.35367172200006,11.122021761000042],[125.35130679500004,11.12137856000004],[125.34944634900012,11.121882255000056],[125.3465013330001,11.121559949000073],[125.34400229700009,11.122356268000033],[125.34304688600001,11.123111808000033],[125.34224000100006,11.124211410000042],[125.34163950800009,11.125625897000075],[125.34205721,11.126859790000024],[125.34139685500008,11.128073355000026],[125.34143172800009,11.128792352000058],[125.34269658000007,11.13030739900006],[125.34224884000004,11.132612621000021],[125.34269276900011,11.133472261000065],[125.34132673700003,11.13388578200005],[125.33955769900001,11.134906513000033],[125.338970678,11.134364474000053],[125.33887273100005,11.133041713000068],[125.33915693300003,11.132147572000063],[125.33862357400007,11.131029680000037],[125.33868755600008,11.132011639000035],[125.337967004,11.13293736600002],[125.33798307300005,11.134949949000031],[125.33912662000013,11.135947441000042],[125.34115459600002,11.138318110000057],[125.34191385800011,11.138599767000072],[125.34260911700007,11.13816301600002],[125.34332413800007,11.13654723700006],[125.34328235600003,11.134966187000032],[125.34405232100006,11.132947385000023],[125.3437560850001,11.132317165000073],[125.3435627770001,11.129989660000035],[125.34276912500002,11.129047008000043],[125.34246814500011,11.127812930000061],[125.34263569000007,11.126920331000063],[125.3434448910001,11.126166382000065],[125.34483611500004,11.125379251000027],[125.34595217200001,11.12295524600006],[125.34690643700004,11.12214269800006],[125.34810512600006,11.122765956000023],[125.35052472400002,11.123149544000055],[125.35252958800005,11.122645072000065],[125.35375256200005,11.122664227000028],[125.35473800100011,11.12211017200002],[125.35684633000007,11.121910601000025],[125.35585405300003,11.12168817300005]]]]}}]}