{"type":"FeatureCollection","features":[{"type":"Feature","properties":{"fid":21,"objectid":1867,"lccode":"07","liqcode":"2010600070000000","mappers":"DJLBuhay","project":"Negros Occidental Multi-Hazard Mapping","province":"Negros Occidental","otherinfo":null,"datemapped":2018,"publishdate":null,"globalid":"{BDFFB75F-E1DC-47A8-B9CF-113E0CE8D2E7}","st_area(shape)":0.051419613090430895,"st_perimeter(shape)":11.901738684521376,"liqcodepk":"201060007000000000059","creator":"SNOOPYPC","createdate":"2019-02-19T15:21:28","editor":"LENOVO","modifydate":"2019-03-10T17:50:55","codemove":"na"},"geometry":{"type":"MultiPolygon","coordinates":[[[[122.85980214300002,10.392741864000069],[122.85899947900009,10.395091686000058],[122.85817998300001,10.396388811000064],[122.85792328900006,10.39834902600006],[122.85704268700012,10.400060261000021],[122.85773789900009,10.400880808000068],[122.857113991,10.402711252000076],[122.85826911200002,10.402879568000056],[122.85844024100005,10.403524779000065],[122.857174599,10.404846757000032],[122.85688938400006,10.406593020000058],[122.85505687700005,10.406519382000052],[122.85298906800006,10.407122508000041],[122.85229029000004,10.406172234000053],[122.85150238300002,10.40419804200007],[122.85007274300007,10.404944940000062],[122.84913509900001,10.406880556000035],[122.84942425500003,10.409358603000044],[122.84824736600002,10.410515065000025],[122.8471207670001,10.41062026000003],[122.84545938900011,10.412366491000055],[122.84243254300009,10.41626041200004],[122.83780849400011,10.42146742400007],[122.83433956500005,10.425654010000073],[122.83289209800012,10.427635080000073],[122.83212201700007,10.42901305600003],[122.83083141900012,10.430229737000044],[122.82820744000003,10.434584503000053],[122.82797926800005,10.434626578000064],[122.82583302400009,10.437743599000044],[122.82490607500006,10.439314370000034],[122.82396130000008,10.44136547600004],[122.82351921700003,10.44407572000006],[122.82376165000004,10.444959261000065],[122.82357626000011,10.447308348000032],[122.82360478100009,10.449257725000052],[122.8230379160001,10.457216387000072],[122.82360834700013,10.457626585000071],[122.82330530500009,10.459021958000047],[122.82250313800012,10.460277086000076],[122.82238880489055,10.461014050072276],[122.82294752897506,10.461937880797898],[122.8256164260319,10.46550383981838],[122.82862566894329,10.468793677425053],[122.83194627922965,10.471775701664733],[122.8355462760985,10.47442118492979],[122.83939098449149,10.476704640972851],[122.84344336921909,10.478604070695026],[122.84766439195778,10.480101174326986],[122.85201338765933,10.481181527947093],[122.85447847572205,10.481544592797311],[122.85529818800002,10.480978243000036],[122.85751108700002,10.480371481000077],[122.8609018190001,10.480264405000073],[122.8629362580001,10.480014561000074],[122.86389994000002,10.47865826900005],[122.86418547500011,10.477480435000071],[122.862900566,10.475445996000076],[122.86179411700004,10.475160461000026],[122.86079474300004,10.473911244000021],[122.86036644,10.472769103000074],[122.86015228900008,10.47123435000003],[122.86022367200007,10.469556830000045],[122.86008090500002,10.46677286100004],[122.85979536900004,10.464381503000027],[122.86015228900008,10.461204922000034],[122.86161565700002,10.459456018000024],[122.86589868700003,10.457278812000025],[122.87139524200008,10.454316383000046],[122.87371521600004,10.453424085000051],[122.8763921100001,10.45196071600003],[122.87806963000004,10.451925024000047],[122.8789262360001,10.45242471100005],[122.88078221500008,10.452353327000022],[122.88217420000001,10.451425337000044],[122.88360187700005,10.451282570000046],[122.88428002300009,10.45024750400006],[122.88363756900003,10.449676434000024],[122.88331634100007,10.446250010000027],[122.88217420000001,10.44489371700007],[122.88160313000003,10.44360880800002],[122.87949730700008,10.442538051000044],[122.87895154800005,10.44149594600003],[122.87649918600005,10.43904024300002],[122.87539273600008,10.438683324000065],[122.87250169100001,10.436755960000028],[122.87139524200008,10.436577501000047],[122.87021740900003,10.436970112000038],[122.86718359600002,10.436863036000034],[122.86412332700002,10.435849205000066],[122.86225811200006,10.433757840000055],[122.86083043500003,10.431830476000073],[122.86088694700004,10.430001265000044],[122.8630284620001,10.429049481000051],[122.86378989000002,10.427812161000077],[122.86493203100008,10.424742657000023],[122.86621694000007,10.423624310000035],[122.86759702700012,10.423695694000058],[122.86973854200005,10.424361943000065],[122.87040479100007,10.424290559000038],[122.87040479100007,10.423267391000024],[122.8695481850001,10.422553553000055],[122.86852501700002,10.421078287000057],[122.8687153740001,10.419127129000058],[122.86907229300003,10.418127755000056],[122.87069032600006,10.416747668000028],[122.87157072700006,10.416557311000075],[122.87554442700002,10.41662869500004],[122.87749558500002,10.417247354000038],[122.8787329050001,10.418056371000032],[122.87956571600012,10.418056371000032],[122.88082683000005,10.416985614000053],[122.88230209600012,10.416224186000022],[122.88308731800008,10.415462759000034],[122.88491950300012,10.41484409900005],[122.88501468200002,10.414344412000048],[122.8842056650001,10.413273655000067],[122.88323008600003,10.41263120000002],[122.88227830200005,10.411251113000047],[122.88082683000005,10.40777710000003],[122.8803509380001,10.40530246000003],[122.87973227800002,10.404374470000052],[122.87880428900007,10.40368442700003],[122.8769007200001,10.402922999000054],[122.87571098900001,10.401471528000057],[122.87566340000001,10.399211040000067],[122.87706728200011,10.397616801000028],[122.87775732600007,10.395903589000056],[122.87837031897084,10.395033996287806],[122.87422586565134,10.393564109378195],[122.86987800227892,10.392484066869596],[122.86544416584147,10.391831070912673],[122.86096703896034,10.391611407388552],[122.8597768371748,10.391668775001184],[122.85980214300002,10.392741864000069]]],[[[122.85606582500009,10.395191285000069],[122.85729938000007,10.39479853700004],[122.85775572400006,10.39399901400003],[122.8570819040001,10.39261913000007],[122.8560266080001,10.393278389000047],[122.854725314,10.396516804000044],[122.8549320950001,10.397084882000058],[122.85606582500009,10.395191285000069]]]]}},{"type":"Feature","properties":{"fid":46,"objectid":1895,"lccode":"05","liqcode":"2010600050000000","mappers":"DJLBuhay","project":"Negros Occidental Multi-Hazard Mapping","province":"Negros Occidental","otherinfo":null,"datemapped":2018,"publishdate":null,"globalid":"{149718D2-4D93-4457-9604-37CB70EA27A9}","st_area(shape)":0.01745435689673941,"st_perimeter(shape)":6.697527242466418,"liqcodepk":"201060005000000000089","creator":"SNOOPYPC","createdate":"2019-02-19T15:21:28","editor":"LENOVO","modifydate":"2019-03-10T17:50:55","codemove":"na"},"geometry":{"type":"Polygon","coordinates":[[[122.89796489800005,10.413541344000066],[122.8978221310001,10.415254556000038],[122.89634686500006,10.417253303000054],[122.89496677700005,10.418728569000054],[122.89315838700008,10.421726690000073],[122.89301561900004,10.424106151000043],[122.89315838700008,10.426247666000052],[122.89358669,10.427389807000054],[122.89358669,10.428627127000029],[122.89206383500006,10.42962650000004],[122.89144773900011,10.431762299000068],[122.89146098700007,10.434489002000019],[122.89199636600006,10.439093259000057],[122.89253174400005,10.440770779000047],[122.89361640600008,10.442413431000032],[122.89696552500004,10.444426748000069],[122.89844079000012,10.444807462000032],[122.9003919490001,10.445711657000059],[122.90210516000003,10.44704415500007],[122.90467497800013,10.447805582000054],[122.90504267553261,10.448467440914136],[122.90575107634973,10.445671652040456],[122.9064102407345,10.4412820425867],[122.90663154979202,10.436849615440988],[122.90641289072329,10.43241705835316],[122.9057563878806,10.428027058552566],[122.90466838159685,10.42372189167814],[122.90315936644097,10.419543014738846],[122.9012438895202,10.415530667020509],[122.89902696666154,10.411866545610092],[122.89796489800005,10.413541344000066]]]}},{"type":"Feature","properties":{"fid":59,"objectid":1908,"lccode":"05","liqcode":"2010600050000000","mappers":"PJDelosReyes, ACPidlaoan","project":"READY","province":"Iloilo","otherinfo":null,"datemapped":2010,"publishdate":null,"globalid":"{282D04BA-68E2-41E5-9B8A-0D8D85396F2D}","st_area(shape)":0.06128738608791496,"st_perimeter(shape)":10.692281506054618,"liqcodepk":"201060005000000000103","creator":"SNOOPYPC","createdate":"2019-02-19T15:21:28","editor":"LENOVO","modifydate":"2019-03-10T17:50:55","codemove":"na"},"geometry":{"type":"Polygon","coordinates":[]}},{"type":"Feature","properties":{"fid":61,"objectid":1925,"lccode":"06","liqcode":"2010600060000000","mappers":"DJLBuhay","project":"Negros Occidental Multi-Hazard Mapping","province":"Negros Occidental","otherinfo":null,"datemapped":2018,"publishdate":null,"globalid":"{E5539A65-5F4C-46A4-8778-850E85BFF908}","st_area(shape)":0.021565408471292534,"st_perimeter(shape)":8.733756823540528,"liqcodepk":"201060006000000000123","creator":"SNOOPYPC","createdate":"2019-02-19T15:21:28","editor":"LENOVO","modifydate":"2019-03-10T17:50:55","codemove":"na"},"geometry":{"type":"Polygon","coordinates":[[[122.87775732600007,10.395903589000056],[122.87706728200011,10.397616801000028],[122.87566340000001,10.399211040000067],[122.87571098900001,10.401471528000057],[122.8769007200001,10.402922999000054],[122.87880428900007,10.40368442700003],[122.87973227800002,10.404374470000052],[122.8803509380001,10.40530246000003],[122.88082683000005,10.40777710000003],[122.88227830200005,10.411251113000047],[122.88323008600003,10.41263120000002],[122.8842056650001,10.413273655000067],[122.88501468200002,10.414344412000048],[122.88491950300012,10.41484409900005],[122.88308731800008,10.415462759000034],[122.88230209600012,10.416224186000022],[122.88082683000005,10.416985614000053],[122.87956571600012,10.418056371000032],[122.8787329050001,10.418056371000032],[122.87749558500002,10.417247354000038],[122.87554442700002,10.41662869500004],[122.87157072700006,10.416557311000075],[122.87069032600006,10.416747668000028],[122.86907229300003,10.418127755000056],[122.8687153740001,10.419127129000058],[122.86852501700002,10.421078287000057],[122.8695481850001,10.422553553000055],[122.87040479100007,10.423267391000024],[122.87040479100007,10.424290559000038],[122.86973854200005,10.424361943000065],[122.86759702700012,10.423695694000058],[122.86621694000007,10.423624310000035],[122.86493203100008,10.424742657000023],[122.86378989000002,10.427812161000077],[122.8630284620001,10.429049481000051],[122.86088694700004,10.430001265000044],[122.86083043500003,10.431830476000073],[122.86225811200006,10.433757840000055],[122.86412332700002,10.435849205000066],[122.86718359600002,10.436863036000034],[122.87021740900003,10.436970112000038],[122.87139524200008,10.436577501000047],[122.87250169100001,10.436755960000028],[122.87539273600008,10.438683324000065],[122.87649918600005,10.43904024300002],[122.87895154800005,10.44149594600003],[122.87949730700008,10.442538051000044],[122.88160313000003,10.44360880800002],[122.88217420000001,10.44489371700007],[122.88331634100007,10.446250010000027],[122.88363756900003,10.449676434000024],[122.88428002300009,10.45024750400006],[122.88360187700005,10.451282570000046],[122.88217420000001,10.451425337000044],[122.88078221500008,10.452353327000022],[122.8789262360001,10.45242471100005],[122.87806963000004,10.451925024000047],[122.8763921100001,10.45196071600003],[122.87371521600004,10.453424085000051],[122.87139524200008,10.454316383000046],[122.86589868700003,10.457278812000025],[122.86161565700002,10.459456018000024],[122.86015228900008,10.461204922000034],[122.85979536900004,10.464381503000027],[122.86008090500002,10.46677286100004],[122.86022367200007,10.469556830000045],[122.86015228900008,10.47123435000003],[122.86036644,10.472769103000074],[122.86079474300004,10.473911244000021],[122.86179411700004,10.475160461000026],[122.862900566,10.475445996000076],[122.86418547500011,10.477480435000071],[122.86389994000002,10.47865826900005],[122.8629362580001,10.480014561000074],[122.8609018190001,10.480264405000073],[122.85751108700002,10.480371481000077],[122.85529818800002,10.480978243000036],[122.85447847572205,10.481544592797311],[122.85644845672927,10.481834722625317],[122.86092686917681,10.482054464843758],[122.86540547681875,10.481838637219614],[122.86984112954124,10.481189318941311],[122.87419109158184,10.480112765719229],[122.87841345379485,10.478619349445133],[122.88246753790278,10.476723458145207],[122.88631428881482,10.474443357196575],[122.88991665121291,10.471801013152557],[122.89323992676071,10.468821881883965],[122.89625210848126,10.465534663089],[122.89892418907627,10.46197102354915],[122.90123044021401,10.458165291810005],[122.90314866009987,10.454154127241104],[122.90466038695345,10.449976166674977],[122.90504267553261,10.448467440914136],[122.90467497800013,10.447805582000054],[122.90210516000003,10.44704415500007],[122.9003919490001,10.445711657000059],[122.89844079000012,10.444807462000032],[122.89696552500004,10.444426748000069],[122.89361640600008,10.442413431000032],[122.89253174400005,10.440770779000047],[122.89199636600006,10.439093259000057],[122.89146098700007,10.434489002000019],[122.89144773900011,10.431762299000068],[122.89206383500006,10.42962650000004],[122.89358669,10.428627127000029],[122.89358669,10.427389807000054],[122.89315838700008,10.426247666000052],[122.89301561900004,10.424106151000043],[122.89315838700008,10.421726690000073],[122.89496677700005,10.418728569000054],[122.89634686500006,10.417253303000054],[122.8978221310001,10.415254556000038],[122.89796489800005,10.413541344000066],[122.89902696666154,10.411866545610092],[122.8989404098319,10.411723482776031],[122.8962711200411,10.408158119420552],[122.89326173241646,10.40486890480202],[122.88994123099894,10.401887506932528],[122.88634159239724,10.39924262934866],[122.8824974779018,10.396959735021765],[122.87844589987907,10.395060801464295],[122.87837031897084,10.395033996287806],[122.87775732600007,10.395903589000056]]]}}]}