{"type":"FeatureCollection","features":[{"type":"Feature","properties":{"fid":24,"objectid":1870,"lccode":"07","liqcode":"2010600070000000","mappers":"PJDelosReyes, ACPidlaoan","project":"READY","province":"Aurora","otherinfo":null,"datemapped":2008,"publishdate":null,"globalid":"{AE48B7F9-BD78-456C-AF17-F399ABAFB54B}","st_area(shape)":0.01441991015626695,"st_perimeter(shape)":2.6487968593361737,"liqcodepk":"201060007000000000062","creator":"SNOOPYPC","createdate":"2019-02-19T15:21:28","editor":"LENOVO","modifydate":"2019-03-10T17:50:55","codemove":"na"},"geometry":{"type":"Polygon","coordinates":[[[121.41137302500012,15.229154560000039],[121.41283159000012,15.226832747000062],[121.4166834150001,15.219233864000046],[121.41867280100007,15.215683764000065],[121.42097391900006,15.21324197200005],[121.42291390000003,15.210379127000063],[121.42446791200007,15.209242165000031],[121.42686892900008,15.20825117800007],[121.42941987600013,15.20763621000003],[121.42942786100002,15.205532382000058],[121.42800882100005,15.202425603000053],[121.42806082400011,15.201135606000037],[121.42748685400011,15.200633703000051],[121.427748854,15.199507734000067],[121.42661573700002,15.19859235800004],[121.42544482200003,15.199399813000067],[121.42405195500011,15.198610625000068],[121.42397767300008,15.198579076000042],[121.4232834940001,15.198337715000033],[121.42314287500004,15.198330189000046],[121.42224587200009,15.199265805000035],[121.42184586300004,15.200771668000073],[121.42055186300003,15.202618603000076],[121.41834885800006,15.203718538000032],[121.41629990000001,15.205266460000066],[121.41479286200001,15.20537548000004],[121.41462598700004,15.20378267500007],[121.41467975600007,15.203345866000065],[121.41394590000004,15.202484649000041],[121.4130008740001,15.204086585000026],[121.41313589500011,15.207140377000027],[121.41206158600006,15.207430566000031],[121.41012888400009,15.205757491000043],[121.41026793500009,15.206647993000045],[121.41055794400008,15.209122302000022],[121.40960788600012,15.209177300000027],[121.40901864400007,15.209868142000067],[121.40743088800002,15.209517278000018],[121.40692690800006,15.208285347000075],[121.40634191900007,15.205394545000047],[121.40635184400003,15.20353264600004],[121.40582883700006,15.20073978200003],[121.40555084600011,15.196789056000055],[121.40587982500006,15.19445421100005],[121.40632180100012,15.19271735800004],[121.40638681500003,15.191305391000066],[121.4070577670001,15.189877473000026],[121.40589181400004,15.188821578000047],[121.40443678900012,15.188683590000036],[121.40312880300007,15.191647446000044],[121.40101983500007,15.193626276000034],[121.40092681500005,15.196071128000028],[121.40113781700008,15.196750059000063],[121.4011438660001,15.198798934000026],[121.39962485100013,15.199911944000057],[121.4008268780001,15.200440877000066],[121.3995868500001,15.201296807000062],[121.39844186900008,15.201445794000055],[121.39884988300003,15.202327723000053],[121.40017589600008,15.202069782000022],[121.40120885600004,15.202191794000044],[121.40216190800004,15.203181687000038],[121.40220891800004,15.20504055300006],[121.40177788900007,15.205855523000023],[121.40074385900006,15.205557573000014],[121.39902892600003,15.20638554000004],[121.40079193100006,15.207660418000044],[121.40167192900002,15.20759239900008],[121.40244087600001,15.20817535600002],[121.4033349550001,15.20956024500004],[121.40342489600005,15.210387229000045],[121.40444590700008,15.210685167000065],[121.405254967,15.211672132000036],[121.40685191500006,15.212218118000067],[121.40831290800008,15.213290023000072],[121.40914892400008,15.21456496500002],[121.40940691700007,15.215614883000057],[121.40926197400007,15.21674381600008],[121.40801500000002,15.218432679000045],[121.40940997000008,15.219563570000048],[121.40873395600012,15.220916541000065],[121.4087590480001,15.225065258000027],[121.40821801300001,15.226195177000024],[121.40833604000012,15.22835309800007],[121.40800308200004,15.22920798700005],[121.40634104400011,15.22891002700004],[121.40385506100007,15.228748066000035],[121.40433306900002,15.229874009000069],[121.40512649851253,15.230663812768464],[121.4088133655643,15.23051416092295],[121.41092685038494,15.230225045839864],[121.41137302500012,15.229154560000039]]]}},{"type":"Feature","properties":{"fid":50,"objectid":1899,"lccode":"05","liqcode":"2010600050000000","mappers":"PJDelosReyes, ACPidlaoan","project":"READY","province":"Aurora","otherinfo":null,"datemapped":2008,"publishdate":null,"globalid":"{CC3CD5B3-A704-4E3D-9AAC-2D78D3767EF3}","st_area(shape)":0.005629452479237725,"st_perimeter(shape)":2.479530872724298,"liqcodepk":"201060005000000000093","creator":"SNOOPYPC","createdate":"2019-02-19T15:21:28","editor":"LENOVO","modifydate":"2019-03-10T17:50:55","codemove":"na"},"geometry":{"type":"Polygon","coordinates":[[[121.40393271600009,15.179149143000071],[121.40568175900012,15.180635042000059],[121.40607670500003,15.182746946000066],[121.4066477240001,15.183853840000042],[121.4066847140001,15.184927767000037],[121.40568674600001,15.186175722000026],[121.40443678900012,15.188683590000036],[121.40589181400004,15.188821578000047],[121.4070577670001,15.189877473000026],[121.40871574900005,15.186990699000027],[121.4086497310001,15.185180758000058],[121.40919072400006,15.181610993000051],[121.40703873200005,15.17884917700008],[121.40715469800013,15.177353261000066],[121.40577785200004,15.177830240000048],[121.40532991200007,15.177422295000042],[121.40460165800005,15.175511445000039],[121.40253666000001,15.173922549000054],[121.40210765800009,15.173161562000077],[121.40196363000008,15.17174169900005],[121.40138863300002,15.171497551000067],[121.40046567500008,15.171848630000056],[121.40018065000004,15.172582129000036],[121.4003246640001,15.175208498000071],[121.40089668000009,15.17652332900008],[121.40318170100012,15.178112264000045],[121.40393271600009,15.179149143000071]]]}},{"type":"Feature","properties":{"fid":200,"objectid":3303,"lccode":"01","liqcode":null,"mappers":"DJLBuhay, MJVReyes, MITAbigania, KLPapiona, KMVitto","project":"MELP","province":"Quezon","otherinfo":null,"datemapped":2017,"publishdate":null,"globalid":"{BC782275-8EAF-4B58-974B-C12246047CD2}","st_area(shape)":0.045970309448805105,"st_perimeter(shape)":30.915538535941515,"liqcodepk":null,"creator":null,"createdate":null,"editor":null,"modifydate":null,"codemove":null},"geometry":{"type":"MultiPolygon","coordinates":[[[[121.40828505700006,15.153788676000033],[121.40902585300013,15.154482344000025],[121.40905866500009,15.15536263400003],[121.40978280500008,15.155979955000081],[121.41096422300006,15.156026545000033],[121.41096993600001,15.155261316000061],[121.41026877600007,15.154204131000025],[121.41019799800007,15.153132256000049],[121.41217675400004,15.151902629000057],[121.41196582100008,15.151135875000021],[121.41046474500001,15.15169925700008],[121.40934243500011,15.15165308300004],[121.408075616,15.152165786000065],[121.40737991800006,15.15038162800005],[121.40737427000012,15.149161942000035],[121.40684831900013,15.148383395000046],[121.40499814400005,15.147376952000053],[121.40246699600004,15.144785978000067],[121.40162015600005,15.144779982000044],[121.40155317800009,15.145831749000024],[121.39990491600008,15.145016540000027],[121.40007152100007,15.143812427000054],[121.40125487500006,15.143591232000063],[121.40157600600003,15.142789976000072],[121.40065724000011,15.141173003000059],[121.40086833530023,15.140488814254986],[121.40036745489768,15.140509160481466],[121.399674872767,15.140603941363723],[121.39729004900006,15.143881314000053],[121.39613956900007,15.146897322000031],[121.39773591100005,15.148197360000042],[121.39935784000009,15.148608179000062],[121.40021542500006,15.14825199000006],[121.40085944400006,15.149040953000052],[121.40133196800001,15.151423621000047],[121.40104884700008,15.15371741300004],[121.39983981000012,15.154971969000027],[121.398665208,15.15733521500005],[121.39577127600012,15.162288963000043],[121.39492720500006,15.162902980000066],[121.3945096330001,15.163819975000028],[121.39582853700007,15.163269764000065],[121.39791309100006,15.161878108000057],[121.39870863600004,15.159416087000068],[121.40204875600013,15.154327145000025],[121.40209867000011,15.153581364000045],[121.402779957,15.15314711700006],[121.4042359440001,15.154003998000059],[121.40457105500002,15.154623365000074],[121.40660442700003,15.15531212900004],[121.40689678600006,15.15375017800005],[121.40828505700006,15.153788676000033]],[[121.402399134,15.150119561000055],[121.40240254300011,15.149665208000046],[121.40289858100006,15.14917847000004],[121.40423972200006,15.149259703000045],[121.40484017500013,15.149622667000072],[121.40389447100006,15.150979111000025],[121.402399134,15.150119561000055]]],[[[121.39013650900006,15.17385897200006],[121.38925871900005,15.172723938000047],[121.3885719550001,15.17237466100005],[121.38797624700008,15.170624649000048],[121.38739134700006,15.169831290000044],[121.38733256700004,15.168491664000042],[121.38620670500006,15.167587620000067],[121.38552170900005,15.167943906000056],[121.38498071000004,15.166939521000076],[121.38416738500008,15.167048481000046],[121.38287389800007,15.166192637000051],[121.38373947800005,15.163791506000052],[121.38476732900007,15.162665331000031],[121.38484791400003,15.160623005000048],[121.38364270100011,15.15996826900004],[121.38340894800002,15.160632440000029],[121.38337389500008,15.163301032000051],[121.38204865600005,15.164030327000033],[121.38225416300008,15.16639835200004],[121.3807683880001,15.169898611000065],[121.38125220100007,15.170935165000062],[121.38374254200005,15.171912735000035],[121.38600748000009,15.173581109000052],[121.3884772150001,15.174478450000036],[121.38850618600009,15.175261358000057],[121.38925028400001,15.17611881600004],[121.39125680300005,15.17634866400004],[121.3948654840001,15.172818888000048],[121.3966006180001,15.171586258000048],[121.39770678800005,15.171173231000068],[121.39908524400005,15.171221291000048],[121.39990802700004,15.171820215000025],[121.40018065000004,15.172582129000036],[121.40046567500008,15.171848630000056],[121.40138863300002,15.171497551000067],[121.39948654400007,15.170742301000073],[121.39917651100005,15.17004845700006],[121.3977956650001,15.169834651000032],[121.3961582820001,15.170167373000027],[121.39536595700008,15.170754812000043],[121.39356647000012,15.173717102000069],[121.39283059400009,15.174452151000027],[121.39198234500009,15.174569932000052],[121.39013650900006,15.17385897200006]]],[[[121.41561862000003,15.191398530000068],[121.41575832900004,15.190495541000075],[121.41690485200002,15.190243760000042],[121.4173080600001,15.188727193000032],[121.4163044170001,15.188590995000025],[121.41473540100003,15.19050952700007],[121.41413491700006,15.192234659000066],[121.413546514,15.192543081000052],[121.41221882600007,15.191618502000042],[121.4113397640001,15.19260236200006],[121.41130083400004,15.19385581000006],[121.4105076080001,15.19521333900008],[121.41028986800006,15.19726363800004],[121.4117434530001,15.19740117300006],[121.41199797500006,15.197941047000032],[121.4135635990001,15.198999551000036],[121.41409325300003,15.20055455900007],[121.41393172900008,15.201497863000043],[121.41156259800005,15.202903659000071],[121.41148496100004,15.203736832000066],[121.41221637500009,15.20445164700004],[121.41204891200005,15.205110507000029],[121.41252016100007,15.206224666000026],[121.41206158600006,15.207430566000031],[121.41313589500011,15.207140377000027],[121.4130008740001,15.204086585000026],[121.41394590000004,15.202484649000041],[121.41467975600007,15.203345866000065],[121.41541800800006,15.202162514000058],[121.41635427500012,15.19973050100003],[121.41474323800003,15.197825996000057],[121.41534110500004,15.19690650600006],[121.41497882300007,15.195956935000023],[121.41569130100005,15.19551714100004],[121.41669593800009,15.195524212000068],[121.41650430200002,15.193485336000041],[121.41759859700007,15.191549346000047],[121.41648695600009,15.191849453000028],[121.41561862000003,15.191398530000068]]],[[[121.44645985000011,15.19652114100006],[121.4464524770001,15.199213746000057],[121.44618239000009,15.200850217000042],[121.44672516600008,15.201384876000079],[121.4477902110001,15.199132267000037],[121.44715994,15.196420748000035],[121.44822517700004,15.195420760000045],[121.44700166700011,15.195166513000059],[121.44645985000011,15.19652114100006]]],[[[121.42569856000013,15.197019979000057],[121.42527262400006,15.198104598000043],[121.42405195500011,15.198610625000068],[121.42544482200003,15.199399813000067],[121.42661573700002,15.19859235800004],[121.42569856000013,15.197019979000057]]],[[[121.41834885800006,15.203718538000032],[121.42055186300003,15.202618603000076],[121.42184586300004,15.200771668000073],[121.42224587200009,15.199265805000035],[121.42314287500004,15.198330189000046],[121.4224881990001,15.19768205200006],[121.42157378300011,15.199040199000024],[121.42137298700004,15.200371805000032],[121.42065995200005,15.201808373000057],[121.4189785320001,15.203197962000047],[121.41637236500003,15.204620483000046],[121.41514961000007,15.205126034000047],[121.41462598700004,15.20378267500007],[121.41479286200001,15.20537548000004],[121.41629990000001,15.205266460000066],[121.41834885800006,15.203718538000032]]],[[[121.40978573400004,15.20877934600003],[121.40901864400007,15.209868142000067],[121.40960788600012,15.209177300000027],[121.41055794400008,15.209122302000022],[121.41026793500009,15.206647993000045],[121.40978573400004,15.20877934600003]]]]}}]}