{"type":"FeatureCollection","features":[{"type":"Feature","properties":{"fid":14,"objectid":1846,"lccode":"01","liqcode":"2010600010000000","mappers":"DJLBuhay, MJVReyes, MITAbigania, KLPapiona, KMVitto","project":"MELP","province":"Mountain Province / Kalinga","otherinfo":null,"datemapped":2018,"publishdate":null,"globalid":"{0475B204-6BB7-426A-8C4E-9D28C5929B06}","st_area(shape)":0.0025172207798108185,"st_perimeter(shape)":2.1094157224812764,"liqcodepk":"201060001000000000018","creator":"SNOOPYPC","createdate":"2019-02-19T15:21:28","editor":"LENOVO","modifydate":"2019-03-10T17:53:06","codemove":"na"},"geometry":{"type":"MultiPolygon","coordinates":[[[[121.37350292400002,17.178446664000035],[121.37271761500006,17.17936676600004],[121.37275832300008,17.181817725000027],[121.37369071100012,17.18185515600004],[121.37709241000005,17.183944768000057],[121.37704303000011,17.18247996700006],[121.3773042700001,17.18104755900004],[121.3762224520001,17.180321565000042],[121.37485274500011,17.180519696000033],[121.37350292400002,17.178446664000035]]],[[[121.39110495400007,17.192216288000058],[121.39188195300005,17.192252395000022],[121.39277762100006,17.192946939000024],[121.39384012800008,17.19232783200005],[121.39592111800003,17.192583547000027],[121.3957449070001,17.19138670100006],[121.39743410200005,17.190204743000034],[121.40058089700007,17.189452782000043],[121.4017921210001,17.189611851000052],[121.4019527160001,17.189015407000056],[121.40130574700004,17.188322881000033],[121.3992977920001,17.18681259400006],[121.39748221800005,17.18823265100008],[121.39651533900008,17.18858356900006],[121.39409576500007,17.187936641000018],[121.39176507900002,17.187798456000053],[121.39073446000009,17.18832815200005],[121.38996447500006,17.18748517800003],[121.38920071900009,17.18592499000004],[121.38848566700004,17.185919257000023],[121.38739209400002,17.186538088000077],[121.38646331000008,17.18608234500004],[121.38593011700006,17.186616008000044],[121.38459587800004,17.186306429000073],[121.38396889100011,17.186899104000073],[121.38338600000002,17.185997841000074],[121.3840458940001,17.185196231000077],[121.38315368000008,17.184113164000053],[121.3816272020001,17.184459508000028],[121.3806072630001,17.183763919000054],[121.3794269340001,17.183634862000076],[121.3788924260001,17.184317924000027],[121.37709241000005,17.183944768000057],[121.37788636000006,17.18559489500007],[121.37896769200007,17.186380650000046],[121.380024724,17.186389174000055],[121.38094932100012,17.187323086000053],[121.3813725870001,17.188701242000036],[121.38267418400004,17.18918989600007],[121.38481833300011,17.189326687000058],[121.38424623300011,17.190756607000022],[121.38430086900007,17.191623736000057],[121.38525894400004,17.192288927000046],[121.38634814200007,17.19217813600005],[121.38719432900007,17.19140789800002],[121.38918332000004,17.191513513000075],[121.389918856,17.192744731000058],[121.39110495400007,17.192216288000058]]],[[[121.4299217360001,17.18331841600008],[121.42931839800009,17.184808021000038],[121.42933937500005,17.186003640000024],[121.43057033900006,17.187507578000062],[121.43224592500009,17.187909183000045],[121.43229599200004,17.18934412100003],[121.4306120540001,17.18992870200003],[121.42998594600012,17.190431879000073],[121.42814983000005,17.19062672600006],[121.42620928900011,17.192135736000065],[121.42474320100007,17.19269208500003],[121.42435615500005,17.19433279600003],[121.42335082800003,17.195550245000046],[121.42238699600011,17.19554267700005],[121.42110411300007,17.196488956000053],[121.42278178400012,17.19665157000002],[121.42457824300004,17.197472600000026],[121.42707647500004,17.196207070000078],[121.42792328900009,17.195346996000072],[121.42903299200009,17.19281533900005],[121.42984793200003,17.192044665000022],[121.43136658600008,17.192624371000022],[121.43276871000012,17.192276678000038],[121.43355178500008,17.191595398000057],[121.43395050864524,17.190805152664485],[121.4339778746015,17.1903455274146],[121.43380969557364,17.186405675474166],[121.4329799190001,17.18567342600005],[121.43230654000001,17.18441294400003],[121.43082610800002,17.18299672800003],[121.4299217360001,17.18331841600008]]],[[[121.41505506800003,17.19482745700003],[121.41349744600006,17.195173794000024],[121.41239401600001,17.193312133000063],[121.41136981000011,17.193094832000043],[121.40956219300006,17.193588593000072],[121.40788841600012,17.192977611000064],[121.40549263700005,17.19316781100002],[121.40388208900005,17.192437755000068],[121.40280266400009,17.191413050000055],[121.4020873290001,17.191437248000053],[121.40132468600007,17.19334388700003],[121.40156929300008,17.19382401000007],[121.40037651100009,17.195129500000064],[121.40202098700001,17.19553110800007],[121.40320296100003,17.195480736000036],[121.40478398000005,17.19603124800005],[121.40568562400006,17.196038407000064],[121.40665458300008,17.195448374000023],[121.40725377800004,17.194466886000043],[121.40849690400012,17.194536511000024],[121.4100478680001,17.194967200000068],[121.40966914100011,17.195621696000046],[121.40996187000007,17.197745929000057],[121.40908157000001,17.19887463000003],[121.4078954690001,17.199403179000058],[121.40795072800005,17.20021054200004],[121.407135411,17.201011001000044],[121.40712411900006,17.20232589900007],[121.40776422900001,17.203825280000046],[121.40688516800003,17.204804547000037],[121.40725237700008,17.20549484000003],[121.40720947600005,17.20686925900003],[121.4050406780001,17.205955457000076],[121.40372577700009,17.206991017000064],[121.40337732100011,17.20773539600003],[121.40250208000009,17.208266380000055],[121.40171212800011,17.209724506000043],[121.40123309900002,17.211185104000037],[121.40178917800006,17.211607937000053],[121.40300260600009,17.211527938000067],[121.40434683900004,17.210701822000026],[121.40475799800004,17.209898167000063],[121.40612508400011,17.210028573000045],[121.40822015300012,17.20867044000005],[121.40840409200007,17.20535454400004],[121.40891567800008,17.203714864000062],[121.40906644900008,17.20063779000003],[121.410449093,17.19894523100004],[121.41244024400011,17.198811551000063],[121.41295177200006,17.197171856000068],[121.41460932400004,17.196049272000035],[121.41505506800003,17.19482745700003]]],[[[121.35428394000009,17.219166369000046],[121.35467617300004,17.21701783700007],[121.35537774000011,17.215051152000054],[121.35545000200011,17.213916099000073],[121.35403430000008,17.212260796000066],[121.35234542700005,17.209856107000068],[121.35190347200012,17.207103024000045],[121.35086307900008,17.205211701000053],[121.35034993300009,17.20347413400003],[121.34935979000011,17.202928060000026],[121.34851978900008,17.202980924000027],[121.34598334700001,17.201495666000028],[121.34553803300004,17.199131057000045],[121.34315925500003,17.197407985000037],[121.34052994108472,17.19656963381979],[121.34067378275917,17.197560054717712],[121.34101081000006,17.197748874000066],[121.34237665600006,17.197999233000075],[121.3432418540001,17.198604078000066],[121.34440249900001,17.20094470300006],[121.3444250560001,17.20190121900003],[121.34394695000005,17.203212230000076],[121.34319595200009,17.203743970000062],[121.34232289428842,17.203946111363862],[121.34285316522795,17.205409887649527],[121.3458889210001,17.20511101200003],[121.34868053100003,17.205881125000072],[121.34983970700011,17.20490443900007],[121.35011421600007,17.20550440200003],[121.34954552000009,17.20651583100004],[121.35030899900005,17.20807614500006],[121.34940120300008,17.20875604600007],[121.34995368700004,17.20956749300007],[121.34984525000006,17.211270066000054],[121.35232685300002,17.215444521000055],[121.35362535200012,17.216291969000057],[121.35330113900012,17.217783578000024],[121.35328892400003,17.219158205000042],[121.35259635000011,17.220108851000077],[121.3521733708384,17.220267436064276],[121.35345706406167,17.22165210735938],[121.35412780708602,17.222246415890123],[121.35391748000008,17.22191281700003],[121.35460925900009,17.221051816000056],[121.35474265900007,17.220036807000046],[121.35428394000009,17.219166369000046]]],[[[121.37390992300004,17.22933807800007],[121.37261254600003,17.228341329000045],[121.37112466700013,17.227791308000068],[121.36695544300005,17.22802637000007],[121.36609003,17.22742161100007],[121.36556931200005,17.22652080300003],[121.36274806200004,17.22554145600003],[121.36016820000009,17.225400837000056],[121.35920742000009,17.225034355000048],[121.35636097200008,17.22339723700003],[121.35504427923878,17.223058442231018],[121.35684897738325,17.224657436544042],[121.36009149911314,17.2270097607988],[121.3609344790001,17.22666229000004],[121.36245974900011,17.226495437000036],[121.3631103800001,17.226769718000067],[121.36321925197369,17.228906959816197],[121.36446822004302,17.229640240024732],[121.36464423006021,17.229721997229248],[121.36625894200006,17.229425316000057],[121.36706296300007,17.22993991900006],[121.37042293800005,17.229787940000048],[121.37150395000003,17.230633518000047],[121.37180703100013,17.231532546000036],[121.37123742593474,17.232492920154822],[121.37295296362831,17.233098503204424],[121.37365006561714,17.233272307004984],[121.37378986500003,17.232385435000026],[121.37454432000004,17.231465100000037],[121.37455192700008,17.23059847900004],[121.37390992300004,17.22933807800007]]]]}}]}