{"type":"FeatureCollection","features":[{"type":"Feature","properties":{"fid":33,"objectid":1879,"lccode":"07","liqcode":"2010600070000000","mappers":"PJDelosReyes, ACPidlaoan","project":"READY","province":"Isabela","otherinfo":null,"datemapped":2012,"publishdate":null,"globalid":"{91DB2F3C-1BB4-4146-BF15-299122E74073}","st_area(shape)":0.020995608528075003,"st_perimeter(shape)":7.369078683303569,"liqcodepk":"201060007000000000072","creator":"SNOOPYPC","createdate":"2019-02-19T15:21:28","editor":"LENOVO","modifydate":"2019-03-10T17:50:55","codemove":"na"},"geometry":{"type":"MultiPolygon","coordinates":[[[[121.69336251400013,16.609828671000063],[121.69219240100006,16.607904698000027],[121.689508143,16.605925548000073],[121.68818612400003,16.60546089500002],[121.6865306830001,16.60531354700004],[121.68330889500008,16.605840741000062],[121.68327086762486,16.60584172208204],[121.68471140119844,16.606886074789674],[121.68864067003736,16.60919078395427],[121.69278539377117,16.611112967580514],[121.69364789211592,16.6114166571961],[121.69336251400013,16.609828671000063]]],[[[121.67771067000002,16.60092247600005],[121.67677593800012,16.59229176200006],[121.67683072600005,16.591196959000058],[121.67757144600013,16.58668389400003],[121.67734635300008,16.584994013000028],[121.67688127800012,16.583804642000075],[121.67575151100006,16.582930370000042],[121.673770063,16.582050758000033],[121.67136032500001,16.581533354000047],[121.66956597300009,16.58097431700003],[121.666832515,16.579359645000068],[121.66617787500002,16.57821467100007],[121.66604754900006,16.576525390000032],[121.66744737900001,16.572518624000054],[121.66897247800011,16.57093119400002],[121.67253685700007,16.56867228600004],[121.67400202200008,16.568909777000048],[121.67588782200004,16.569925665000024],[121.67747781900005,16.572673833000064],[121.67802757000005,16.57532403600004],[121.67858293900008,16.577152908000073],[121.68013102100008,16.579124971000052],[121.6824885740001,16.58037204500004],[121.68419016100005,16.580656598000076],[121.68736144500009,16.58053972600004],[121.68898228400008,16.57877022100007],[121.68994067200003,16.57699653300006],[121.690857918,16.574309947000067],[121.69164520400012,16.569842725000058],[121.69199773900004,16.566696175000057],[121.69164259400007,16.563225848000055],[121.69099532400003,16.56098565000007],[121.68940204800003,16.55869396200006],[121.68771083400007,16.55690359500005],[121.6832761620001,16.555004640000046],[121.6801541410001,16.554893630000034],[121.67546118700011,16.556187263000027],[121.67328359400005,16.556355938000024],[121.67058958500002,16.555928089000076],[121.66856271100005,16.554819908000066],[121.66732247387456,16.553247808347624],[121.66625082433252,16.556077204240225],[121.66612168008653,16.556560825046297],[121.66726650000011,16.55754968400004],[121.66990657900011,16.55893549100006],[121.671794685,16.559586463000073],[121.67406384900004,16.55987470300005],[121.67586301400003,16.55970361800007],[121.68103227900009,16.557956682000057],[121.68193154200004,16.557916740000053],[121.68457855800013,16.558298518000072],[121.6856634200001,16.558807310000077],[121.68702746600003,16.560002422000032],[121.68824556600008,16.561789817000033],[121.68879907500002,16.56389244600007],[121.6889166310001,16.56749826400005],[121.68842433000009,16.570324413000034],[121.68726156200012,16.574332936000076],[121.68678004600008,16.575561951000054],[121.68501749100007,16.57728491500006],[121.6834575790001,16.57704689800004],[121.68280129100003,16.576130118000037],[121.68277789900004,16.572616164000067],[121.68236010700002,16.571427012000072],[121.68010229300012,16.569450471000035],[121.67680334800002,16.567512929000035],[121.67378516800012,16.566033439000023],[121.67170392100002,16.565928915000026],[121.66890925000007,16.566367389000046],[121.66723878600011,16.568455837000045],[121.66570332200001,16.57154911000003],[121.6643636682903,16.573786401038195],[121.66498253609656,16.578002840496573],[121.66589739591085,16.581627032417778],[121.66723506500013,16.582739113000056],[121.67062105900006,16.585818243000062],[121.67179247500006,16.587514171000063],[121.67377558500004,16.59505634200007],[121.67451616000005,16.59747961100004],[121.67464915514078,16.597988088020166],[121.6776481956788,16.60122138921034],[121.67785941790251,16.601408446566197],[121.67771067000002,16.60092247600005]]],[[[121.67426800300007,16.543858552000074],[121.67752018500005,16.54565891900006],[121.67973725600007,16.54663132000007],[121.68091847500013,16.546866954000052],[121.68541940000011,16.545937023000022],[121.6892639130001,16.544135865000047],[121.69234148800003,16.543790130000048],[121.69484825100005,16.543897096000023],[121.6973511120001,16.544597312000068],[121.69985177700005,16.545616818000042],[121.70154729600004,16.546768269000037],[121.70272061800004,16.54819025200004],[121.70403162600007,16.55025193100005],[121.70571046000008,16.553913095000038],[121.70636032400013,16.555788128000078],[121.70804357900012,16.55881036700003],[121.70897159700007,16.561554216000044],[121.70957938800007,16.562653148000038],[121.71060908800007,16.56434799600003],[121.71187624900006,16.565907412000062],[121.7135717120001,16.567104411000056],[121.71593209200012,16.56794035200005],[121.71966617200009,16.568556555000047],[121.7207553380001,16.568426351000028],[121.72199217500007,16.56743003800005],[121.72266570300008,16.56574569000003],[121.7238442900001,16.559227154000038],[121.72413381400008,16.558361915000035],[121.72494300600009,16.557636753000054],[121.72760122600005,16.556329574000074],[121.72869720200003,16.555149733000068],[121.72946228700005,16.553922327000063],[121.72985368300012,16.551962343000067],[121.7295374560001,16.54967871100007],[121.72864660000003,16.548441209000032],[121.7251725430001,16.54431282500008],[121.72433232600008,16.542573571000048],[121.72424967600013,16.540747776000043],[121.72472883700004,16.53983797000006],[121.725822632,16.538977641000027],[121.72923423900012,16.538176978000024],[121.73202633700011,16.538057069000043],[121.73467479700003,16.538210047000064],[121.73571293400006,16.53862703300007],[121.73874221600012,16.53841720600008],[121.7414953220001,16.537019135000037],[121.74262090403187,16.536206173467335],[121.74095026460449,16.53472717183461],[121.73852860707859,16.5329719726759],[121.73716751100005,16.533205309000035],[121.73300206300007,16.533545209000067],[121.7283589770001,16.534566510000047],[121.72622831600007,16.534827308000047],[121.7221107150001,16.535076015000072],[121.72073968500001,16.534930627000044],[121.71936384000003,16.53551549600007],[121.71926317400005,16.536427522000054],[121.72029043300006,16.538487365000034],[121.720379664,16.539309383000045],[121.71965073400008,16.54222546000005],[121.71929367600002,16.546147814000054],[121.71974207800008,16.54989258500007],[121.72220694000009,16.556387836000045],[121.72081016400011,16.56012128300005],[121.71875358400008,16.563439971000037],[121.71780277300002,16.56411860200006],[121.71642761500004,16.564566455000033],[121.71496293500002,16.56423800100003],[121.714115246,16.563639555000066],[121.71209976200011,16.560752109000077],[121.710931232,16.55860009100007],[121.7083697280001,16.55246927700005],[121.70650185300008,16.54876132700002],[121.70505102100005,16.546379370000068],[121.70412098200006,16.54395492000003],[121.70262933200001,16.540614425000054],[121.70145185600006,16.539831265000032],[121.69951278600001,16.53972792100007],[121.69728526100005,16.540307237000036],[121.6948731110001,16.540200895000048],[121.69132436000007,16.540269925000075],[121.68933215700008,16.541033246000044],[121.6869153780001,16.541611259000035],[121.68270299400001,16.54185848800006],[121.68104872100002,16.541619875000038],[121.67854666900007,16.540828302000023],[121.67592957644604,16.539579648669797],[121.67497448091271,16.540582736595898],[121.67302448366314,16.543084169635932],[121.67426800300007,16.543858552000074]]]]}},{"type":"Feature","properties":{"fid":60,"objectid":1909,"lccode":"05","liqcode":"2010600050000000","mappers":"PJDelosReyes, ACPidlaoan","project":"READY","province":"Isabela","otherinfo":null,"datemapped":2012,"publishdate":null,"globalid":"{CB433018-447B-4349-A32C-A82989A96D3F}","st_area(shape)":0.11608726533381088,"st_perimeter(shape)":15.125533415932647,"liqcodepk":"201060005000000000104","creator":"SNOOPYPC","createdate":"2019-02-19T15:21:28","editor":"LENOVO","modifydate":"2019-03-10T17:50:55","codemove":"na"},"geometry":{"type":"Polygon","coordinates":[]}},{"type":"Feature","properties":{"fid":74,"objectid":1938,"lccode":"06","liqcode":"2010600060000000","mappers":"PJDelosReyes, ACPidlaoan","project":"READY","province":"Isabela","otherinfo":null,"datemapped":2012,"publishdate":null,"globalid":"{57DA03B8-A8DC-43FC-92E3-BCA08FF4E128}","st_area(shape)":0.09517793329217689,"st_perimeter(shape)":18.374122243984093,"liqcodepk":"201060006000000000137","creator":"SNOOPYPC","createdate":"2019-02-19T15:21:28","editor":"LENOVO","modifydate":"2019-03-10T17:50:55","codemove":"na"},"geometry":{"type":"MultiPolygon","coordinates":[[[[121.67451616000005,16.59747961100004],[121.67432128134294,16.597571915170498],[121.67458228820972,16.597915996344103],[121.67464915514078,16.597988088020166],[121.67451616000005,16.59747961100004]]],[[[121.71443618500007,16.52591337600006],[121.71348525300004,16.526637632000075],[121.71291090900003,16.527638089000042],[121.71280969200008,16.528641372000042],[121.71355571400012,16.53028881900008],[121.71458741300012,16.531664230000043],[121.71543708400009,16.53194325500004],[121.71926317400005,16.536427522000054],[121.71936384000003,16.53551549600007],[121.72073968500001,16.534930627000044],[121.7221107150001,16.535076015000072],[121.72622831600007,16.534827308000047],[121.7283589770001,16.534566510000047],[121.73300206300007,16.533545209000067],[121.73716751100005,16.533205309000035],[121.73852860707859,16.5329719726759],[121.73727474956159,16.532063163478433],[121.73334632798557,16.52975942466285],[121.72920282051355,16.527838127763925],[121.72870804236818,16.527663950873464],[121.72652736500004,16.52890804500004],[121.72425424100003,16.529259313000065],[121.72302727400007,16.52879539700007],[121.72227457000008,16.528151938000065],[121.72181052300004,16.526780039000077],[121.72064959304633,16.525267013138688],[121.72043177756268,16.525212962018372],[121.7176422370877,16.524796299218245],[121.71443618500007,16.52591337600006]]],[[[121.66856271100005,16.554819908000066],[121.67058958500002,16.555928089000076],[121.67328359400005,16.556355938000024],[121.67546118700011,16.556187263000027],[121.6801541410001,16.554893630000034],[121.6832761620001,16.555004640000046],[121.68771083400007,16.55690359500005],[121.68940204800003,16.55869396200006],[121.69099532400003,16.56098565000007],[121.69164259400007,16.563225848000055],[121.69204703800006,16.56207151100006],[121.69326988600005,16.562407372000056],[121.69673202800004,16.563763853000072],[121.6977036200001,16.56436070100006],[121.70186484500005,16.566355979000036],[121.70311126800004,16.566582595000057],[121.7051345210001,16.565982450000032],[121.7062559640001,16.564523415000053],[121.70669641600011,16.563125747000072],[121.70747592000009,16.561905210000077],[121.70849814700013,16.561714563000066],[121.70957938800007,16.562653148000038],[121.70897159700007,16.561554216000044],[121.70804357900012,16.55881036700003],[121.70636032400013,16.555788128000078],[121.70571046000008,16.553913095000038],[121.70403162600007,16.55025193100005],[121.70272061800004,16.54819025200004],[121.70154729600004,16.546768269000037],[121.69985177700005,16.545616818000042],[121.6973511120001,16.544597312000068],[121.69484825100005,16.543897096000023],[121.69234148800003,16.543790130000048],[121.6892639130001,16.544135865000047],[121.68541940000011,16.545937023000022],[121.68091847500013,16.546866954000052],[121.67973725600007,16.54663132000007],[121.67752018500005,16.54565891900006],[121.67426800300007,16.543858552000074],[121.67302448366314,16.543084169635932],[121.67221141098207,16.544127143395517],[121.6698217296301,16.547915671516296],[121.6678284628677,16.55191184932781],[121.66732247387456,16.553247808347624],[121.66856271100005,16.554819908000066]]],[[[121.7414953220001,16.537019135000037],[121.73874221600012,16.53841720600008],[121.73571293400006,16.53862703300007],[121.73467479700003,16.538210047000064],[121.73202633700011,16.538057069000043],[121.72923423900012,16.538176978000024],[121.725822632,16.538977641000027],[121.72472883700004,16.53983797000006],[121.72424967600013,16.540747776000043],[121.72433232600008,16.542573571000048],[121.7251725430001,16.54431282500008],[121.72864660000003,16.548441209000032],[121.7295374560001,16.54967871100007],[121.72985368300012,16.551962343000067],[121.72946228700005,16.553922327000063],[121.72869720200003,16.555149733000068],[121.72760122600005,16.556329574000074],[121.72494300600009,16.557636753000054],[121.72413381400008,16.558361915000035],[121.7238442900001,16.559227154000038],[121.72266570300008,16.56574569000003],[121.72199217500007,16.56743003800005],[121.7207553380001,16.568426351000028],[121.71966617200009,16.568556555000047],[121.7207928370001,16.569008413000066],[121.72277056900009,16.570480869000047],[121.7232865100001,16.57116851400002],[121.72568917700005,16.572780445000035],[121.72658221300003,16.573698642000068],[121.72804421400006,16.574437692000057],[121.73163920400009,16.574642152000024],[121.73325341900012,16.57383059800003],[121.73458959200002,16.57210460500005],[121.73558716600009,16.571517445000037],[121.73782292300007,16.569705624000054],[121.73834850600008,16.568932968000066],[121.7388335480001,16.56711052200006],[121.73851304300001,16.565465725000024],[121.73862099400003,16.56341283200004],[121.73891350800011,16.56209126300007],[121.74001509200004,16.560044289000075],[121.74072780000007,16.559592273000078],[121.74492049000001,16.562446962000024],[121.74562869100008,16.562679389000042],[121.74927786300007,16.561788587000024],[121.74975873600012,16.560605026000076],[121.74820966800007,16.558679069000046],[121.74590486400007,16.556566026000045],[121.7437349600001,16.55554895400007],[121.74241075300006,16.555449703000015],[121.7418488930001,16.554533662000033],[121.73940137600005,16.552556590000055],[121.73841052300008,16.55213981400004],[121.73751870700005,16.551039237000055],[121.73535032400002,16.54979393000008],[121.73346890700009,16.548094022000043],[121.73174042000005,16.54470654200003],[121.73142656300001,16.542057867000043],[121.73134571400011,16.539958195000054],[121.7318250620001,16.539002741000047],[121.73390840200013,16.538741601000023],[121.739055633,16.540233105000027],[121.7425051250001,16.54089278400005],[121.74562702700008,16.54100284600003],[121.74732779783665,16.540948326291442],[121.74433748235947,16.537725808435212],[121.74262090403187,16.536206173467335],[121.7414953220001,16.537019135000037]]],[[[121.66540608000003,16.559583144000044],[121.6671821650001,16.565239870000028],[121.66744295700005,16.566904505000025],[121.66723878600011,16.568455837000045],[121.66890925000007,16.566367389000046],[121.67170392100002,16.565928915000026],[121.67378516800012,16.566033439000023],[121.67680334800002,16.567512929000035],[121.68010229300012,16.569450471000035],[121.68236010700002,16.571427012000072],[121.68277789900004,16.572616164000067],[121.68280129100003,16.576130118000037],[121.6834575790001,16.57704689800004],[121.68501749100007,16.57728491500006],[121.68678004600008,16.575561951000054],[121.68726156200012,16.574332936000076],[121.68842433000009,16.570324413000034],[121.6889166310001,16.56749826400005],[121.68879907500002,16.56389244600007],[121.68824556600008,16.561789817000033],[121.68702746600003,16.560002422000032],[121.6856634200001,16.558807310000077],[121.68457855800013,16.558298518000072],[121.68193154200004,16.557916740000053],[121.68103227900009,16.557956682000057],[121.67586301400003,16.55970361800007],[121.67406384900004,16.55987470300005],[121.671794685,16.559586463000073],[121.66990657900011,16.55893549100006],[121.66726650000011,16.55754968400004],[121.66612168008653,16.556560825046297],[121.66537912683195,16.559341490587048],[121.66540608000003,16.559583144000044]]],[[[121.70262933200001,16.540614425000054],[121.70412098200006,16.54395492000003],[121.70505102100005,16.546379370000068],[121.70650185300008,16.54876132700002],[121.7083697280001,16.55246927700005],[121.710931232,16.55860009100007],[121.71209976200011,16.560752109000077],[121.714115246,16.563639555000066],[121.71496293500002,16.56423800100003],[121.71642761500004,16.564566455000033],[121.71780277300002,16.56411860200006],[121.71728024100004,16.56353355400006],[121.71804965800006,16.56166728600004],[121.72034667100003,16.557756862000065],[121.72054283200009,16.556708438000047],[121.7196065280001,16.555196737000074],[121.71734818000004,16.553266214000075],[121.71425131700006,16.54936822900003],[121.7126108540001,16.547030781000046],[121.7118644840001,16.545428960000045],[121.70909133600004,16.54267380100003],[121.70758228400007,16.541934253000022],[121.70654944800003,16.540741420000067],[121.70532542700005,16.53982109600003],[121.70320018500001,16.539260311000078],[121.70145185600006,16.539831265000032],[121.70262933200001,16.540614425000054]]]]}},{"type":"Feature","properties":{"fid":78,"objectid":1913,"lccode":"05","liqcode":"2010600050000000","mappers":"PJDelosReyes, ACPidlaoan","project":"READY","province":"Quirino","otherinfo":null,"datemapped":2012,"publishdate":null,"globalid":"{5548E515-0D69-411E-AFAC-3EFB93B5478A}","st_area(shape)":0.009166036511488881,"st_perimeter(shape)":3.264649674446054,"liqcodepk":"201060005000000000111","creator":"SNOOPYPC","createdate":"2019-02-19T15:21:28","editor":"LENOVO","modifydate":"2019-03-10T17:50:55","codemove":"na"},"geometry":{"type":"Polygon","coordinates":[]}},{"type":"Feature","properties":{"fid":83,"objectid":1942,"lccode":"06","liqcode":"2010600060000000","mappers":"PJDelosReyes, ACPidlaoan","project":"READY","province":"Quirino","otherinfo":null,"datemapped":2012,"publishdate":null,"globalid":"{327A77F7-D973-4323-9F59-D9CF8F22F3EA}","st_area(shape)":0.002086493264296887,"st_perimeter(shape)":1.385825760489899,"liqcodepk":"201060006000000000142","creator":"SNOOPYPC","createdate":"2019-02-19T15:21:28","editor":"LENOVO","modifydate":"2019-03-10T17:50:55","codemove":"na"},"geometry":{"type":"Polygon","coordinates":[]}}]}