{"type":"FeatureCollection","features":[{"type":"Feature","properties":{"fid":32,"objectid":1878,"lccode":"07","liqcode":"2010600070000000","mappers":"PJDelosReyes, ACPidlaoan","project":"READY","province":"Iloilo","otherinfo":null,"datemapped":2010,"publishdate":null,"globalid":"{2F92972A-C07C-4633-B325-DF2A08960C6C}","st_area(shape)":0.031106077518548395,"st_perimeter(shape)":5.287074988133156,"liqcodepk":"201060007000000000071","creator":"SNOOPYPC","createdate":"2019-02-19T15:21:28","editor":"LENOVO","modifydate":"2019-03-10T17:50:55","codemove":"na"},"geometry":{"type":"Polygon","coordinates":[[[123.09880169900009,11.320864296000023],[123.09557048800002,11.320546544000022],[123.0912488,11.31998984800003],[123.08987568900012,11.320189550000066],[123.08769496500008,11.32098742100004],[123.08616020500007,11.320908124000024],[123.08579683700009,11.321506164000027],[123.08608012800005,11.32325983100003],[123.08579764400008,11.324216537000039],[123.08696892400009,11.324216194000032],[123.0883417760001,11.322860601000059],[123.08939199100007,11.323338597000031],[123.08995847400001,11.326606858000048],[123.09088778400009,11.327762478000066],[123.0907670270001,11.32919744900005],[123.09105033100003,11.330871452000052],[123.09076788100005,11.331907820000025],[123.09085335500005,11.333123193000063],[123.09137188000012,11.334699380000073],[123.09284035400002,11.336616146000038],[123.09443887800013,11.340066622000052],[123.0966846020001,11.342068291000032],[123.10009572000003,11.343345302000042],[123.10199569100006,11.344281924000029],[123.10316130800004,11.344068494000053],[123.10367987300005,11.345516807000022],[123.10337810600005,11.346752474000025],[123.10156551700004,11.348712911000062],[123.1006588250001,11.34858537100007],[123.09996816200011,11.349011655000025],[123.10048661700012,11.350161866000066],[123.10178179,11.349948397000048],[123.102385936,11.34913867700004],[123.10311980800009,11.348882810000077],[123.10523589400009,11.350245383000072],[123.10743934100005,11.354377228000033],[123.10817364000002,11.355229057000027],[123.10791477800001,11.355782961000045],[123.10497899400002,11.356167483000036],[123.104633819,11.356721505000051],[123.10502269300002,11.357658638000032],[123.10666379300005,11.358637907000055],[123.10666415800004,11.359617855000067],[123.1057150470001,11.36179102800003],[123.10493797500008,11.362004330000046],[123.10416105700006,11.362856703000036],[123.10403208900006,11.364220068000062],[123.10429135400011,11.364944223000068],[123.10411943400005,11.367074527000053],[123.1036451970001,11.368991912000071],[123.10304116700003,11.370227593000038],[123.10308476600007,11.371463136000045],[123.10438081000007,11.373379897000062],[123.106410632,11.374572052000076],[123.10580712200012,11.377213733000072],[123.10433915800002,11.377512545000059],[123.103691851,11.378663067000044],[123.10559264900007,11.381176004000055],[123.10675855500006,11.381346020000025],[123.10796728200012,11.380621333000018],[123.1090892840001,11.378831554000044],[123.11072970400006,11.377893581000018],[123.11228403400003,11.377552208000052],[123.11319046900009,11.376784938000071],[123.11254237000003,11.37563489200005],[123.11256354200009,11.37469761400007],[123.11321096500001,11.373951781000073],[123.11444182200012,11.374632965000043],[123.115715367,11.37414249300002],[123.11664335400008,11.373268782000025],[123.11707450300003,11.371713517000044],[123.11860667800009,11.370349586000033],[123.11977409010893,11.369516387884035],[123.12008769019707,11.368278874938785],[123.12074572454246,11.363889069886882],[123.12094691510238,11.35981343624996],[123.12065317100007,11.359697635000032],[123.11827784099998,11.358079667000027],[123.11672244600004,11.355523995000055],[123.11572859800003,11.353543332000074],[123.11441153200008,11.352883434000034],[123.11454049700001,11.35145613900005],[123.11322328400001,11.350583301000027],[123.11296395100011,11.349709964000054],[123.11309270299999,11.34792054500002],[123.11237941500009,11.345513623000043],[123.1133503540001,11.344341707000067],[123.11328484200011,11.34244575900004],[123.11274235400003,11.342241439000077],[123.11127937200001,11.342880370000042],[123.10869153600004,11.342284756000028],[123.10672731900003,11.341183513000033],[123.10551437300013,11.341155450000029],[123.10310676000007,11.338382402000036],[123.10182551700007,11.335741942000027],[123.10039053600006,11.333842501000051],[123.09927312600007,11.331619958000035],[123.09879167200006,11.331192635000034],[123.09907006800007,11.32897912000004],[123.10007064400008,11.32743983800003],[123.09940830200003,11.32650012500005],[123.10090737000009,11.325625868000031],[123.1022208874455,11.32306261466527],[123.10058515058158,11.321866241428065],[123.09886718004522,11.320850810939017],[123.09880169900009,11.320864296000023]]]}},{"type":"Feature","properties":{"fid":59,"objectid":1908,"lccode":"05","liqcode":"2010600050000000","mappers":"PJDelosReyes, ACPidlaoan","project":"READY","province":"Iloilo","otherinfo":null,"datemapped":2010,"publishdate":null,"globalid":"{282D04BA-68E2-41E5-9B8A-0D8D85396F2D}","st_area(shape)":0.06128738608791496,"st_perimeter(shape)":10.692281506054618,"liqcodepk":"201060005000000000103","creator":"SNOOPYPC","createdate":"2019-02-19T15:21:28","editor":"LENOVO","modifydate":"2019-03-10T17:50:55","codemove":"na"},"geometry":{"type":"MultiPolygon","coordinates":[[[[123.07302093600003,11.404044929000063],[123.07144680800002,11.40275623200006],[123.06981343500001,11.40240508100004],[123.06916027100009,11.402961847000027],[123.06815064600006,11.402932787000054],[123.066606298,11.402171373000044],[123.06562635500006,11.40202511700005],[123.06470556900003,11.40108787100007],[123.06363658600003,11.40126387600003],[123.0623891040001,11.399887174000071],[123.06102318300009,11.399887460000059],[123.05986533000008,11.401235374000066],[123.05995559494286,11.402079977931447],[123.06184588315443,11.402746836173419],[123.06620912677137,11.403824124520117],[123.07065840927746,11.404474213223489],[123.0734970740863,11.40461110136569],[123.07302093600003,11.404044929000063]]],[[[123.0919061420001,11.400699691000057],[123.09128183300005,11.398443966000057],[123.09193461400001,11.396861725000063],[123.09190466400003,11.396099966000063],[123.09071610800004,11.393551462000062],[123.09062651100008,11.392028043000037],[123.09089313500012,11.390006402000038],[123.09151649500008,11.389361621000035],[123.09193159300003,11.387457205000029],[123.09204940100005,11.384556659000054],[123.09136589800005,11.382623290000026],[123.09136552400003,11.381451386000037],[123.09020721600008,11.380660678000025],[123.0885444920001,11.380866251000043],[123.08774288700012,11.38139380700005],[123.08792191700002,11.384030606000067],[123.08720952100008,11.384909768000057],[123.08435895700006,11.384998486000029],[123.08210244400003,11.385526440000035],[123.080855315,11.385468195000042],[123.07892532800007,11.385790968000038],[123.07738155200002,11.38690469200003],[123.07696620000002,11.388223181000056],[123.07568954200008,11.388868101000071],[123.07485778000012,11.38754993300006],[123.07334354700004,11.388136221000025],[123.07316587600008,11.390011348000028],[123.07239438800002,11.392384642000026],[123.07286982500011,11.393615019000038],[123.07364185500012,11.393644122000067],[123.07557156000009,11.392032298000059],[123.07675925000001,11.391592470000033],[123.080115018,11.39288066000006],[123.08133290800005,11.394462454000063],[123.08160058500005,11.395897941000042],[123.08085866800003,11.397333707000028],[123.08115624200003,11.399706726000032],[123.0825228970001,11.401991561000044],[123.0832410362185,11.40394435479065],[123.08409213852761,11.403819548885432],[123.08845481300064,11.402740028517576],[123.09183063317776,11.40154714319252],[123.0919061420001,11.400699691000057]]],[[[123.07255137900007,11.317920111000037],[123.07311084700007,11.320248873000027],[123.07404254700009,11.321045406000051],[123.07444678900005,11.323251597000022],[123.07643468700006,11.32573315700006],[123.07655928300007,11.32738786600004],[123.07609370800002,11.32793953600003],[123.07429307800011,11.329073837000067],[123.07376539000005,11.329962598000066],[123.07444881700007,11.331096179000044],[123.0757531920001,11.331923263000022],[123.08873991900008,11.33188212400006],[123.0884676390001,11.33112170000004],[123.08674475100008,11.330093254000076],[123.08606431400007,11.328751287000046],[123.08538421100003,11.328259429000068],[123.08302686800005,11.327946893000048],[123.08243730100003,11.327186551000068],[123.0810770400001,11.326202727000064],[123.08148391200008,11.322265721000065],[123.08084918400004,11.321818506000055],[123.07939877000001,11.322624163000054],[123.07772143400007,11.32235624800006],[123.07695070500004,11.321953817000063],[123.07590772200001,11.320432983000044],[123.07563505200005,11.318017261000023],[123.07500016800009,11.316898950000052],[123.07359467800005,11.316049373000054],[123.07314114000009,11.315154707000032],[123.07337252447978,11.314338537672235],[123.07063625785703,11.314471870936531],[123.06926023700684,11.31467364676852],[123.07255137900007,11.317920111000037]],[[123.08034677700005,11.324904794000075],[123.07898103700008,11.326467948000072],[123.07842207600004,11.32649874900005],[123.07714879300012,11.325732971000035],[123.07742803500003,11.324691011000025],[123.07898039800013,11.324139050000042],[123.08031524900002,11.323219409000046],[123.08034677700005,11.324904794000075]]]]}},{"type":"Feature","properties":{"fid":73,"objectid":1937,"lccode":"06","liqcode":"2010600060000000","mappers":"PJDelosReyes, ACPidlaoan","project":"READY","province":"Iloilo","otherinfo":null,"datemapped":2010,"publishdate":null,"globalid":"{DBB85F45-4FB4-4F72-8BD3-A1308397A487}","st_area(shape)":0.017575391436836466,"st_perimeter(shape)":7.287100410898002,"liqcodepk":"201060006000000000136","creator":"SNOOPYPC","createdate":"2019-02-19T15:21:28","editor":"LENOVO","modifydate":"2019-03-10T17:50:55","codemove":"na"},"geometry":{"type":"MultiPolygon","coordinates":[[[[123.07314114000009,11.315154707000032],[123.07359467800005,11.316049373000054],[123.07500016800009,11.316898950000052],[123.07563505200005,11.318017261000023],[123.07590772200001,11.320432983000044],[123.07695070500004,11.321953817000063],[123.07772143400007,11.32235624800006],[123.07939877000001,11.322624163000054],[123.08084918400004,11.321818506000055],[123.08148391200008,11.322265721000065],[123.0810770400001,11.326202727000064],[123.08243730100003,11.327186551000068],[123.08302686800005,11.327946893000048],[123.08538421100003,11.328259429000068],[123.08606431400007,11.328751287000046],[123.08674475100008,11.330093254000076],[123.0884676390001,11.33112170000004],[123.08873991900008,11.33188212400006],[123.08797256800007,11.333269547000043],[123.08778146500002,11.334294944000023],[123.08862960500005,11.336102328000036],[123.08789163800009,11.336992895000039],[123.08761875300002,11.338719688000026],[123.088384818,11.340473207000057],[123.08838535700012,11.342226954000067],[123.08964316400011,11.34246943700003],[123.0912012770001,11.341713428000046],[123.09215833700011,11.342036917000033],[123.09265080400007,11.343115992000035],[123.09183124000005,11.345031842000024],[123.09109375600009,11.347487280000053],[123.09103959600009,11.348998180000024],[123.09131313900001,11.349375861000055],[123.0934731000001,11.349402129000053],[123.09541400300009,11.348376259000077],[123.09806577300003,11.347485045000044],[123.10175582600004,11.344704801000036],[123.10199569100006,11.344281924000029],[123.10009572000003,11.343345302000042],[123.0966846020001,11.342068291000032],[123.09443887800013,11.340066622000052],[123.09284035400002,11.336616146000038],[123.09137188000012,11.334699380000073],[123.09085335500005,11.333123193000063],[123.09076788100005,11.331907820000025],[123.09105033100003,11.330871452000052],[123.0907670270001,11.32919744900005],[123.09088778400009,11.327762478000066],[123.08995847400001,11.326606858000048],[123.08939199100007,11.323338597000031],[123.0883417760001,11.322860601000059],[123.08696892400009,11.324216194000032],[123.08579764400008,11.324216537000039],[123.08608012800005,11.32325983100003],[123.08579683700009,11.321506164000027],[123.08616020500007,11.320908124000024],[123.08769496500008,11.32098742100004],[123.08987568900012,11.320189550000066],[123.0912488,11.31998984800003],[123.09041334400003,11.319489460000055],[123.08746684500011,11.319535103000018],[123.08352242600007,11.317478327000059],[123.08155441082219,11.31475249970675],[123.0796182316241,11.31446959052207],[123.07512718822504,11.31425302274311],[123.07337252447978,11.314338537672235],[123.07314114000009,11.315154707000032]]],[[[123.11650622100001,11.378208988000042],[123.11519355900009,11.377885719000062],[123.11483739100004,11.376105172000049],[123.11593058500013,11.374809691000051],[123.11664335400008,11.373268782000025],[123.115715367,11.37414249300002],[123.11444182200012,11.374632965000043],[123.11321096500001,11.373951781000073],[123.11256354200009,11.37469761400007],[123.11254237000003,11.37563489200005],[123.11319046900009,11.376784938000071],[123.11228403400003,11.377552208000052],[123.11072970400006,11.377893581000018],[123.1090892840001,11.378831554000044],[123.10796728200012,11.380621333000018],[123.10675855500006,11.381346020000025],[123.10559264900007,11.381176004000055],[123.103691851,11.378663067000044],[123.10433915800002,11.377512545000059],[123.10580712200012,11.377213733000072],[123.106410632,11.374572052000076],[123.10438081000007,11.373379897000062],[123.10308476600007,11.371463136000045],[123.10304116700003,11.370227593000038],[123.1036451970001,11.368991912000071],[123.10411943400005,11.367074527000053],[123.10429135400011,11.364944223000068],[123.10403208900006,11.364220068000062],[123.10416105700006,11.362856703000036],[123.10493797500008,11.362004330000046],[123.1057150470001,11.36179102800003],[123.10666415800004,11.359617855000067],[123.10666379300005,11.358637907000055],[123.10502269300002,11.357658638000032],[123.104633819,11.356721505000051],[123.10497899400002,11.356167483000036],[123.10791477800001,11.355782961000045],[123.10817364000002,11.355229057000027],[123.10743934100005,11.354377228000033],[123.10523589400009,11.350245383000072],[123.10311980800009,11.348882810000077],[123.102385936,11.34913867700004],[123.10178179,11.349948397000048],[123.10048661700012,11.350161866000066],[123.09996816200011,11.349011655000025],[123.09650961100012,11.354311657000041],[123.09582625200007,11.354716500000055],[123.09309195800006,11.35444756900006],[123.0923539470001,11.355068429000028],[123.09249102900002,11.35644436500007],[123.09358498600012,11.357172517000038],[123.09683865500007,11.356982583000047],[123.09815120000006,11.357521763000022],[123.10044787200002,11.357143223000037],[123.10118626900011,11.357655640000077],[123.10167897800011,11.359247277000067],[123.1028555490001,11.361594115000056],[123.10337576000006,11.363536560000053],[123.10326706100011,11.36537126500002],[123.10165427700008,11.366747804000058],[123.10121756800005,11.36882548400007],[123.10266746600007,11.370956400000068],[123.1032969580001,11.372628998000037],[123.1032974640001,11.37403192000005],[123.10272380900007,11.375489112000023],[123.1028065580001,11.377566521000059],[123.10258809900006,11.378322037000034],[123.10286192700006,11.379374223000072],[123.1028626540001,11.381397680000077],[123.1033282100001,11.38342106500005],[123.10475047800003,11.384364884000036],[123.10614490600005,11.383986619000039],[123.1077582710001,11.38395908800004],[123.10797726000011,11.384633524000035],[123.106719741,11.38549738100005],[123.10666532100005,11.386306729000069],[123.1072949930001,11.388303102000066],[123.10849850900001,11.389112079000029],[123.10960610692327,11.389201469334273],[123.11057367779814,11.388147357646456],[123.11124772347122,11.38724991699476],[123.11123229800012,11.387195380000037],[123.1116415910001,11.385090844000047],[123.11259795800004,11.383228780000024],[123.11366395800007,11.382068222000042],[123.11498648973699,11.381723341473533],[123.11556209556471,11.380774933918131],[123.11668153830942,11.378437152792705],[123.11650622100001,11.378208988000042]]]]}}]}