{"type":"FeatureCollection","features":[{"type":"Feature","properties":{"fid":21,"objectid":1867,"lccode":"07","liqcode":"2010600070000000","mappers":"DJLBuhay","project":"Negros Occidental Multi-Hazard Mapping","province":"Negros Occidental","otherinfo":null,"datemapped":2018,"publishdate":null,"globalid":"{BDFFB75F-E1DC-47A8-B9CF-113E0CE8D2E7}","st_area(shape)":0.051419613090430895,"st_perimeter(shape)":11.901738684521376,"liqcodepk":"201060007000000000059","creator":"SNOOPYPC","createdate":"2019-02-19T15:21:28","editor":"LENOVO","modifydate":"2019-03-10T17:50:55","codemove":"na"},"geometry":{"type":"Polygon","coordinates":[]}},{"type":"Feature","properties":{"fid":32,"objectid":1878,"lccode":"07","liqcode":"2010600070000000","mappers":"PJDelosReyes, ACPidlaoan","project":"READY","province":"Iloilo","otherinfo":null,"datemapped":2010,"publishdate":null,"globalid":"{2F92972A-C07C-4633-B325-DF2A08960C6C}","st_area(shape)":0.031106077518548395,"st_perimeter(shape)":5.287074988133156,"liqcodepk":"201060007000000000071","creator":"SNOOPYPC","createdate":"2019-02-19T15:21:28","editor":"LENOVO","modifydate":"2019-03-10T17:50:55","codemove":"na"},"geometry":{"type":"Polygon","coordinates":[]}},{"type":"Feature","properties":{"fid":46,"objectid":1895,"lccode":"05","liqcode":"2010600050000000","mappers":"DJLBuhay","project":"Negros Occidental Multi-Hazard Mapping","province":"Negros Occidental","otherinfo":null,"datemapped":2018,"publishdate":null,"globalid":"{149718D2-4D93-4457-9604-37CB70EA27A9}","st_area(shape)":0.01745435689673941,"st_perimeter(shape)":6.697527242466418,"liqcodepk":"201060005000000000089","creator":"SNOOPYPC","createdate":"2019-02-19T15:21:28","editor":"LENOVO","modifydate":"2019-03-10T17:50:55","codemove":"na"},"geometry":{"type":"Polygon","coordinates":[]}},{"type":"Feature","properties":{"fid":59,"objectid":1908,"lccode":"05","liqcode":"2010600050000000","mappers":"PJDelosReyes, ACPidlaoan","project":"READY","province":"Iloilo","otherinfo":null,"datemapped":2010,"publishdate":null,"globalid":"{282D04BA-68E2-41E5-9B8A-0D8D85396F2D}","st_area(shape)":0.06128738608791496,"st_perimeter(shape)":10.692281506054618,"liqcodepk":"201060005000000000103","creator":"SNOOPYPC","createdate":"2019-02-19T15:21:28","editor":"LENOVO","modifydate":"2019-03-10T17:50:55","codemove":"na"},"geometry":{"type":"MultiPolygon","coordinates":[[[[122.42732219800007,10.790370426000035],[122.42688289900002,10.792249566000066],[122.42810595800007,10.79487600400006],[122.42905035600008,10.79820681600006],[122.42912608000006,10.80004775700007],[122.42888374100006,10.802514792000066],[122.4289602790001,10.803964047000022],[122.42974734200004,10.80674627700006],[122.4298430947207,10.80690183883637],[122.4299518131995,10.806186433104305],[122.43018040834541,10.801754665050538],[122.42996853138177,10.797322083873937],[122.42931824211564,10.792931377852476],[122.42823582195525,10.788624830148674],[122.42817206202727,10.78844760129014],[122.42732219800007,10.790370426000035]]],[[[122.39225554900008,10.757190434000051],[122.39107529100012,10.761197832000052],[122.39056072500011,10.76501855600003],[122.39096913000004,10.766742338000027],[122.38960272400004,10.768775836000032],[122.38937713900009,10.77068625700002],[122.39035561300011,10.77250510500005],[122.3902540260001,10.775762798000075],[122.391012025,10.776923339000065],[122.39237249300002,10.777865801000077],[122.39347633600005,10.780374043000048],[122.39360141600002,10.781188761000069],[122.39271222500008,10.782252127000051],[122.39213891600004,10.783723346000041],[122.39093260400013,10.784911310000039],[122.38991344700003,10.787540697000052],[122.38962257800007,10.790359493000038],[122.38752849800005,10.791827698000075],[122.38625749400002,10.793610724000075],[122.38562307300003,10.793985326000042],[122.38511403000007,10.795018137000055],[122.38447495000003,10.797679539000058],[122.38326700500009,10.799587993000046],[122.38215742600006,10.799899071000027],[122.38167991200011,10.80099450500006],[122.38180246600005,10.803030926000076],[122.38062874100002,10.803717730000074],[122.38122753100002,10.805285211000069],[122.382872903,10.806416264000063],[122.38394993100007,10.80654373000004],[122.38553494300002,10.80617093400002],[122.38546903300005,10.807423883000066],[122.38496085800011,10.808018083000038],[122.38518000700005,10.809302884000031],[122.38628727600009,10.810182215000054],[122.38730070400004,10.810434770000025],[122.3885372960001,10.809998700000047],[122.38933111300004,10.809185799000034],[122.39012731900006,10.807151193000037],[122.39016052900003,10.806430730000042],[122.38946670100007,10.80480041800007],[122.38867606500003,10.804047042000034],[122.38842465200001,10.803044098000045],[122.38887021200003,10.802073906000032],[122.39048927600003,10.800510817000031],[122.39122020800004,10.799447151000038],[122.3937906000001,10.797478678000061],[122.39512299600005,10.796666814000046],[122.39816773000007,10.795137750000036],[122.39915510500009,10.792539647000067],[122.39915678500007,10.791693803000042],[122.39843169400001,10.789844187000028],[122.39716707700008,10.788494699000069],[122.39726423400009,10.787429779000036],[122.39780421500006,10.78674167400004],[122.39790348800011,10.78461174000006],[122.39752634200012,10.783107287000066],[122.3974655290001,10.781791515000066],[122.39677309500007,10.779503348000047],[122.3969980820001,10.777874838000058],[122.39655726800004,10.776495667000061],[122.39662824600009,10.77270535500003],[122.39647309200005,10.771044730000028],[122.39704677700001,10.769322955000064],[122.399362773,10.76769850000005],[122.40056973800006,10.766165829000045],[122.40051078200008,10.763941551000073],[122.39909084300007,10.76105685700003],[122.39849009500007,10.760429104000025],[122.39789209800007,10.758454416000061],[122.39789328500675,10.75845292561488],[122.39780657949024,10.758422059070675],[122.39345551786386,10.757335357740946],[122.39227799841692,10.757160288192273],[122.39225554900008,10.757190434000051]]]]}},{"type":"Feature","properties":{"fid":61,"objectid":1925,"lccode":"06","liqcode":"2010600060000000","mappers":"DJLBuhay","project":"Negros Occidental Multi-Hazard Mapping","province":"Negros Occidental","otherinfo":null,"datemapped":2018,"publishdate":null,"globalid":"{E5539A65-5F4C-46A4-8778-850E85BFF908}","st_area(shape)":0.021565408471292534,"st_perimeter(shape)":8.733756823540528,"liqcodepk":"201060006000000000123","creator":"SNOOPYPC","createdate":"2019-02-19T15:21:28","editor":"LENOVO","modifydate":"2019-03-10T17:50:55","codemove":"na"},"geometry":{"type":"Polygon","coordinates":[]}},{"type":"Feature","properties":{"fid":73,"objectid":1937,"lccode":"06","liqcode":"2010600060000000","mappers":"PJDelosReyes, ACPidlaoan","project":"READY","province":"Iloilo","otherinfo":null,"datemapped":2010,"publishdate":null,"globalid":"{DBB85F45-4FB4-4F72-8BD3-A1308397A487}","st_area(shape)":0.017575391436836466,"st_perimeter(shape)":7.287100410898002,"liqcodepk":"201060006000000000136","creator":"SNOOPYPC","createdate":"2019-02-19T15:21:28","editor":"LENOVO","modifydate":"2019-03-10T17:50:55","codemove":"na"},"geometry":{"type":"Polygon","coordinates":[]}}]}