{"type":"FeatureCollection","features":[{"type":"Feature","properties":{"fid":189,"objectid":10018,"lccode":"02","liqcode":null,"mappers":"OPCHalasan, KSSochayseng, AATMagnaye, RPADizon, MJVReyes, HALVidal, MITAbigania, DJLBuhay","project":"ACER-DeLTA Liquefaction","province":"South Cotabato","otherinfo":"General Santos merged with the rest of South Cotabato","datemapped":2025,"publishdate":2025,"globalid":"{5C1DBB9D-146F-4CBC-A9A0-7B9670F2F55D}","st_area(shape)":0.0277513408469407,"st_perimeter(shape)":12.12541707282386,"liqcodepk":null,"creator":null,"createdate":null,"editor":"DJLB","modifydate":"2025-07-07T08:00:00","codemove":null},"geometry":{"type":"Polygon","coordinates":[]}},{"type":"Feature","properties":{"fid":210,"objectid":10019,"lccode":"03","liqcode":null,"mappers":"OPCHalasan, KSSochayseng, AATMagnaye, RPADizon, MJVReyes, HALVidal, MITAbigania, DJLBuhay","project":"ACER-DeLTA Liquefaction","province":"South Cotabato","otherinfo":"General Santos merged with the rest of South Cotabato","datemapped":2025,"publishdate":2025,"globalid":"{A08B4111-30CD-46F1-8E61-734C7ABFBD03}","st_area(shape)":0.027808614318137116,"st_perimeter(shape)":9.22104192901392,"liqcodepk":null,"creator":null,"createdate":null,"editor":"DJLB","modifydate":"2025-07-07T08:00:00","codemove":null},"geometry":{"type":"Polygon","coordinates":[]}},{"type":"Feature","properties":{"fid":211,"objectid":10020,"lccode":"04","liqcode":null,"mappers":"OPCHalasan, KSSochayseng, AATMagnaye, RPADizon, MJVReyes, HALVidal, MITAbigania, DJLBuhay","project":"ACER-DeLTA Liquefaction","province":"South Cotabato","otherinfo":"General Santos merged with the rest of South Cotabato","datemapped":2025,"publishdate":2025,"globalid":"{10411778-8217-49CD-9A6B-AC131A16B836}","st_area(shape)":0.0318710172763168,"st_perimeter(shape)":5.428132055188376,"liqcodepk":null,"creator":null,"createdate":null,"editor":"DJLB","modifydate":"2025-07-07T08:00:00","codemove":null},"geometry":{"type":"Polygon","coordinates":[]}},{"type":"Feature","properties":{"fid":212,"objectid":10021,"lccode":"04","liqcode":null,"mappers":"OPCHalasan, KSSochayseng, AATMagnaye, RPADizon, MJVReyes, HALVidal, MITAbigania, DJLBuhay","project":"ACER-DeLTA Liquefaction","province":"Sarangani","otherinfo":null,"datemapped":2025,"publishdate":2025,"globalid":"{4B0F16AF-9FC5-426E-BE2A-C2A0BDACB3B7}","st_area(shape)":0.00681203411406619,"st_perimeter(shape)":4.420543025412032,"liqcodepk":null,"creator":null,"createdate":null,"editor":"DJLB","modifydate":"2025-07-07T08:00:00","codemove":null},"geometry":{"type":"Polygon","coordinates":[[[125.27142595500004,6.271708845000035],[125.2721389940001,6.274224978000063],[125.27256681700011,6.27723723400004],[125.27452767500007,6.279328085000031],[125.27513375900003,6.280497539000066],[125.27491984700009,6.283190819000026],[125.27449202300011,6.284537454000031],[125.27288768500011,6.285600584000064],[125.27206769000009,6.286840900000072],[125.27199638600008,6.288081213000056],[125.27313724900011,6.288435587000038],[125.2744207190001,6.286451087000045],[125.27556158200004,6.282978192000028],[125.27587755500008,6.2804850600000455],[125.27538013000003,6.278093714000022],[125.27295780100009,6.274537585000076],[125.27219722500003,6.272779837000031],[125.27183378581796,6.27092640898832],[125.27123303834944,6.270484605004814],[125.27142595500004,6.271708845000035]]]}},{"type":"Feature","properties":{"fid":213,"objectid":10022,"lccode":"03","liqcode":null,"mappers":"OPCHalasan, KSSochayseng, AATMagnaye, RPADizon, MJVReyes, HALVidal, MITAbigania, DJLBuhay","project":"ACER-DeLTA Liquefaction","province":"Sarangani","otherinfo":null,"datemapped":2025,"publishdate":2025,"globalid":"{6B71C9FC-C348-4B94-AE03-7E47FA7930C0}","st_area(shape)":0.011541225204631354,"st_perimeter(shape)":8.576922001598057,"liqcodepk":null,"creator":null,"createdate":null,"editor":"DJLB","modifydate":"2025-07-07T08:00:00","codemove":null},"geometry":{"type":"Polygon","coordinates":[[[125.27219722500003,6.272779837000031],[125.27295780100009,6.274537585000076],[125.27538013000003,6.278093714000022],[125.27587755500008,6.2804850600000455],[125.27556158200004,6.282978192000028],[125.2744207190001,6.286451087000045],[125.27313724900011,6.288435587000038],[125.27199638600008,6.288081213000056],[125.27206769000009,6.286840900000072],[125.27288768500011,6.285600584000064],[125.27449202300011,6.284537454000031],[125.27491984700009,6.283190819000026],[125.27513375900003,6.280497539000066],[125.27452767500007,6.279328085000031],[125.27256681700011,6.27723723400004],[125.2721389940001,6.274224978000063],[125.27142595500004,6.271708845000035],[125.27123303834944,6.270484605004814],[125.27084461571027,6.270198948836224],[125.27074426100012,6.271828158000063],[125.27089867900008,6.274284051000051],[125.27214649700012,6.277030519000049],[125.27238417700006,6.278566174000046],[125.27425590500002,6.2823462260000715],[125.27401822400009,6.283793269000057],[125.27294866600006,6.284295305000057],[125.27122548800004,6.284620150000023],[125.2708440120001,6.28523794700004],[125.27090105500008,6.286825552000039],[125.27158557300002,6.2884698520000475],[125.27164261600001,6.290097579000076],[125.27201933900004,6.291797860000031],[125.27163905000009,6.293085411000049],[125.2704447100001,6.294083112000067],[125.27021653800011,6.29476350300007],[125.27027161100013,6.296521425000036],[125.26956982600007,6.299662062000039],[125.26947497700006,6.301624064000065],[125.26889041600009,6.304629093000074],[125.26990293200004,6.304827537000049],[125.27041115700001,6.302215850000039],[125.27032670800008,6.298984198000028],[125.27071752400003,6.297525019000032],[125.27212726300003,6.295125440000049],[125.2728215080001,6.292731777000028],[125.27362367700005,6.291963972000076],[125.27513888500006,6.292023034000066],[125.27548946200011,6.291585237000049],[125.27328481900008,6.2910831110000345],[125.27321962100007,6.2902740580000245],[125.27369498100005,6.288643938000063],[125.2744059700001,6.287325014000033],[125.27597314000003,6.285452935000022],[125.27640096400013,6.284555181000029],[125.2767053250001,6.2819068150000685],[125.27601130100004,6.2798372380000265],[125.27572749,6.27808172300007],[125.27428166800007,6.276142767000066],[125.27357648200007,6.273641860000056],[125.27289411700008,6.272421170000029],[125.27286157036814,6.271682262208062],[125.27183378581796,6.27092640898832],[125.27219722500003,6.272779837000031]]]}},{"type":"Feature","properties":{"fid":214,"objectid":10023,"lccode":"02","liqcode":null,"mappers":"OPCHalasan, KSSochayseng, AATMagnaye, RPADizon, MJVReyes, HALVidal, MITAbigania, DJLBuhay","project":"ACER-DeLTA Liquefaction","province":"Sarangani","otherinfo":null,"datemapped":2025,"publishdate":2025,"globalid":"{80FA53E4-996E-4B30-88CB-5CF3D52CBB3A}","st_area(shape)":0.00512214156560372,"st_perimeter(shape)":11.803879412251622,"liqcodepk":null,"creator":null,"createdate":null,"editor":"DJLB","modifydate":"2025-07-07T08:00:00","codemove":null},"geometry":{"type":"MultiPolygon","coordinates":[[[[125.27409013219737,6.283355479381805],[125.27425590500002,6.2823462260000715],[125.27238417700006,6.278566174000046],[125.27214649700012,6.277030519000049],[125.27089867900008,6.274284051000051],[125.27074426100012,6.271828158000063],[125.27059708500008,6.274293095000074],[125.27145328800007,6.276662938000073],[125.27121014500005,6.27836022200006],[125.2723802390001,6.280419379000024],[125.27399646100002,6.282214901000031],[125.27409013219737,6.283355479381805]]],[[[125.27409013219737,6.283355479381805],[125.27408677582244,6.283375913574697],[125.27409153300003,6.283372536000059],[125.27409013219737,6.283355479381805]]],[[[125.269219098,6.295255873000031],[125.26988460100004,6.296366230000046],[125.26920415400002,6.298257600000057],[125.26926832700008,6.2996396330000275],[125.26891893800007,6.301418551000039],[125.26887615600003,6.303098241000043],[125.26812033400006,6.304501523000056],[125.2682914630001,6.305869363000056],[125.26801337800009,6.307045846000052],[125.26727181800003,6.307882139000071],[125.26771390100008,6.309533459000023],[125.2671703740001,6.310423027000069],[125.26574595300008,6.310734515000036],[125.26475482900004,6.30997618600003],[125.26242319100005,6.30914698300006],[125.26124667600004,6.311301489000074],[125.26117189900003,6.313126743000055],[125.26246236700001,6.3134826540000395],[125.26322417100005,6.31438440200003],[125.2629389560001,6.316104211000039],[125.26214985900003,6.318268137000076],[125.26195876400006,6.319372776000023],[125.2603900790001,6.318734939000024],[125.25817965600004,6.319089293000047],[125.25529184800007,6.320152353000026],[125.25336664200007,6.320223223000026],[125.25033622600006,6.321179974000074],[125.24652146600009,6.321215410000035],[125.24359800600007,6.322384770000039],[125.24202931900004,6.322455640000045],[125.24060324100003,6.3222430300000365],[125.23821455900007,6.322384770000042],[125.23564761900002,6.323483257000021],[125.23372241300002,6.324688048000041],[125.23208242200008,6.326318054000068],[125.23072764800007,6.327133055000049],[125.22791114300003,6.329436311000051],[125.22643455900004,6.331414742000049],[125.22460442400006,6.332879366000044],[125.22374877800007,6.334840066000027],[125.22305950700002,6.336966118000019],[125.22165719500005,6.3403205380000704],[125.22151458800012,6.342092229000059],[125.22102471900008,6.3432006430000465],[125.2210842510001,6.344348382000019],[125.22072228076301,6.345386151996599],[125.22097283305568,6.345570405125299],[125.22256374660577,6.346515174020337],[125.22263168300005,6.345197591000043],[125.22397960600007,6.341752150000047],[125.2258860180001,6.338886899000045],[125.22643441100003,6.337433899000075],[125.22744023000008,6.335881457000027],[125.22794536900005,6.334577616000047],[125.2278859490001,6.3335263980000605],[125.22827812100002,6.33281771000003],[125.23054796200006,6.332168079000041],[125.23153433300001,6.330986929000062],[125.23334069900012,6.3297703420000735],[125.23408939000001,6.329498677000062],[125.2354441650001,6.326982811000049],[125.2354203970001,6.325955201000057],[125.23610966800005,6.325187445000039],[125.23721487900002,6.325222879000022],[125.23858153700007,6.324585050000052],[125.24132673800011,6.324348817000043],[125.24232499300001,6.323285767000071],[125.24318064000012,6.323073156000022],[125.24753017900001,6.323710987000025],[125.24892060600007,6.324195266000061],[125.25002581600008,6.324998458000039],[125.25198667400004,6.325482736000025],[125.25416144300006,6.324750414000051],[125.25656200800005,6.324419687000045],[125.25775040700012,6.325057516000071],[125.26043618800009,6.324632297000051],[125.26118963300006,6.322926691000021],[125.26282486900004,6.321603779000042],[125.26381361700011,6.321046265000063],[125.263480866,6.319146935000047],[125.26426045500013,6.318665013000043],[125.26434601900007,6.317635024000025],[125.26380411000001,6.316794022000067],[125.26388016700002,6.315782928000033],[125.26476433600011,6.31505531700003],[125.2653918100001,6.313259909000067],[125.26417489000005,6.31236220200003],[125.26456468500011,6.311407797000072],[125.2665707020001,6.31108651200003],[125.26802763800004,6.309951604000047],[125.26804189900007,6.308973570000035],[125.2687387310001,6.308743345000038],[125.26963925200005,6.307839617000069],[125.26996542300004,6.3056112670000735],[125.27052271800007,6.303824031000033],[125.27075743600007,6.300771823000047],[125.27060076900011,6.298949518000027],[125.27155684900004,6.2980601460000685],[125.2731745640001,6.29570409300004],[125.27298139900005,6.293319829000039],[125.27358035300004,6.292384289000039],[125.27453582500004,6.292200015000048],[125.27533442900005,6.292483513000037],[125.27593338200006,6.293319829000038],[125.27770171900009,6.29425536800005],[125.27869997400013,6.294411291000073],[125.27975527100013,6.29409944500003],[125.2814095230001,6.2923559390000605],[125.28255038500004,6.291859819000024],[125.28386277400011,6.29184737600002],[125.2841693800001,6.292839617000027],[125.28286927200008,6.295170431000031],[125.28301901100008,6.297333027000036],[125.28423593000004,6.2977204700000575],[125.28589053300006,6.29584666200003],[125.28693151800006,6.296047378000025],[125.2864562530001,6.299469790000045],[125.28701242400005,6.300447842000039],[125.28792511300003,6.301000653000073],[125.28939397400008,6.301326670000036],[125.28930841000012,6.302162972000076],[125.28791085300008,6.303268590000073],[125.28742598600003,6.307166583000026],[125.28792511400002,6.307974527000056],[125.28815328600002,6.309165179000046],[125.28773972400005,6.311234639000077],[125.28679851200002,6.31289303600005],[125.28863815300008,6.313686796000069],[125.29028329500011,6.313703648000057],[125.29066389290037,6.313619604370356],[125.29087989791923,6.312117105407284],[125.29096516966983,6.310209225913296],[125.29014979600004,6.3099589450000595],[125.28918006300013,6.308654900000021],[125.28889484700005,6.3065287310000695],[125.29052057600006,6.305890880000048],[125.29095155909702,6.305324274529434],[125.29084097937152,6.303257395266218],[125.29017132720402,6.298873056811692],[125.28976714481215,6.297288062432496],[125.28976475400007,6.297286886000052],[125.28815328600002,6.29731523500004],[125.28782528900003,6.296649022000052],[125.28835830200002,6.295705840000038],[125.28768768400005,6.295054532000051],[125.28635496500011,6.295116248000056],[125.28446410300012,6.296482543000024],[125.28415036600006,6.295802154000057],[125.28429297300012,6.294649271000026],[125.28492995500005,6.293619234000061],[125.285501575,6.291301879000058],[125.28304159000005,6.291118786000026],[125.28171058300006,6.291366847000063],[125.27976953300005,6.292951283000036],[125.27875701700007,6.29234176500006],[125.2783291930001,6.291491271000042],[125.27683181100008,6.29193069300004],[125.27551981900001,6.290810876000023],[125.27443600000001,6.290881751000028],[125.27388739900005,6.290212034000036],[125.27474304600003,6.288215727000022],[125.27487377000013,6.287270728000066],[125.2764305720001,6.286089476000028],[125.27726245100007,6.28442390600003],[125.27729085200008,6.282537388000038],[125.2777782160001,6.281548717000021],[125.27639107100003,6.280479348000027],[125.27607775800004,6.278688431000033],[125.27572749,6.27808172300007],[125.27601130100004,6.2798372380000265],[125.2767053250001,6.2819068150000685],[125.27640096400013,6.284555181000029],[125.27597314000003,6.285452935000022],[125.2744059700001,6.287325014000033],[125.27369498100005,6.288643938000063],[125.27321962100007,6.2902740580000245],[125.27328481900008,6.2910831110000345],[125.27548946200011,6.291585237000049],[125.27513888500006,6.292023034000066],[125.27362367700005,6.291963972000076],[125.2728215080001,6.292731777000028],[125.27212726300003,6.295125440000049],[125.27071752400003,6.297525019000032],[125.27032670800008,6.298984198000028],[125.27041115700001,6.302215850000039],[125.26990293200004,6.304827537000049],[125.26889041600009,6.304629093000074],[125.26947497700006,6.301624064000065],[125.26956982600007,6.299662062000039],[125.27027161100013,6.296521425000036],[125.27021653800011,6.29476350300007],[125.2704447100001,6.294083112000067],[125.27163905000009,6.293085411000049],[125.27201933900004,6.291797860000031],[125.27164261600001,6.290097579000076],[125.27158557300002,6.2884698520000475],[125.27090105500008,6.286825552000039],[125.2708440120001,6.28523794700004],[125.27122548800004,6.284620150000023],[125.27294866600006,6.284295305000057],[125.27401822400009,6.283793269000057],[125.27408677582244,6.283375913574697],[125.27309327800003,6.284081291000064],[125.2710492330001,6.284175793000031],[125.27045503300008,6.2848845460000575],[125.27031242500004,6.286632803000032],[125.27114430400003,6.288522803000035],[125.27133444800006,6.289444175000027],[125.27100169700009,6.290932543000053],[125.27173850300007,6.2923972820000245],[125.27157212800013,6.292940652000028],[125.26957561800009,6.292917027000042],[125.269219098,6.295255873000031]]]]}}]}