{"type":"FeatureCollection","features":[{"type":"Feature","properties":{"fid":14,"objectid":1846,"lccode":"01","liqcode":"2010600010000000","mappers":"DJLBuhay, MJVReyes, MITAbigania, KLPapiona, KMVitto","project":"MELP","province":"Mountain Province / Kalinga","otherinfo":null,"datemapped":2018,"publishdate":null,"globalid":"{0475B204-6BB7-426A-8C4E-9D28C5929B06}","st_area(shape)":0.0025172207798108185,"st_perimeter(shape)":2.1094157224812764,"liqcodepk":"201060001000000000018","creator":"SNOOPYPC","createdate":"2019-02-19T15:21:28","editor":"LENOVO","modifydate":"2019-03-10T17:53:06","codemove":"na"},"geometry":{"type":"MultiPolygon","coordinates":[[[[121.49564050600007,17.17878209300005],[121.49629310380412,17.17814730942032],[121.4963270555688,17.177573740768075],[121.4962683260878,17.176208726629078],[121.49539784200012,17.17803309700002],[121.49564050600007,17.17878209300005]]],[[[121.4329799190001,17.18567342600005],[121.43230654000001,17.18441294400003],[121.43082610800002,17.18299672800003],[121.4299217360001,17.18331841600008],[121.42931839800009,17.184808021000038],[121.42933937500005,17.186003640000024],[121.43057033900006,17.187507578000062],[121.43224592500009,17.187909183000045],[121.43229599200004,17.18934412100003],[121.4306120540001,17.18992870200003],[121.42998594600012,17.190431879000073],[121.42814983000005,17.19062672600006],[121.42620928900011,17.192135736000065],[121.42474320100007,17.19269208500003],[121.42435615500005,17.19433279600003],[121.42335082800003,17.195550245000046],[121.42238699600011,17.19554267700005],[121.42110411300007,17.196488956000053],[121.42278178400012,17.19665157000002],[121.42457824300004,17.197472600000026],[121.42707647500004,17.196207070000078],[121.42792328900009,17.195346996000072],[121.42903299200009,17.19281533900005],[121.42984793200003,17.192044665000022],[121.43136658600008,17.192624371000022],[121.43276871000012,17.192276678000038],[121.43355178500008,17.191595398000057],[121.4341525960001,17.19040462500004],[121.43407495500003,17.18855106100006],[121.43439266400004,17.187746603000043],[121.43393664700011,17.18651770500003],[121.4329799190001,17.18567342600005]]],[[[121.41505506800003,17.19482745700003],[121.41349744600006,17.195173794000024],[121.41239401600001,17.193312133000063],[121.41136981000011,17.193094832000043],[121.40956219300006,17.193588593000072],[121.40788841600012,17.192977611000064],[121.40549263700005,17.19316781100002],[121.40537308593511,17.193113619522446],[121.40575579329129,17.19416899721206],[121.40643607153396,17.195581434036335],[121.40665458300008,17.195448374000023],[121.40725377800004,17.194466886000043],[121.40849690400012,17.194536511000024],[121.4100478680001,17.194967200000068],[121.40966914100011,17.195621696000046],[121.40996187000007,17.197745929000057],[121.40908157000001,17.19887463000003],[121.4083191029333,17.199214400909227],[121.40913723852651,17.20055113429066],[121.410449093,17.19894523100004],[121.41244024400011,17.198811551000063],[121.41295177200006,17.197171856000068],[121.41460932400004,17.196049272000035],[121.41505506800003,17.19482745700003]]]]}},{"type":"Feature","properties":{"fid":33,"objectid":1879,"lccode":"07","liqcode":"2010600070000000","mappers":"PJDelosReyes, ACPidlaoan","project":"READY","province":"Isabela","otherinfo":null,"datemapped":2012,"publishdate":null,"globalid":"{91DB2F3C-1BB4-4146-BF15-299122E74073}","st_area(shape)":0.020995608528075003,"st_perimeter(shape)":7.369078683303569,"liqcodepk":"201060007000000000072","creator":"SNOOPYPC","createdate":"2019-02-19T15:21:28","editor":"LENOVO","modifydate":"2019-03-10T17:50:55","codemove":"na"},"geometry":{"type":"Polygon","coordinates":[]}},{"type":"Feature","properties":{"fid":60,"objectid":1909,"lccode":"05","liqcode":"2010600050000000","mappers":"PJDelosReyes, ACPidlaoan","project":"READY","province":"Isabela","otherinfo":null,"datemapped":2012,"publishdate":null,"globalid":"{CB433018-447B-4349-A32C-A82989A96D3F}","st_area(shape)":0.11608726533381088,"st_perimeter(shape)":15.125533415932647,"liqcodepk":"201060005000000000104","creator":"SNOOPYPC","createdate":"2019-02-19T15:21:28","editor":"LENOVO","modifydate":"2019-03-10T17:50:55","codemove":"na"},"geometry":{"type":"Polygon","coordinates":[]}}]}