{"type":"FeatureCollection","features":[{"type":"Feature","properties":{"fid":21,"objectid":1867,"lccode":"07","liqcode":"2010600070000000","mappers":"DJLBuhay","project":"Negros Occidental Multi-Hazard Mapping","province":"Negros Occidental","otherinfo":null,"datemapped":2018,"publishdate":null,"globalid":"{BDFFB75F-E1DC-47A8-B9CF-113E0CE8D2E7}","st_area(shape)":0.051419613090430895,"st_perimeter(shape)":11.901738684521376,"liqcodepk":"201060007000000000059","creator":"SNOOPYPC","createdate":"2019-02-19T15:21:28","editor":"LENOVO","modifydate":"2019-03-10T17:50:55","codemove":"na"},"geometry":{"type":"Polygon","coordinates":[]}},{"type":"Feature","properties":{"fid":32,"objectid":1878,"lccode":"07","liqcode":"2010600070000000","mappers":"PJDelosReyes, ACPidlaoan","project":"READY","province":"Iloilo","otherinfo":null,"datemapped":2010,"publishdate":null,"globalid":"{2F92972A-C07C-4633-B325-DF2A08960C6C}","st_area(shape)":0.031106077518548395,"st_perimeter(shape)":5.287074988133156,"liqcodepk":"201060007000000000071","creator":"SNOOPYPC","createdate":"2019-02-19T15:21:28","editor":"LENOVO","modifydate":"2019-03-10T17:50:55","codemove":"na"},"geometry":{"type":"Polygon","coordinates":[]}},{"type":"Feature","properties":{"fid":46,"objectid":1895,"lccode":"05","liqcode":"2010600050000000","mappers":"DJLBuhay","project":"Negros Occidental Multi-Hazard Mapping","province":"Negros Occidental","otherinfo":null,"datemapped":2018,"publishdate":null,"globalid":"{149718D2-4D93-4457-9604-37CB70EA27A9}","st_area(shape)":0.01745435689673941,"st_perimeter(shape)":6.697527242466418,"liqcodepk":"201060005000000000089","creator":"SNOOPYPC","createdate":"2019-02-19T15:21:28","editor":"LENOVO","modifydate":"2019-03-10T17:50:55","codemove":"na"},"geometry":{"type":"Polygon","coordinates":[]}},{"type":"Feature","properties":{"fid":59,"objectid":1908,"lccode":"05","liqcode":"2010600050000000","mappers":"PJDelosReyes, ACPidlaoan","project":"READY","province":"Iloilo","otherinfo":null,"datemapped":2010,"publishdate":null,"globalid":"{282D04BA-68E2-41E5-9B8A-0D8D85396F2D}","st_area(shape)":0.06128738608791496,"st_perimeter(shape)":10.692281506054618,"liqcodepk":"201060005000000000103","creator":"SNOOPYPC","createdate":"2019-02-19T15:21:28","editor":"LENOVO","modifydate":"2019-03-10T17:50:55","codemove":"na"},"geometry":{"type":"MultiPolygon","coordinates":[[[[122.5774809410001,10.933015043000069],[122.57860517800009,10.932710258000043],[122.57934014900002,10.933706956000037],[122.57941742502825,10.93408607561882],[122.58357482706023,10.93348246027678],[122.58793219374056,10.932410117480295],[122.59216218097616,10.930920808080192],[122.5962240360545,10.929028880408891],[122.60007862808799,10.92675256165583],[122.60368882536696,10.924113782061095],[122.60701985333783,10.921137963402149],[122.61003962974439,10.917853773823039],[122.61271907369559,10.91429285138078],[122.61503238567971,10.910489498985578],[122.61695729583063,10.906480353687066],[122.61847527806307,10.902304033505477],[122.61957172802832,10.898000765221699],[122.62023610319437,10.893611996722266],[122.62046202372383,10.889179997641897],[122.62024733320368,10.884747452156839],[122.61959411866914,10.880357047855142],[122.61850868975775,10.876051064645207],[122.61700151722306,10.871870967660769],[122.61508713142733,10.86785700807937],[122.61278398181653,10.864047835692636],[122.61011425875296,10.860480126951193],[122.60710367943979,10.857188232056222],[122.60378124001285,10.854203844484498],[122.60017893619617,10.851555696116906],[122.5963314552143,10.849269280892953],[122.59227584192674,10.847366609639247],[122.5909077596116,10.846880675370315],[122.59089088100008,10.846940846000052],[122.58883660800007,10.847589217000063],[122.58782389900011,10.851532474000065],[122.58712563100005,10.852220891000059],[122.58689166400005,10.853331191000054],[122.58789723400004,10.854558075000055],[122.58774101200004,10.855476973000066],[122.58665440900005,10.85677763600006],[122.58595681200006,10.85696820500004],[122.58455860500008,10.85941739100002],[122.58320252300008,10.859492141000032],[122.58250420300011,10.86014220900006],[122.58149643000002,10.860447268000028],[122.58056560400009,10.861135352000076],[122.57874411300007,10.86151578600004],[122.57707569700005,10.863236875000041],[122.57529164800006,10.86449828800005],[122.572347292,10.864379285000043],[122.57091439300005,10.863917691000038],[122.56990687100006,10.864031205000058],[122.56878176700002,10.865063656000068],[122.56680610100011,10.864869372000044],[122.56552629300005,10.865710086000036],[122.56552457600003,10.866897368000025],[122.56404930400002,10.868963330000042],[122.5636616590001,10.869115949000044],[122.56207389600003,10.868577510000021],[122.56094953200011,10.869073750000041],[122.56052136800008,10.870413590000055],[122.55881668400002,10.870372811000037],[122.55641329900006,10.871135285000038],[122.55637284000011,10.87232251000006],[122.55749500200011,10.873281567000047],[122.55881240700013,10.873283462000073],[122.56005298000002,10.872787307000063],[122.56264820400008,10.87328894600006],[122.56388804900007,10.87329070800007],[122.5656333610001,10.872067649000032],[122.56714543100009,10.871380433000068],[122.56838714000003,10.870080063000046],[122.57102401700003,10.868513547000077],[122.57176006800013,10.868629495000048],[122.57307612700004,10.869512093000026],[122.57288139700007,10.870201173000053],[122.57113552300008,10.871845534000041],[122.57074607000004,10.873262029000044],[122.57217915500009,10.873570365000033],[122.57342054700005,10.872538065000073],[122.57450547400003,10.87250132300005],[122.57741266200001,10.871586139000044],[122.57868980900002,10.872583673000062],[122.57938725400004,10.872584628000023],[122.58225663100006,10.871018333000052],[122.58508497600008,10.871060502000034],[122.58744746400009,10.87179128200006],[122.58899808700005,10.871180592000027],[122.58989119300008,10.869726496000055],[122.59276163300001,10.867317579000032],[122.5924146310001,10.86605333600005],[122.59330931200009,10.86341194200003],[122.59423996300008,10.862838741000076],[122.59493878100011,10.861805632000028],[122.59501827600002,10.860312108000073],[122.5947103090001,10.858856412000021],[122.59513727200012,10.85828254300003],[122.59633900100005,10.85774793900003],[122.5974233610001,10.858094036000068],[122.59773131400004,10.859626315000067],[122.59838754700003,10.861427231000048],[122.5993934190001,10.862539158000057],[122.60121382700004,10.862962785000034],[122.60097832600002,10.86526029400005],[122.5992344440001,10.865487871000028],[122.59783894000009,10.866022142000078],[122.59683023600007,10.867016603000026],[122.59566691700002,10.867742675000045],[122.5937286190001,10.86850605700005],[122.5936888780001,10.869272032000023],[122.59562517000008,10.870002186000022],[122.5988792060001,10.870427711000048],[122.59934350300013,10.870887916000072],[122.59926448500006,10.87203676400003],[122.60058166200008,10.872153311000032],[122.603956089,10.869476850000067],[122.60566068300012,10.869593964000044],[122.6066285060001,10.870246221000059],[122.60635571300008,10.87143316200007],[122.60550143600005,10.872849020000046],[122.6041439810001,10.87391964200003],[122.60352381400004,10.874072012000054],[122.60332844200002,10.875297296000042],[122.60386925400007,10.876561778000053],[122.60270489900005,10.878053902000035],[122.6025086070001,10.879968538000073],[122.6008811370001,10.880081258000075],[122.59960109700013,10.881113621000054],[122.59812867600012,10.881111697000053],[122.59684771900004,10.882871736000029],[122.5945982830001,10.884438985000031],[122.59479020800008,10.885741358000075],[122.59397409700011,10.887540243000046],[122.59133648200009,10.88960479700006],[122.5907543280001,10.89029337200003],[122.58974404800006,10.892360077000031],[122.58823144500002,10.893392077000046],[122.58799786600004,10.894196036000041],[122.58609782000006,10.895150829000043],[122.58555389600006,10.896222458000064],[122.584972246,10.89652810000007],[122.5837331,10.895951901000046],[122.58253603000001,10.892963118000068],[122.58137471600003,10.892157262000069],[122.57982327000003,10.893265751000058],[122.57877665300009,10.893532407000068],[122.5775759710001,10.893147833000056],[122.57652921100008,10.893567649000031],[122.57598529000006,10.894562585000074],[122.5762548130001,10.895788489000036],[122.5758274330001,10.896592170000076],[122.57478027900004,10.897280069000029],[122.57416054100008,10.897087703000066],[122.57396859200003,10.895861906000052],[122.573465896,10.895133520000057],[122.57187879800006,10.894020699000064],[122.57032789300001,10.894669633000035],[122.5690877940001,10.89478272400004],[122.56827200200009,10.896236950000059],[122.56757428100003,10.89638913600004],[122.5647857140001,10.895504336000045],[122.56373734900001,10.896958128000053],[122.56574928500004,10.899029031000055],[122.56675576200007,10.899719804000028],[122.56617342200003,10.900484914000058],[122.56384793500001,10.900864626000043],[122.5623758150001,10.900594437000054],[122.56074963000005,10.89974959400007],[122.56001319000006,10.899901706000037],[122.55729795600007,10.901774336000074],[122.5569091310001,10.902692965000028],[122.55710091800006,10.904033601000037],[122.55632380700003,10.905449510000038],[122.555237282,10.906481956000048],[122.55519684600006,10.907592503000044],[122.55589289300009,10.90858919800007],[122.55790728200009,10.909013370000022],[122.55934183700003,10.90847934800007],[122.56019399700007,10.908671988000037],[122.56189936700002,10.908444679000068],[122.56402924400003,10.909366819000068],[122.56495708600005,10.910861757000022],[122.56634798800008,10.913736045000062],[122.56917551400011,10.914620891000025],[122.5695611760001,10.915885209000065],[122.56858994300002,10.917607213000053],[122.56603109100001,10.918446112000025],[122.56587498400006,10.919211823000072],[122.56757758500011,10.920937604000072],[122.56734392700002,10.921741543000055],[122.56474571000003,10.923001632000023],[122.56416342900002,10.923690151000073],[122.56384983600003,10.92610242100005],[122.56214270100008,10.927517014000045],[122.56074750100004,10.927553350000037],[122.5591186910001,10.928393522000023],[122.55741127400006,10.929922917000056],[122.55683934562019,10.930730521444822],[122.55714107861128,10.930872087084971],[122.56136678874473,10.932373154973357],[122.56572106981793,10.933457616541585],[122.57016197083641,10.934115022657117],[122.57464670498389,10.934339038636875],[122.5769012607405,10.934232720162095],[122.5774809410001,10.933015043000069]]],[[[122.58597099200007,10.846666180000057],[122.58678408500009,10.847011948000045],[122.58748184000001,10.846744882000053],[122.58823853441042,10.845932561503677],[122.58805114239209,10.845865998419933],[122.58557074651048,10.84524828538728],[122.58597099200007,10.846666180000057]]]]}},{"type":"Feature","properties":{"fid":61,"objectid":1925,"lccode":"06","liqcode":"2010600060000000","mappers":"DJLBuhay","project":"Negros Occidental Multi-Hazard Mapping","province":"Negros Occidental","otherinfo":null,"datemapped":2018,"publishdate":null,"globalid":"{E5539A65-5F4C-46A4-8778-850E85BFF908}","st_area(shape)":0.021565408471292534,"st_perimeter(shape)":8.733756823540528,"liqcodepk":"201060006000000000123","creator":"SNOOPYPC","createdate":"2019-02-19T15:21:28","editor":"LENOVO","modifydate":"2019-03-10T17:50:55","codemove":"na"},"geometry":{"type":"Polygon","coordinates":[]}},{"type":"Feature","properties":{"fid":73,"objectid":1937,"lccode":"06","liqcode":"2010600060000000","mappers":"PJDelosReyes, ACPidlaoan","project":"READY","province":"Iloilo","otherinfo":null,"datemapped":2010,"publishdate":null,"globalid":"{DBB85F45-4FB4-4F72-8BD3-A1308397A487}","st_area(shape)":0.017575391436836466,"st_perimeter(shape)":7.287100410898002,"liqcodepk":"201060006000000000136","creator":"SNOOPYPC","createdate":"2019-02-19T15:21:28","editor":"LENOVO","modifydate":"2019-03-10T17:50:55","codemove":"na"},"geometry":{"type":"Polygon","coordinates":[]}}]}