{"type":"FeatureCollection","features":[{"type":"Feature","properties":{"fid":101,"objectid":1958,"lccode":"01","liqcode":"2010600010000000","mappers":"DJLBuhay, MJVReyes, MITAbigania, KLPapiona, KMVitto","project":"MELP","province":"Bukidnon","otherinfo":null,"datemapped":2018,"publishdate":null,"globalid":"{A5D2276A-AD83-4D6E-864E-FDB93B8103F6}","st_area(shape)":0.03131405547495108,"st_perimeter(shape)":7.842158519871042,"liqcodepk":"201060001000000001354","creator":"SDE","createdate":"2019-06-04T14:00:05","editor":"SDE","modifydate":"2019-06-04T14:01:32","codemove":"na"},"geometry":{"type":"Polygon","coordinates":[[[125.11113786400007,7.939057060000038],[125.116367523,7.939030612000066],[125.1198748270001,7.939969517000064],[125.12218267800007,7.9409144830000296],[125.12401075200013,7.941861871000069],[125.12607849200005,7.943402117000061],[125.12714650700002,7.945194282000046],[125.12790215900007,7.948015728000028],[125.12820412200004,7.949882578000028],[125.13123093900002,7.9535288570000375],[125.13360030200012,7.954984225000033],[125.13440242700005,7.956573022000043],[125.13541848700005,7.957243862000039],[125.13876225700005,7.962502124000022],[125.14032720600005,7.964503090000049],[125.14061865000009,7.965190392000068],[125.1401493850001,7.9676390680000395],[125.14034887200012,7.968693177000033],[125.1412294050001,7.97005989400003],[125.14089067100008,7.97173686700006],[125.1408728040001,7.973396188000036],[125.14203141400002,7.976273534000027],[125.14324354400004,7.977473912000052],[125.14586390700003,7.979203883000026],[125.14675517500007,7.980267182000034],[125.145436011,7.9821694090000515],[125.14461603200006,7.981675133000065],[125.1430117020001,7.981639790000029],[125.14151429500009,7.982945995000023],[125.14140729000007,7.984887697000034],[125.14058728799999,7.985311320000052],[125.13794905500005,7.985346557000071],[125.13705773600009,7.986335035000027],[125.13777072800008,7.988029618000042],[125.13755678300002,7.989371139000069],[125.13673678800001,7.989547634000077],[125.1359524610001,7.989053369000032],[125.13484728900004,7.987747117000024],[125.13324298200007,7.9868291880000575],[125.13099691800006,7.986864435000032],[125.12739606700008,7.987605717000065],[125.1260769490001,7.9876762910000725],[125.12547084000005,7.988823635000074],[125.12359907400001,7.990694658000053],[125.12315339400004,7.991983210000056],[125.12308205800004,7.993289418000075],[125.12258292900003,7.993430617000058],[125.12158469400003,7.9927951390000676],[125.11930299300003,7.992265538000023],[125.1169856260001,7.992336086000022],[125.11374134300002,7.9911357010000765],[125.11213701300005,7.99110035700005],[125.10960572000009,7.991700446000038],[125.107894439,7.99148858500007],[125.10643273200002,7.990853093000054],[125.1061831610001,7.991241420000052],[125.1087857120001,7.992406486000047],[125.11156655700007,7.992194738000024],[125.11381259200004,7.9932891860000295],[125.11424039500004,7.994030557000032],[125.11395516200002,7.994736607000049],[125.11292124700002,7.995266121000044],[125.11238645200002,7.995972163000036],[125.11220813400008,7.9983374310000395],[125.11153069800002,8.000384953000038],[125.11167328500004,8.001161607000025],[125.1131706540001,8.001444061000027],[125.11563063500012,8.00116170500007],[125.11727058300005,8.002538531000027],[125.1200157610001,8.002926923000077],[125.12129920300005,8.003774204000026],[125.12265399900002,8.002679875000068],[125.12372354000001,8.00320943200006],[125.12472179900011,8.002821135000032],[125.12493575000009,8.001267845000028],[125.12575576300004,8.000385309000022],[125.12668270500001,8.000526541000056],[125.1274670790001,7.999185072000047],[125.1276453900001,7.997137532000067],[125.12864365500003,7.9965374130000555],[125.13106797000012,7.996819894000055],[125.13270796000008,7.996502212000055],[125.13395577200002,7.996502244000056],[125.1346331750001,7.995796206000024],[125.13531055700004,7.99586682900002],[125.13613053000007,7.9966082050000304],[125.13884004500007,7.997455536000074],[125.13987392800004,7.9981969140000615],[125.13969565400009,7.998779400000047],[125.13846562900004,8.00026206900003],[125.13839426500012,8.002662617000055],[125.13878639300003,8.004357124000023],[125.13992718600002,8.006934188000061],[125.14096105000012,8.008363932000067],[125.14147796800013,8.009723054000064],[125.14285054100003,8.010535022000056],[125.14297527200006,8.01252954900002],[125.14324263900005,8.013376786000036],[125.14397348400009,8.014029875000062],[125.14390340300616,8.015583377004647],[125.14589890757135,8.015475244614544],[125.15029698202231,8.01480150486703],[125.15460759428412,8.013701272794883],[125.15878922018959,8.012185150862662],[125.16280157996599,8.010267747497544],[125.16660602647788,8.007967536116642],[125.17016591764865,8.005306676915463],[125.1727140905043,8.002979987795996],[125.17284093600006,8.002451682000071],[125.17237272400008,8.001019167000036],[125.17236415200011,7.999392914000053],[125.17170734000001,7.998592770000072],[125.17162623200011,7.997770480000042],[125.17237155000011,7.99715432500005],[125.17323454500001,7.997015875000047],[125.17388126800006,7.995902780000052],[125.17472183900009,7.9951521920000355],[125.17595111400011,7.995317946000058],[125.17568210200011,7.996814829000071],[125.17502197700001,7.997205731000067],[125.17401387200005,7.997124915000029],[125.17364232500007,7.997643450000053],[125.17337986500002,7.99973987800007],[125.17407771900002,8.001042041000062],[125.1745700285174,8.001062458794982],[125.17641758616315,7.999008773952415],[125.1790491644075,7.9954323961638805],[125.18131636855168,7.991616117722636],[125.18319737432434,7.987596695721816],[125.18467407861426,7.983412842250952],[125.18573227334704,7.97910485146851],[125.18636178179727,7.974714211496785],[125.18655655604447,7.970283204878494],[125.1863147346549,7.965854501442361],[125.18563866005637,7.961470747495557],[125.18453485545905,7.957174155294177],[125.18301396156552,7.953006096738231],[125.18109063369644,7.949006705195212],[125.17878340033818,7.945214489276839],[125.17611448448578,7.941665962277389],[125.17496139892697,7.940410899210705],[125.17250024900012,7.940337168000041],[125.17178232200001,7.940670943000043],[125.17137250200005,7.942122396000058],[125.17036940900006,7.942974243000039],[125.1686265620001,7.9427393500000685],[125.16812047700012,7.942297134000058],[125.16817145700008,7.941034092000052],[125.16777703500009,7.9399235640000265],[125.16817356400009,7.938680720000039],[125.16680585200002,7.93861606400003],[125.1644800480001,7.936992241000042],[125.16329892400006,7.936826157000042],[125.1632922010001,7.935534710000073],[125.16230750600006,7.934391819000042],[125.16118067900004,7.933594053000033],[125.161632671,7.931941488000062],[125.16065640700003,7.931170462000068],[125.15779902800013,7.9309711420000335],[125.1567011510001,7.9302019120000296],[125.15634872900011,7.928854840000042],[125.15572626900007,7.928169253000021],[125.15419486100006,7.927539079000041],[125.1540881521424,7.92718585402929],[125.14983401137412,7.926146778597427],[125.14543009956706,7.925518668989682],[125.14098563662586,7.925323896876955],[125.13654341093061,7.925564341140009],[125.13214619007601,7.9262376906058245],[125.12783630950845,7.927337466135607],[125.12365526527655,7.928853082809479],[125.11964331479962,7.930769951617086],[125.11583908948398,7.9330696196840815],[125.11227922290585,7.935729947694216],[125.1095973137084,7.938178222012303],[125.11113786400007,7.939057060000038]],[[125.1682899320001,7.996700460000054],[125.1666636650001,7.995410303000029],[125.167352176,7.994940340000027],[125.16828551900005,7.9958610230000335],[125.1698928290001,7.996283113000057],[125.17042036100008,7.996682146000067],[125.16969794400008,7.9975469070000695],[125.16923311000006,7.996752928000038],[125.1682899320001,7.996700460000054]]]}}]}