{"type":"FeatureCollection","features":[{"type":"Feature","properties":{"fid":17,"objectid":1863,"lccode":"07","liqcode":"2010600070000000","mappers":"MITAbigania, DJVRivera, PJDelosReyes, ACPidlaoan","project":"GMMA-READY","province":"Bulacan","otherinfo":null,"datemapped":2013,"publishdate":null,"globalid":"{70EE0B92-1310-4863-994B-262A0419985C}","st_area(shape)":0.05460415768202689,"st_perimeter(shape)":2.604001747145809,"liqcodepk":"201060007000000000055","creator":"SNOOPYPC","createdate":"2019-02-19T15:21:28","editor":"LENOVO","modifydate":"2019-03-10T17:50:55","codemove":"na"},"geometry":{"type":"Polygon","coordinates":[]}},{"type":"Feature","properties":{"fid":41,"objectid":1890,"lccode":"05","liqcode":"2010600050000000","mappers":"MITAbigania, DJVRivera, PJDelosReyes, ACPidlaoan","project":"GMMA-READY","province":"Bulacan","otherinfo":null,"datemapped":2013,"publishdate":null,"globalid":"{962B0335-0147-4964-AF91-92BBA0EB94A8}","st_area(shape)":0.006518104617901708,"st_perimeter(shape)":1.6741822690840518,"liqcodepk":"201060005000000000084","creator":"SNOOPYPC","createdate":"2019-02-19T15:21:28","editor":"LENOVO","modifydate":"2019-03-10T17:50:55","codemove":"na"},"geometry":{"type":"MultiPolygon","coordinates":[[[[120.97739232700008,15.036014441000079],[120.97731605600005,15.033670260000061],[120.97688488100006,15.032422937000039],[120.97684918800009,15.030987789000047],[120.9771561450001,15.029747039000034],[120.97780619700005,15.028652806000027],[120.9796390480001,15.027377832000068],[120.98131343200009,15.027249246000055],[120.98108001100002,15.025908013000047],[120.9821384510001,15.023239090000061],[120.98240206100003,15.021376198000043],[120.98222182000006,15.01960495000003],[120.98095553700011,15.01820675600004],[120.97953982400008,15.016998486000034],[120.97764383000005,15.014542544000049],[120.97660964200008,15.014628929000027],[120.97489298200004,15.014039790000028],[120.97384736900007,15.013378832000056],[120.972557262,15.014515145000077],[120.97175733400003,15.015847167000063],[120.97017424500007,15.01674171100007],[120.96835456300005,15.016629879000051],[120.96683515600012,15.015994560000028],[120.96589531700012,15.016512221000024],[120.96491526743915,15.017532287203874],[120.96492766501245,15.017619011946302],[120.965995316668,15.021929562905637],[120.96749259191836,15.026117645852848],[120.96940509508738,15.03014292177677],[120.97171442837555,15.033966617246461],[120.97439836824158,15.037551898120084],[120.97673422163543,15.040103128822267],[120.97739232700008,15.036014441000079]]],[[[120.9963787140001,14.967335657000032],[120.99764618500001,14.968590291000055],[120.99812964500006,14.969503221000023],[121.0004825430001,14.970432550000055],[121.00210683600005,14.97035120200007],[121.00425939800003,14.971661350000032],[121.00553756600006,14.971768209000063],[121.00640844700001,14.973354061000068],[121.00649624100004,14.974502662000079],[121.00840770000002,14.975284590000056],[121.00900200900003,14.974859377000032],[121.00930741500008,14.973762002000058],[121.01054522600009,14.972911907000023],[121.01049955200007,14.972528897000078],[121.00898160300007,14.971750424000053],[121.00870014100008,14.970265312000034],[121.00979914700007,14.96845752300004],[121.01128552100009,14.967322652000062],[121.01183508500003,14.966418660000041],[121.01297046400009,14.965998148000038],[121.01424684800007,14.966296200000045],[121.01615747100004,14.967173728000036],[121.0181111610001,14.968721166000027],[121.02036084200004,14.970175575000038],[121.02242748600008,14.970145622000073],[121.02346314500005,14.969867662000071],[121.02441668300003,14.967819382000078],[121.02325096000006,14.966183147000038],[121.0225649348339,14.965605921528594],[121.02007531744064,14.9649766676823],[121.01557003783165,14.964286919329234],[121.01436426659532,14.964218811695675],[121.0134955310001,14.96471530000002],[121.010090804,14.965833462000038],[121.00580729800005,14.966226457000062],[121.00369439000008,14.965968832000042],[121.00088810590888,14.965065569401993],[120.99750868757774,14.965857074448337],[120.99581538945732,14.966429355893604],[120.9963787140001,14.967335657000032]]]]}},{"type":"Feature","properties":{"fid":92,"objectid":1921,"lccode":"06","liqcode":"2010600060000000","mappers":"MITAbigania, DJVRivera, PJDelosReyes, ACPidlaoan","project":"GMMA-READY","province":"Bulacan","otherinfo":null,"datemapped":2013,"publishdate":null,"globalid":"{AD30FD4E-4565-4937-AC43-8F5ADC174AC4}","st_area(shape)":0.01360742625474969,"st_perimeter(shape)":2.0316826783369253,"liqcodepk":"201060006000000000119","creator":"SNOOPYPC","createdate":"2019-02-19T15:21:28","editor":"LENOVO","modifydate":"2019-03-10T17:50:55","codemove":"na"},"geometry":{"type":"Polygon","coordinates":[[[121.00369439000008,14.965968832000042],[121.00580729800005,14.966226457000062],[121.010090804,14.965833462000038],[121.0134955310001,14.96471530000002],[121.01436426659532,14.964218811695675],[121.01101693633719,14.964029705323627],[121.00645983492186,14.964207497913538],[121.00194259329552,14.964818582541945],[121.00088810590888,14.965065569401993],[121.00369439000008,14.965968832000042]]]}}]}