{"type":"FeatureCollection","features":[{"type":"Feature","properties":{"fid":187,"objectid":10016,"lccode":"01","liqcode":null,"mappers":"DJLBuhay, MJVReyes, MITAbigania, KLPapiona, KMVitto","project":"MELP","province":"Sultan Kudarat","otherinfo":null,"datemapped":2020,"publishdate":2021,"globalid":"{1B7E7CC9-093D-4716-9F84-3DA25042BFE2}","st_area(shape)":0.08978084284158963,"st_perimeter(shape)":9.534125484685708,"liqcodepk":null,"creator":null,"createdate":null,"editor":null,"modifydate":null,"codemove":null},"geometry":{"type":"Polygon","coordinates":[]}},{"type":"Feature","properties":{"fid":212,"objectid":10021,"lccode":"04","liqcode":null,"mappers":"OPCHalasan, KSSochayseng, AATMagnaye, RPADizon, MJVReyes, HALVidal, MITAbigania, DJLBuhay","project":"ACER-DeLTA Liquefaction","province":"Sarangani","otherinfo":null,"datemapped":2025,"publishdate":2025,"globalid":"{4B0F16AF-9FC5-426E-BE2A-C2A0BDACB3B7}","st_area(shape)":0.00681203411406619,"st_perimeter(shape)":4.420543025412032,"liqcodepk":null,"creator":null,"createdate":null,"editor":"DJLB","modifydate":"2025-07-07T08:00:00","codemove":null},"geometry":{"type":"MultiPolygon","coordinates":[[[[124.45583941400004,6.067023875000075],[124.45711793800002,6.067297424000059],[124.4584049570001,6.068431190000069],[124.4598545980001,6.069087257000034],[124.459384149,6.0710416420000675],[124.46043697400013,6.07322097900004],[124.4611131280001,6.0739944000000605],[124.4621614350001,6.074494042000025],[124.46369658900005,6.074705235000067],[124.46527744800005,6.075906891000044],[124.46598338400008,6.077082202000043],[124.46598567600007,6.077929223000068],[124.46676888800005,6.081157286000063],[124.46780322200006,6.081786157000068],[124.46916989400007,6.082125884000049],[124.46999231900008,6.082872972000077],[124.47083845900012,6.0831471290000545],[124.47051521500009,6.083941236000044],[124.47081479500002,6.084803530000046],[124.47179868500005,6.084423371000072],[124.47205040900008,6.085275358000046],[124.47119973200006,6.08622428500007],[124.47122825400005,6.087292541000067],[124.47220749400003,6.08862549400004],[124.47133456100005,6.089667104000057],[124.47159903400006,6.090601285000048],[124.47243566600004,6.090591831000039],[124.4740423820001,6.09124412400007],[124.47566580500008,6.0910617300000345],[124.47680909300006,6.091575085000044],[124.47709133700003,6.092203497000072],[124.47637829800011,6.09345135700005],[124.4774287660001,6.094408115000024],[124.47797837600002,6.097039910000036],[124.47899625600006,6.097754932000041],[124.47987183000008,6.098877104000052],[124.48147536100011,6.099590511000031],[124.48228707500004,6.099217407000025],[124.48157885600006,6.098106743000073],[124.48133541800007,6.096504294000056],[124.48163024300005,6.095055891000071],[124.48164994600006,6.093524499000067],[124.47936532300004,6.090536686000062],[124.4796021960001,6.089745961000064],[124.4814804570001,6.090411245000042],[124.48227899300002,6.089595528000075],[124.4832170420001,6.089460201000065],[124.48383878300002,6.0885028680000355],[124.48407299500003,6.08718366000005],[124.483673887,6.08642771500007],[124.48237669000001,6.086479203000067],[124.48186276700005,6.086938208000048],[124.48193161400002,6.08858556000007],[124.4814202970001,6.089538069000071],[124.48038010200003,6.089397361000068],[124.47878279400004,6.088761690000069],[124.47845755700008,6.09001875900003],[124.47772217900001,6.0907770020000385],[124.47607196300011,6.089887506000025],[124.47587897300002,6.088703132000035],[124.47636740400004,6.086632799000029],[124.47773588700011,6.086148091000041],[124.47714818200008,6.0850055960000295],[124.47569001700003,6.084721988000069],[124.47520377900004,6.0834900890000645],[124.47533149400009,6.082479670000055],[124.47588432000009,6.081721398000069],[124.47538678600006,6.080474759000027],[124.47585223300005,6.079502142000023],[124.47450355200012,6.077730943000062],[124.47370396500004,6.0770706390000555],[124.47356135800011,6.076408876000072],[124.47191542600001,6.075475315000062],[124.47127963200012,6.074748554000053],[124.4698476120001,6.073850442000037],[124.47110460300007,6.073061881000059],[124.4698713800001,6.072473728000034],[124.46791874900009,6.0725941730000255],[124.467797624,6.071492890000059],[124.46866515500007,6.070718855000052],[124.46844530200008,6.069838462000063],[124.46736980100002,6.069135329000061],[124.46667458800006,6.069489850000024],[124.4662051700001,6.07035842600004],[124.4653079290001,6.070429330000023],[124.46449159100008,6.069264866000025],[124.46495735100007,6.067545890000077],[124.46461865800006,6.0666418560000475],[124.46520691500008,6.066104163000033],[124.46448498200004,6.064300484000057],[124.46510295000007,6.062622398000029],[124.46437457600007,6.061646346000031],[124.46299710800007,6.061757355000054],[124.46270238500006,6.061303561000047],[124.46333841600006,6.060120859000051],[124.4642995920001,6.060410154000066],[124.46482724200008,6.059984721000035],[124.46572679900011,6.060784416000048],[124.4669185140001,6.060407241000065],[124.46811310500004,6.060841141000026],[124.46914463400003,6.059447060000024],[124.47158798200009,6.0593997900000405],[124.472880959,6.060151389000054],[124.47621322900012,6.060543731000053],[124.47702134000006,6.059900856000071],[124.47832857900005,6.05948960400002],[124.47870411300005,6.0590499900000605],[124.48007981900003,6.060657981000078],[124.48038906400006,6.061593721000065],[124.48112587100003,6.0622365950000585],[124.48166778100006,6.061957701000041],[124.48347414700004,6.062472946000071],[124.4845389520001,6.0614377290000325],[124.48359298700005,6.060388331000069],[124.48529477400008,6.0595847360000334],[124.48526735300005,6.0573315570000545],[124.48573796000005,6.056501959000057],[124.48779864300003,6.054984569000055],[124.48666491000006,6.05460522200002],[124.48647238900004,6.05402379100002],[124.48794125000006,6.053903251000066],[124.48938523900006,6.052639290000058],[124.49076750000006,6.052276186000028],[124.49144726400004,6.05332560000005],[124.49245977900013,6.053127062000043],[124.4921365350001,6.054346651000059],[124.492108013,6.056029489000024],[124.49250731600013,6.057258524000076],[124.493058732,6.0570836230000396],[124.4935140120001,6.055194969000071],[124.49420766000004,6.055577362000066],[124.49391556800005,6.056370013000049],[124.494730881,6.058706111000049],[124.49433348800007,6.060676175000025],[124.49512377300005,6.061568399000066],[124.49647854800004,6.0621120060000635],[124.49887749000005,6.06119771300007],[124.4994923270001,6.061404726000034],[124.500377683,6.060896571000059],[124.5012808670001,6.061841976000039],[124.50434337000002,6.063736324000046],[124.5059500850001,6.064487916000076],[124.50667263100003,6.0641381180000735],[124.50875470500013,6.065083516000071],[124.50895435700012,6.065698024000026],[124.51084628700005,6.065650755000036],[124.51213532600002,6.066646846000025],[124.51358627900004,6.0692482800000676],[124.51455026800012,6.069417507000025],[124.51492916900008,6.07109474200007],[124.51636713200001,6.070899756000073],[124.51597199000003,6.071791964000056],[124.51585909100005,6.0737418180000295],[124.5173861830001,6.07407861100006],[124.5172406050001,6.075405097000042],[124.51782590200003,6.076224161000025],[124.51790095700005,6.0770736860000625],[124.51914509800008,6.078861195000058],[124.51923414400007,6.079839498000069],[124.52063024900009,6.081232896000073],[124.52343578900003,6.081849478000036],[124.52456072300004,6.0840786650000505],[124.52473187400005,6.085605642000073],[124.52656438500003,6.087403007000034],[124.52599038800007,6.088048214000027],[124.52770690500007,6.088938387000042],[124.52816124200001,6.090260703000068],[124.5287659930001,6.091105993000041],[124.5286057940001,6.092778919000067],[124.52925926700004,6.095633906000045],[124.53008333600006,6.095377330000077],[124.53011178400003,6.094113520000064],[124.5295746280001,6.093054731000051],[124.53055862200007,6.0925631500000454],[124.53062517300008,6.091641434000053],[124.52997803800008,6.091159980000043],[124.5291703480001,6.089554400000053],[124.52838308800006,6.088780554000038],[124.52807724600007,6.087808024000026],[124.52791253200009,6.085648597000045],[124.5280724920001,6.0844189070000425],[124.5272215980001,6.0835019030000685],[124.5255510070001,6.082819527000025],[124.52481242100008,6.080766924000043],[124.52505597900006,6.079525177000048],[124.52440271700004,6.078652396000052],[124.52306220300011,6.0785342250000545],[124.52237293200005,6.078803656000047],[124.52120354700003,6.078179709000039],[124.5202115830001,6.076420013000074],[124.52020928700006,6.075601725000068],[124.51925841700006,6.073876362000021],[124.51864136000007,6.07199444400004],[124.52019089500006,6.07122076500002],[124.52054860000011,6.0695089780000435],[124.5200317870001,6.068938478000063],[124.5201708300001,6.068034447000058],[124.51918683600002,6.067399852000052],[124.51937601200007,6.066362199000025],[124.51885883800003,6.065474792000034],[124.51727589100005,6.065265624000061],[124.51564659600002,6.065822226000021],[124.51441303800006,6.063765985000031],[124.51338626200004,6.0631278400000514],[124.51308115200004,6.06131102200004],[124.5123452240001,6.060600069000031],[124.51298101800013,6.059820109000043],[124.51396144600005,6.059843744000034],[124.51327210700005,6.058177259000047],[124.51221450100002,6.056369364000033],[124.5110498700001,6.055920293000042],[124.50971292100009,6.056186191000052],[124.50903553400009,6.054915791000041],[124.50961784900004,6.053698568000073],[124.50895828800003,6.053521301000045],[124.50906643300004,6.052039752000043],[124.50827020600002,6.052081114000032],[124.50731354400011,6.051070695000023],[124.50596471300001,6.051106149000019],[124.50543587400013,6.0516143120000265],[124.50464043600005,6.05133980100004],[124.50426530200001,6.0506098020000545],[124.50286893400005,6.049510747000057],[124.50087836600004,6.049321662000067],[124.50099467600013,6.048326713000051],[124.50018883000007,6.046538947000045],[124.5009734370001,6.044511792000036],[124.50189444700004,6.043513176000031],[124.50268473200005,6.041693211000052],[124.50343841100005,6.040629439000043],[124.50481196500004,6.040913225000054],[124.5062261600001,6.039400519000025],[124.5071055740001,6.039311884000028],[124.50797904800002,6.0378700820000395],[124.50695702500002,6.0376869020000745],[124.50671934500008,6.036434185000075],[124.50759836400005,6.035536404000026],[124.50821404800001,6.035425082000073],[124.50954139500004,6.0362230350000345],[124.51046834600004,6.035194860000044],[124.51069414300001,6.034261228000046],[124.5131404460001,6.033823988000051],[124.51431052900011,6.033095527000057],[124.51490927400003,6.031536629000072],[124.51642825500004,6.031627709000078],[124.51715555500003,6.032216254000046],[124.51774737700009,6.033350799000062],[124.51885258800006,6.032804800000065],[124.5193231950001,6.032173709000062],[124.520442666,6.03204607300006],[124.5208990110001,6.031251890000022],[124.52120516795817,6.03120292095055],[124.51772516095157,6.029567063152023],[124.51354772355806,6.0280838083195984],[124.51175217981199,6.027638847299494],[124.51164563400005,6.027688927000042],[124.50982996900008,6.029199077000043],[124.50633679000009,6.0317371580000545],[124.50517810100007,6.032749977000036],[124.50177238900005,6.034606609000036],[124.49932357400009,6.036534568000037],[124.49496975700005,6.039251776000071],[124.49240150900003,6.040454969000051],[124.49105184400003,6.04185634600003],[124.48984859100007,6.041924299000072],[124.48724623600002,6.044077057000037],[124.48639058800008,6.044374869000023],[124.48412264900003,6.046184366000033],[124.48079750900001,6.049117556000055],[124.47718715400003,6.051706715000022],[124.47578531900001,6.0524739230000355],[124.47380930900012,6.053142334000026],[124.471488367,6.054291016000036],[124.46764849200008,6.055460263000042],[124.4599220250001,6.0585990690000235],[124.457462727,6.059349447000044],[124.45707140783084,6.0592869583747975],[124.45622988871499,6.062688700435193],[124.45559123632952,6.067079787445899],[124.45558774258232,6.067155104119126],[124.45583941400004,6.067023875000075]]],[[[124.52206839500003,6.032563709000046],[124.52298821500005,6.034081161000076],[124.52406490500005,6.033258617000058],[124.52555515600012,6.034300978000035],[124.52519863700003,6.035768789000031],[124.5257048950001,6.036534602000074],[124.52707393100003,6.036917508000044],[124.52733821000004,6.03797637400004],[124.52917739500002,6.0379244080000385],[124.52975495700004,6.039250392000043],[124.53008105400009,6.041933078000056],[124.53061345600008,6.0430014220000325],[124.5321631280001,6.043105420000073],[124.53400752300001,6.043757770000069],[124.535186414,6.043530866000024],[124.53583847960293,6.043206645827343],[124.53539148066226,6.042606837245207],[124.53240557526301,6.039327477847906],[124.52911299497968,6.036356865457115],[124.52554544538937,6.033723603835166],[124.5225836543831,6.0319576904604],[124.52206839500003,6.032563709000046]]]]}},{"type":"Feature","properties":{"fid":213,"objectid":10022,"lccode":"03","liqcode":null,"mappers":"OPCHalasan, KSSochayseng, AATMagnaye, RPADizon, MJVReyes, HALVidal, MITAbigania, DJLBuhay","project":"ACER-DeLTA Liquefaction","province":"Sarangani","otherinfo":null,"datemapped":2025,"publishdate":2025,"globalid":"{6B71C9FC-C348-4B94-AE03-7E47FA7930C0}","st_area(shape)":0.011541225204631354,"st_perimeter(shape)":8.576922001598057,"liqcodepk":null,"creator":null,"createdate":null,"editor":"DJLB","modifydate":"2025-07-07T08:00:00","codemove":null},"geometry":{"type":"Polygon","coordinates":[[[124.45627082400007,6.074228387000062],[124.45773042300006,6.074677982000025],[124.45812795200003,6.075347728000055],[124.45985247100009,6.076095903000067],[124.46013484800007,6.077655897000055],[124.46188164999998,6.078450345000022],[124.46291098700011,6.081503440000063],[124.46411234100003,6.082766954000023],[124.46412422600008,6.084045561000038],[124.46531121600005,6.084869954000054],[124.46574995500009,6.087590664000062],[124.46623719800003,6.089193043000024],[124.466970176,6.089481848000048],[124.466168271,6.090648887000042],[124.46679812200013,6.091766765000044],[124.46726219200002,6.093571790000055],[124.46855338800003,6.095014822000053],[124.47008526800005,6.0954078460000565],[124.47080243200001,6.096234906000065],[124.47227604600005,6.096291035000035],[124.47348274600006,6.097200218000068],[124.47304640000004,6.0989254910000446],[124.47223742300001,6.100403259000075],[124.47286430300007,6.10171195600003],[124.47279299900002,6.103059053000039],[124.4736337920001,6.103475590000073],[124.47485772300001,6.102564999999999],[124.47531050300006,6.102852145000043],[124.47630346900007,6.10212413000005],[124.47697941100012,6.100335352000059],[124.4791281040001,6.10053995900006],[124.47945491500003,6.10090923000007],[124.47998276200009,6.10277413500006],[124.48048188900007,6.103227894000042],[124.48307076100002,6.104178168000031],[124.48374487300009,6.105098345000043],[124.48392301300011,6.106141611000056],[124.4853316760001,6.1073955790000705],[124.48718420500006,6.107341699000074],[124.48789143400006,6.107601785000041],[124.48894312900008,6.108738190000053],[124.48844623800005,6.109642582000048],[124.48848678300011,6.110794258000054],[124.48910640000008,6.112187514000028],[124.49028988300006,6.113257794000049],[124.49137102700003,6.113552213000046],[124.49189867600012,6.113236715000028],[124.492041759,6.112206954000043],[124.49333949100003,6.11229675800007],[124.49336863100007,6.113409717000025],[124.49404835630897,6.116078365132991],[124.49625321969764,6.116399460935167],[124.49941424343703,6.116546061694708],[124.50036365800007,6.116099098000063],[124.50113718419112,6.116581157204878],[124.50266990422605,6.116501492422337],[124.50236490300006,6.115250857000036],[124.50034984600006,6.114309947000037],[124.4985492630001,6.115822370000046],[124.4970634570001,6.115761324000059],[124.49644612200005,6.114590416000055],[124.49642305700002,6.113511958000061],[124.49578682500011,6.112522814000044],[124.49416378300009,6.111245978000056],[124.49376052800007,6.109965058000057],[124.491995599,6.1096828340000675],[124.49084666500005,6.109133307000037],[124.4904662030001,6.106543409000038],[124.48896460900006,6.10420995000004],[124.48845368600008,6.103926798000033],[124.48643076900011,6.103793704000054],[124.48534721300008,6.1027758580000295],[124.48533140700012,6.101826922000043],[124.48483418200011,6.099950642000066],[124.4839528650001,6.098707315000069],[124.4836819100001,6.097761976000072],[124.48392434300001,6.096594480000021],[124.48284840500003,6.094409967000047],[124.48291335600005,6.093494183000075],[124.4840780080001,6.092799003000038],[124.48558599700004,6.093127428000059],[124.48587477800005,6.0924432320000514],[124.4848337410001,6.091361988000075],[124.48423743300008,6.090053487000034],[124.48476837800001,6.089337357000034],[124.48635489100003,6.088262015000054],[124.48728778400005,6.0860817810000745],[124.48801080500006,6.0854904570000485],[124.4884648330001,6.084160999000062],[124.48821083300002,6.083707209000066],[124.4889795140001,6.082106623000072],[124.49112042900003,6.080619757000021],[124.49144842700002,6.079300964000027],[124.49011522400006,6.077857704000053],[124.48986356000012,6.076348627000073],[124.48898995600007,6.0789327380000495],[124.48933309600011,6.080527378000056],[124.48854635700003,6.081933819000027],[124.48729378500003,6.081988178000074],[124.48695732600002,6.083442108000041],[124.48657002400013,6.083760084000063],[124.48489084300003,6.083810372000072],[124.4841092150001,6.0843698460000715],[124.48350754700006,6.085805087000039],[124.48129517200005,6.086302131000024],[124.48164722500009,6.087412063000044],[124.48135098400007,6.088453626000047],[124.48005325200005,6.088740779000033],[124.47960760300008,6.08795731500004],[124.47859929700007,6.088589635000061],[124.47834314700003,6.089833845000044],[124.47729260300004,6.090211986000044],[124.47614612300004,6.089239886000031],[124.47629154000003,6.087536534000037],[124.47733063100009,6.086544004000076],[124.47920830100007,6.085433205000071],[124.47911798300002,6.084606013000042],[124.47680523500001,6.0845641350000506],[124.47566211900006,6.083764639000037],[124.47564785900012,6.082724737000034],[124.47752117100003,6.081080388000031],[124.47695074,6.079597338000043],[124.47665364000011,6.078132010000046],[124.47789987400007,6.07764061200004],[124.47727239900007,6.076750777000029],[124.47706918300004,6.074598859000046],[124.47652595700004,6.073308495000049],[124.47645607400011,6.071135638000044],[124.476962178,6.070073864000051],[124.47960755400005,6.068717624000044],[124.48080545900007,6.068916156000057],[124.48121545700008,6.068434006000074],[124.48055589500007,6.067448435000072],[124.4791547740001,6.067494523000051],[124.47858723900003,6.067028777000074],[124.47777411800007,6.065340045000028],[124.47693275200004,6.064567304000036],[124.47681287400007,6.063319057000056],[124.47624078100013,6.062675833000071],[124.47737570100003,6.0622385850000455],[124.47925337100004,6.063479423000047],[124.47960989,6.063095354000042],[124.4822900260001,6.062680855000053],[124.48323851200007,6.06296605600005],[124.48513267600003,6.06213252200007],[124.48705788200003,6.0603362550000375],[124.48564131000012,6.059003231000076],[124.48555321800006,6.057257540000022],[124.48847942900012,6.056147122000028],[124.48929942300002,6.056702552000047],[124.49092239800005,6.056715489000054],[124.49153955500005,6.057003903000065],[124.49137912100002,6.057878407000032],[124.49020854900004,6.0589065400000655],[124.48996492700007,6.059615595000025],[124.49115332500004,6.059716045000072],[124.49228111600007,6.060996675000068],[124.49389258500003,6.061159757000041],[124.49466266700006,6.061620642000038],[124.49592557800007,6.06427264900003],[124.49632165100003,6.065599872000063],[124.49608304100002,6.066080721000048],[124.49445493400003,6.066089584000053],[124.49605630100008,6.067085203000034],[124.49679977100004,6.066691826000067],[124.4978413240001,6.066724393000073],[124.49895088100004,6.067471443000044],[124.49913655200011,6.068833232000031],[124.4980857180001,6.069461815000068],[124.49880122200011,6.070362874000068],[124.49877974300011,6.071480219000024],[124.5003104010001,6.072345246000052],[124.5011850620001,6.071366772000033],[124.50108523700011,6.07053483200002],[124.502007434,6.069182926000052],[124.50404118000007,6.069979416000023],[124.50465914700008,6.069809246000032],[124.50483978400008,6.068263533000048],[124.50612060600008,6.0685590190000775],[124.5062759440001,6.069871711000077],[124.50857789100007,6.069369049000043],[124.50859108300006,6.068741901000068],[124.50755717600009,6.068320020000045],[124.50817039000003,6.067341539000039],[124.50845204000005,6.06619288500002],[124.5097670570001,6.0658867530000276],[124.51151326000002,6.066382682000038],[124.51343967100001,6.070018383000045],[124.51398871000004,6.0726879180000415],[124.5141460210001,6.0749308490000535],[124.51555739700007,6.07610901600003],[124.51702625800009,6.07773624500004],[124.51680104900005,6.079182898000056],[124.51600661100008,6.079413102000046],[124.51587671900005,6.080662173000064],[124.51728140600005,6.080417558000022],[124.51811414100008,6.080771762000041],[124.51924547300007,6.081771799000022],[124.52117263100001,6.082554101000029],[124.52293618400007,6.08373494500006],[124.52454820700008,6.085888412000032],[124.52523939900004,6.087947380000059],[124.52570647700009,6.090255542000022],[124.52839069700008,6.092283390000034],[124.52915970200002,6.095420384000022],[124.52921502700008,6.09638686300002],[124.52991371000009,6.098321740000072],[124.5303719960001,6.102140742000073],[124.5311176150001,6.1025984430000335],[124.53130300500004,6.1001878430000716],[124.53044379300003,6.098372796000034],[124.5311484560001,6.09292134900005],[124.53088231200002,6.09143490900004],[124.52955645600004,6.0900060480000215],[124.52877152000006,6.088838260000044],[124.52831616300011,6.085875626000075],[124.52884179700004,6.0845966450000315],[124.52749181000001,6.083427530000051],[124.52621510000006,6.082836992000067],[124.52563534500007,6.081582936000074],[124.52540260600007,6.079889490000027],[124.52473472600003,6.078350896000074],[124.52316841700008,6.077975110000067],[124.52131675600003,6.076534275000029],[124.52040948,6.076318097000068],[124.520209582,6.075355608000053],[124.51911509700005,6.072888246000047],[124.52038031400002,6.071856334000074],[124.52169230600009,6.071126023000033],[124.52389559800008,6.070253904000025],[124.524626462,6.068261494000068],[124.52443750800013,6.067665897000041],[124.52497941700007,6.066024456000035],[124.52454802800004,6.065765655000065],[124.52333586200005,6.066577512000038],[124.5223910850001,6.066683870000076],[124.52213448300006,6.065732070000024],[124.52289803700013,6.064606126000058],[124.523428082,6.062806320000048],[124.52295272200001,6.062416342000064],[124.52129787700005,6.062321802000041],[124.52038281000013,6.0611518660000465],[124.519082969,6.061507297000048],[124.51779507200003,6.061435487000039],[124.5175865760001,6.059544815000038],[124.51881931300012,6.057133292000059],[124.52064605600003,6.057062761000053],[124.52127395100001,6.057382738000057],[124.52163641200002,6.055621907000045],[124.52280896600007,6.055177956000023],[124.52385000299999,6.05379883100005],[124.52430991300004,6.053582567000036],[124.52547929700008,6.054231359000028],[124.52470208500004,6.055635300000064],[124.52555041200002,6.056606210000041],[124.52635853400011,6.055867498000055],[124.52665088000005,6.05411139000006],[124.52807933500004,6.053818311000042],[124.52883040300004,6.054744818000074],[124.52865570800009,6.058051990000023],[124.52780303200008,6.058728548000033],[124.52897657600012,6.059165799000028],[124.53064074200005,6.057376321000048],[124.53101765100007,6.057972221000058],[124.53258336600004,6.057546786000046],[124.53404212500004,6.05829720500003],[124.53496016300005,6.05829720500003],[124.5357579350001,6.058823611000037],[124.53562602300009,6.060479255000075],[124.53628915000002,6.060996864000059],[124.53736583900002,6.060287810000035],[124.53824287700003,6.059139141000059],[124.53929817500011,6.05933767600004],[124.54003617,6.059965189000024],[124.54088825200007,6.060043186000031],[124.54094529500001,6.060769967000055],[124.53996130100008,6.061347845000055],[124.53934452200008,6.062262522000024],[124.53951998900004,6.0641607670000335],[124.54042834200003,6.063184288000059],[124.5411554650001,6.06309672900005],[124.54243287300007,6.064164826000025],[124.54387677700004,6.065990624000051],[124.54475025100011,6.06639832600007],[124.54542327753134,6.066353963751718],[124.5448324029221,6.062443318912853],[124.54374313479988,6.058142177795475],[124.54223799266562,6.053968615919708],[124.54033147828117,6.049962821573849],[124.53804195698677,6.046163367020427],[124.53583847960293,6.043206645827343],[124.535186414,6.043530866000024],[124.53400752300001,6.043757770000069],[124.5321631280001,6.043105420000073],[124.53061345600008,6.0430014220000325],[124.53008105400009,6.041933078000056],[124.52975495700004,6.039250392000043],[124.52917739500002,6.0379244080000385],[124.52733821000004,6.03797637400004],[124.52707393100003,6.036917508000044],[124.5257048950001,6.036534602000074],[124.52519863700003,6.035768789000031],[124.52555515600012,6.034300978000035],[124.52406490500005,6.033258617000058],[124.52298821500005,6.034081161000076],[124.52206839500003,6.032563709000046],[124.5225836543831,6.0319576904604],[124.52173727826147,6.031453048591943],[124.52120516795817,6.03120292095055],[124.5208990110001,6.031251890000022],[124.520442666,6.03204607300006],[124.5193231950001,6.032173709000062],[124.51885258800006,6.032804800000065],[124.51774737700009,6.033350799000062],[124.51715555500003,6.032216254000046],[124.51642825500004,6.031627709000078],[124.51490927400003,6.031536629000072],[124.51431052900011,6.033095527000057],[124.5131404460001,6.033823988000051],[124.51069414300001,6.034261228000046],[124.51046834600004,6.035194860000044],[124.50954139500004,6.0362230350000345],[124.50821404800001,6.035425082000073],[124.50759836400005,6.035536404000026],[124.50671934500008,6.036434185000075],[124.50695702500002,6.0376869020000745],[124.50797904800002,6.0378700820000395],[124.5071055740001,6.039311884000028],[124.5062261600001,6.039400519000025],[124.50481196500004,6.040913225000054],[124.50343841100005,6.040629439000043],[124.50268473200005,6.041693211000052],[124.50189444700004,6.043513176000031],[124.5009734370001,6.044511792000036],[124.50018883000007,6.046538947000045],[124.50099467600013,6.048326713000051],[124.50087836600004,6.049321662000067],[124.50286893400005,6.049510747000057],[124.50426530200001,6.0506098020000545],[124.50464043600005,6.05133980100004],[124.50543587400013,6.0516143120000265],[124.50596471300001,6.051106149000019],[124.50731354400011,6.051070695000023],[124.50827020600002,6.052081114000032],[124.50906643300004,6.052039752000043],[124.50895828800003,6.053521301000045],[124.50961784900004,6.053698568000073],[124.50903553400009,6.054915791000041],[124.50971292100009,6.056186191000052],[124.5110498700001,6.055920293000042],[124.51221450100002,6.056369364000033],[124.51327210700005,6.058177259000047],[124.51396144600005,6.059843744000034],[124.51298101800013,6.059820109000043],[124.5123452240001,6.060600069000031],[124.51308115200004,6.06131102200004],[124.51338626200004,6.0631278400000514],[124.51441303800006,6.063765985000031],[124.51564659600002,6.065822226000021],[124.51727589100005,6.065265624000061],[124.51885883800003,6.065474792000034],[124.51937601200007,6.066362199000025],[124.51918683600002,6.067399852000052],[124.5201708300001,6.068034447000058],[124.5200317870001,6.068938478000063],[124.52054860000011,6.0695089780000435],[124.52019089500006,6.07122076500002],[124.51864136000007,6.07199444400004],[124.51925841700006,6.073876362000021],[124.52020928700006,6.075601725000068],[124.5202115830001,6.076420013000074],[124.52120354700003,6.078179709000039],[124.52237293200005,6.078803656000047],[124.52306220300011,6.0785342250000545],[124.52440271700004,6.078652396000052],[124.52505597900006,6.079525177000048],[124.52481242100008,6.080766924000043],[124.5255510070001,6.082819527000025],[124.5272215980001,6.0835019030000685],[124.5280724920001,6.0844189070000425],[124.52791253200009,6.085648597000045],[124.52807724600007,6.087808024000026],[124.52838308800006,6.088780554000038],[124.5291703480001,6.089554400000053],[124.52997803800008,6.091159980000043],[124.53062517300008,6.091641434000053],[124.53055862200007,6.0925631500000454],[124.5295746280001,6.093054731000051],[124.53011178400003,6.094113520000064],[124.53008333600006,6.095377330000077],[124.52925926700004,6.095633906000045],[124.5286057940001,6.092778919000067],[124.5287659930001,6.091105993000041],[124.52816124200001,6.090260703000068],[124.52770690500007,6.088938387000042],[124.52599038800007,6.088048214000027],[124.52656438500003,6.087403007000034],[124.52473187400005,6.085605642000073],[124.52456072300004,6.0840786650000505],[124.52343578900003,6.081849478000036],[124.52063024900009,6.081232896000073],[124.51923414400007,6.079839498000069],[124.51914509800008,6.078861195000058],[124.51790095700005,6.0770736860000625],[124.51782590200003,6.076224161000025],[124.5172406050001,6.075405097000042],[124.5173861830001,6.07407861100006],[124.51585909100005,6.0737418180000295],[124.51597199000003,6.071791964000056],[124.51636713200001,6.070899756000073],[124.51492916900008,6.07109474200007],[124.51455026800012,6.069417507000025],[124.51358627900004,6.0692482800000676],[124.51213532600002,6.066646846000025],[124.51084628700005,6.065650755000036],[124.50895435700012,6.065698024000026],[124.50875470500013,6.065083516000071],[124.50667263100003,6.0641381180000735],[124.5059500850001,6.064487916000076],[124.50434337000002,6.063736324000046],[124.5012808670001,6.061841976000039],[124.500377683,6.060896571000059],[124.4994923270001,6.061404726000034],[124.49887749000005,6.06119771300007],[124.49647854800004,6.0621120060000635],[124.49512377300005,6.061568399000066],[124.49433348800007,6.060676175000025],[124.494730881,6.058706111000049],[124.49391556800005,6.056370013000049],[124.49420766000004,6.055577362000066],[124.4935140120001,6.055194969000071],[124.493058732,6.0570836230000396],[124.49250731600013,6.057258524000076],[124.492108013,6.056029489000024],[124.4921365350001,6.054346651000059],[124.49245977900013,6.053127062000043],[124.49144726400004,6.05332560000005],[124.49076750000006,6.052276186000028],[124.48938523900006,6.052639290000058],[124.48794125000006,6.053903251000066],[124.48647238900004,6.05402379100002],[124.48666491000006,6.05460522200002],[124.48779864300003,6.054984569000055],[124.48573796000005,6.056501959000057],[124.48526735300005,6.0573315570000545],[124.48529477400008,6.0595847360000334],[124.48359298700005,6.060388331000069],[124.4845389520001,6.0614377290000325],[124.48347414700004,6.062472946000071],[124.48166778100006,6.061957701000041],[124.48112587100003,6.0622365950000585],[124.48038906400006,6.061593721000065],[124.48007981900003,6.060657981000078],[124.47870411300005,6.0590499900000605],[124.47832857900005,6.05948960400002],[124.47702134000006,6.059900856000071],[124.47621322900012,6.060543731000053],[124.472880959,6.060151389000054],[124.47158798200009,6.0593997900000405],[124.46914463400003,6.059447060000024],[124.46811310500004,6.060841141000026],[124.4669185140001,6.060407241000065],[124.46572679900011,6.060784416000048],[124.46482724200008,6.059984721000035],[124.4642995920001,6.060410154000066],[124.46333841600006,6.060120859000051],[124.46270238500006,6.061303561000047],[124.46299710800007,6.061757355000054],[124.46437457600007,6.061646346000031],[124.46510295000007,6.062622398000029],[124.46448498200004,6.064300484000057],[124.46520691500008,6.066104163000033],[124.46461865800006,6.0666418560000475],[124.46495735100007,6.067545890000077],[124.46449159100008,6.069264866000025],[124.4653079290001,6.070429330000023],[124.4662051700001,6.07035842600004],[124.46667458800006,6.069489850000024],[124.46736980100002,6.069135329000061],[124.46844530200008,6.069838462000063],[124.46866515500007,6.070718855000052],[124.467797624,6.071492890000059],[124.46791874900009,6.0725941730000255],[124.4698713800001,6.072473728000034],[124.47110460300007,6.073061881000059],[124.4698476120001,6.073850442000037],[124.47127963200012,6.074748554000053],[124.47191542600001,6.075475315000062],[124.47356135800011,6.076408876000072],[124.47370396500004,6.0770706390000555],[124.47450355200012,6.077730943000062],[124.47585223300005,6.079502142000023],[124.47538678600006,6.080474759000027],[124.47588432000009,6.081721398000069],[124.47533149400009,6.082479670000055],[124.47520377900004,6.0834900890000645],[124.47569001700003,6.084721988000069],[124.47714818200008,6.0850055960000295],[124.47773588700011,6.086148091000041],[124.47636740400004,6.086632799000029],[124.47587897300002,6.088703132000035],[124.47607196300011,6.089887506000025],[124.47772217900001,6.0907770020000385],[124.47845755700008,6.09001875900003],[124.47878279400004,6.088761690000069],[124.48038010200003,6.089397361000068],[124.4814202970001,6.089538069000071],[124.48193161400002,6.08858556000007],[124.48186276700005,6.086938208000048],[124.48237669000001,6.086479203000067],[124.483673887,6.08642771500007],[124.48407299500003,6.08718366000005],[124.48383878300002,6.0885028680000355],[124.4832170420001,6.089460201000065],[124.48227899300002,6.089595528000075],[124.4814804570001,6.090411245000042],[124.4796021960001,6.089745961000064],[124.47936532300004,6.090536686000062],[124.48164994600006,6.093524499000067],[124.48163024300005,6.095055891000071],[124.48133541800007,6.096504294000056],[124.48157885600006,6.098106743000073],[124.48228707500004,6.099217407000025],[124.48147536100011,6.099590511000031],[124.47987183000008,6.098877104000052],[124.47899625600006,6.097754932000041],[124.47797837600002,6.097039910000036],[124.4774287660001,6.094408115000024],[124.47637829800011,6.09345135700005],[124.47709133700003,6.092203497000072],[124.47680909300006,6.091575085000044],[124.47566580500008,6.0910617300000345],[124.4740423820001,6.09124412400007],[124.47243566600004,6.090591831000039],[124.47159903400006,6.090601285000048],[124.47133456100005,6.089667104000057],[124.47220749400003,6.08862549400004],[124.47122825400005,6.087292541000067],[124.47119973200006,6.08622428500007],[124.47205040900008,6.085275358000046],[124.47179868500005,6.084423371000072],[124.47081479500002,6.084803530000046],[124.47051521500009,6.083941236000044],[124.47083845900012,6.0831471290000545],[124.46999231900008,6.082872972000077],[124.46916989400007,6.082125884000049],[124.46780322200006,6.081786157000068],[124.46676888800005,6.081157286000063],[124.46598567600007,6.077929223000068],[124.46598338400008,6.077082202000043],[124.46527744800005,6.075906891000044],[124.46369658900005,6.074705235000067],[124.4621614350001,6.074494042000025],[124.4611131280001,6.0739944000000605],[124.46043697400013,6.07322097900004],[124.459384149,6.0710416420000675],[124.4598545980001,6.069087257000034],[124.4584049570001,6.068431190000069],[124.45711793800002,6.067297424000059],[124.45583941400004,6.067023875000075],[124.45558774258232,6.067155104119126],[124.45538562168377,6.071512393889531],[124.45548942786078,6.073517576734763],[124.45627082400007,6.074228387000062]],[[124.4750694160001,6.063342341000065],[124.47406165300004,6.063895399000045],[124.47301110900001,6.0639521230000355],[124.47201891000009,6.063445621000027],[124.47139627300011,6.0622004730000745],[124.47364968100011,6.061769489000027],[124.47413345200005,6.061046490000025],[124.47531660200002,6.060889022000028],[124.47592022300013,6.061301403000072],[124.47597735200009,6.062274037000066],[124.4750694160001,6.063342341000065]],[[124.49905996400003,6.0667431890000225],[124.49906105600007,6.064863520000074],[124.49977988000012,6.064060018000021],[124.50135512100009,6.064048064000076],[124.5013979040001,6.065065549000052],[124.5007597340001,6.067306136000069],[124.49972258700008,6.067373501000018],[124.49905996400003,6.0667431890000225]],[[124.51567831800003,6.035722295000028],[124.51558574200011,6.035645248000036],[124.51527850900004,6.035241660000053],[124.51484355500008,6.032164213000045],[124.51557085500008,6.031937304000053],[124.51688997800011,6.032596758000067],[124.51656198000002,6.033915665000049],[124.51721084500002,6.035014752000051],[124.51679015200013,6.035702566000057],[124.51567831800003,6.035722295000028]],[[124.51907711800003,6.0366026810000335],[124.51910911400012,6.03789994300007],[124.51847926300002,6.037858579000044],[124.51769492000005,6.036936770000067],[124.51790289000007,6.036351774000025],[124.51907711800003,6.0366026810000335]]]}},{"type":"Feature","properties":{"fid":214,"objectid":10023,"lccode":"02","liqcode":null,"mappers":"OPCHalasan, KSSochayseng, AATMagnaye, RPADizon, MJVReyes, HALVidal, MITAbigania, DJLBuhay","project":"ACER-DeLTA Liquefaction","province":"Sarangani","otherinfo":null,"datemapped":2025,"publishdate":2025,"globalid":"{80FA53E4-996E-4B30-88CB-5CF3D52CBB3A}","st_area(shape)":0.00512214156560372,"st_perimeter(shape)":11.803879412251622,"liqcodepk":null,"creator":null,"createdate":null,"editor":"DJLB","modifydate":"2025-07-07T08:00:00","codemove":null},"geometry":{"type":"MultiPolygon","coordinates":[[[[124.51679015200013,6.035702566000057],[124.51721084500002,6.035014752000051],[124.51656198000002,6.033915665000049],[124.51688997800011,6.032596758000067],[124.51557085500008,6.031937304000053],[124.51484355500008,6.032164213000045],[124.51527850900004,6.035241660000053],[124.51558574200011,6.035645248000036],[124.51567831800003,6.035722295000028],[124.51679015200013,6.035702566000057]]],[[[124.51907711800003,6.0366026810000335],[124.51790289000007,6.036351774000025],[124.51769492000005,6.036936770000067],[124.51847926300002,6.037858579000044],[124.51910911400012,6.03789994300007],[124.51907711800003,6.0366026810000335]]],[[[124.4857686843411,6.057175776984032],[124.48633675003308,6.056960212600347],[124.48576624500002,6.0571342360000235],[124.4857686843411,6.057175776984032]]],[[[124.52559183900009,6.057078296000043],[124.52602441500007,6.056383418000052],[124.52762162300007,6.05578071700006],[124.52846270700002,6.056815546000053],[124.52820869200002,6.0581182470000385],[124.52748852200013,6.058692583000037],[124.52817304100006,6.059297644000024],[124.52939471400009,6.059366186000033],[124.53026937600009,6.059075473000065],[124.5310629800001,6.060175255000047],[124.53098479200004,6.060994648000076],[124.52952068500008,6.061698974000025],[124.52943749600003,6.062750733000029],[124.5306187650001,6.062824002000071],[124.53127802900008,6.063601988000073],[124.53128515900006,6.064676197000038],[124.53206950300012,6.065108717000043],[124.53337792900004,6.064608838000025],[124.5332531470001,6.062857485000052],[124.53396618600006,6.062967388000061],[124.53414825000004,6.062040185000058],[124.53488268,6.061777836000032],[124.53573476200006,6.06228835300004],[124.53703646900011,6.060927228000025],[124.53795944300008,6.061121962000072],[124.53843361400006,6.061827470000026],[124.5391074370001,6.064064525000048],[124.5388079600001,6.065372719000038],[124.53947108700004,6.065450714000065],[124.54046080700006,6.063563585000054],[124.54100271700008,6.063289419000057],[124.54240027300013,6.06440499100006],[124.54284711100001,6.065180217000034],[124.54386115230456,6.065970866878169],[124.54243287300007,6.064164826000025],[124.5411554650001,6.06309672900005],[124.54042834200003,6.063184288000059],[124.53951998900004,6.0641607670000335],[124.53934452200008,6.062262522000024],[124.53996130100008,6.061347845000055],[124.54094529500001,6.060769967000055],[124.54088825200007,6.060043186000031],[124.54003617,6.059965189000024],[124.53929817500011,6.05933767600004],[124.53824287700003,6.059139141000059],[124.53736583900002,6.060287810000035],[124.53628915000002,6.060996864000059],[124.53562602300009,6.060479255000075],[124.5357579350001,6.058823611000037],[124.53496016300005,6.05829720500003],[124.53404212500004,6.05829720500003],[124.53258336600004,6.057546786000046],[124.53101765100007,6.057972221000058],[124.53064074200005,6.057376321000048],[124.52897657600012,6.059165799000028],[124.52780303200008,6.058728548000033],[124.52865570800009,6.058051990000023],[124.52883040300004,6.054744818000074],[124.52807933500004,6.053818311000042],[124.52665088000005,6.05411139000006],[124.52635853400011,6.055867498000055],[124.52555041200002,6.056606210000041],[124.52470208500004,6.055635300000064],[124.52547929700008,6.054231359000028],[124.52430991300004,6.053582567000036],[124.52385000299999,6.05379883100005],[124.52280896600007,6.055177956000023],[124.52163641200002,6.055621907000045],[124.52127395100001,6.057382738000057],[124.52064605600003,6.057062761000053],[124.51881931300012,6.057133292000059],[124.5175865760001,6.059544815000038],[124.51766828737345,6.060285788987616],[124.51781230600011,6.059203501000068],[124.51840650500002,6.058518080000057],[124.51877490900006,6.057383589000039],[124.52012476900005,6.057132794000039],[124.5211337200001,6.057852489000026],[124.52165780300004,6.057512140000028],[124.52175049800007,6.055891940000039],[124.52270597100006,6.055583500000068],[124.52412974100004,6.0562210710000395],[124.5245852810001,6.05695724000003],[124.52559183900009,6.057078296000043]]],[[[124.48555321800006,6.057257540000022],[124.48564131000012,6.059003231000076],[124.48705788200003,6.0603362550000375],[124.48513267600003,6.06213252200007],[124.48323851200007,6.06296605600005],[124.4822900260001,6.062680855000053],[124.47960989,6.063095354000042],[124.47925337100004,6.063479423000047],[124.47737570100003,6.0622385850000455],[124.47702672051673,6.062373036204426],[124.47797985700004,6.063090294000062],[124.47926332800013,6.063671715000055],[124.48147374900009,6.062962665000045],[124.48341321600005,6.063161199000035],[124.48556659400003,6.062111803000051],[124.48600867800008,6.061459475000049],[124.48712101900003,6.06094895700005],[124.48704971600012,6.060055549000025],[124.48588033100008,6.059077053000066],[124.4857686843411,6.057175776984032],[124.48555321800006,6.057257540000022]]],[[[124.51770956725844,6.060660121029635],[124.51766828737345,6.060285788987616],[124.51763166700003,6.06056098800002],[124.51770956725844,6.060660121029635]]],[[[124.49596123000003,6.065646430000072],[124.49434797900005,6.065870962000076],[124.4945647754439,6.066088986205055],[124.49608304100002,6.066080721000048],[124.49632165100003,6.065599872000063],[124.49592557800007,6.06427264900003],[124.49466266700006,6.061620642000038],[124.49389258500003,6.061159757000041],[124.49228111600007,6.060996675000068],[124.49115332500004,6.059716045000072],[124.48996492700007,6.059615595000025],[124.49020854900004,6.0589065400000655],[124.49137912100002,6.057878407000032],[124.49153955500005,6.057003903000065],[124.49092239800005,6.056715489000054],[124.48929942300002,6.056702552000047],[124.48847942900012,6.056147122000028],[124.48633675003308,6.056960212600347],[124.48809075300005,6.05642517800004],[124.4890319650001,6.0568506130000515],[124.49094291000006,6.056836432000067],[124.49119960400003,6.057715664000057],[124.48981630800006,6.058921061000036],[124.48995891500012,6.059857014000044],[124.49119960400003,6.060069730000064],[124.49248307400002,6.061346027000069],[124.49438971700009,6.062014358000055],[124.49571451800011,6.064199646000021],[124.49596123000003,6.065646430000072]]],[[[124.47693393228553,6.0624087845465136],[124.47702672051673,6.062373036204426],[124.47692455900005,6.062296157000048],[124.47693393228553,6.0624087845465136]]],[[[124.47139627300011,6.0622004730000745],[124.47166982788679,6.0627475284268835],[124.47256551300006,6.0623079740000225],[124.4737063760001,6.061929813000064],[124.47459767500004,6.061232578000045],[124.4753107140001,6.061197126000024],[124.47552462600004,6.06247342000006],[124.4737301440001,6.063879703000055],[124.47254174500007,6.063501543000029],[124.47169189867793,6.06279166555527],[124.47201891000009,6.063445621000027],[124.47301110900001,6.0639521230000355],[124.47406165300004,6.063895399000045],[124.4750694160001,6.063342341000065],[124.47597735200009,6.062274037000066],[124.47592022300013,6.061301403000072],[124.47531660200002,6.060889022000028],[124.47413345200005,6.061046490000025],[124.47364968100011,6.061769489000027],[124.47139627300011,6.0622004730000745]]],[[[124.47169189867793,6.06279166555527],[124.47166982788679,6.0627475284268835],[124.47165044600003,6.062757040000065],[124.47169189867793,6.06279166555527]]],[[[124.49906105600007,6.064863520000074],[124.49905996400003,6.0667431890000225],[124.49972258700008,6.067373501000018],[124.5007597340001,6.067306136000069],[124.5013979040001,6.065065549000052],[124.50135512100009,6.064048064000076],[124.49977988000012,6.064060018000021],[124.49906105600007,6.064863520000074]],[[124.49924120000004,6.065520363000076],[124.5004010770001,6.0641873520000305],[124.50112362400013,6.064688413000057],[124.50048664200006,6.065907975000072],[124.50047713500008,6.067070811000064],[124.49943134400007,6.066550844000063],[124.49924120000004,6.065520363000076]]],[[[124.49445493400003,6.066089584000053],[124.49474420937703,6.066269436075933],[124.4945647754439,6.066088986205055],[124.49445493400003,6.066089584000053]]],[[[124.52175864900003,6.062232109000035],[124.52019860800011,6.06067325400005],[124.51828229600004,6.061388953000061],[124.51770956725844,6.060660121029635],[124.51779507200003,6.061435487000039],[124.519082969,6.061507297000048],[124.52038281000013,6.0611518660000465],[124.52129787700005,6.062321802000041],[124.52295272200001,6.062416342000064],[124.523428082,6.062806320000048],[124.52289803700013,6.064606126000058],[124.52213448300006,6.065732070000024],[124.5223910850001,6.066683870000076],[124.52333586200005,6.066577512000038],[124.52454802800004,6.065765655000065],[124.52497941700007,6.066024456000035],[124.52443750800013,6.067665897000041],[124.524626462,6.068261494000068],[124.52389559800008,6.070253904000025],[124.52169230600009,6.071126023000033],[124.52038031400002,6.071856334000074],[124.5194223366741,6.072637661620455],[124.52172213700011,6.071280948000038],[124.52407516600012,6.070347378000066],[124.5247763220001,6.06846841600003],[124.52470501800008,6.06731031000004],[124.52510907300008,6.065691322000021],[124.52443168600009,6.065620417000047],[124.52344531500012,6.066294012000071],[124.52237575600007,6.065644052000038],[124.52312444800009,6.0645213930000645],[124.52388858600013,6.062061816000039],[124.52175864900003,6.062232109000035]]],[[[124.50859108300006,6.068741901000068],[124.50813363917247,6.068555243502565],[124.50858703890263,6.06893415673715],[124.50859108300006,6.068741901000068]]],[[[124.49561848600003,6.076612114000056],[124.49501846100009,6.077313455000024],[124.49721699900012,6.077927949000071],[124.49729561800008,6.075723591000043],[124.49798351600009,6.074914559000035],[124.4989995960001,6.075221807000047],[124.49944177300007,6.0738315140000605],[124.5005959350001,6.073216944000025],[124.50236870700007,6.0729647090000745],[124.50138827800004,6.0715939010000275],[124.50151738000011,6.070838980000075],[124.50278896600003,6.0699999480000315],[124.50476170800006,6.070011765000059],[124.5052014150001,6.06835733300005],[124.5059263390001,6.06861731500004],[124.50600655100006,6.07072830200002],[124.50707932100012,6.070417840000061],[124.5083122850001,6.071123926000042],[124.50880464000011,6.069116009000027],[124.50858703890263,6.06893415673715],[124.50857789100007,6.069369049000043],[124.5062759440001,6.069871711000077],[124.50612060600008,6.0685590190000775],[124.50483978400008,6.068263533000048],[124.50465914700008,6.069809246000032],[124.50404118000007,6.069979416000023],[124.502007434,6.069182926000052],[124.50108523700011,6.07053483200002],[124.5011850620001,6.071366772000033],[124.5003104010001,6.072345246000052],[124.49877974300011,6.071480219000024],[124.49880122200011,6.070362874000068],[124.4980857180001,6.069461815000068],[124.49913655200011,6.068833232000031],[124.49895088100004,6.067471443000044],[124.4978413240001,6.066724393000073],[124.49679977100004,6.066691826000067],[124.49605630100008,6.067085203000034],[124.49474420937703,6.066269436075933],[124.49572568500004,6.067256465000071],[124.49768202100007,6.066966817000035],[124.49870002600005,6.067684272000065],[124.49849963900012,6.06893323300005],[124.49777198100004,6.069825632000061],[124.49745106500006,6.071705213000029],[124.49785313000005,6.073226216000023],[124.49765789500009,6.074030234000077],[124.49530486600008,6.074781812000026],[124.49561848600003,6.076612114000056]]],[[[124.51917074582543,6.072842858898078],[124.5194223366741,6.072637661620455],[124.5191583830001,6.072793374000071],[124.51917074582543,6.072842858898078]]],[[[124.51911509700005,6.072888246000047],[124.51926846146372,6.073233986499589],[124.51917074582543,6.072842858898078],[124.51911509700005,6.072888246000047]]],[[[124.47662746000002,6.071140322000074],[124.47738328100002,6.0700625800000685],[124.4781676240001,6.069637155000065],[124.48108858400009,6.069015716000024],[124.48147215100005,6.068483640000068],[124.48135449900008,6.067466161000025],[124.48067711200008,6.067097458000035],[124.47930451200011,6.067196724000042],[124.47794260600006,6.065179487000024],[124.47709568900005,6.0643524030000435],[124.47693393228553,6.0624087845465136],[124.47624078100013,6.062675833000071],[124.47681287400007,6.063319057000056],[124.47693275200004,6.064567304000036],[124.47777411800007,6.065340045000028],[124.47858723900003,6.067028777000074],[124.4791547740001,6.067494523000051],[124.48055589500007,6.067448435000072],[124.48121545700008,6.068434006000074],[124.48080545900007,6.068916156000057],[124.47960755400005,6.068717624000044],[124.476962178,6.070073864000051],[124.47645607400011,6.071135638000044],[124.47652595700004,6.073308495000049],[124.47706918300004,6.074598859000046],[124.47727239900007,6.076750777000029],[124.47789987400007,6.07764061200004],[124.47665364000011,6.078132010000046],[124.47695074,6.079597338000043],[124.47752117100003,6.081080388000031],[124.47564785900012,6.082724737000034],[124.47566211900006,6.083764639000037],[124.47680523500001,6.0845641350000506],[124.47911798300002,6.084606013000042],[124.47918033070488,6.085177035109362],[124.47920034300012,6.084460655000044],[124.47653833000005,6.084354301000077],[124.47581340600004,6.083798900000033],[124.47588471000006,6.082723547000056],[124.47779803200001,6.081151873000067],[124.47676412500005,6.078268490000028],[124.47804759600002,6.077748534000023],[124.47760788800008,6.076720437000063],[124.47729022600002,6.074219525000047],[124.4767130240001,6.0735368710000435],[124.47662746000002,6.071140322000074]]],[[[124.45611974000008,6.074304167000037],[124.45733666,6.0746634120000635],[124.45817329200008,6.075542615000074],[124.45936052063762,6.075882473337209],[124.45812795200003,6.075347728000055],[124.45773042300006,6.074677982000025],[124.45627082400007,6.074228387000062],[124.45548942786078,6.073517576734763],[124.45550467047073,6.07381200804803],[124.45611974000008,6.074304167000037]]],[[[124.520209582,6.075355608000053],[124.51926846146372,6.073233986499589],[124.51940592300002,6.073784204000048],[124.520309185667,6.07583519046474],[124.520209582,6.075355608000053]]],[[[124.45936052063762,6.075882473337209],[124.45943932786484,6.075916663417118],[124.45942824100007,6.075901859000056],[124.45936052063762,6.075882473337209]]],[[[124.51654495600008,6.077332096000021],[124.51683076000006,6.07813092200007],[124.5165663470001,6.0790408600000205],[124.51564652700004,6.079047951000064],[124.51537410800005,6.080540928000062],[124.516163204,6.080852900000025],[124.51744667500007,6.0807110950000265],[124.51818304500013,6.08102377700004],[124.51894956100011,6.081966781000063],[124.52053963900006,6.082534002000044],[124.52231154100004,6.083608174000062],[124.52352906700004,6.084743372000048],[124.52432647100012,6.085892407000073],[124.52505733700004,6.08796628700003],[124.52544950800007,6.0904017580000405],[124.52686489000007,6.091553906000058],[124.52829443700011,6.092438751000031],[124.52882846300007,6.094197078000037],[124.52925183900005,6.096830199000067],[124.52981510100007,6.0982139520000365],[124.53017561300011,6.10226824600005],[124.53097183999999,6.1027645450000705],[124.53163734300004,6.102469129000043],[124.5313521270001,6.101606513000036],[124.53145908300007,6.100153062000062],[124.53053213200008,6.097978785000065],[124.5313996630001,6.093334785000024],[124.531019376,6.091231383000036],[124.52998546900004,6.089789720000055],[124.52896310200005,6.0889645280000755],[124.5284999710001,6.085937389000035],[124.52903475000005,6.084968393000054],[124.52889214200002,6.084318456000061],[124.52774123600013,6.083401857000069],[124.5264064070001,6.082837464000022],[124.52572426600013,6.081521040000041],[124.5256291940001,6.080365326000048],[124.52505400900007,6.078285507000031],[124.52335935300006,6.077895541000032],[124.52125866200004,6.07620875200007],[124.52042973800009,6.0761089200000225],[124.520309185667,6.07583519046474],[124.52040948,6.076318097000068],[124.52131675600003,6.076534275000029],[124.52316841700008,6.077975110000067],[124.52473472600003,6.078350896000074],[124.52540260600007,6.079889490000027],[124.52563534500007,6.081582936000074],[124.52621510000006,6.082836992000067],[124.52749181000001,6.083427530000051],[124.52884179700004,6.0845966450000315],[124.52831616300011,6.085875626000075],[124.52877152000006,6.088838260000044],[124.52955645600004,6.0900060480000215],[124.53088231200002,6.09143490900004],[124.5311484560001,6.09292134900005],[124.53044379300003,6.098372796000034],[124.53130300500004,6.1001878430000716],[124.5311176150001,6.1025984430000335],[124.5303719960001,6.102140742000073],[124.52991371000009,6.098321740000072],[124.52921502700008,6.09638686300002],[124.52915970200002,6.095420384000022],[124.52839069700008,6.092283390000034],[124.52570647700009,6.090255542000022],[124.52523939900004,6.087947380000059],[124.52454820700008,6.085888412000032],[124.52293618400007,6.08373494500006],[124.52117263100001,6.082554101000029],[124.51924547300007,6.081771799000022],[124.51811414100008,6.080771762000041],[124.51728140600005,6.080417558000022],[124.51587671900005,6.080662173000064],[124.51600661100008,6.079413102000046],[124.51680104900005,6.079182898000056],[124.51702625800009,6.07773624500004],[124.51555739700007,6.07610901600003],[124.5141460210001,6.0749308490000535],[124.51398871000004,6.0726879180000415],[124.51343967100001,6.070018383000045],[124.51151326000002,6.066382682000038],[124.5097670570001,6.0658867530000276],[124.50845204000005,6.06619288500002],[124.50817039000003,6.067341539000039],[124.50755717600009,6.068320020000045],[124.50813363917247,6.068555243502565],[124.50791096400006,6.068369150000023],[124.50840533800012,6.066440548000059],[124.50947965100009,6.066034028000046],[124.51183774800005,6.067097267000063],[124.51188286800004,6.068200871000045],[124.51249347800001,6.068686744000046],[124.51318297600005,6.07001129300005],[124.51370706000012,6.0728687220000666],[124.51360977900003,6.074043926000058],[124.51388175500006,6.0750702810000226],[124.51654495600008,6.077332096000021]]],[[[124.48795983100003,6.085632510000039],[124.48897163900007,6.084962539000059],[124.49105216600002,6.084581318000061],[124.49251602500009,6.0855053480000265],[124.49311543100009,6.08552863700004],[124.49324023500004,6.084250852000025],[124.49376758200003,6.0839400420000525],[124.49422066400007,6.082208863000061],[124.49357179800006,6.081875621000052],[124.4930372680001,6.083289495000032],[124.49161094000011,6.083609186000046],[124.49125266300007,6.082405118000055],[124.49190090900004,6.080243677000055],[124.4918391120001,6.078116589000048],[124.49089790100005,6.077142852000065],[124.49023715100007,6.076930143000025],[124.49017535500002,6.075644429000022],[124.48873501500009,6.0756302480000395],[124.48854011900004,6.07614075300006],[124.48886336300006,6.077473733000032],[124.48802673000012,6.079577190000065],[124.48851635000004,6.081151232000024],[124.48767496399999,6.0815010190000285],[124.48649607300001,6.0808676210000385],[124.48686793200012,6.0825320910000755],[124.48599694500001,6.08354773700006],[124.48485132900011,6.083538284000043],[124.48396796300005,6.084097360000044],[124.48343000400006,6.085381742000038],[124.48291661600001,6.0857457060000675],[124.48185656400005,6.085216303000038],[124.48107801200001,6.086150489000033],[124.48147018400006,6.087757599000043],[124.48061839500942,6.088615728534094],[124.48135098400007,6.088453626000047],[124.48164722500009,6.087412063000044],[124.48129517200005,6.086302131000024],[124.48350754700006,6.085805087000039],[124.4841092150001,6.0843698460000715],[124.48489084300003,6.083810372000072],[124.48657002400013,6.083760084000063],[124.48695732600002,6.083442108000041],[124.48729378500003,6.081988178000074],[124.48854635700003,6.081933819000027],[124.48933309600011,6.080527378000056],[124.48898995600007,6.0789327380000495],[124.48986356000012,6.076348627000073],[124.49011522400006,6.077857704000053],[124.49144842700002,6.079300964000027],[124.49112042900003,6.080619757000021],[124.4889795140001,6.082106623000072],[124.48821083300002,6.083707209000066],[124.4884648330001,6.084160999000062],[124.48801080500006,6.0854904570000485],[124.48728778400005,6.0860817810000745],[124.48635489100003,6.088262015000054],[124.48476837800001,6.089337357000034],[124.48423743300008,6.090053487000034],[124.4848337410001,6.091361988000075],[124.48587477800005,6.0924432320000514],[124.48558599700004,6.093127428000059],[124.4840780080001,6.092799003000038],[124.48357416241548,6.093099748562712],[124.48457289500006,6.093077178000044],[124.48600693000004,6.0936186230000535],[124.48768233200008,6.093393306000053],[124.48610473300005,6.092131266000025],[124.4854219980001,6.090979120000044],[124.484454055,6.090241126000024],[124.48477492300003,6.089555745000041],[124.4859157850001,6.088988532000029],[124.4874131670001,6.086991465000039],[124.48795983100003,6.085632510000039]]],[[[124.47920830100007,6.085433205000071],[124.47918033070488,6.085177035109362],[124.47917258430968,6.085454334504778],[124.47920830100007,6.085433205000071]]],[[[124.47614612300004,6.089239886000031],[124.47729260300004,6.090211986000044],[124.47834314700003,6.089833845000044],[124.47859929700007,6.088589635000061],[124.47960760300008,6.08795731500004],[124.48005325200005,6.088740779000033],[124.48052661100708,6.08863603782891],[124.47941425400005,6.0877694160000715],[124.4784516510001,6.0886675050000445],[124.4782020880001,6.089731029000063],[124.477120645,6.090002818000073],[124.4762293460001,6.088939295000045],[124.47662151800012,6.087344005000032],[124.47916469100005,6.085736894000035],[124.47917258430968,6.085454334504778],[124.47733063100009,6.086544004000076],[124.47629154000003,6.087536534000037],[124.47614612300004,6.089239886000031]]],[[[124.48061839500942,6.088615728534094],[124.48052661100708,6.08863603782891],[124.48056700100007,6.088667505000044],[124.48061839500942,6.088615728534094]]],[[[124.48349760779034,6.0931454439759625],[124.48357416241548,6.093099748562712],[124.483527104,6.093100812000045],[124.48349760779034,6.0931454439759625]]],[[[124.48349760779034,6.0931454439759625],[124.48291335600005,6.093494183000075],[124.48284840500003,6.094409967000047],[124.4839150874365,6.096575688227445],[124.48400246300002,6.095913215000052],[124.48333696000007,6.095097856000051],[124.48298044100011,6.093927990000055],[124.48349760779034,6.0931454439759625]]],[[[124.4642889270001,6.086829551000049],[124.4627499520001,6.087308139000071],[124.46301377600003,6.088396482000065],[124.46405872100003,6.088670895000065],[124.46540958800007,6.08940328500006],[124.46561993400009,6.090470353000056],[124.4651528930001,6.0912396330000425],[124.46481776500002,6.092966078000073],[124.46130961200005,6.093320584000026],[124.46390329200007,6.094541854000056],[124.46538641400002,6.094236979000073],[124.46630501700008,6.094722733000027],[124.46870501700005,6.0954736090000665],[124.47008058800009,6.095704036000027],[124.47049528600007,6.097334372000033],[124.47221376400012,6.09675573000004],[124.4729618880001,6.097143801000071],[124.4731761690001,6.09787005100003],[124.4717353840001,6.100924080000026],[124.47012213300003,6.101405609000038],[124.4701554080001,6.102438385000027],[124.46926410900006,6.103072938000025],[124.469194341236,6.103893160237536],[124.47199549871644,6.106420493310141],[124.47199783901621,6.106422220740763],[124.47327832100008,6.105447209000033],[124.47407116700005,6.105253599000037],[124.47554935100004,6.104199377000042],[124.47548925100011,6.102994339000077],[124.47624831000009,6.102601785000047],[124.47656901323967,6.101421408452742],[124.47630346900007,6.10212413000005],[124.47531050300006,6.102852145000043],[124.47485772300001,6.102564999999999],[124.4736337920001,6.103475590000073],[124.47279299900002,6.103059053000039],[124.47286430300007,6.10171195600003],[124.47223742300001,6.100403259000075],[124.47304640000004,6.0989254910000446],[124.47348274600006,6.097200218000068],[124.47227604600005,6.096291035000035],[124.47080243200001,6.096234906000065],[124.47008526800005,6.0954078460000565],[124.46855338800003,6.095014822000053],[124.46726219200002,6.093571790000055],[124.46679812200013,6.091766765000044],[124.466168271,6.090648887000042],[124.466970176,6.089481848000048],[124.46623719800003,6.089193043000024],[124.46574995500009,6.087590664000062],[124.46531121600005,6.084869954000054],[124.46412422600008,6.084045561000038],[124.46411234100003,6.082766954000023],[124.46291098700011,6.081503440000063],[124.46188164999998,6.078450345000022],[124.46013484800007,6.077655897000055],[124.45985247100009,6.076095903000067],[124.45943932786484,6.075916663417118],[124.45976099300002,6.076346186000023],[124.4595721730001,6.078140449000045],[124.46130485900005,6.07845951300004],[124.46196442000009,6.079111821000027],[124.46210346200009,6.080164729000045],[124.46267599900013,6.081649276000062],[124.46363475200008,6.082552465000048],[124.46330493300002,6.083880023000063],[124.46499483700006,6.084897470000043],[124.46502335800007,6.086336783000036],[124.4642889270001,6.086829551000049]]],[[[124.48389218044072,6.096749366872289],[124.48392434300001,6.096594480000021],[124.4839150874365,6.096575688227445],[124.48389218044072,6.096749366872289]]],[[[124.47656901323967,6.101421408452742],[124.47685599806401,6.100661946255161],[124.47676321400003,6.100706634000062],[124.47656901323967,6.101421408452742]]],[[[124.48833298800004,6.111245279000059],[124.48923141700004,6.112899579000042],[124.49081436400002,6.113778720000028],[124.49202653100008,6.113693642000043],[124.49215487800006,6.112545087000058],[124.49257175128798,6.112243630241319],[124.492041759,6.112206954000043],[124.49189867600012,6.113236715000028],[124.49137102700003,6.113552213000046],[124.49028988300006,6.113257794000049],[124.48910640000008,6.112187514000028],[124.48848678300011,6.110794258000054],[124.48844623800005,6.109642582000048],[124.48894312900008,6.108738190000053],[124.48789143400006,6.107601785000041],[124.48718420500006,6.107341699000074],[124.4853316760001,6.1073955790000705],[124.48392301300011,6.106141611000056],[124.48374487300009,6.105098345000043],[124.48307076100002,6.104178168000031],[124.48048188900007,6.103227894000042],[124.47998276200009,6.10277413500006],[124.47945491500003,6.10090923000007],[124.4791281040001,6.10053995900006],[124.47697941100012,6.100335352000059],[124.47685599806401,6.100661946255161],[124.4773716740001,6.100413580000065],[124.47845685800006,6.100602232000028],[124.4793412250001,6.101567495000039],[124.47957276400008,6.102605157000027],[124.48019667400003,6.103342515000064],[124.48308741400001,6.104503648000046],[124.48359787000004,6.106054424000035],[124.48532871600003,6.107719238000073],[124.48778404400004,6.1076666850000265],[124.4884179500001,6.1086914020000345],[124.48833298800004,6.111245279000059]]],[[[124.49696076200007,6.115310122000038],[124.49667554600002,6.114374266000028],[124.49675216800006,6.11322106600005],[124.49622543800001,6.112376741000047],[124.49525800700009,6.111885108000024],[124.49414305400013,6.1108469020000475],[124.49377449200006,6.109828636000032],[124.491191145,6.109225667000032],[124.49067037200007,6.106933278000041],[124.49072806300002,6.105607698000028],[124.49034296900005,6.104952386000036],[124.48903124800006,6.103905528000041],[124.48620470500009,6.103559551000047],[124.48547607800005,6.102601475000029],[124.48513144200001,6.099954541000044],[124.48419260700005,6.09873742000002],[124.48381232000008,6.097354861000041],[124.48389218044072,6.096749366872289],[124.4836819100001,6.097761976000072],[124.4839528650001,6.098707315000069],[124.48483418200011,6.099950642000066],[124.48533140700012,6.101826922000043],[124.48534721300008,6.1027758580000295],[124.48643076900011,6.103793704000054],[124.48845368600008,6.103926798000033],[124.48896460900006,6.10420995000004],[124.4904662030001,6.106543409000038],[124.49084666500005,6.109133307000037],[124.491995599,6.1096828340000675],[124.49376052800007,6.109965058000057],[124.49416378300009,6.111245978000056],[124.49578682500011,6.112522814000044],[124.49642305700002,6.113511958000061],[124.49644612200005,6.114590416000055],[124.4970634570001,6.115761324000059],[124.4985492630001,6.115822370000046],[124.50034984600006,6.114309947000037],[124.50236490300006,6.115250857000036],[124.50266990422605,6.116501492422337],[124.50288622706206,6.116490248459019],[124.5027363800001,6.115508637000061],[124.50239412100007,6.114969811000036],[124.50033371400004,6.114225411000064],[124.49844658200004,6.115561015000025],[124.49696076200007,6.115310122000038]]],[[[124.49257175128798,6.112243630241319],[124.49283258178268,6.112261679895861],[124.49278235300004,6.112091336000049],[124.49257175128798,6.112243630241319]]],[[[124.49941424343703,6.116546061694708],[124.50028168929784,6.1165862884641395],[124.50098230300013,6.1165862880000645],[124.50098327473978,6.116589156575166],[124.50113718419112,6.116581157204878],[124.50036365800007,6.116099098000063],[124.49941424343703,6.116546061694708]]],[[[124.49336863100007,6.113409717000025],[124.49333949100003,6.11229675800007],[124.49283258178268,6.112261679895861],[124.49395395466722,6.1160646171375825],[124.49404835630897,6.116078365132991],[124.49336863100007,6.113409717000025]]],[[[124.54387677700004,6.065990624000051],[124.54390098158186,6.06600192174066],[124.54386115230456,6.065970866878169],[124.54387677700004,6.065990624000051]]],[[[124.54475025100011,6.06639832600007],[124.54390098158186,6.06600192174066],[124.54452037700003,6.066484863000029],[124.54544365658616,6.066488838608554],[124.54542327753134,6.066353963751718],[124.54475025100011,6.06639832600007]]]]}}]}