{"type":"FeatureCollection","features":[{"type":"Feature","properties":{"fid":21,"objectid":1867,"lccode":"07","liqcode":"2010600070000000","mappers":"DJLBuhay","project":"Negros Occidental Multi-Hazard Mapping","province":"Negros Occidental","otherinfo":null,"datemapped":2018,"publishdate":null,"globalid":"{BDFFB75F-E1DC-47A8-B9CF-113E0CE8D2E7}","st_area(shape)":0.051419613090430895,"st_perimeter(shape)":11.901738684521376,"liqcodepk":"201060007000000000059","creator":"SNOOPYPC","createdate":"2019-02-19T15:21:28","editor":"LENOVO","modifydate":"2019-03-10T17:50:55","codemove":"na"},"geometry":{"type":"Polygon","coordinates":[]}},{"type":"Feature","properties":{"fid":46,"objectid":1895,"lccode":"05","liqcode":"2010600050000000","mappers":"DJLBuhay","project":"Negros Occidental Multi-Hazard Mapping","province":"Negros Occidental","otherinfo":null,"datemapped":2018,"publishdate":null,"globalid":"{149718D2-4D93-4457-9604-37CB70EA27A9}","st_area(shape)":0.01745435689673941,"st_perimeter(shape)":6.697527242466418,"liqcodepk":"201060005000000000089","creator":"SNOOPYPC","createdate":"2019-02-19T15:21:28","editor":"LENOVO","modifydate":"2019-03-10T17:50:55","codemove":"na"},"geometry":{"type":"MultiPolygon","coordinates":[[[[122.97713941100005,10.509891962000038],[122.97770453300006,10.508880691000059],[122.9778829920001,10.507720704000064],[122.97585468700004,10.503503676000037],[122.9756819910001,10.50171256500005],[122.97502763900002,10.50019565900004],[122.97413534100009,10.49939259100006],[122.97242826300011,10.498649576000046],[122.96974423100006,10.49807850500002],[122.96881129700012,10.498351577000049],[122.96616414700009,10.49838132000002],[122.96488518700006,10.49882746900005],[122.96333853700003,10.499779253000042],[122.96232726600009,10.501177186000062],[122.96078061700007,10.501534106000063],[122.95968011600006,10.501444876000049],[122.95825243900005,10.500225402000067],[122.9575088580001,10.499927969000055],[122.95539708600006,10.500582321000023],[122.95453453100004,10.500225402000071],[122.9537909500001,10.49942233400003],[122.95352326000011,10.498500293000063],[122.9536422330001,10.496596724000028],[122.95393966600012,10.495377250000043],[122.95396940900002,10.493800857000055],[122.95328531400003,10.492224464000058],[122.95272019200002,10.491570113000021],[122.95084636700005,10.490410125000038],[122.94992432600007,10.490112693000071],[122.9492645140001,10.488923681000074],[122.94730115400012,10.487685019000027],[122.94718694000007,10.487228163000056],[122.94416026600004,10.484658345000067],[122.94336076700006,10.484201488000055],[122.94407885300006,10.486162494000041],[122.94560170800001,10.489636507000053],[122.94736250900009,10.491587665000052],[122.950205965,10.493324671000039],[122.95096739200005,10.495180651000057],[122.950872214,10.497607701000048],[122.95044391100011,10.498178772000072],[122.94949212600011,10.498131183000055],[122.94854034200013,10.496751095000034],[122.94663677300002,10.494942705000028],[122.94394798200004,10.49215873600002],[122.94249651100006,10.490873827000028],[122.93983151500005,10.489446150000047],[122.93704754500004,10.486781154000028],[122.935667458,10.486186288000058],[122.93490603000008,10.48642423500007],[122.93407321900008,10.487566376000075],[122.93188411500012,10.488351598000065],[122.92974260000005,10.48828021400004],[122.92486470500013,10.486614591000034],[122.92350841200003,10.486947716000032],[122.92315581746789,10.487217672659712],[122.92383662368094,10.488643187373064],[122.9261409671894,10.492450180590831],[122.92881131163408,10.49601528381643],[122.93182194573242,10.499304154473021],[122.93514387742107,10.502285109874498],[122.93874511298444,10.504929432697672],[122.94259096523392,10.50721164789833],[122.94465775980512,10.508179487565938],[122.94486797100001,10.506530974000043],[122.94486797100001,10.504984324000077],[122.94409464600007,10.50305101200007],[122.94186390200001,10.500879754000039],[122.9409716040001,10.49954130700007],[122.94052545500006,10.498024401000066],[122.9397521300001,10.497251076000055],[122.93847317000007,10.496894157000042],[122.93606396500003,10.495853142000042],[122.9360342220001,10.494812128000033],[122.93665883100005,10.493949574000055],[122.93871111600005,10.494217263000051],[122.9422208210001,10.495050074000062],[122.94409464600007,10.495763913000076],[122.94534386300008,10.497280819000023],[122.94662282400007,10.49960079400006],[122.94700948600007,10.501087957000037],[122.94834793300004,10.50200999800006],[122.94998381200003,10.502188457000043],[122.95093559700001,10.50272383600003],[122.95173866500011,10.50453817500005],[122.95301762500004,10.505757649000028],[122.95512939700008,10.506560717000067],[122.95658681600003,10.507393528000021],[122.96075087300005,10.508910435000073],[122.96280315800003,10.509059151000029],[122.96613440400004,10.50908889400006],[122.96794874300008,10.508731975000048],[122.96907898700012,10.508018137000018],[122.96997128500004,10.506887893000055],[122.9707148660001,10.505162784000047],[122.9704471770001,10.503407931000025],[122.96985231200006,10.502783323000072],[122.96985231200006,10.501772052000033],[122.9704471770001,10.500968984000052],[122.97181536700009,10.50126641600002],[122.9722615160001,10.502991525000025],[122.9722317730001,10.50513304000003],[122.97246971900006,10.508642745000033],[122.97270766500004,10.510338111000067],[122.97308978494493,10.511675535118751],[122.97720310007088,10.510656235072465],[122.97713941100005,10.509891962000038]]],[[[122.92185468700005,10.47983312800005],[122.92404379100003,10.479357235000066],[122.92642325200008,10.480213841000024],[122.92808887500007,10.481213215000023],[122.9298020870001,10.48149875000007],[122.93237190400009,10.482212589000028],[122.93375199200011,10.482212589000026],[122.93608386400001,10.481736696000041],[122.93917716300005,10.481546339000033],[122.94027698600007,10.481231921000076],[122.93782138200004,10.480146886000053],[122.93582263500001,10.477519962000027],[122.93388099500011,10.476263607000023],[122.93228199700003,10.475920964000068],[122.93016903500006,10.474778823000065],[122.92697104000003,10.474893037000069],[122.92542914900004,10.474493288000074],[122.92320197400011,10.473579575000029],[122.92137454800003,10.473865109000027],[122.9189643713181,10.473753008114219],[122.91932254542073,10.476147085988659],[122.920386405592,10.480355185193305],[122.92185468700005,10.47983312800005]]]]}},{"type":"Feature","properties":{"fid":59,"objectid":1908,"lccode":"05","liqcode":"2010600050000000","mappers":"PJDelosReyes, ACPidlaoan","project":"READY","province":"Iloilo","otherinfo":null,"datemapped":2010,"publishdate":null,"globalid":"{282D04BA-68E2-41E5-9B8A-0D8D85396F2D}","st_area(shape)":0.06128738608791496,"st_perimeter(shape)":10.692281506054618,"liqcodepk":"201060005000000000103","creator":"SNOOPYPC","createdate":"2019-02-19T15:21:28","editor":"LENOVO","modifydate":"2019-03-10T17:50:55","codemove":"na"},"geometry":{"type":"Polygon","coordinates":[]}},{"type":"Feature","properties":{"fid":61,"objectid":1925,"lccode":"06","liqcode":"2010600060000000","mappers":"DJLBuhay","project":"Negros Occidental Multi-Hazard Mapping","province":"Negros Occidental","otherinfo":null,"datemapped":2018,"publishdate":null,"globalid":"{E5539A65-5F4C-46A4-8778-850E85BFF908}","st_area(shape)":0.021565408471292534,"st_perimeter(shape)":8.733756823540528,"liqcodepk":"201060006000000000123","creator":"SNOOPYPC","createdate":"2019-02-19T15:21:28","editor":"LENOVO","modifydate":"2019-03-10T17:50:55","codemove":"na"},"geometry":{"type":"Polygon","coordinates":[[[122.92350841200003,10.486947716000032],[122.92486470500013,10.486614591000034],[122.92974260000005,10.48828021400004],[122.93188411500012,10.488351598000065],[122.93407321900008,10.487566376000075],[122.93490603000008,10.48642423500007],[122.935667458,10.486186288000058],[122.93704754500004,10.486781154000028],[122.93983151500005,10.489446150000047],[122.94249651100006,10.490873827000028],[122.94394798200004,10.49215873600002],[122.94663677300002,10.494942705000028],[122.94854034200013,10.496751095000034],[122.94949212600011,10.498131183000055],[122.95044391100011,10.498178772000072],[122.950872214,10.497607701000048],[122.95096739200005,10.495180651000057],[122.950205965,10.493324671000039],[122.94736250900009,10.491587665000052],[122.94560170800001,10.489636507000053],[122.94407885300006,10.486162494000041],[122.94336076700006,10.484201488000055],[122.9432361710001,10.484061317000053],[122.94238994700005,10.482945133000044],[122.94107648500005,10.481688778000034],[122.94027698600007,10.481231921000076],[122.93917716300005,10.481546339000033],[122.93608386400001,10.481736696000041],[122.93375199200011,10.482212589000026],[122.93237190400009,10.482212589000028],[122.9298020870001,10.48149875000007],[122.92808887500007,10.481213215000023],[122.92642325200008,10.480213841000024],[122.92404379100003,10.479357235000066],[122.92185468700005,10.47983312800005],[122.920386405592,10.480355185193305],[122.92041093044575,10.480452191885977],[122.92192046421684,10.48463097555788],[122.92315581746789,10.487217672659712],[122.92350841200003,10.486947716000032]]]}}]}