{"type":"FeatureCollection","features":[{"type":"Feature","properties":{"fid":32,"objectid":1878,"lccode":"07","liqcode":"2010600070000000","mappers":"PJDelosReyes, ACPidlaoan","project":"READY","province":"Iloilo","otherinfo":null,"datemapped":2010,"publishdate":null,"globalid":"{2F92972A-C07C-4633-B325-DF2A08960C6C}","st_area(shape)":0.031106077518548395,"st_perimeter(shape)":5.287074988133156,"liqcodepk":"201060007000000000071","creator":"SNOOPYPC","createdate":"2019-02-19T15:21:28","editor":"LENOVO","modifydate":"2019-03-10T17:50:55","codemove":"na"},"geometry":{"type":"Polygon","coordinates":[]}},{"type":"Feature","properties":{"fid":59,"objectid":1908,"lccode":"05","liqcode":"2010600050000000","mappers":"PJDelosReyes, ACPidlaoan","project":"READY","province":"Iloilo","otherinfo":null,"datemapped":2010,"publishdate":null,"globalid":"{282D04BA-68E2-41E5-9B8A-0D8D85396F2D}","st_area(shape)":0.06128738608791496,"st_perimeter(shape)":10.692281506054618,"liqcodepk":"201060005000000000103","creator":"SNOOPYPC","createdate":"2019-02-19T15:21:28","editor":"LENOVO","modifydate":"2019-03-10T17:50:55","codemove":"na"},"geometry":{"type":"MultiPolygon","coordinates":[[[[122.63591896800006,11.112328019000074],[122.63741149200008,11.113067268000066],[122.63761014200009,11.113510012000061],[122.6370610680001,11.114640205000054],[122.63541801700002,11.114834877000018],[122.6344236970001,11.11380119100005],[122.63412657100002,11.112522504000026],[122.63173780000011,11.111929615000061],[122.63059233700005,11.112272341000047],[122.62964389500007,11.114336135000027],[122.62959295500004,11.115270267000026],[122.62874377000003,11.11753083800005],[122.626501565,11.119052142000045],[122.62470666900005,11.121164052000038],[122.62460513000008,11.122737191000056],[122.62490172000003,11.124409201000049],[122.62619502100006,11.125246632000028],[122.62539711400007,11.126278117000027],[122.62320434600008,11.128045391000057],[122.62230626000009,11.129568341000036],[122.62220584500004,11.130256564000035],[122.62414373800006,11.13311058100004],[122.62488875800011,11.134537306000027],[122.62568410200005,11.135472492000074],[122.62598146100005,11.136554527000042],[122.62513331600006,11.13793007600003],[122.62553070900003,11.138618921000043],[122.62722298800009,11.139014342000053],[122.62981346800008,11.13773922400003],[122.63051172500002,11.136756793000075],[122.63220571600006,11.13572639400007],[122.63285185400004,11.136612101000024],[122.63434418400006,11.137597303000065],[122.63529005600003,11.137696737000054],[122.63698415800002,11.136568027000068],[122.63753399200004,11.134798676000061],[122.63529678900011,11.132288507000053],[122.63236199600009,11.130219973000065],[122.63286232599998,11.128254001000075],[122.63241627500008,11.126680099000055],[122.63306557900012,11.124960154000064],[122.63261977800003,11.123189594000054],[122.63297029900002,11.121567567000056],[122.63237463300005,11.120141044000032],[122.63207783300004,11.11866569700004],[122.63262698200003,11.117437230000064],[122.63362364000012,11.116602625000041],[122.63611241900004,11.116900678000034],[122.63725801600002,11.116459557000043],[122.63840480700003,11.11498595300003],[122.63899716480832,11.113509133153244],[122.63766889471903,11.112886734052712],[122.63581452058988,11.112228918395047],[122.63591896800006,11.112328019000074]]],[[[122.59942404600008,11.115772403000049],[122.60315235100006,11.119759777000068],[122.60618655000007,11.121681157000069],[122.60753000600003,11.122174603000076],[122.60872503300004,11.122028690000034],[122.61071760400013,11.121097083000054],[122.6108720530001,11.117262407000055],[122.61117435700011,11.11455868200005],[122.61216963500009,11.114805811000053],[122.6122163540001,11.11716576800006],[122.61186182100005,11.121737723000024],[122.61260518400003,11.124295325000046],[122.61379788500005,11.125919311000075],[122.61429385800011,11.127296553000066],[122.61493992200008,11.128182387000038],[122.61633339200012,11.12857748500005],[122.61777701500013,11.128677699000036],[122.61872379800002,11.127990553000073],[122.61942270500003,11.126516458000022],[122.62071937000009,11.124748174000047],[122.62052170600009,11.123617073000046],[122.61962744600011,11.122190149000062],[122.61818481400007,11.121352501000045],[122.61813639600007,11.120319962000051],[122.620476714,11.11992960700007],[122.62321641200005,11.118654728000022],[122.62471038000001,11.118263279000077],[122.62750100500011,11.116103506000059],[122.62839964400007,11.114088755000067],[122.62855205200003,11.111679855000034],[122.62890127500008,11.111090310000064],[122.63064390500007,11.110895795000033],[122.63159977463671,11.110928954167619],[122.62908305668519,11.110303065445793],[122.62463936420184,11.109646432106246],[122.62015191398558,11.10942306316861],[122.61821294716,11.109514681775519],[122.6180007280001,11.10979835000006],[122.61765020500003,11.111371171000032],[122.61700076800001,11.113091172000054],[122.61600510500013,11.11313909100005],[122.61421573100007,11.11102265900007],[122.6126728590001,11.110725645000059],[122.61018298800002,11.111312496000037],[122.60794291600007,11.111260399000058],[122.60763544679152,11.111161995522234],[122.60685859686988,11.111353100934412],[122.6026260646722,11.112842509488342],[122.59856168234933,11.114734412691524],[122.59823435039415,11.114927583805086],[122.59942404600008,11.115772403000049]]]]}},{"type":"Feature","properties":{"fid":73,"objectid":1937,"lccode":"06","liqcode":"2010600060000000","mappers":"PJDelosReyes, ACPidlaoan","project":"READY","province":"Iloilo","otherinfo":null,"datemapped":2010,"publishdate":null,"globalid":"{DBB85F45-4FB4-4F72-8BD3-A1308397A487}","st_area(shape)":0.017575391436836466,"st_perimeter(shape)":7.287100410898002,"liqcodepk":"201060006000000000136","creator":"SNOOPYPC","createdate":"2019-02-19T15:21:28","editor":"LENOVO","modifydate":"2019-03-10T17:50:55","codemove":"na"},"geometry":{"type":"Polygon","coordinates":[]}}]}