{"type":"FeatureCollection","features":[{"type":"Feature","properties":{"fid":26,"objectid":1872,"lccode":"07","liqcode":"2010600070000000","mappers":"PJDelosReyes, ACPidlaoan","project":"READY","province":"Cagayan","otherinfo":null,"datemapped":2012,"publishdate":null,"globalid":"{DED92A0E-07A3-4F4C-B4F3-8B0691B82188}","st_area(shape)":0.05559407556334115,"st_perimeter(shape)":12.110269661988962,"liqcodepk":"201060007000000000065","creator":"SNOOPYPC","createdate":"2019-02-19T15:21:28","editor":"LENOVO","modifydate":"2019-03-10T17:50:55","codemove":"na"},"geometry":{"type":"MultiPolygon","coordinates":[[[[121.71358444700003,17.59063839400005],[121.71001959800004,17.585682768000026],[121.709685024,17.584540865000065],[121.71025988400005,17.584051386000052],[121.7101796290001,17.583265548000046],[121.7088438840001,17.582277236000035],[121.70673172800002,17.58198939400006],[121.70372099100007,17.579503531000054],[121.70150758000011,17.577406406000026],[121.70088767100003,17.576196684000024],[121.69856005200005,17.574098779000057],[121.6969685160001,17.572937403000022],[121.69235288800007,17.571208067000043],[121.68978149400004,17.57124580600004],[121.68663356600007,17.57199219100005],[121.68324008300011,17.575093517000028],[121.68290965995493,17.575498823092524],[121.68513066039301,17.57788224394076],[121.68853456285673,17.5808827293014],[121.6922288143905,17.583548699126748],[121.69617783038554,17.585854463075112],[121.70034356650892,17.587777800515163],[121.70468588559628,17.589300175098003],[121.70916294492031,17.590406913797377],[121.71373160007742,17.591087348673113],[121.71385793032815,17.591094125294948],[121.71358444700003,17.59063839400005]]],[[[121.76053634200002,17.56319828900007],[121.75678303700012,17.56646884400004],[121.7535796090001,17.569905599000034],[121.75160667100012,17.570768771000072],[121.74907961300003,17.572670999999996],[121.74804398600007,17.573705765000053],[121.745458159,17.57582676700002],[121.74182937800003,17.58002372700002],[121.74021206200007,17.58253444900004],[121.73881643700008,17.586033036000057],[121.73815651868371,17.587228798896437],[121.7405932395272,17.58614240904783],[121.74457446703614,17.583888014488515],[121.74651904306742,17.58252380979657],[121.747879398,17.581032407000063],[121.74966667000001,17.578714510000058],[121.75142068100001,17.57708144000003],[121.75326016400004,17.576326943000026],[121.75426802007033,17.57568626185826],[121.75487912564233,17.575048018105612],[121.75765734973052,17.571503755842553],[121.7600599043013,17.56771532563248],[121.76206366473163,17.56371922691421],[121.76364935266129,17.559553957758528],[121.76385970596395,17.55877009144043],[121.76053634200002,17.56319828900007]]]]}},{"type":"Feature","properties":{"fid":33,"objectid":1879,"lccode":"07","liqcode":"2010600070000000","mappers":"PJDelosReyes, ACPidlaoan","project":"READY","province":"Isabela","otherinfo":null,"datemapped":2012,"publishdate":null,"globalid":"{91DB2F3C-1BB4-4146-BF15-299122E74073}","st_area(shape)":0.020995608528075003,"st_perimeter(shape)":7.369078683303569,"liqcodepk":"201060007000000000072","creator":"SNOOPYPC","createdate":"2019-02-19T15:21:28","editor":"LENOVO","modifydate":"2019-03-10T17:50:55","codemove":"na"},"geometry":{"type":"Polygon","coordinates":[]}},{"type":"Feature","properties":{"fid":53,"objectid":1902,"lccode":"05","liqcode":"2010600050000000","mappers":"PJDelosReyes, ACPidlaoan","project":"READY","province":"Cagayan","otherinfo":null,"datemapped":2012,"publishdate":null,"globalid":"{C3D84E80-F2D4-4567-B477-D6223763EFE3}","st_area(shape)":0.07022270502489089,"st_perimeter(shape)":22.490008235492827,"liqcodepk":"201060005000000000097","creator":"SNOOPYPC","createdate":"2019-02-19T15:21:28","editor":"LENOVO","modifydate":"2019-03-10T17:50:55","codemove":"na"},"geometry":{"type":"MultiPolygon","coordinates":[[[[121.68067103700002,17.519703215000042],[121.68013844500001,17.522261765000056],[121.68029065900011,17.524907092000035],[121.68118041700005,17.528256103000047],[121.68176678700002,17.534069232000036],[121.68129312700012,17.536367780000035],[121.68109681100009,17.539819157000064],[121.68079891200013,17.541516138000077],[121.68106866399998,17.543710035000064],[121.68132018100005,17.548424880000024],[121.68096033300002,17.55077902200003],[121.6819541540001,17.555553561000067],[121.68187643700003,17.558402899000043],[121.6821517640001,17.55982965900006],[121.68164087800004,17.563319953000075],[121.68197578500009,17.56440458800006],[121.68339953800013,17.565044266000026],[121.68474367200008,17.564834013000052],[121.68620630900013,17.564049091000065],[121.68850754300001,17.561844787000044],[121.69042274000005,17.561665653000034],[121.69090341600008,17.56235387800006],[121.69074891000002,17.563983246000074],[121.69001768700002,17.564687845000034],[121.69109465600003,17.564454275000056],[121.693145264,17.563401953000035],[121.6951921540001,17.562865401000067],[121.6966624480001,17.562771908000062],[121.69837564100011,17.563780304000026],[121.70077458400011,17.56413985600005],[121.70206615900008,17.563976393000072],[121.70164852000005,17.56222019900002],[121.70035238200002,17.558017115000045],[121.69911711800012,17.55532727400004],[121.6972693690001,17.55308027700005],[121.69505668300008,17.551759223000033],[121.6920491740001,17.55132674300006],[121.69064992900009,17.551523859000042],[121.68912717500007,17.55395480600004],[121.6879009270001,17.555012558000048],[121.68595938800003,17.55585919200007],[121.68520673700006,17.555854194000062],[121.6837174090001,17.55364388400005],[121.68337017400006,17.552094401000033],[121.68415011700004,17.548317663000038],[121.68482641100002,17.543990082000047],[121.68611640100006,17.539047658000072],[121.68644642800007,17.533033074000056],[121.6876799470001,17.530943915000027],[121.68861693300005,17.53021953400003],[121.69041227100001,17.52972426100007],[121.69177373600007,17.529767675000073],[121.69267237200006,17.529395392000023],[121.69504086800008,17.52892960400004],[121.69561275200012,17.52913973200003],[121.69562872600011,17.53192474900004],[121.69680414800006,17.532929513000056],[121.69745197300006,17.532546976000038],[121.69796708800003,17.530667971000074],[121.70013676500002,17.527931628000033],[121.70100120500001,17.527318474000026],[121.70261377800013,17.52732903400005],[121.70325556900002,17.52778020400006],[121.70473893100008,17.53084985500004],[121.70363872200005,17.534384008000078],[121.70370210700004,17.535553395000022],[121.7043005490001,17.53707007300005],[121.70770108900001,17.537642433000027],[121.71128505800004,17.537631351000073],[121.71264320100012,17.538155910000057],[121.71429386500006,17.537857262000045],[121.71551185800001,17.53793392000006],[121.7180001270001,17.54083805700003],[121.71909172100004,17.543595714000045],[121.72134063300007,17.544882406000053],[121.72284627200008,17.544823362000045],[121.72492251800008,17.545180529000053],[121.725491368,17.54583743900002],[121.72799286100008,17.546884984000027],[121.72967484800007,17.547239572000024],[121.7339433090001,17.54675117100004],[121.73596833500007,17.544151103000043],[121.73713041000008,17.541958061000056],[121.74009291100003,17.53853872300004],[121.73668647700003,17.539030508000053],[121.73565296700009,17.539791193000035],[121.734684527,17.539401371000054],[121.73366348900005,17.538353533000077],[121.73184377300005,17.53714996100007],[121.72967584900005,17.536738702000036],[121.72872905100006,17.537349197000026],[121.72903369700009,17.53872125900006],[121.7301116090001,17.53979686300005],[121.73050566400002,17.540635151000057],[121.72969636800008,17.54200007000003],[121.72769123800003,17.54280932100005],[121.72460722700009,17.542679892000024],[121.72332527000003,17.542192043000057],[121.720939842,17.54020372000002],[121.7189780120001,17.538916805000046],[121.7177305580001,17.53759347700003],[121.71721608100007,17.533575702000068],[121.71611249700004,17.532102498000032],[121.71360730700009,17.53093534700002],[121.71172965400001,17.52988184300005],[121.70968845300001,17.52771755200007],[121.70817126300005,17.524172732000068],[121.70772607700009,17.522512050000046],[121.70671228000005,17.520477667000026],[121.70689875100004,17.51834151200006],[121.70852013900003,17.515228147000077],[121.70922179600008,17.512930990000022],[121.7087769110001,17.511229110000045],[121.70677981200004,17.51094206400006],[121.70574589000012,17.511757437000025],[121.7055116570001,17.51257793300004],[121.70339377300002,17.517236211000068],[121.70285517800005,17.520685403000073],[121.69886575800003,17.52342683700005],[121.69721119800012,17.52315567000005],[121.69653282600007,17.52216475000006],[121.69625538700006,17.521012024000072],[121.6964404920001,17.519095071000034],[121.69784818000007,17.517939773000023],[121.69907995300001,17.517413514000054],[121.69977510400008,17.51604788400004],[121.69893712700001,17.513411791000067],[121.69729917000005,17.510825289000024],[121.69610493800008,17.510091285000037],[121.69404827300002,17.51014624600003],[121.69257970587744,17.508543260881844],[121.68903702700135,17.511028263058666],[121.68559148615718,17.513983368267986],[121.68246430232605,17.51724822665075],[121.68086562242974,17.519286756142257],[121.68067103700002,17.519703215000042]],[[121.71207920400003,17.53700874800006],[121.71134237300008,17.536181843000055],[121.71152301200006,17.534867761000037],[121.71257019900007,17.532189117000026],[121.71360073800008,17.531867017000028],[121.71450612700005,17.533078552000063],[121.71374966900008,17.53504666700007],[121.71322201800001,17.53696132900006],[121.71207920400003,17.53700874800006]],[[121.73120068800006,17.539269494000052],[121.73473515300007,17.540333413000038],[121.73524434900004,17.541049097000037],[121.73455467200006,17.541647526000077],[121.73266763700009,17.541909503000056],[121.73096415800002,17.540418892000048],[121.73073945100009,17.539869373000037],[121.73120068800006,17.539269494000052]]],[[[121.73475612900005,17.504340359000015],[121.73565631100007,17.506319046000044],[121.73673162400009,17.50775085400005],[121.73672707600008,17.508408505000034],[121.73740108400011,17.51005695200007],[121.73739161500009,17.51142700700007],[121.73783684800003,17.513128749000025],[121.73999743000003,17.51456744400002],[121.74192200300003,17.517100695000067],[121.74476845400012,17.51848884600003],[121.74579548000007,17.518659786000057],[121.74664658300003,17.519487201000064],[121.7481659010001,17.522839962000035],[121.749810711,17.52454925400002],[121.75142370600008,17.524884509000064],[121.7526996260001,17.524262144000037],[121.75363879300006,17.523291960000048],[121.75548613400008,17.519684091000045],[121.75611804582823,17.518829829459495],[121.75527065361537,17.51771845364605],[121.75218947271357,17.51441341993955],[121.74878560917296,17.511414021783395],[121.74509184341876,17.508749129433763],[121.74114374139172,17.506444391825536],[121.73697931230151,17.50452199014832],[121.73515096738952,17.50388110189554],[121.73475612900005,17.504340359000015]]],[[[121.76047469800005,17.526298592000046],[121.75796389200002,17.527746968000034],[121.75492938900004,17.53138815200003],[121.7538555310001,17.53345555700002],[121.75240623100001,17.534625821000077],[121.75057546900008,17.536562576000048],[121.74972486000001,17.536963891000028],[121.747772929,17.53848431700004],[121.74696150700004,17.540178188000027],[121.74621356900003,17.540940736000035],[121.74493873100006,17.54356329300003],[121.74526333900009,17.54619597900006],[121.74622249300013,17.54795580700005],[121.74775925100003,17.548787653000026],[121.7497668420001,17.549396126000033],[121.75041870300005,17.550152611000048],[121.75117333800006,17.553324431000025],[121.75197955400006,17.55128337700006],[121.75274370200009,17.548042342000027],[121.75437347200011,17.545294744000046],[121.75631541300002,17.543375192000045],[121.75755749200005,17.541512219000026],[121.75791214500009,17.539236902000027],[121.75754221500006,17.534428048000052],[121.75801929100011,17.532844973000064],[121.75988275800012,17.529976710000028],[121.76070112500008,17.528070397000022],[121.76127082408217,17.527016122165048],[121.76088987414923,17.526230152276455],[121.76047469800005,17.526298592000046]]]]}},{"type":"Feature","properties":{"fid":60,"objectid":1909,"lccode":"05","liqcode":"2010600050000000","mappers":"PJDelosReyes, ACPidlaoan","project":"READY","province":"Isabela","otherinfo":null,"datemapped":2012,"publishdate":null,"globalid":"{CB433018-447B-4349-A32C-A82989A96D3F}","st_area(shape)":0.11608726533381088,"st_perimeter(shape)":15.125533415932647,"liqcodepk":"201060005000000000104","creator":"SNOOPYPC","createdate":"2019-02-19T15:21:28","editor":"LENOVO","modifydate":"2019-03-10T17:50:55","codemove":"na"},"geometry":{"type":"Polygon","coordinates":[]}},{"type":"Feature","properties":{"fid":67,"objectid":1931,"lccode":"06","liqcode":"2010600060000000","mappers":"PJDelosReyes, ACPidlaoan","project":"READY","province":"Cagayan","otherinfo":null,"datemapped":2012,"publishdate":null,"globalid":"{5942F6C7-E5B3-4D1E-B486-921A1828B34C}","st_area(shape)":0.07051556894172502,"st_perimeter(shape)":22.109814549125648,"liqcodepk":"201060006000000000130","creator":"SNOOPYPC","createdate":"2019-02-19T15:21:28","editor":"LENOVO","modifydate":"2019-03-10T17:50:55","codemove":"na"},"geometry":{"type":"MultiPolygon","coordinates":[[[[121.76070112500008,17.528070397000022],[121.75988275800012,17.529976710000028],[121.75801929100011,17.532844973000064],[121.75754221500006,17.534428048000052],[121.75791214500009,17.539236902000027],[121.75755749200005,17.541512219000026],[121.75631541300002,17.543375192000045],[121.75437347200011,17.545294744000046],[121.75274370200009,17.548042342000027],[121.75197955400006,17.55128337700006],[121.75117333800006,17.553324431000025],[121.7507746230001,17.553975259000023],[121.74883783100005,17.554169306000063],[121.74746976000006,17.55505460800003],[121.74702024000011,17.557871050000074],[121.74665565500004,17.55876269400005],[121.74572170300007,17.559066237000025],[121.74443184200004,17.55898930100005],[121.7430043490001,17.558086289000077],[121.74145747900003,17.55890165200003],[121.74120117200005,17.559690791000037],[121.74197922000009,17.56120851500003],[121.74200434400007,17.562755876000043],[121.74153323500003,17.563509314000044],[121.73970575900013,17.56342892600003],[121.73813437500007,17.562593721000045],[121.73617360300011,17.561068434000045],[121.73485652200009,17.559753521000058],[121.73436479400004,17.558306270000056],[121.73525580300009,17.55644672400007],[121.73641387800001,17.552268168000072],[121.73791335600005,17.547936911000022],[121.73854234500006,17.54508721400003],[121.73977538000008,17.542997791000058],[121.74071307400004,17.542152810000065],[121.74122238500001,17.54105581800007],[121.7411971790001,17.539508453000053],[121.74009291100003,17.53853872300004],[121.73713041000008,17.541958061000056],[121.73596833500007,17.544151103000043],[121.7339433090001,17.54675117100004],[121.72967484800007,17.547239572000024],[121.72799286100008,17.546884984000027],[121.725491368,17.54583743900002],[121.72492251800008,17.545180529000053],[121.72284627200008,17.544823362000045],[121.72134063300007,17.544882406000053],[121.71909172100004,17.543595714000045],[121.7180001270001,17.54083805700003],[121.71551185800001,17.53793392000006],[121.71429386500006,17.537857262000045],[121.71264320100012,17.538155910000057],[121.71128505800004,17.537631351000073],[121.70770108900001,17.537642433000027],[121.7043005490001,17.53707007300005],[121.70370210700004,17.535553395000022],[121.70363872200005,17.534384008000078],[121.70473893100008,17.53084985500004],[121.70325556900002,17.52778020400006],[121.70261377800013,17.52732903400005],[121.70100120500001,17.527318474000026],[121.70013676500002,17.527931628000033],[121.69796708800003,17.530667971000074],[121.69745197300006,17.532546976000038],[121.69680414800006,17.532929513000056],[121.69562872600011,17.53192474900004],[121.69561275200012,17.52913973200003],[121.69504086800008,17.52892960400004],[121.69267237200006,17.529395392000023],[121.69177373600007,17.529767675000073],[121.69041227100001,17.52972426100007],[121.68861693300005,17.53021953400003],[121.6876799470001,17.530943915000027],[121.68644642800007,17.533033074000056],[121.68611640100006,17.539047658000072],[121.68482641100002,17.543990082000047],[121.68415011700004,17.548317663000038],[121.68337017400006,17.552094401000033],[121.6837174090001,17.55364388400005],[121.68520673700006,17.555854194000062],[121.68595938800003,17.55585919200007],[121.6879009270001,17.555012558000048],[121.68912717500007,17.55395480600004],[121.69064992900009,17.551523859000042],[121.6920491740001,17.55132674300006],[121.69505668300008,17.551759223000033],[121.6972693690001,17.55308027700005],[121.69911711800012,17.55532727400004],[121.70035238200002,17.558017115000045],[121.70164852000005,17.56222019900002],[121.70206615900008,17.563976393000072],[121.70077458400011,17.56413985600005],[121.69837564100011,17.563780304000026],[121.6966624480001,17.562771908000062],[121.6951921540001,17.562865401000067],[121.693145264,17.563401953000035],[121.69109465600003,17.564454275000056],[121.69001768700002,17.564687845000034],[121.68861140500007,17.565847494000025],[121.68688379200013,17.566833061000064],[121.683390711,17.56907901600005],[121.68159340600005,17.569789041000035],[121.68130168200003,17.570474758000046],[121.68130810850218,17.573602756936843],[121.68204988892025,17.57457615508168],[121.68290965995493,17.575498823092524],[121.68324008300011,17.575093517000028],[121.68663356600007,17.57199219100005],[121.68978149400004,17.57124580600004],[121.69235288800007,17.571208067000043],[121.6969685160001,17.572937403000022],[121.69856005200005,17.574098779000057],[121.70088767100003,17.576196684000024],[121.70150758000011,17.577406406000026],[121.70372099100007,17.579503531000054],[121.70673172800002,17.58198939400006],[121.7088438840001,17.582277236000035],[121.7101796290001,17.583265548000046],[121.71025988400005,17.584051386000052],[121.709685024,17.584540865000065],[121.71001959800004,17.585682768000026],[121.71358444700003,17.59063839400005],[121.71385793032815,17.591094125294948],[121.71834782156778,17.591334919974898],[121.72296712001453,17.591147239579037],[121.72754497588144,17.590526114137038],[121.73203726950112,17.589477527707373],[121.7364007072228,17.588011584036366],[121.73815651868371,17.587228798896437],[121.73881643700008,17.586033036000057],[121.74021206200007,17.58253444900004],[121.74182937800003,17.58002372700002],[121.745458159,17.57582676700002],[121.74804398600007,17.573705765000053],[121.74907961300003,17.572670999999996],[121.75160667100012,17.570768771000072],[121.7535796090001,17.569905599000034],[121.75678303700012,17.56646884400004],[121.76053634200002,17.56319828900007],[121.76385970596395,17.55877009144043],[121.76480172091995,17.555259643594514],[121.76550969944282,17.55087765033555],[121.76576650080605,17.546450185647785],[121.7655696844071,17.542019892214302],[121.7649211787175,17.537629436921648],[121.76382726144259,17.533321099930014],[121.76229849782699,17.529136367585213],[121.76127082408217,17.527016122165048],[121.76070112500008,17.528070397000022]],[[121.73422424600005,17.550156825000045],[121.73268434700003,17.549975035000045],[121.73129155700009,17.54926136600005],[121.73115270900007,17.548607136000044],[121.73183771300013,17.548027032000046],[121.73366323500011,17.54836533900004],[121.73434047100012,17.548902659000078],[121.73422424600005,17.550156825000045]]],[[[121.75326016400004,17.576326943000026],[121.75142068100001,17.57708144000003],[121.74966667000001,17.578714510000058],[121.747879398,17.581032407000063],[121.74651904306742,17.58252380979657],[121.74830603046622,17.581270124055038],[121.7517519807369,17.5783139636928],[121.75426802007033,17.57568626185826],[121.75326016400004,17.576326943000026]]]]}},{"type":"Feature","properties":{"fid":74,"objectid":1938,"lccode":"06","liqcode":"2010600060000000","mappers":"PJDelosReyes, ACPidlaoan","project":"READY","province":"Isabela","otherinfo":null,"datemapped":2012,"publishdate":null,"globalid":"{57DA03B8-A8DC-43FC-92E3-BCA08FF4E128}","st_area(shape)":0.09517793329217689,"st_perimeter(shape)":18.374122243984093,"liqcodepk":"201060006000000000137","creator":"SNOOPYPC","createdate":"2019-02-19T15:21:28","editor":"LENOVO","modifydate":"2019-03-10T17:50:55","codemove":"na"},"geometry":{"type":"Polygon","coordinates":[]}}]}