{"type":"FeatureCollection","features":[{"type":"Feature","properties":{"fid":26,"objectid":1872,"lccode":"07","liqcode":"2010600070000000","mappers":"PJDelosReyes, ACPidlaoan","project":"READY","province":"Cagayan","otherinfo":null,"datemapped":2012,"publishdate":null,"globalid":"{DED92A0E-07A3-4F4C-B4F3-8B0691B82188}","st_area(shape)":0.05559407556334115,"st_perimeter(shape)":12.110269661988962,"liqcodepk":"201060007000000000065","creator":"SNOOPYPC","createdate":"2019-02-19T15:21:28","editor":"LENOVO","modifydate":"2019-03-10T17:50:55","codemove":"na"},"geometry":{"type":"Polygon","coordinates":[[[121.63420591200008,18.174524982000033],[121.63341379300005,18.177924064000017],[121.63309961000004,18.179799181000078],[121.63215043700006,18.181987969000037],[121.63185639300002,18.185567379000076],[121.63194384500004,18.19140514400004],[121.63222638400009,18.19360270000004],[121.6332439160001,18.195455497000072],[121.63474129000008,18.195561649000066],[121.63509903600004,18.196646064000046],[121.63612758500005,18.197098864000058],[121.6373290140001,18.196725514000036],[121.6379237540001,18.197302518000072],[121.64048416100003,18.197702469000035],[121.64123882500009,18.19824392400005],[121.64266879800006,18.19935874500004],[121.64581918800002,18.200972060000026],[121.6483434380001,18.201753540000027],[121.65009364200013,18.203611421000055],[121.65280939200011,18.209803575000024],[121.6541208980001,18.212453827000047],[121.65571115800003,18.216734737000024],[121.65697544900002,18.217928780000022],[121.65779759800012,18.21927100500005],[121.65848260800009,18.221121361000026],[121.65934100100002,18.22208194700005],[121.6602469930001,18.22552481200006],[121.66104199100006,18.226071261000072],[121.66288782700008,18.228534297000063],[121.66487452800004,18.23437122900003],[121.6657195890001,18.237081766000074],[121.66585950900001,18.23838740900004],[121.66636545500012,18.239727402000028],[121.66698324900004,18.243868315000043],[121.667537261,18.245463141000073],[121.66762427900005,18.247061876000036],[121.66735511200012,18.248252440000044],[121.66733952200002,18.25029701100004],[121.6670349960001,18.255151095000034],[121.66675092600009,18.25732163200007],[121.66638020832414,18.258612010452037],[121.66721662530308,18.258418019221637],[121.67159729665929,18.256954718846803],[121.67580667377173,18.255088121336627],[121.67980419397135,18.252836214022082],[121.68355134022183,18.250220697142556],[121.68599656108512,18.24813355005545],[121.68464126600009,18.247220086000027],[121.68374931400001,18.246259369000025],[121.68203907200005,18.24341555600006],[121.68050577600003,18.24359598700005],[121.67940807100003,18.243429321000058],[121.67878383000006,18.242311241000035],[121.67870918100004,18.23896967600007],[121.6781948700001,18.236515970000028],[121.67798127500009,18.233937040000058],[121.67624684600001,18.229915821000077],[121.67566190500007,18.228002516000064],[121.67352580500005,18.224264803000036],[121.67197177000003,18.222822164000032],[121.67102260000003,18.220651823000026],[121.67053793900004,18.21870749000004],[121.66875036500005,18.21732681200007],[121.66680467500008,18.21486313700007],[121.66542499500008,18.212403386000062],[121.66446989100008,18.211028463000048],[121.66342026800011,18.20895288500003],[121.6622000860001,18.20741700900004],[121.6613142860001,18.205692560000045],[121.66113010400012,18.20367285800006],[121.66225716700002,18.199957787000073],[121.66284323000002,18.197320818000037],[121.66303151200009,18.19445837400008],[121.66269712900008,18.19026956900007],[121.66227701200012,18.188611973000036],[121.65935799700001,18.182863922000024],[121.65886916400005,18.181492324000036],[121.65798291800002,18.179863514000033],[121.65895518800005,18.17896532000003],[121.65872948700007,18.17799111100004],[121.65623928600009,18.177146418000063],[121.65460195700007,18.173602923000036],[121.65338769300001,18.171335161000055],[121.6529357042336,18.16995731330838],[121.6495350724498,18.170093094592065],[121.64494205286606,18.170711360863134],[121.6404345043443,18.17175688732117],[121.63605580545847,18.17321961033306],[121.63449673453995,18.17391097124488],[121.63420591200008,18.174524982000033]],[[121.64780783800008,18.195638253000027],[121.64241352300007,18.195759268000074],[121.6404843800001,18.195522823000033],[121.63889067100003,18.19497063600005],[121.63799898400009,18.194041535000046],[121.63583210800006,18.190144145000033],[121.63505641700009,18.187147606000053],[121.63576594200003,18.181520497000065],[121.63826897000001,18.176415282000043],[121.64029453900004,18.172770407000026],[121.64176378200013,18.17217621300006],[121.64486223300004,18.17614371300004],[121.64629084700006,18.17650378100006],[121.64691548200007,18.177526456000066],[121.64670767700012,18.178575069000033],[121.64579883700003,18.179873240000063],[121.64605039000004,18.18178417500008],[121.6468015580001,18.18366683100003],[121.64592916800008,18.184551660000068],[121.64524187500001,18.183019447000046],[121.64482292200013,18.18123462500006],[121.64207085500006,18.175519416000043],[121.640902621,18.175924842000025],[121.6407847810001,18.178246855000054],[121.64273642100012,18.18414732300004],[121.64490347000005,18.18804464200002],[121.64734034600008,18.19149835400003],[121.64815642200007,18.193604162000042],[121.64983825600005,18.195684349000036],[121.64873770300005,18.19593119400002],[121.64780783800008,18.195638253000027]]]}},{"type":"Feature","properties":{"fid":53,"objectid":1902,"lccode":"05","liqcode":"2010600050000000","mappers":"PJDelosReyes, ACPidlaoan","project":"READY","province":"Cagayan","otherinfo":null,"datemapped":2012,"publishdate":null,"globalid":"{C3D84E80-F2D4-4567-B477-D6223763EFE3}","st_area(shape)":0.07022270502489089,"st_perimeter(shape)":22.490008235492827,"liqcodepk":"201060005000000000097","creator":"SNOOPYPC","createdate":"2019-02-19T15:21:28","editor":"LENOVO","modifydate":"2019-03-10T17:50:55","codemove":"na"},"geometry":{"type":"Polygon","coordinates":[]}},{"type":"Feature","properties":{"fid":67,"objectid":1931,"lccode":"06","liqcode":"2010600060000000","mappers":"PJDelosReyes, ACPidlaoan","project":"READY","province":"Cagayan","otherinfo":null,"datemapped":2012,"publishdate":null,"globalid":"{5942F6C7-E5B3-4D1E-B486-921A1828B34C}","st_area(shape)":0.07051556894172502,"st_perimeter(shape)":22.109814549125648,"liqcodepk":"201060006000000000130","creator":"SNOOPYPC","createdate":"2019-02-19T15:21:28","editor":"LENOVO","modifydate":"2019-03-10T17:50:55","codemove":"na"},"geometry":{"type":"MultiPolygon","coordinates":[[[[121.63192483300008,18.176786037000053],[121.63291650600002,18.177683982000072],[121.63304097000002,18.178798632000056],[121.63200286100003,18.179586721000074],[121.62984713100002,18.178553086000022],[121.62768951600002,18.17777400500006],[121.62715998907592,18.17781932904215],[121.62479955405543,18.17946666282436],[121.62497802400004,18.179695655000046],[121.62736797600009,18.18057183100007],[121.62795101400002,18.182644243000027],[121.62920226900009,18.18440332500006],[121.63155405800002,18.185915565000073],[121.63154636300008,18.186901979000027],[121.63078119600006,18.18683283100006],[121.62928895100005,18.18609039700004],[121.62878841400004,18.186245919000044],[121.62810469400006,18.18853206800003],[121.62667478700008,18.188330857000036],[121.6251500100001,18.18749266600003],[121.62152406200003,18.187148475000072],[121.62116258700007,18.18654129900005],[121.62156985000001,18.185557849000077],[121.6204566122561,18.18309986047232],[121.61753890662307,18.18613073630608],[121.61852355400003,18.187699688000066],[121.61847974100009,18.18903582800004],[121.61728686500008,18.18832716700007],[121.61696052300012,18.187497539000056],[121.61648261460377,18.187462921322954],[121.61471315959548,18.18970774126514],[121.61458326973734,18.189911370263005],[121.61457517600003,18.190248650000054],[121.61437396570193,18.190239496006956],[121.61229832456263,18.193493392026074],[121.61177837865532,18.194523873591383],[121.61365120200003,18.193423879000022],[121.61494647100005,18.193815111000042],[121.61730853300003,18.19402303900005],[121.61949439300008,18.19547063000004],[121.62218136300011,18.196699099000057],[121.62342084700003,18.195721621000075],[121.62589603200001,18.194243805000045],[121.62758290200009,18.19565593500005],[121.62887548800006,18.196397050000026],[121.62843395200002,18.19750756400003],[121.62811941700012,18.199414464000032],[121.62708414800011,18.19982074400002],[121.62714300100004,18.20080753900004],[121.62856537000005,18.20199507300003],[121.62943412400013,18.20158759600002],[121.62987492100001,18.20057256800004],[121.63121152700012,18.19994563400007],[121.63132555400013,18.19813279200002],[121.63167135400009,18.196480607000073],[121.6332439160001,18.195473544000038],[121.63222638400009,18.19362074700007],[121.63194384500004,18.19142319100007],[121.63185639300002,18.185567379000076],[121.63215043700006,18.181987969000037],[121.63309961000004,18.179799181000078],[121.63341379300005,18.177924064000017],[121.63420591200008,18.174524982000033],[121.63449673453995,18.17391097124488],[121.63184809714205,18.1750854513176],[121.6297811063035,18.176249769496557],[121.63192483300008,18.176786037000053]]],[[[121.66209374700009,18.232237923000067],[121.66300858800004,18.234535359000063],[121.6642943270001,18.23623079300006],[121.663545278,18.238389322000046],[121.66280342900006,18.239593316000025],[121.66272977800008,18.240515582000054],[121.66377761000003,18.242845746000057],[121.66444210100009,18.243041280000057],[121.66594283000006,18.24276534800003],[121.66620071400007,18.24388082300004],[121.6659448050001,18.24687017100007],[121.66629475000002,18.248114305000062],[121.66633949200002,18.251172872000044],[121.66446456400001,18.255909844000026],[121.66396693700005,18.25863920100005],[121.66370265093855,18.25923299172683],[121.66638020832414,18.258612010452037],[121.66675092600009,18.25732163200007],[121.6670349960001,18.255151095000034],[121.66733952200002,18.25029701100004],[121.66735511200012,18.248252440000044],[121.66762427900005,18.247061876000036],[121.667537261,18.24548118800004],[121.66698324900004,18.24388636200007],[121.66636545500012,18.239745449000058],[121.66585950900001,18.238405456000063],[121.6657195890001,18.237099813000043],[121.66386512100009,18.231391197000047],[121.66268343800004,18.22915550500005],[121.66077427500012,18.230605935000035],[121.66099930400003,18.231657583000064],[121.66209374700009,18.232237923000067]]],[[[121.65204636600002,18.25894597700005],[121.65116106000005,18.258939738000034],[121.65067628400004,18.259977446000047],[121.65070608564487,18.26011782841908],[121.65340522119689,18.260263582409795],[121.65204636600002,18.25894597700005]]],[[[121.69214856300005,18.238650371000066],[121.69191286600005,18.238998850000026],[121.69273585600003,18.240277258000045],[121.69295310411155,18.240445777931622],[121.69380655369474,18.239106973671635],[121.69214856300005,18.238650371000066]]],[[[121.68523013400011,18.24643078800005],[121.68391943700011,18.24358982300004],[121.6835962030001,18.24228292700007],[121.68284330200004,18.24055947500005],[121.68235982800002,18.23842418400005],[121.68243984500009,18.23664285500007],[121.68164400900002,18.236191887000075],[121.68052105200002,18.234974977000036],[121.67936930000008,18.23315327100004],[121.6780013330001,18.229102699000066],[121.67788137200013,18.22735179600005],[121.67725494900003,18.226520183000048],[121.67622707300008,18.225940298000065],[121.67577395200011,18.224218894000046],[121.67428335200007,18.223190398000046],[121.67369845100006,18.22127708900007],[121.67427415600002,18.22000829200005],[121.67462178100006,18.21806963000006],[121.67386801700003,18.21647344000007],[121.67434237900012,18.215394837000073],[121.67465838500004,18.21323325400005],[121.67400229100008,18.20753290700003],[121.67285052700004,18.20574306400004],[121.67299622200005,18.20408939900005],[121.6734695880001,18.203138085000038],[121.67434066400006,18.202412218000063],[121.67565259199999,18.20063939900006],[121.67626069700009,18.199466213000054],[121.67556923300003,18.198443250000025],[121.67542610900013,18.195355704000058],[121.67563088700003,18.19468892200006],[121.677571854,18.19336582500005],[121.67930875,18.192614095000064],[121.67954727600012,18.191883845000067],[121.68128694400001,18.190750313000024],[121.68278043200007,18.19136516100002],[121.68584665700008,18.190908788000062],[121.68645163500003,18.190149237000067],[121.68649517100005,18.188781247000065],[121.68806000000001,18.18876014600005],[121.69017962600003,18.190238312000076],[121.69141111700003,18.19027860400007],[121.69274792500003,18.189587619000065],[121.69298457371762,18.189822270139675],[121.69058153467407,18.186678725554476],[121.6874909382896,18.18337223211193],[121.68407627257287,18.180371160805116],[121.68037042200783,18.1777043973642],[121.67640906865824,18.17539760810401],[121.67495304224644,18.174727013183215],[121.67458195600013,18.174889436000054],[121.67326549600013,18.177298716000053],[121.67213348400001,18.17732269700002],[121.67295801575693,18.17380814804652],[121.67223034881289,18.173472993357255],[121.66787448623954,18.171949074257427],[121.66338340555976,18.170840514902604],[121.65880032943835,18.170157981592613],[121.65416936343162,18.16990804047797],[121.6529357042336,18.16995731330838],[121.65338769300001,18.171335161000055],[121.65460195700007,18.173602923000036],[121.65623928600009,18.177146418000063],[121.65872948700007,18.17799111100004],[121.65895518800005,18.17896532000003],[121.65798291800002,18.179863514000033],[121.65886916400005,18.181492324000036],[121.65935799700001,18.182863922000024],[121.66227701200012,18.188611973000036],[121.66269712900008,18.19026956900007],[121.66303151200009,18.19445837400008],[121.66284323000002,18.197320818000037],[121.66225716700002,18.199957787000073],[121.66113010400012,18.20367285800006],[121.6613142860001,18.205692560000045],[121.6622000860001,18.20741700900004],[121.66342026800011,18.20895288500003],[121.66446989100008,18.211028463000048],[121.66542499500008,18.212403386000062],[121.66680467500008,18.21486313700007],[121.66875036500005,18.21732681200007],[121.67053793900004,18.21870749000004],[121.67102260000003,18.220651823000026],[121.67197177000003,18.222822164000032],[121.67352580500005,18.224264803000036],[121.67566190500007,18.228002516000064],[121.67624684600001,18.229915821000077],[121.67798127500009,18.233937040000058],[121.6781948700001,18.236515970000028],[121.67870918100004,18.23896967600007],[121.67878383000006,18.242311241000035],[121.67940807100003,18.243429321000058],[121.68050577600003,18.24359598700005],[121.68203907200005,18.24341555600006],[121.68374931400001,18.246259369000025],[121.68464126600009,18.247220086000027],[121.68599656108512,18.24813355005545],[121.68680762173204,18.24744124093597],[121.68523013400011,18.24643078800005]],[[121.67258568700005,18.183095912000056],[121.67156743600003,18.183462178000067],[121.67099490200006,18.18170353100004],[121.6718934390001,18.18167243300007],[121.67388021500007,18.182358153000045],[121.67371743000001,18.183215671000028],[121.67258568700005,18.183095912000056]]],[[[121.64524187500001,18.183019447000046],[121.64592916800008,18.184551660000068],[121.6468015580001,18.18366683100003],[121.64605039000004,18.18178417500008],[121.64579883700003,18.179873240000063],[121.64670767700012,18.178575069000033],[121.64691548200007,18.177526456000066],[121.64629084700006,18.17650378100006],[121.64486223300004,18.17614371300004],[121.64176378200013,18.17217621300006],[121.64029453900004,18.172770407000026],[121.63826897000001,18.176415282000043],[121.63576594200003,18.181520497000065],[121.63505641700009,18.187147606000053],[121.63583210800006,18.190144145000033],[121.63799898400009,18.194041535000046],[121.63889067100003,18.19497063600005],[121.6404843800001,18.195522823000033],[121.64241352300007,18.195759268000074],[121.64780783800008,18.195638253000027],[121.64873770300005,18.19593119400002],[121.64983825600005,18.195684349000036],[121.64815642200007,18.193604162000042],[121.64734034600008,18.19149835400003],[121.64490347000005,18.18804464200002],[121.64273642100012,18.18414732300004],[121.6407847810001,18.178246855000054],[121.640902621,18.175924842000025],[121.64207085500006,18.175519416000043],[121.64482292200013,18.18123462500006],[121.64524187500001,18.183019447000046]]],[[[121.64316791899999,18.20368986000005],[121.64467233200003,18.207200615000037],[121.64619172200003,18.208770507000054],[121.646313328,18.210266926000028],[121.64689986300004,18.21192572200004],[121.64808565900012,18.21358874300006],[121.6474182730001,18.213774935000057],[121.64552549000008,18.213125189000035],[121.64403362100005,18.212287273000076],[121.64219881700001,18.212751579000038],[121.642091789,18.213673597000025],[121.64329061200011,18.213650281000067],[121.64580370899999,18.215895484000043],[121.64479280300009,18.21744750300007],[121.64611768800012,18.218347748000046],[121.64781347500004,18.218646108000026],[121.64911769000003,18.217923422000073],[121.65011597500006,18.217994147000073],[121.65020334200007,18.21961752800007],[121.64876405900009,18.22059385800003],[121.64874711200002,18.222789287000065],[121.64900511000008,18.22387297900008],[121.64842044500006,18.226287103000054],[121.64848039700007,18.22714669900006],[121.64920656400011,18.227979102000063],[121.65121411700012,18.22672047200006],[121.65284936500005,18.226254684000022],[121.6534885630001,18.22540009100004],[121.65274435500011,18.22259463500006],[121.65301657700003,18.221832958000054],[121.65422157600004,18.221014046000054],[121.65476649100005,18.21942690400005],[121.65447981500006,18.217738430000054],[121.65512043900003,18.216692850000072],[121.65571115800003,18.216734737000024],[121.6541208980001,18.212453827000047],[121.65280939200011,18.209803575000024],[121.65009364200013,18.203611421000055],[121.6483434380001,18.201753540000027],[121.64581918800002,18.200972060000026],[121.64266879800006,18.19935874500004],[121.64123882500009,18.19824392400005],[121.64142420500004,18.201004684000054],[121.64234775500006,18.20212489600004],[121.64316791899999,18.20368986000005]]]]}}]}