{"type":"FeatureCollection","features":[{"type":"Feature","properties":{"fid":171,"objectid":9613,"lccode":"01","liqcode":"2010600010000000","mappers":"DJLBuhay, MJVReyes, MITAbigania, KLPapiona, KMVitto","project":"MELP","province":"Nueva Ecija","otherinfo":"hazard boundary with Pangasinan updated on 2024","datemapped":2018,"publishdate":null,"globalid":"{142EC992-C228-490B-8C06-5B4A68BA1242}","st_area(shape)":0.21874224791512728,"st_perimeter(shape)":7.9099228422392365,"liqcodepk":"201060001000000000019","creator":"SNOOPYPC","createdate":"2019-02-19T15:21:28","editor":"LENOVO","modifydate":"2019-03-10T17:53:06","codemove":"na"},"geometry":{"type":"Polygon","coordinates":[]}},{"type":"Feature","properties":{"fid":174,"objectid":9616,"lccode":"07","liqcode":null,"mappers":"DJLBuhay, MITAbigania","project":"LiquePhi","province":"Pangasinan","otherinfo":null,"datemapped":2024,"publishdate":null,"globalid":"{4C1C6B5C-6BC5-4098-AF34-1358D72BE295}","st_area(shape)":0.0990952810399136,"st_perimeter(shape)":16.14272038398808,"liqcodepk":null,"creator":null,"createdate":null,"editor":null,"modifydate":null,"codemove":null},"geometry":{"type":"MultiPolygon","coordinates":[[[[120.73983366500012,16.019814766000025],[120.74018969200006,16.02158610100003],[120.74199577800006,16.02305341500005],[120.74395176800012,16.02324576500007],[120.74844957500011,16.02570946300006],[120.74951913400002,16.025819116000037],[120.75081686500005,16.025092666000035],[120.75191337200009,16.024902299000075],[120.75301302600006,16.02543533100004],[120.75421672000004,16.025084079000067],[120.75533753400009,16.02543533100004],[120.7556655320001,16.026244019000046],[120.75692643700008,16.026372236000046],[120.7578966550001,16.027694489000055],[120.75932464058788,16.027416555236307],[120.75815757516526,16.026560406667535],[120.75449717921092,16.024386195367025],[120.75373268500005,16.024306291000073],[120.75311285100008,16.02451698700003],[120.75169017100006,16.023952372000053],[120.75058282200007,16.024132760000047],[120.74921965800002,16.02479112000003],[120.74725248300003,16.024072641000036],[120.74521589000007,16.022775064000026],[120.74472338800001,16.022217411000046],[120.74285505500008,16.021987394000064],[120.74138875800008,16.020846321000022],[120.74080880248839,16.01954878195934],[120.73932790489722,16.01932035998075],[120.73983366500012,16.019814766000025]]],[[[120.77341587800005,16.046789136000026],[120.77234632000012,16.046663506000073],[120.76878112400004,16.045509987000063],[120.76753330500004,16.045224461000032],[120.76521592800009,16.04393388000005],[120.76337562700007,16.04214602600007],[120.76185276000002,16.038942795000025],[120.76038451400007,16.03747668400007],[120.75833148200002,16.036628306000065],[120.75682583300011,16.03625875000006],[120.75261890200011,16.03560772000003],[120.74702154500005,16.035036640000044],[120.74571636600001,16.034407413000054],[120.74421692400007,16.03263808700006],[120.7433250360001,16.031974284000057],[120.74035462800009,16.030662114000055],[120.73913152500006,16.029824694000073],[120.73732601100005,16.02775347200003],[120.73648930700007,16.02645052400004],[120.73555211100005,16.025644139000068],[120.73428290200002,16.025280914000064],[120.7325128330001,16.02515245300003],[120.73076048800012,16.023738915000028],[120.728528675,16.02316323200006],[120.72599025600005,16.02319749900005],[120.7251737580001,16.02300840200007],[120.72423254600005,16.021075738000036],[120.72395081638253,16.019344400804442],[120.72317656948023,16.01944709523698],[120.71871875170511,16.020476853450873],[120.71438671436974,16.021924145538627],[120.71122113419983,16.023331063342983],[120.71180834700012,16.02535625100006],[120.71116661200007,16.028131819000066],[120.71098835200006,16.02984511300002],[120.711202264,16.032689149000078],[120.71280660200013,16.037177846000077],[120.71441094000012,16.040227362000046],[120.71512397900005,16.043242567000046],[120.71515134700007,16.044522361000073],[120.71465329700004,16.048095963000037],[120.71502839700007,16.049927189000073],[120.71580136600005,16.051362836000063],[120.71647875400004,16.05331576300006],[120.71647875400004,16.054480657000052],[120.71590687600006,16.057055570000045],[120.71602087900011,16.059083445000052],[120.71522290700011,16.06113302800003],[120.71508717900008,16.063622922000032],[120.71393343700005,16.065765384000027],[120.71288572200001,16.06857446100003],[120.71146355000008,16.070362807000038],[120.71059309200007,16.073095034000065],[120.709526621,16.074728175000075],[120.70906314600006,16.077160480000035],[120.70810054300011,16.07969552600002],[120.70714503200007,16.08076194800003],[120.70546229800006,16.08202499900005],[120.70480173600005,16.083558072000073],[120.70468503900008,16.085339214000044],[120.7048033860001,16.08869479000003],[120.70414080300009,16.091227374000024],[120.70366544400008,16.09234637300005],[120.7022393650001,16.09431031500003],[120.7013361820001,16.096867979000017],[120.70113025401002,16.097881966475054],[120.701751983814,16.098439051272408],[120.70540408002661,16.10111895717514],[120.70842549757947,16.102914093817063],[120.70858272900011,16.10268768700007],[120.70993315300007,16.101877321000075],[120.71055783300005,16.100599054000043],[120.71100271200011,16.098771661000058],[120.71235225600003,16.09715980800007],[120.71258939300003,16.095533707000076],[120.71492442700003,16.09262870500003],[120.71678938900006,16.090616243000056],[120.71784788800007,16.089956803000064],[120.71872730300005,16.08897481300005],[120.72023373600007,16.086141937000036],[120.71984439700009,16.083151282000074],[120.72075729200002,16.081700837000025],[120.72448638199998,16.07994598600004],[120.72474060000002,16.081118715000063],[120.72566572100004,16.08111754100003],[120.72497828000007,16.078035569000065],[120.72567178300005,16.07544153800006],[120.72577006900009,16.073687916000036],[120.72516016800013,16.070330895000037],[120.72566044700011,16.06878776400003],[120.7278696950001,16.066070145000026],[120.72805237500008,16.06389892900006],[120.72779442000001,16.062486360000037],[120.72713103800005,16.06141257900003],[120.72776927300004,16.060521157000032],[120.72940475700011,16.06043542600003],[120.7299010790001,16.06117945100005],[120.73017441100001,16.062595541000064],[120.73086604000001,16.063786963000044],[120.73070250600007,16.065449185000034],[120.73082134600008,16.06837265000007],[120.73067873800007,16.07040534700008],[120.73120032200008,16.073223679000026],[120.73182990000008,16.07404631400004],[120.73361519900004,16.075256900000053],[120.73600451700008,16.075356535000022],[120.73806725000009,16.076252547000024],[120.739105085,16.077764243000043],[120.73987174300008,16.08389276700007],[120.74146939800006,16.087168594000048],[120.74189722100004,16.08936095800004],[120.74173084600011,16.093631430000073],[120.74009085500006,16.096463137000057],[120.73947288800002,16.098975101000068],[120.73795093100011,16.10197712100006],[120.73792797000011,16.103108354000028],[120.7383557930001,16.105665904000038],[120.73947288800002,16.105917090000045],[120.74058998300008,16.104318627000055],[120.74113664600007,16.102080758000053],[120.74196852500006,16.100573607000054],[120.74294301200005,16.09783330300007],[120.7440363390001,16.096508809000053],[120.74446416200009,16.094339361000035],[120.74441662600009,16.092854988000056],[120.74391749900009,16.087351292000047],[120.74289547600004,16.08369730200008],[120.74132679000002,16.081436362000034],[120.74125548600013,16.078901338000037],[120.74082766300012,16.07611505900007],[120.74087519800003,16.07369416100005],[120.74044737500003,16.07303183500005],[120.73944912000002,16.07252937900006],[120.73771405800005,16.072300990000024],[120.73588392400006,16.071798532000056],[120.73462422200011,16.071181877000075],[120.73429815400003,16.07022397800006],[120.73458337000011,16.06944744400004],[120.73431003800012,16.067665972000043],[120.73287207500006,16.065964423000025],[120.73264929900006,16.06443094300005],[120.73291292800002,16.06220591500005],[120.73344791800002,16.060697811000068],[120.73463750400005,16.05928840400002],[120.73711985900002,16.058208854000046],[120.73840664000012,16.05824817300004],[120.73972828700003,16.058780429000027],[120.74129697400006,16.059739728000068],[120.74432155500006,16.062617036000063],[120.74453546600013,16.06309667700003],[120.74543344900007,16.067188952000038],[120.74632812700008,16.068433500000026],[120.74810066200008,16.069765849000078],[120.75091574400005,16.071361753000076],[120.75374299200007,16.073886234000042],[120.75470211000003,16.076115620000056],[120.75498672500011,16.077483041000047],[120.75622031900002,16.079972466000076],[120.7579464380001,16.081322734000025],[120.763472492,16.083480906000034],[120.76582552100002,16.083960496000028],[120.76753681500008,16.085056699000063],[120.76998908200004,16.087874301000056],[120.77087314847324,16.088512677894094],[120.7727446434401,16.08556638417607],[120.77378626006907,16.083495142663566],[120.77348784100002,16.083322356000053],[120.77136753600008,16.082925324000033],[120.76961821300006,16.08201181300006],[120.76689915700001,16.08155505600007],[120.76589850200003,16.081032460000074],[120.76393596800007,16.07899325300002],[120.76286640900003,16.076663744000026],[120.76161859000003,16.075019368000024],[120.75908730100004,16.07255277900003],[120.7569125320001,16.069469500000025],[120.75505863,16.06511856900005],[120.75373950700008,16.063131499000068],[120.75206386500007,16.06141849100004],[120.74878388500007,16.058437821000037],[120.74692998300009,16.05689607800002],[120.74569808000001,16.054960142000027],[120.74483278400011,16.05403048800002],[120.74215262100005,16.05302453800004],[120.73958568000013,16.051003084000058],[120.73829634500008,16.050581729000044],[120.73384337700008,16.047487502000024],[120.73314086200003,16.046333211000043],[120.73078189000012,16.04647026200007],[120.7293099210001,16.045727811000063],[120.72740089600006,16.043591018000026],[120.7262172510001,16.042590524000047],[120.72536848800006,16.04149124600008],[120.72539012600011,16.040288001000015],[120.72581332100003,16.037479176000033],[120.7248888590001,16.034140954000065],[120.72357900600002,16.03202336600003],[120.72238953100009,16.030516013000067],[120.72223849300009,16.02822672700006],[120.72262714500005,16.02710821100004],[120.72364785400009,16.02609240000004],[120.72453202300005,16.025681203000033],[120.72644641500005,16.025270328000033],[120.72687555000005,16.02619133300004],[120.72642078400007,16.02735081900004],[120.7249376630001,16.02855698500002],[120.7244670570001,16.030174332000055],[120.72536548600009,16.030914469000034],[120.72612161400002,16.032347402000028],[120.72590856900001,16.034998011000024],[120.72637502400005,16.03719281700006],[120.72699879700009,16.037692357000026],[120.72859119600002,16.037833250000062],[120.72974156600003,16.038354068000043],[120.7319567410001,16.039843416000057],[120.73294548900004,16.039057626000044],[120.73451417500009,16.040026157000057],[120.73403881600007,16.038737827000034],[120.73336380500008,16.03833579300004],[120.73112961600009,16.03830838200002],[120.72985565200008,16.03750431200007],[120.72766147200002,16.036862881000047],[120.72696368800008,16.035603740000052],[120.72686286900012,16.033669401000054],[120.72707836500001,16.032213815000034],[120.72633522000002,16.030421044000036],[120.72582183100008,16.029749437000078],[120.7260302750001,16.028863200000046],[120.72727643100006,16.02767977400003],[120.72772531600002,16.026447006000065],[120.72747337700002,16.02480346700003],[120.72834510200005,16.024601251000032],[120.72976223300007,16.024868954000052],[120.7305326730001,16.025376615000024],[120.7316712170001,16.026741243000064],[120.73357266000005,16.02729998800004],[120.73480579700005,16.028302437000036],[120.73757905800005,16.030183989000022],[120.73902698900008,16.031792970000026],[120.74092979100011,16.03317898900008],[120.74309606600002,16.033876296000074],[120.74595895200004,16.036442057000045],[120.74825447400009,16.03717029500006],[120.7500900870001,16.03722443600003],[120.75368707400003,16.037914962000055],[120.75558851200002,16.038737305000037],[120.75713834500003,16.03902241000003],[120.75948040600007,16.040064651000016],[120.76055443400004,16.041182517000035],[120.76100602600002,16.042233271000043],[120.76223007600005,16.043615231000043],[120.76312137500008,16.043992128000074],[120.76343035900004,16.04474591900004],[120.76504144400006,16.04594626200003],[120.76852300500002,16.047848036000055],[120.7675475970001,16.048346245000058],[120.76583630300001,16.048140670000063],[120.76329313000006,16.047341207000045],[120.76048850900008,16.045993535000036],[120.75742244000003,16.045011328000044],[120.756923313,16.045399643000056],[120.75996561300006,16.046176271000032],[120.76170067500003,16.046930054000033],[120.76219980300004,16.047683834000058],[120.7642676170001,16.048688870000028],[120.76702470100008,16.049100020000026],[120.7681180280001,16.049100020000026],[120.76966294600004,16.048551820000057],[120.77107568500003,16.04850587800007],[120.77471869500005,16.049347887000067],[120.77620079000008,16.050698316000027],[120.77647756935252,16.05076848896539],[120.7752390612172,16.047304481982213],[120.77341587800005,16.046789136000026]]]]}},{"type":"Feature","properties":{"fid":175,"objectid":9617,"lccode":"06","liqcode":null,"mappers":"DJLBuhay, MITAbigania","project":"LiquePhi","province":"Pangasinan","otherinfo":null,"datemapped":2024,"publishdate":null,"globalid":"{66023685-1332-44EF-8443-E51FD3597412}","st_area(shape)":0.04411879143836554,"st_perimeter(shape)":22.502158641584156,"liqcodepk":null,"creator":null,"createdate":null,"editor":null,"modifydate":null,"codemove":null},"geometry":{"type":"MultiPolygon","coordinates":[[[[120.7013361820001,16.096867979000017],[120.7022393650001,16.09431031500003],[120.70366544400008,16.09234637300005],[120.70414080300009,16.091227374000024],[120.7048033860001,16.08869479000003],[120.70468503900008,16.085339214000044],[120.70480173600005,16.083558072000073],[120.70546229800006,16.08202499900005],[120.70714503200007,16.08076194800003],[120.70810054300011,16.07969552600002],[120.70906314600006,16.077160480000035],[120.709526621,16.074728175000075],[120.71059309200007,16.073095034000065],[120.71146355000008,16.070362807000038],[120.71288572200001,16.06857446100003],[120.71393343700005,16.065765384000027],[120.71508717900008,16.063622922000032],[120.71522290700011,16.06113302800003],[120.71602087900011,16.059083445000052],[120.71590687600006,16.057055570000045],[120.71647875400004,16.054480657000052],[120.71647875400004,16.05331576300006],[120.71580136600005,16.051362836000063],[120.71502839700007,16.049927189000073],[120.71465329700004,16.048095963000037],[120.71515134700007,16.044522361000073],[120.71512397900005,16.043242567000046],[120.71441094000012,16.040227362000046],[120.71280660200013,16.037177846000077],[120.711202264,16.032689149000078],[120.71098835200006,16.02984511300002],[120.71116661200007,16.028131819000066],[120.71180834700012,16.02535625100006],[120.71122113419983,16.023331063342983],[120.71022215155133,16.02377503894504],[120.70842449707311,16.024791170973774],[120.70856792500001,16.025967949000066],[120.70899574800002,16.028001079000028],[120.70932850000008,16.032181494000042],[120.7098752390001,16.034082265000055],[120.71065950600007,16.035425253000028],[120.71103979400004,16.03741260000004],[120.7127035520001,16.040724802000057],[120.71317891100011,16.04358010400006],[120.7131551440001,16.04810281800007],[120.71366175100002,16.050073110000028],[120.71474759800005,16.053013731000018],[120.71493774100009,16.05545772100004],[120.71467660500004,16.056826676000075],[120.714676294,16.058975187000048],[120.71367803900013,16.060802417000044],[120.71365427100012,16.063132112000066],[120.71167796400006,16.067672654000027],[120.71038135500011,16.06902331000003],[120.70954315300003,16.070907323000025],[120.70954835400005,16.07203951600008],[120.70892242200013,16.073747839000077],[120.70814129000007,16.074889801000037],[120.70778029500003,16.076777902000064],[120.70707674000005,16.078424888000033],[120.70586945700006,16.079780347000053],[120.70374896800001,16.081412415000045],[120.70315170400012,16.082795802000074],[120.7031811500001,16.085197312000048],[120.70257007700002,16.086729010000056],[120.7005069490001,16.088914259000035],[120.70059858099998,16.090974879000047],[120.70019328000001,16.092867581000064],[120.69875238800012,16.095352048000056],[120.69861966182611,16.09563236965553],[120.70113025401002,16.097881966475054],[120.7013361820001,16.096867979000017]]],[[[120.74285505500008,16.021987394000064],[120.74472338800001,16.022217411000046],[120.74521589000007,16.022775064000026],[120.74725248300003,16.024072641000036],[120.74921965800002,16.02479112000003],[120.75058282200007,16.024132760000047],[120.75169017100006,16.023952372000053],[120.75311285100008,16.02451698700003],[120.75373268500005,16.024306291000073],[120.75449717921092,16.024386195367025],[120.75425194726512,16.024240528185906],[120.75013009860817,16.022301986215997],[120.74583170959617,16.020763436560365],[120.74139815609036,16.019639684245437],[120.74080880248839,16.01954878195934],[120.74138875800008,16.020846321000022],[120.74285505500008,16.021987394000064]]],[[[120.77250224900001,16.04443460400006],[120.76878669200005,16.043398702000044],[120.76663840900005,16.043095309000027],[120.76554443200007,16.04191673400004],[120.76378011700001,16.04072496800006],[120.76282928800002,16.039614313000076],[120.76201867400006,16.037774600000034],[120.75997449600004,16.035758095000066],[120.758548355,16.03481843600002],[120.75779038000009,16.034659843000046],[120.75505619400008,16.034724936000035],[120.75128557000004,16.034313063000063],[120.74874722600009,16.033804066000073],[120.74760628700004,16.033326230000053],[120.7462305140001,16.032132951000047],[120.74558342900002,16.030437777000035],[120.74576664600012,16.029406259000037],[120.74726154000007,16.028002518000047],[120.74965984000006,16.027295473000038],[120.75174191500003,16.027226941000038],[120.75452276800003,16.027747787000063],[120.75604465900007,16.02823999600002],[120.75802374999999,16.02850037000007],[120.75956391500006,16.02814400400007],[120.76031138740825,16.02814041378424],[120.75932464058788,16.027416555236307],[120.7578966550001,16.027694489000055],[120.75692643700008,16.026372236000046],[120.7556655320001,16.026244019000046],[120.75533753400009,16.02543533100004],[120.75421672000004,16.025084079000067],[120.75301302600006,16.02543533100004],[120.75191337200009,16.024902299000075],[120.75081686500005,16.025092666000035],[120.74951913400002,16.025819116000037],[120.74844957500011,16.02570946300006],[120.74395176800012,16.02324576500007],[120.74199577800006,16.02305341500005],[120.74018969200006,16.02158610100003],[120.73983366500012,16.019814766000025],[120.73932790489722,16.01932035998075],[120.73687211170387,16.018941541400483],[120.73229713774715,16.01867572352088],[120.72771726473972,16.018844785099812],[120.72395081638253,16.019344400804442],[120.72423254600005,16.021075738000036],[120.7251737580001,16.02300840200007],[120.72599025600005,16.02319749900005],[120.728528675,16.02316323200006],[120.73076048800012,16.023738915000028],[120.7325128330001,16.02515245300003],[120.73428290200002,16.025280914000064],[120.73555211100005,16.025644139000068],[120.73648930700007,16.02645052400004],[120.73732601100005,16.02775347200003],[120.73913152500006,16.029824694000073],[120.74035462800009,16.030662114000055],[120.7433250360001,16.031974284000057],[120.74421692400007,16.03263808700006],[120.74571636600001,16.034407413000054],[120.74702154500005,16.035036640000044],[120.75261890200011,16.03560772000003],[120.75682583300011,16.03625875000006],[120.75833148200002,16.036628306000065],[120.76038451400007,16.03747668400007],[120.76185276000002,16.038942795000025],[120.76337562700007,16.04214602600007],[120.76521592800009,16.04393388000005],[120.76753330500004,16.045224461000032],[120.76878112400004,16.045509987000063],[120.77234632000012,16.046663506000073],[120.77341587800005,16.046789136000026],[120.7752390612172,16.047304481982213],[120.77513382047955,16.04701012742064],[120.77428916757572,16.045234046520893],[120.77250224900001,16.04443460400006]]],[[[120.77620079000008,16.050698316000027],[120.77471869500005,16.049347887000067],[120.77107568500003,16.04850587800007],[120.77033624800004,16.04808906400007],[120.76852300500002,16.047848036000055],[120.76504144400006,16.04594626200003],[120.76343035900004,16.04474591900004],[120.76312137500008,16.043992128000074],[120.76223007600005,16.043615231000043],[120.76100602600002,16.042233271000043],[120.76055443400004,16.041182517000035],[120.75948040600007,16.040064651000016],[120.75713834500003,16.03902241000003],[120.75558851200002,16.038737305000037],[120.75368707400003,16.037914962000055],[120.7500900870001,16.03722443600003],[120.74825447400009,16.03717029500006],[120.74595895200004,16.036442057000045],[120.74309606600002,16.033876296000074],[120.74092979100011,16.03317898900008],[120.73902698900008,16.031792970000026],[120.73757905800005,16.030183989000022],[120.73480579700005,16.028302437000036],[120.73357266000005,16.02729998800004],[120.7316712170001,16.026741243000064],[120.7305326730001,16.025376615000024],[120.72976223300007,16.024868954000052],[120.72834510200005,16.024601251000032],[120.72747337700002,16.02480346700003],[120.72772531600002,16.026447006000065],[120.72727643100006,16.02767977400003],[120.7260302750001,16.028863200000046],[120.72582183100008,16.029749437000078],[120.72633522000002,16.030421044000036],[120.72707836500001,16.032213815000034],[120.72686286900012,16.033669401000054],[120.72696368800008,16.035603740000052],[120.72766147200002,16.036862881000047],[120.72985565200008,16.03750431200007],[120.73112961600009,16.03830838200002],[120.73336380500008,16.03833579300004],[120.73403881600007,16.038737827000034],[120.73451417500009,16.040026157000057],[120.73294548900004,16.039057626000044],[120.7319567410001,16.039843416000057],[120.72974156600003,16.038354068000043],[120.72859119600002,16.037833250000062],[120.72699879700009,16.037692357000026],[120.72637502400005,16.03719281700006],[120.72590856900001,16.034998011000024],[120.72612161400002,16.032347402000028],[120.72536548600009,16.030914469000034],[120.7244670570001,16.030174332000055],[120.7249376630001,16.02855698500002],[120.72642078400007,16.02735081900004],[120.72687555000005,16.02619133300004],[120.72644641500005,16.025270328000033],[120.72453202300005,16.025681203000033],[120.72364785400009,16.02609240000004],[120.72262714500005,16.02710821100004],[120.72223849300009,16.02822672700006],[120.72238953100009,16.030516013000067],[120.72357900600002,16.03202336600003],[120.7248888590001,16.034140954000065],[120.72581332100003,16.037479176000033],[120.72539012600011,16.040288001000015],[120.72536848800006,16.04149124600008],[120.7262172510001,16.042590524000047],[120.72740089600006,16.043591018000026],[120.7293099210001,16.045727811000063],[120.73078189000012,16.04647026200007],[120.73314086200003,16.046333211000043],[120.73384337700008,16.047487502000024],[120.73829634500008,16.050581729000044],[120.73958568000013,16.051003084000058],[120.74215262100005,16.05302453800004],[120.74483278400011,16.05403048800002],[120.74569808000001,16.054960142000027],[120.74692998300009,16.05689607800002],[120.74878388500007,16.058437821000037],[120.75206386500007,16.06141849100004],[120.75373950700008,16.063131499000068],[120.75505863,16.06511856900005],[120.7569125320001,16.069469500000025],[120.75908730100004,16.07255277900003],[120.76161859000003,16.075019368000024],[120.76286640900003,16.076663744000026],[120.76393596800007,16.07899325300002],[120.76589850200003,16.081032460000074],[120.76689915700001,16.08155505600007],[120.76961821300006,16.08201181300006],[120.77136753600008,16.082925324000033],[120.77348784100002,16.083322356000053],[120.77378626006907,16.083495142663566],[120.77416797938704,16.08273608471558],[120.77386796100006,16.082519224000063],[120.77229927500002,16.081605710000076],[120.77125348400011,16.08009840400007],[120.76954219000004,16.07934474600006],[120.76813988000004,16.079207718000077],[120.76714162500002,16.078728116000036],[120.76640481800007,16.07786026100007],[120.76611960200012,16.076626988000044],[120.766618729,16.072630218000025],[120.76590569000008,16.06993520700007],[120.76497873900009,16.06819941800006],[120.7637190370001,16.06657781200004],[120.76269701400008,16.06491051300003],[120.76141354300013,16.06228391800005],[120.75925065800006,16.059154799000055],[120.75758690000009,16.057281872000036],[120.75506749500006,16.05536324600007],[120.75169244300001,16.053764376000053],[120.74926810900003,16.050635123000063],[120.74800840700004,16.049789988000043],[120.74624957700007,16.04899053300005],[120.7435637960001,16.047163194000063],[120.74273191700003,16.046386569000052],[120.74201887800007,16.045221628000032],[120.74094931900005,16.044216574000075],[120.73882018300004,16.042916346000027],[120.73737509000013,16.041381336000025],[120.73568281000007,16.04061382600002],[120.73493158000008,16.039916322000064],[120.73476520400004,16.03893408500005],[120.73352551000005,16.037382601000044],[120.7332640620001,16.036126234000047],[120.73331159800011,16.034664270000064],[120.73435738900002,16.033385042000077],[120.73637766700004,16.032951017000073],[120.73920605600006,16.034664270000068],[120.74115502900008,16.035303880000072],[120.74472022500002,16.03822778900007],[120.74576601600008,16.038753174000018],[120.74866570900008,16.039278558000035],[120.7510662740001,16.039255715000024],[120.75284887200007,16.039735412000027],[120.75391774700007,16.040350241000056],[120.75460306800005,16.04182452700007],[120.75493582000001,16.043903179000036],[120.75529234000011,16.044611287000066],[120.75671841800012,16.045936126000072],[120.75997463000009,16.047238115000024],[120.7617809960001,16.048448728000032],[120.76396765000004,16.049408077000063],[120.76610676700011,16.05002479900003],[120.76779429300008,16.050001957000063],[120.7698383390001,16.04936239400007],[120.77112181000008,16.049339552000045],[120.77356991100011,16.05105266400005],[120.77523366900006,16.051692222000046],[120.77646960300001,16.052902809000045],[120.77711412765663,16.05315056729362],[120.77663170678103,16.051199591679435],[120.77647756935252,16.05076848896539],[120.77620079000008,16.050698316000027]]],[[[120.76998908200004,16.087874301000056],[120.76753681500008,16.085056699000063],[120.76582552100002,16.083960496000028],[120.763472492,16.083480906000034],[120.7579464380001,16.081322734000025],[120.75622031900002,16.079972466000076],[120.75498672500011,16.077483041000047],[120.75470211000003,16.076115620000056],[120.75374299200007,16.073886234000042],[120.75091574400005,16.071361753000076],[120.74810066200008,16.069765849000078],[120.74632812700008,16.068433500000026],[120.74543344900007,16.067188952000038],[120.74453546600013,16.06309667700003],[120.74432155500006,16.062617036000063],[120.74129697400006,16.059739728000068],[120.73972828700003,16.058780429000027],[120.73840664000012,16.05824817300004],[120.73711985900002,16.058208854000046],[120.73463750400005,16.05928840400002],[120.73344791800002,16.060697811000068],[120.73291292800002,16.06220591500005],[120.73264929900006,16.06443094300005],[120.73287207500006,16.065964423000025],[120.73431003800012,16.067665972000043],[120.73458337000011,16.06944744400004],[120.73429815400003,16.07022397800006],[120.73462422200011,16.071181877000075],[120.73588392400006,16.071798532000056],[120.73771405800005,16.072300990000024],[120.73944912000002,16.07252937900006],[120.74044737500003,16.07303183500005],[120.74087519800003,16.07369416100005],[120.74082766300012,16.07611505900007],[120.74125548600013,16.078901338000037],[120.74132679000002,16.081436362000034],[120.74289547600004,16.08369730200008],[120.74391749900009,16.087351292000047],[120.74441662600009,16.092854988000056],[120.74446416200009,16.094339361000035],[120.7440363390001,16.096508809000053],[120.74294301200005,16.09783330300007],[120.74196852500006,16.100573607000054],[120.74113664600007,16.102080758000053],[120.74058998300008,16.104318627000055],[120.73947288800002,16.105917090000045],[120.7383557930001,16.105665904000038],[120.73792797000011,16.103108354000028],[120.73795093100011,16.10197712100006],[120.73947288800002,16.098975101000068],[120.74009085500006,16.096463137000057],[120.74173084600011,16.093631430000073],[120.74189722100004,16.08936095800004],[120.74146939800006,16.087168594000048],[120.73987174300008,16.08389276700007],[120.739105085,16.077764243000043],[120.73806725000009,16.076252547000024],[120.73600451700008,16.075356535000022],[120.73361519900004,16.075256900000053],[120.73182990000008,16.07404631400004],[120.73120032200008,16.073223679000026],[120.73067873800007,16.07040534700008],[120.73082134600008,16.06837265000007],[120.73070250600007,16.065449185000034],[120.73086604000001,16.063786963000044],[120.73017441100001,16.062595541000064],[120.7299010790001,16.06117945100005],[120.72940475700011,16.06043542600003],[120.72776927300004,16.060521157000032],[120.72713103800005,16.06141257900003],[120.72779442000001,16.062486360000037],[120.72805237500008,16.06389892900006],[120.7278696950001,16.066070145000026],[120.72566044700011,16.06878776400003],[120.72516016800013,16.070330895000037],[120.72577006900009,16.073687916000036],[120.72567178300005,16.07544153800006],[120.72497828000007,16.078035569000065],[120.72566572100004,16.08111754100003],[120.72474060000002,16.081118715000063],[120.72448638199998,16.07994598600004],[120.72075729200002,16.081700837000025],[120.71984439700009,16.083151282000074],[120.72023373600007,16.086141937000036],[120.71872730300005,16.08897481300005],[120.71784788800007,16.089956803000064],[120.71678938900006,16.090616243000056],[120.71492442700003,16.09262870500003],[120.71258939300003,16.095533707000076],[120.71235225600003,16.09715980800007],[120.71100271200011,16.098771661000058],[120.71055783300005,16.100599054000043],[120.70993315300007,16.101877321000075],[120.70858272900011,16.10268768700007],[120.70842549757947,16.102914093817063],[120.709310397925,16.103439832699113],[120.7102718803052,16.10389213858366],[120.71092785000008,16.10312804900007],[120.71176923600001,16.101648309000037],[120.71233966700004,16.099236857000054],[120.71310975000006,16.098359958000056],[120.71376574600004,16.096030676000048],[120.71433617700008,16.095098956000076],[120.71626138300007,16.09352324200006],[120.71837197900004,16.09142683900006],[120.71929893000004,16.090166246000024],[120.7206394440001,16.088782325000068],[120.72115283200003,16.087453203000056],[120.72109578900007,16.084150914000077],[120.72140952600013,16.082903978000047],[120.72297821200004,16.081739250000055],[120.72440429000005,16.081876277000045],[120.72585889000004,16.08358910900006],[120.72631523500002,16.08297249100008],[120.72610132400008,16.078094292000056],[120.72678584100004,16.07666917700004],[120.72745609800005,16.076641771000023],[120.73039382000002,16.078477975000055],[120.7320052880001,16.078820548000063],[120.73343136700008,16.078820548000067],[120.73458649000008,16.079245338000074],[120.7354849190001,16.080944490000032],[120.73470057600004,16.08321913800006],[120.73288945700006,16.08427423700004],[120.73211937400004,16.08624739500004],[120.7321764180001,16.08804240300003],[120.73116390200006,16.09009773500003],[120.73059347100002,16.092934059000076],[120.7304793840001,16.094454970000076],[120.73114964100012,16.09686648000007],[120.73221920000005,16.098921722000057],[120.73334580200003,16.100456288000032],[120.73444388200006,16.102360778000044],[120.73602682900004,16.104498169000067],[120.73614091500009,16.10566276400004],[120.73559900600003,16.107512400000076],[120.73500005300002,16.108307054000022],[120.73352475002756,16.108925101223303],[120.73585518665166,16.108839198771726],[120.73769657928307,16.108595063195512],[120.73882194300005,16.108252250000078],[120.73940663500002,16.107567204000077],[120.74091827800011,16.104607779000048],[120.7423443560001,16.10277181700007],[120.74391304300003,16.101524997000066],[120.74531059900005,16.09914094600003],[120.74576694400002,16.097277530000042],[120.74653702700004,16.095181167000074],[120.7467794600001,16.092742232000038],[120.7462518110001,16.09098837300007],[120.74729284800003,16.088179425000025],[120.7462518110001,16.086247395000044],[120.74518225200006,16.085987049000035],[120.74471164600004,16.084630503000028],[120.74401286800003,16.083917971000062],[120.74361356600002,16.082835465000073],[120.7428434840001,16.08205441200005],[120.74228731300002,16.08067043400007],[120.74252974600006,16.079670128000032],[120.7435707840001,16.078820548000063],[120.74518225200006,16.078573895000034],[120.7477777150001,16.079313853000034],[120.74968866000006,16.080478595000045],[120.75177073400006,16.083136923000037],[120.75389559100006,16.085178604000077],[120.75576375400011,16.086439228000074],[120.76008477100004,16.088234235000073],[120.764120573,16.08900156000004],[120.76556091200008,16.089124880000043],[120.76712959800012,16.089549649000052],[120.76926215063092,16.090724242857615],[120.77034526572858,16.08934370234782],[120.77087314847324,16.088512677894094],[120.76998908200004,16.087874301000056]]]]}},{"type":"Feature","properties":{"fid":176,"objectid":9618,"lccode":"05","liqcode":null,"mappers":"DJLBuhay, MITAbigania","project":"LiquePhi","province":"Pangasinan","otherinfo":null,"datemapped":2024,"publishdate":null,"globalid":"{5ACB73C5-6107-4512-9787-F18573022798}","st_area(shape)":0.06533832536059311,"st_perimeter(shape)":23.271340040578984,"liqcodepk":null,"creator":null,"createdate":null,"editor":null,"modifydate":null,"codemove":null},"geometry":{"type":"MultiPolygon","coordinates":[[[[120.69875238800012,16.095352048000056],[120.70019328000001,16.092867581000064],[120.70059858099998,16.090974879000047],[120.7005069490001,16.088914259000035],[120.70257007700002,16.086729010000056],[120.7031811500001,16.085197312000048],[120.70315170400012,16.082795802000074],[120.70374896800001,16.081412415000045],[120.70586945700006,16.079780347000053],[120.70707674000005,16.078424888000033],[120.70778029500003,16.076777902000064],[120.70814129000007,16.074889801000037],[120.70892242200013,16.073747839000077],[120.70954835400005,16.07203951600008],[120.70954315300003,16.070907323000025],[120.71038135500011,16.06902331000003],[120.71167796400006,16.067672654000027],[120.71365427100012,16.063132112000066],[120.71367803900013,16.060802417000044],[120.714676294,16.058975187000048],[120.71467660500004,16.056826676000075],[120.71493774100009,16.05545772100004],[120.71474759800005,16.053013731000018],[120.71366175100002,16.050073110000028],[120.7131551440001,16.04810281800007],[120.71317891100011,16.04358010400006],[120.7127035520001,16.040724802000057],[120.71103979400004,16.03741260000004],[120.71065950600007,16.035425253000028],[120.7098752390001,16.034082265000055],[120.70932850000008,16.032181494000042],[120.70899574800002,16.028001079000028],[120.70856792500001,16.025967949000066],[120.70842449707311,16.024791170973774],[120.70626514790048,16.026011716726643],[120.70255379346204,16.02861264882837],[120.69912381754122,16.031552799035087],[120.6960082451147,16.03480386561967],[120.69323707907617,16.03833455338757],[120.69083701136478,16.042110874517597],[120.68883116575525,16.046096475322347],[120.68723887479233,16.05025298580305],[120.68607549303114,16.054540388653393],[120.68535224840426,16.058917404178754],[120.68507613317509,16.063341887442096],[120.68524983556296,16.067771233827305],[120.68587171273784,16.0721627891267],[120.68693580548755,16.076474260212077],[120.6884318944605,16.080664122338856],[120.69034559748683,16.084692019161253],[120.69265850708298,16.088519151602178],[120.69534836685462,16.09210865182463],[120.69838928513285,16.095425938691136],[120.69861966182611,16.09563236965553],[120.69875238800012,16.095352048000056]]],[[[120.75956391500006,16.02814400400007],[120.75802374999999,16.02850037000007],[120.75604465900007,16.02823999600002],[120.75452276800003,16.027747787000063],[120.75174191500003,16.027226941000038],[120.74965984000006,16.027295473000038],[120.74726154000007,16.028002518000047],[120.74576664600012,16.029406259000037],[120.74558342900002,16.030437777000035],[120.7462305140001,16.032132951000047],[120.74760628700004,16.033326230000053],[120.74874722600009,16.033804066000073],[120.75128557000004,16.034313063000063],[120.75505619400008,16.034724936000035],[120.75779038000009,16.034659843000046],[120.758548355,16.03481843600002],[120.75997449600004,16.035758095000066],[120.76201867400006,16.037774600000034],[120.76282928800002,16.039614313000076],[120.76378011700001,16.04072496800006],[120.76554443200007,16.04191673400004],[120.76663840900005,16.043095309000027],[120.76878669200005,16.043398702000044],[120.77250224900001,16.04443460400006],[120.77428916757572,16.045234046520893],[120.77321856165575,16.042982803705605],[120.7709043975815,16.039156397587288],[120.76821363286012,16.03556774899056],[120.76517219393733,16.032251406325443],[120.76180937892502,16.029239294236113],[120.76031138740825,16.02814041378424],[120.75956391500006,16.02814400400007]]],[[[120.77646960300001,16.052902809000045],[120.77523366900006,16.051692222000046],[120.77356991100011,16.05105266400005],[120.77112181000008,16.049339552000045],[120.7698383390001,16.04936239400007],[120.76779429300008,16.050001957000063],[120.76610676700011,16.05002479900003],[120.76396765000004,16.049408077000063],[120.7617809960001,16.048448728000032],[120.75997463000009,16.047238115000024],[120.75671841800012,16.045936126000072],[120.75529234000011,16.044611287000066],[120.75493582000001,16.043903179000036],[120.75460306800005,16.04182452700007],[120.75391774700007,16.040350241000056],[120.75284887200007,16.039735412000027],[120.7510662740001,16.039255715000024],[120.74866570900008,16.039278558000035],[120.74576601600008,16.038753174000018],[120.74472022500002,16.03822778900007],[120.74115502900008,16.035303880000072],[120.73920605600006,16.034664270000068],[120.73637766700004,16.032951017000073],[120.73435738900002,16.033385042000077],[120.73331159800011,16.034664270000064],[120.7332640620001,16.036126234000047],[120.73352551000005,16.037382601000044],[120.73476520400004,16.03893408500005],[120.73493158000008,16.039916322000064],[120.73568281000007,16.04061382600002],[120.73737509000013,16.041381336000025],[120.73882018300004,16.042916346000027],[120.74094931900005,16.044216574000075],[120.74201887800007,16.045221628000032],[120.74273191700003,16.046386569000052],[120.7435637960001,16.047163194000063],[120.74624957700007,16.04899053300005],[120.74800840700004,16.049789988000043],[120.74926810900003,16.050635123000063],[120.75169244300001,16.053764376000053],[120.75506749500006,16.05536324600007],[120.75758690000009,16.057281872000036],[120.75925065800006,16.059154799000055],[120.76141354300013,16.06228391800005],[120.76269701400008,16.06491051300003],[120.7637190370001,16.06657781200004],[120.76497873900009,16.06819941800006],[120.76590569000008,16.06993520700007],[120.766618729,16.072630218000025],[120.76611960200012,16.076626988000044],[120.76640481800007,16.07786026100007],[120.76714162500002,16.078728116000036],[120.76813988000004,16.079207718000077],[120.76954219000004,16.07934474600006],[120.77125348400011,16.08009840400007],[120.77229927500002,16.081605710000076],[120.77386796100006,16.082519224000063],[120.77416797938704,16.08273608471558],[120.77474942802134,16.081579845937437],[120.77634032770227,16.077422493655725],[120.77750204139397,16.073134376987102],[120.77822340526677,16.068756803057795],[120.77849749933358,16.06433193826395],[120.77832171304698,16.05990240188366],[120.77769776931997,16.05551085542601],[120.77711412765663,16.05315056729362],[120.77646960300001,16.052902809000045]]],[[[120.73334580200003,16.100456288000032],[120.73221920000005,16.098921722000057],[120.73114964100012,16.09686648000007],[120.7304793840001,16.094454970000076],[120.73059347100002,16.092934059000076],[120.73116390200006,16.09009773500003],[120.7321764180001,16.08804240300003],[120.73211937400004,16.08624739500004],[120.73288945700006,16.08427423700004],[120.73470057600004,16.08321913800006],[120.7354849190001,16.080944490000032],[120.73458649000008,16.079245338000074],[120.73343136700008,16.078820548000067],[120.7320052880001,16.078820548000063],[120.73039382000002,16.078477975000055],[120.72745609800005,16.076641771000023],[120.72678584100004,16.07666917700004],[120.72610132400008,16.078094292000056],[120.72631523500002,16.08297249100008],[120.72585889000004,16.08358910900006],[120.72440429000005,16.081876277000045],[120.72297821200004,16.081739250000055],[120.72140952600013,16.082903978000047],[120.72109578900007,16.084150914000077],[120.72115283200003,16.087453203000056],[120.7206394440001,16.088782325000068],[120.71929893000004,16.090166246000024],[120.71837197900004,16.09142683900006],[120.71626138300007,16.09352324200006],[120.71433617700008,16.095098956000076],[120.71376574600004,16.096030676000048],[120.71310975000006,16.098359958000056],[120.71233966700004,16.099236857000054],[120.71176923600001,16.101648309000037],[120.71092785000008,16.10312804900007],[120.7102718803052,16.10389213858366],[120.71343330760942,16.10537931210374],[120.71720684421976,16.10673030542251],[120.71746671600012,16.106191539000065],[120.7187929690001,16.106218941000062],[120.7191209670001,16.10495844200005],[120.71892131600009,16.10254703000004],[120.71996235300001,16.100642542000056],[120.72067539300006,16.100231499000074],[120.72133138900004,16.100875466000048],[120.72117452000009,16.102766251000045],[120.72160234400009,16.104095270000073],[120.72287155300012,16.105122855000044],[120.72345624500008,16.106643673000068],[120.724397457,16.10715060900003],[120.7249152831831,16.108467065269114],[120.72669623462184,16.10874187094501],[120.73127322974317,16.10900807035553],[120.73352475002756,16.108925101223303],[120.73500005300002,16.108307054000022],[120.73559900600003,16.107512400000076],[120.73614091500009,16.10566276400004],[120.73602682900004,16.104498169000067],[120.73444388200006,16.102360778000044],[120.73334580200003,16.100456288000032]]],[[[120.74968866000006,16.080478595000045],[120.7477777150001,16.079313853000034],[120.74518225200006,16.078573895000034],[120.7435707840001,16.078820548000063],[120.74252974600006,16.079670128000032],[120.74228731300002,16.08067043400007],[120.7428434840001,16.08205441200005],[120.74361356600002,16.082835465000073],[120.74401286800003,16.083917971000062],[120.74471164600004,16.084630503000028],[120.74518225200006,16.085987049000035],[120.7462518110001,16.086247395000044],[120.74729284800003,16.088179425000025],[120.7462518110001,16.09098837300007],[120.7467794600001,16.092742232000038],[120.74653702700004,16.095181167000074],[120.74576694400002,16.097277530000042],[120.74531059900005,16.09914094600003],[120.74391304300003,16.101524997000066],[120.7423443560001,16.10277181700007],[120.74091827800011,16.104607779000048],[120.73940663500002,16.107567204000077],[120.73882194300005,16.108252250000078],[120.73769657928307,16.108595063195512],[120.74039794846541,16.108236879792514],[120.74485773603138,16.107206914239203],[120.74919157069611,16.105759224282632],[120.75335768931201,16.103907757767917],[120.75731594744,16.101670353662833],[120.7610282068265,16.09906856993468],[120.7644587033897,16.096127475526163],[120.76757439214506,16.09287540844958],[120.76926215063092,16.090724242857615],[120.76712959800012,16.089549649000052],[120.76556091200008,16.089124880000043],[120.764120573,16.08900156000004],[120.76008477100004,16.088234235000073],[120.75576375400011,16.086439228000074],[120.75389559100006,16.085178604000077],[120.75177073400006,16.083136923000037],[120.74968866000006,16.080478595000045]]]]}}]}