{"type":"FeatureCollection","features":[{"type":"Feature","properties":{"fid":10,"objectid":1841,"lccode":"01","liqcode":"2010600010000000","mappers":"DJLBuhay, MJVReyes, MITAbigania, KLPapiona, KMVitto","project":"MELP","province":"Capiz","otherinfo":null,"datemapped":2017,"publishdate":null,"globalid":"{FE12B36A-531F-4D3F-AE5B-76F7E9CFE484}","st_area(shape)":0.04128187917080134,"st_perimeter(shape)":8.871881460062728,"liqcodepk":"201060001000000000013","creator":"SNOOPYPC","createdate":"2019-02-19T15:21:28","editor":"LENOVO","modifydate":"2019-03-10T17:53:06","codemove":"na"},"geometry":{"type":"Polygon","coordinates":[[[122.97003426300012,11.480225196000049],[122.97080525500007,11.480602668000072],[122.97195751200003,11.481817630000021],[122.97494754400009,11.48171757400007],[122.97588101800011,11.482046328000024],[122.98065777700003,11.481889098000064],[122.98382101200004,11.481939125000052],[122.98784255300006,11.482485283000072],[122.98913014300001,11.48288965000006],[122.98925412000006,11.483354191000048],[122.99061786600008,11.48422609700003],[122.99108354200007,11.485701322000066],[122.99253057800003,11.48526372500004],[122.99262538400001,11.484870655000064],[122.991575226,11.48323404600006],[122.99070738700006,11.482505074000075],[122.98837188000005,11.481218646000059],[122.9859069270001,11.480618312000047],[122.98519770599998,11.479667779000065],[122.9834766140001,11.47834560500007],[122.98306821900007,11.476608901000079],[122.98214933100007,11.475722678000066],[122.98218607500007,11.474658074000047],[122.98091685500003,11.473921635000067],[122.97956769400004,11.474321868000057],[122.9796697920001,11.47318549100004],[122.97894051600008,11.472238507000045],[122.9785612930001,11.47079479700005],[122.97909366400006,11.468947266000045],[122.97883841700002,11.468396935000046],[122.97775908900006,11.468082460000062],[122.97680191400002,11.466742363000035],[122.9761528580001,11.466892455000048],[122.97375171600004,11.466099115000077],[122.97278177900012,11.466449328000069],[122.97202333200006,11.46582752000006],[122.9708346110001,11.466056231000039],[122.96989384500012,11.466642303000068],[122.96763308900005,11.466091967000066],[122.966911105,11.465505895000033],[122.96513896400006,11.465498748000075],[122.96508157954719,11.465456142467895],[122.96560203830764,11.468919881710182],[122.96669466111297,11.473224563497],[122.96820982776714,11.477402873275723],[122.96965615345538,11.480419945513734],[122.97003426300012,11.480225196000049]]]}},{"type":"Feature","properties":{"fid":32,"objectid":1878,"lccode":"07","liqcode":"2010600070000000","mappers":"PJDelosReyes, ACPidlaoan","project":"READY","province":"Iloilo","otherinfo":null,"datemapped":2010,"publishdate":null,"globalid":"{2F92972A-C07C-4633-B325-DF2A08960C6C}","st_area(shape)":0.031106077518548395,"st_perimeter(shape)":5.287074988133156,"liqcodepk":"201060007000000000071","creator":"SNOOPYPC","createdate":"2019-02-19T15:21:28","editor":"LENOVO","modifydate":"2019-03-10T17:50:55","codemove":"na"},"geometry":{"type":"Polygon","coordinates":[]}},{"type":"Feature","properties":{"fid":59,"objectid":1908,"lccode":"05","liqcode":"2010600050000000","mappers":"PJDelosReyes, ACPidlaoan","project":"READY","province":"Iloilo","otherinfo":null,"datemapped":2010,"publishdate":null,"globalid":"{282D04BA-68E2-41E5-9B8A-0D8D85396F2D}","st_area(shape)":0.06128738608791496,"st_perimeter(shape)":10.692281506054618,"liqcodepk":"201060005000000000103","creator":"SNOOPYPC","createdate":"2019-02-19T15:21:28","editor":"LENOVO","modifydate":"2019-03-10T17:50:55","codemove":"na"},"geometry":{"type":"MultiPolygon","coordinates":[[[[123.05384639500005,11.449899792000053],[123.05191573800005,11.449109079000038],[123.05034128400008,11.446853440000039],[123.04977695400011,11.446941422000062],[123.04921285600005,11.44793764600007],[123.04802490900012,11.448494544000027],[123.04713385600007,11.447791512000034],[123.0458271770001,11.448582782000072],[123.0453009990001,11.449780737000026],[123.04702283000006,11.450984500000061],[123.04889615000002,11.452771628000049],[123.04986709500008,11.453910033000055],[123.05375078000009,11.457143504000042],[123.0552411540001,11.45868223900004],[123.05517814600013,11.459546074000059],[123.05583904300009,11.462070282000072],[123.05627009190054,11.462828951286191],[123.05640572331158,11.460094749394697],[123.05618410769023,11.455662591798708],[123.05552316643885,11.451273200900529],[123.05524413895951,11.450175258831568],[123.05384639500005,11.449899792000053]]],[[[123.05235989900007,11.441784648000064],[123.05250855100007,11.442751455000064],[123.05323848837146,11.443687784880959],[123.0529130143487,11.442790975485773],[123.0523849057517,11.441690009591712],[123.05235989900007,11.441784648000064]]],[[[123.04941878700004,11.436599447000047],[123.04995363000012,11.43832795700007],[123.05129035500009,11.439733989000048],[123.05149507462181,11.439834926773978],[123.0509889745464,11.438779818302812],[123.04942568517221,11.436207884259828],[123.04941878700004,11.436599447000047]]]]}},{"type":"Feature","properties":{"fid":73,"objectid":1937,"lccode":"06","liqcode":"2010600060000000","mappers":"PJDelosReyes, ACPidlaoan","project":"READY","province":"Iloilo","otherinfo":null,"datemapped":2010,"publishdate":null,"globalid":"{DBB85F45-4FB4-4F72-8BD3-A1308397A487}","st_area(shape)":0.017575391436836466,"st_perimeter(shape)":7.287100410898002,"liqcodepk":"201060006000000000136","creator":"SNOOPYPC","createdate":"2019-02-19T15:21:28","editor":"LENOVO","modifydate":"2019-03-10T17:50:55","codemove":"na"},"geometry":{"type":"Polygon","coordinates":[]}}]}