{"type":"FeatureCollection","features":[{"type":"Feature","properties":{"fid":5,"objectid":1834,"lccode":"01","liqcode":"2010600010000000","mappers":"DJLBuhay, MJVReyes, MITAbigania, KLPapiona, KMVitto","project":"MELP","province":"Apayao","otherinfo":null,"datemapped":2018,"publishdate":null,"globalid":"{1CF6B5C0-CFF1-4290-9A9E-3C6A72777FB9}","st_area(shape)":0.016612682616230664,"st_perimeter(shape)":4.8172609856160955,"liqcodepk":"201060001000000000006","creator":"SNOOPYPC","createdate":"2019-02-19T15:21:28","editor":"LENOVO","modifydate":"2019-03-10T17:53:06","codemove":"na"},"geometry":{"type":"MultiPolygon","coordinates":[[[[121.46535710700006,18.196065341000065],[121.46710377900003,18.195409899000026],[121.46880602400007,18.195241684000052],[121.46853874500005,18.19618210300007],[121.46735907984359,18.197333962167793],[121.47194800252899,18.19758612507252],[121.47658288019925,18.19740542230828],[121.4811768901552,18.19679127616036],[121.48139183790937,18.196741620005735],[121.47970867300012,18.192538722000055],[121.47917961600002,18.187957892000043],[121.479050873,18.180685780000033],[121.48000490200003,18.180423765000057],[121.48119270300005,18.180939604000056],[121.48264026100004,18.182048489000067],[121.48334632800004,18.182096255000033],[121.48482464000006,18.183352275000058],[121.48441921300004,18.178229297000023],[121.483886933,18.17788710600007],[121.48230270200008,18.17829536500005],[121.48192934100005,18.177508251000063],[121.48326739300002,18.176474209000048],[121.48225746100002,18.175250045000045],[121.47995178900011,18.171264291000057],[121.47992184700003,18.16961798000005],[121.4803684970001,18.169030603000067],[121.481966338,18.168072445000067],[121.48254685800009,18.167317275000077],[121.48353136100002,18.166917289000025],[121.4834002010001,18.165246195000062],[121.48166907800008,18.153796435000064],[121.48048130100005,18.140583081000038],[121.4801423120001,18.13642134100007],[121.479615124,18.136108943000067],[121.47921214700011,18.13397132600005],[121.47801578300006,18.135102376000074],[121.47759267800006,18.134295739000034],[121.47651273800011,18.136190210000052],[121.47747065300005,18.136838526000073],[121.47894069300003,18.136869277000077],[121.47902334700008,18.137721036000073],[121.47964616500008,18.138567500000022],[121.47871792300009,18.139497336000026],[121.47924163900008,18.14023782500004],[121.47718432700003,18.14121993000003],[121.47644127200009,18.141111404000068],[121.47483878700007,18.139990440000073],[121.4752002550001,18.13823076100004],[121.47434761500006,18.136871421000023],[121.47340953300012,18.13629473600003],[121.4729069560001,18.13542769100008],[121.47316906300011,18.13461452800004],[121.47461822600008,18.132992800000064],[121.47411184400005,18.132334861000057],[121.47415312300008,18.131034624000048],[121.47375311500004,18.12987433300003],[121.47280832800006,18.128390889000062],[121.47314416600011,18.127868054000032],[121.47214205800003,18.126652780000025],[121.4698070940001,18.12704066300006],[121.46941006200007,18.12597362800005],[121.46829723000006,18.124759555000026],[121.46726320300002,18.122145713000066],[121.46789170500006,18.12002773700004],[121.46757292600012,18.118734202000045],[121.46755673700012,18.117146622000067],[121.46808420800004,18.116566161000037],[121.46919223500002,18.11680448100003],[121.46928913500005,18.11601152500003],[121.46798994500011,18.115905567000027],[121.46760376600002,18.115462599000068],[121.46842200700007,18.114522373000057],[121.46686021200003,18.11424510900002],[121.46668019100002,18.117587790000073],[121.46611176600005,18.11854912300004],[121.46557092100011,18.120935553000034],[121.46580976700012,18.12221889200003],[121.46484179900006,18.123119658000064],[121.46417800100005,18.12239383600007],[121.46467765800001,18.121147504000078],[121.4642890450001,18.118840614000078],[121.46356818900004,18.11893049400004],[121.4637689650001,18.120095215000052],[121.46295667800007,18.122367155000067],[121.46188340100002,18.12312321000007],[121.46139032700013,18.122810006000062],[121.46146891700005,18.121455253000022],[121.46095208700001,18.120752021000044],[121.46006672800002,18.12102453400007],[121.45920341500005,18.120712584000042],[121.45938598900011,18.11870583000006],[121.46138697000004,18.11632630800005],[121.46125588800011,18.114159255000057],[121.46186935300011,18.11333795500008],[121.4623816620001,18.111931510000037],[121.4630006210001,18.111195320000025],[121.46273819400005,18.10916507400003],[121.46387780700002,18.108082401000047],[121.46378786673867,18.10799097738663],[121.46350909437808,18.108028252247582],[121.45900243242201,18.109069571811048],[121.45796728557646,18.109414437826164],[121.45796221700004,18.11021477800006],[121.45735126300008,18.111462632000045],[121.45559972200012,18.112768284000023],[121.4534782290001,18.11292339900007],[121.45295218100011,18.112469719000043],[121.45342233200006,18.111316380000062],[121.45340583623872,18.11106726983829],[121.4504163751805,18.11239003174033],[121.44871684060571,18.11334561416123],[121.44924183800003,18.113884605000067],[121.44919661000006,18.11462703500007],[121.44806378200008,18.115005264000047],[121.44867474700004,18.115733281000068],[121.4496732880001,18.115211809000076],[121.45045654700003,18.115259913000042],[121.45042515100009,18.116270938000067],[121.45133429900011,18.116091772000065],[121.45216009200011,18.116437441000073],[121.453077559,18.11787133100006],[121.45250512300005,18.118996351000074],[121.45052006100003,18.11923587700005],[121.44989292100001,18.118091978000052],[121.44870911500004,18.117261089000063],[121.44814468000004,18.11752396600002],[121.44848166300005,18.11849412600003],[121.45035097700007,18.120080454000057],[121.44979660700007,18.12135445600006],[121.44877319900002,18.121728731000076],[121.44720822100011,18.121450537000044],[121.44606207200003,18.120009464000077],[121.44496108300007,18.120812074000067],[121.44291381000005,18.121689784000072],[121.44262804800007,18.122337748000064],[121.44068959200001,18.123206030000063],[121.43979808300003,18.124091241000023],[121.44085580000001,18.12595729300005],[121.44022135900003,18.127577840000075],[121.43929319600011,18.128103760000045],[121.43957183300006,18.128752022000075],[121.44091472100003,18.12885366900002],[121.4422822800001,18.12859390600005],[121.44256324600009,18.12966237600005],[121.4419184530001,18.13019267800007],[121.44170675200007,18.131510639000055],[121.44080819400006,18.131331231000047],[121.44138889300005,18.134509287000075],[121.4403901410001,18.13434819000003],[121.4392088960001,18.134606375000033],[121.43773812300003,18.13339910100007],[121.43732059500007,18.13254612000003],[121.43244177000008,18.130077493000048],[121.43119894400002,18.130373379000048],[121.43112790813782,18.130354131894183],[121.4308565380965,18.130778774748407],[121.43055908719458,18.13136706379943],[121.43061002900004,18.13136311100004],[121.43202640200002,18.13179541800002],[121.43480734000002,18.134551504000054],[121.43363921600009,18.13544090700003],[121.43307012700006,18.136449933000044],[121.43158228400013,18.137298466000065],[121.43091504000006,18.138096302000065],[121.43023905200005,18.13763177500004],[121.42758017338996,18.138043747758864],[121.42723889741508,18.138931671098753],[121.4267438072202,18.140755095286853],[121.42739168800006,18.14063156500003],[121.4297127000001,18.14057282400006],[121.43139702400003,18.140127547000073],[121.43223770700003,18.142314720000055],[121.43156481700011,18.143743656000026],[121.43223912600001,18.14439942300003],[121.43318916000011,18.143297877000062],[121.43333650800001,18.14247667500007],[121.43440203000011,18.139635629000054],[121.43553272600002,18.138459035000043],[121.43650945300011,18.138849487000073],[121.43778647700003,18.138777879000024],[121.43741156400007,18.140884134000032],[121.43694554900003,18.141549747000056],[121.4380621470001,18.14196045400007],[121.43951695500004,18.140327451000072],[121.44131805700009,18.140246421000025],[121.44237481900005,18.140637492000053],[121.44280199100001,18.13983767100007],[121.44352150700001,18.139631983000072],[121.44616800300001,18.13998379600002],[121.44985931800011,18.140829645000053],[121.45140425200009,18.141294351000056],[121.45297551300007,18.142124488000036],[121.45470144900004,18.14368335300003],[121.45446623400005,18.144863277000066],[121.45540442900005,18.14623352400002],[121.45734094000011,18.14782694200005],[121.45879142900004,18.147814663000077],[121.45962420700006,18.14980563600005],[121.46044225600009,18.150625033000036],[121.4627102070001,18.151503837000057],[121.46342804900007,18.152346329000068],[121.46361868900011,18.153423680000053],[121.46468495200008,18.15446021000002],[121.46575602900008,18.15494690500003],[121.46918100800008,18.155069832000038],[121.46992640000008,18.155625634000046],[121.46974448800007,18.15641312800005],[121.47070651,18.159088841000024],[121.4706274560001,18.15962416800005],[121.469155107,18.15976502400002],[121.46927727000002,18.161243470000045],[121.47024941400002,18.16160981800004],[121.47136349200002,18.162909677000073],[121.47094670500007,18.16373687300006],[121.47102037500008,18.16527613300008],[121.47029611900007,18.16601033300003],[121.47032813500005,18.166928628000047],[121.47111914000006,18.167996408000025],[121.4712152830001,18.170741733000057],[121.46897428300007,18.17029531100007],[121.46737452100002,18.16962271600005],[121.4662375690001,18.167505022000057],[121.46771366700011,18.165149976000063],[121.46733168800006,18.16421454600004],[121.46706994600005,18.16248946400003],[121.46716661800009,18.16127478500004],[121.4659969290001,18.159492727000032],[121.4648465140001,18.158924114000058],[121.46484441900009,18.157446627000066],[121.4616546520001,18.15330430000006],[121.45938075400012,18.15218923100002],[121.45882521900013,18.150520836000055],[121.45812356400006,18.15068734400006],[121.45805566600005,18.151585712000045],[121.45870842800002,18.15243247900003],[121.45825885400006,18.15350948300005],[121.4590368490001,18.15376435400003],[121.46027157800008,18.15360880700007],[121.46122576700009,18.154304974000066],[121.4617058140001,18.156030138000062],[121.46309123900005,18.157174421000036],[121.46362422400011,18.157996310000037],[121.46339027300009,18.16004730800006],[121.4649378810001,18.16048838000006],[121.46558607900009,18.163067413000025],[121.46504864700013,18.16446886900007],[121.4643893340001,18.16436319200005],[121.46309449900002,18.16314791700006],[121.46225690000004,18.16283998600005],[121.46155942100006,18.163666377000023],[121.46321535600009,18.164769795000044],[121.46310216700012,18.165701273000025],[121.4639816580001,18.16636814400005],[121.46376205900005,18.167456560000062],[121.46277075100012,18.167563387000026],[121.46250926800008,18.16829285700004],[121.46354233100011,18.168559318000064],[121.4648704760001,18.169401906000072],[121.4643096540001,18.170042920000068],[121.46292531800009,18.170703506000052],[121.46501023700012,18.171337119000047],[121.46656596300011,18.171406920000035],[121.46618264000006,18.17291479900007],[121.4653153270001,18.173711156000024],[121.46278525300012,18.17474284600007],[121.46176143200013,18.173988746000074],[121.461830501,18.172956507000034],[121.46113606000006,18.17244680200002],[121.46099847900007,18.17102322000005],[121.46046381200006,18.169249803000067],[121.45997888400008,18.16893512300004],[121.45960636200005,18.167210818000058],[121.45821792200003,18.16679786400005],[121.45854951300011,18.16578098000002],[121.45625850400008,18.165231851000044],[121.45581581300007,18.164381981000076],[121.45706872900007,18.163531384000063],[121.4564188800001,18.162349932000033],[121.45633641800009,18.161488610000053],[121.45490864600004,18.16004270800005],[121.45421378900004,18.161610852000024],[121.45345516900012,18.162561037000042],[121.45227722900006,18.162081538000052],[121.45258197300008,18.161186519000065],[121.45207026000003,18.160226112000032],[121.45207851700003,18.159289018000035],[121.4508419120001,18.158858291000058],[121.45036354400007,18.15638721700003],[121.44961028200011,18.155596990000046],[121.44883195800003,18.155380330000074],[121.44849897100005,18.154574363000048],[121.44778387900008,18.154449475000035],[121.44802919100005,18.152928948000067],[121.44698517499998,18.15221765000007],[121.44641564400001,18.150448703000052],[121.44483357300011,18.149503539000023],[121.44374675900006,18.150240650000054],[121.44159167100008,18.14962074100004],[121.44091374100003,18.149930820000066],[121.44037807600012,18.15111704900005],[121.43799132000004,18.15124112100005],[121.43814169600013,18.152891929000074],[121.44033546900005,18.15253678400006],[121.44085295600007,18.15170901400006],[121.44490036900002,18.152129081000055],[121.44573217400013,18.153082528000017],[121.44559054800006,18.153827285000034],[121.44649902800005,18.154500839000033],[121.44672792500012,18.15576498400003],[121.44807692400002,18.157057300000083],[121.44856252200007,18.158706030000076],[121.44851406800001,18.159661924000027],[121.44755551300011,18.15946292900003],[121.44621280600008,18.159719840000037],[121.44504760300002,18.160265064000047],[121.44401004600002,18.159950657000017],[121.44351754400007,18.15908601500007],[121.4425369610001,18.15911632500007],[121.44230741,18.160185502000047],[121.44355959900008,18.16111367700006],[121.4448809590001,18.161009617000047],[121.44521732400005,18.161433103000036],[121.44687860800002,18.161350905000067],[121.44724586000008,18.162807424000047],[121.44948883500001,18.162557771000024],[121.45003436600008,18.16365233600004],[121.45151525500012,18.164744876000043],[121.45392882000012,18.163301188000048],[121.45404094200002,18.164201000000002],[121.455250309,18.16529787800005],[121.45568942900002,18.16643044800003],[121.45528989300011,18.16749827900002],[121.45595547100004,18.168029586000046],[121.45486765200008,18.168871937000063],[121.4556314990001,18.169604856000035],[121.45665535200011,18.171487405000043],[121.45791589700003,18.173183567000027],[121.45852830200012,18.174646820000078],[121.45801489800012,18.176148852000036],[121.45898443500005,18.177758165000057],[121.4589748630001,18.178848256000034],[121.46012538100001,18.17941691200002],[121.46063698700006,18.180970200000047],[121.46198084000004,18.181741216000038],[121.46355431500001,18.181997665000043],[121.46282662000011,18.182838157000045],[121.46119336700006,18.182552534000028],[121.45971521600006,18.181694369000063],[121.45933213700006,18.18259498700007],[121.45982367800002,18.183014915000054],[121.45965611400005,18.18500743000004],[121.46148040300012,18.184046643000045],[121.4611799390001,18.185794241000053],[121.46159835000003,18.18599841500003],[121.46354909700007,18.184307060000037],[121.46482147200004,18.18467584600006],[121.466986485,18.18421978000003],[121.46645375000003,18.185076186000057],[121.46639606600002,18.186524504000033],[121.46546046300013,18.18654153300002],[121.46530835600004,18.187917374000047],[121.46394543600003,18.18817423400003],[121.46369662200004,18.189166783000076],[121.46213394000004,18.18938378000007],[121.46182441700012,18.19045234200007],[121.46245776,18.190763428000025],[121.46379604100002,18.189819598000042],[121.46508355000003,18.18988314000006],[121.46535801800007,18.18938806500006],[121.46712454500006,18.18988271400008],[121.46751835900011,18.190388702000067],[121.46489371000007,18.191853967000043],[121.4666163180001,18.191657353000036],[121.46719986700009,18.192245625000055],[121.46620242200004,18.19322235900006],[121.46544140700007,18.193292779000046],[121.46511238900007,18.19430381400002],[121.46419749400002,18.193665345000053],[121.46297425500006,18.193961565000052],[121.46366770500005,18.194751273000062],[121.46343871900001,18.195763104000036],[121.46360063571755,18.196774363278244],[121.46506787691632,18.196994394525543],[121.46535710700006,18.196065341000065]],[[121.46677268800012,18.14265086000006],[121.46556584900009,18.141792437000046],[121.46595326200008,18.139443620000062],[121.46286535200011,18.137410764000037],[121.46219176600005,18.13723324900008],[121.461407699,18.135964677000057],[121.45998560600003,18.136103393000045],[121.45932418100006,18.134538148000043],[121.45932606900011,18.133514233000028],[121.45976723700005,18.13277016400008],[121.459567385,18.131606670000057],[121.4586997580001,18.129605857000058],[121.45769793700003,18.129224880000038],[121.45716782300008,18.12808742700003],[121.45592914100008,18.12734593400006],[121.45339110300006,18.12755603400007],[121.45192171200006,18.125850631000045],[121.45087888300009,18.126724420000066],[121.44946069600007,18.12664733700007],[121.44778449800002,18.125211941000035],[121.44735817900005,18.123351303000046],[121.44778314700011,18.12264721700006],[121.44958744500003,18.12243244400002],[121.45137591200013,18.121385150000034],[121.4530995130001,18.121002349000037],[121.45396251800004,18.12184479100006],[121.4551659340001,18.122342235000076],[121.45505966400003,18.123853279000063],[121.4541538210001,18.124505850000048],[121.4556026140001,18.12523469300004],[121.45720803400003,18.125387026000055],[121.45744448100004,18.12621433600003],[121.45853287500006,18.127638074000057],[121.46010894400003,18.129257257000063],[121.46085650100008,18.129550123000055],[121.46255282000004,18.129399169000067],[121.46401104000006,18.130415732000074],[121.4655812330001,18.13211336300003],[121.46658231100002,18.132913808000065],[121.46663343200011,18.134026257000073],[121.467634728,18.135310843000067],[121.46742265100012,18.136450859000032],[121.46496491800008,18.134070932000043],[121.4644532310001,18.13425332800006],[121.46518116800009,18.135730551000055],[121.46596415200008,18.136474415000066],[121.46609079100007,18.137436500000035],[121.46801913300008,18.139683425000044],[121.46918115400001,18.139931044000036],[121.4697875480001,18.14120293800005],[121.46846578300006,18.14208866200005],[121.46677268800012,18.14265086000006]],[[121.46714757000007,18.176970088000076],[121.46695714700003,18.178154369000023],[121.46519188200013,18.178458047000046],[121.46520134900004,18.177585698000026],[121.46600899600003,18.176750615000056],[121.46714757000007,18.176970088000076]],[[121.47061038800005,18.142191788000044],[121.47090258100002,18.14309780900004],[121.46931870200002,18.14338874500003],[121.46913653400009,18.142930419000038],[121.47061038800005,18.142191788000044]],[[121.46866112900011,18.17549034700005],[121.469689226,18.17615490700006],[121.46942773000002,18.177064774000034],[121.46862944100009,18.176828902000068],[121.46866112900011,18.17549034700005]]],[[[121.44060665100007,18.185096501000036],[121.442360548,18.184122968000054],[121.44286350800007,18.18325205000008],[121.44288997000002,18.181961285000053],[121.44430762700006,18.179476880000035],[121.44497116600009,18.177416684000036],[121.44473705400003,18.176740609000035],[121.44517333900001,18.174922423000055],[121.44458572200006,18.173355937000053],[121.44515625000008,18.172628912000047],[121.44478522300005,18.171162883000026],[121.44372051900007,18.17108254100003],[121.44350142400003,18.170406587000063],[121.44246304600006,18.170742434000033],[121.44326490700008,18.17169565200004],[121.44295883200004,18.17236735000006],[121.44113442900004,18.17265369800003],[121.44033438400005,18.172188276000036],[121.43993702800003,18.17131005300007],[121.4391328360001,18.170832314000048],[121.43716798600009,18.170730277000075],[121.43714550900006,18.16988378600007],[121.4385883760001,18.16962297700007],[121.4379619680001,18.165487234000068],[121.43745575800006,18.165313262000044],[121.43727266100008,18.164156857000023],[121.43465544800007,18.16212033800002],[121.43419231900008,18.16155747700003],[121.4319843820001,18.162867406000032],[121.43033650700012,18.16296974300008],[121.4288717290001,18.163808911000046],[121.42910867800002,18.164719710000043],[121.43002416500008,18.16518022500003],[121.43085348700004,18.164422934000072],[121.43221056100003,18.16383961200006],[121.4340953850001,18.16390101500002],[121.4343000240001,18.16471971000004],[121.43527084800007,18.165634786000055],[121.43445745000008,18.166322405000077],[121.43470076400001,18.167168509000078],[121.43405614700008,18.167998192000024],[121.43473392400006,18.169034561000043],[121.43456135400004,18.170240002000074],[121.43513183200001,18.171894231000064],[121.43565406000003,18.172228400000044],[121.43627314600008,18.173481385000056],[121.43796870200003,18.173495179000046],[121.4383275020001,18.174349185000036],[121.43916706300001,18.174888070000065],[121.4407104510001,18.174493101000053],[121.44187687000012,18.175991731000064],[121.44279614400011,18.17668053600005],[121.44159659000002,18.177734229000066],[121.44129887400004,18.179031258000066],[121.43971647700005,18.18057629400005],[121.43914862800011,18.18237964700006],[121.4384840680001,18.182577453000025],[121.43786574800004,18.18179544700007],[121.43672096000012,18.18115259700005],[121.43586743254727,18.181107556405593],[121.43864323729527,18.184085518162544],[121.44037890503459,18.18561504813586],[121.44060665100007,18.185096501000036]]],[[[121.47003631500002,18.107437208000018],[121.47087979700008,18.107485764000046],[121.4709633110001,18.108651892000065],[121.47164617000011,18.108218170000043],[121.4714778618379,18.107282458850225],[121.46998960185032,18.107340542310624],[121.47003631500002,18.107437208000018]]]]}},{"type":"Feature","properties":{"fid":26,"objectid":1872,"lccode":"07","liqcode":"2010600070000000","mappers":"PJDelosReyes, ACPidlaoan","project":"READY","province":"Cagayan","otherinfo":null,"datemapped":2012,"publishdate":null,"globalid":"{DED92A0E-07A3-4F4C-B4F3-8B0691B82188}","st_area(shape)":0.05559407556334115,"st_perimeter(shape)":12.110269661988962,"liqcodepk":"201060007000000000065","creator":"SNOOPYPC","createdate":"2019-02-19T15:21:28","editor":"LENOVO","modifydate":"2019-03-10T17:50:55","codemove":"na"},"geometry":{"type":"Polygon","coordinates":[]}},{"type":"Feature","properties":{"fid":53,"objectid":1902,"lccode":"05","liqcode":"2010600050000000","mappers":"PJDelosReyes, ACPidlaoan","project":"READY","province":"Cagayan","otherinfo":null,"datemapped":2012,"publishdate":null,"globalid":"{C3D84E80-F2D4-4567-B477-D6223763EFE3}","st_area(shape)":0.07022270502489089,"st_perimeter(shape)":22.490008235492827,"liqcodepk":"201060005000000000097","creator":"SNOOPYPC","createdate":"2019-02-19T15:21:28","editor":"LENOVO","modifydate":"2019-03-10T17:50:55","codemove":"na"},"geometry":{"type":"Polygon","coordinates":[[[121.50792552700011,18.181784615000023],[121.50692012000002,18.181405954000066],[121.50659340000006,18.180290964000047],[121.50574943200002,18.179171951000054],[121.50396184700001,18.179528791000056],[121.50143867800013,18.17835520700004],[121.5000181800001,18.17923044500003],[121.49930092600006,18.180491047000032],[121.49836861600012,18.181074673000072],[121.49642145000006,18.181565973000033],[121.49597199900006,18.18249105700005],[121.4951731870001,18.182949055000048],[121.49371973700012,18.182515592000065],[121.49365026300008,18.180320243000043],[121.49436357200011,18.179523890000038],[121.49562564000007,18.17653702700005],[121.49494954700003,18.17298625300003],[121.49354427800006,18.172088824000074],[121.49098455800005,18.171942171000065],[121.48913458600009,18.171421097000064],[121.48632051300001,18.17004828100005],[121.485845777,18.16877834100006],[121.48452816900011,18.16796601000004],[121.48353136100002,18.166917289000025],[121.48254685800009,18.167317275000077],[121.481966338,18.168072445000067],[121.4803684970001,18.169030603000067],[121.47992184700003,18.16961798000005],[121.47995178900011,18.171264291000057],[121.48225746100002,18.175250045000045],[121.48326739300002,18.176474209000048],[121.48462054800008,18.177716721000024],[121.48645353800008,18.180221472000024],[121.4872695480001,18.18288695600006],[121.48690828300005,18.18381270900005],[121.48628724500009,18.18414541300007],[121.48482464000006,18.183352275000058],[121.48334632800004,18.182096255000033],[121.48264026100004,18.182048489000067],[121.48119270300005,18.180939604000056],[121.48000490200003,18.180423765000057],[121.479050873,18.180685780000033],[121.47917961600002,18.187957892000043],[121.47970867300012,18.192538722000055],[121.48139183790937,18.196741620005735],[121.48568575573312,18.195749603194926],[121.49006602226018,18.194290440436745],[121.4942754767747,18.19242784850689],[121.49827355566282,18.190179775896993],[121.5020217362423,18.187567885699828],[121.50491732656597,18.185100211684365],[121.50463940900012,18.18499756700004],[121.5042131900001,18.183412031000046],[121.50512219300002,18.182974094000027],[121.50607150400005,18.183871513000035],[121.50602762495342,18.184053238720587],[121.50801148049266,18.181994935119548],[121.50792552700011,18.181784615000023]],[[121.49050777500008,18.191438418000075],[121.49195983600008,18.192040742000074],[121.4921741400001,18.192802182000037],[121.49124355700009,18.193174657000043],[121.49027284600005,18.19308264700004],[121.49050777500008,18.191438418000075]]]}},{"type":"Feature","properties":{"fid":67,"objectid":1931,"lccode":"06","liqcode":"2010600060000000","mappers":"PJDelosReyes, ACPidlaoan","project":"READY","province":"Cagayan","otherinfo":null,"datemapped":2012,"publishdate":null,"globalid":"{5942F6C7-E5B3-4D1E-B486-921A1828B34C}","st_area(shape)":0.07051556894172502,"st_perimeter(shape)":22.109814549125648,"liqcodepk":"201060006000000000130","creator":"SNOOPYPC","createdate":"2019-02-19T15:21:28","editor":"LENOVO","modifydate":"2019-03-10T17:50:55","codemove":"na"},"geometry":{"type":"Polygon","coordinates":[]}}]}