{"type":"FeatureCollection","features":[{"type":"Feature","properties":{"fid":193,"objectid":2144,"lccode":"01","liqcode":null,"mappers":"DJLBuhay, MJVReyes, MITAbigania, KLPapiona, KMVitto","project":"MELP","province":"Lanao del Norte","otherinfo":null,"datemapped":2018,"publishdate":null,"globalid":"{8CF0E7EB-3CCD-4F04-8515-11CAD40BD1AE}","st_area(shape)":0.03055360554823452,"st_perimeter(shape)":7.260406778623517,"liqcodepk":null,"creator":null,"createdate":null,"editor":null,"modifydate":null,"codemove":null},"geometry":{"type":"Polygon","coordinates":[]}},{"type":"Feature","properties":{"fid":197,"objectid":2628,"lccode":"01","liqcode":null,"mappers":"DJLBuhay, MJVReyes, MITAbigania, KLPapiona, KMVitto","project":"MELP","province":"Misamis Occidental","otherinfo":null,"datemapped":2018,"publishdate":null,"globalid":"{27D44928-E916-4E54-8319-EC621626DBD2}","st_area(shape)":0.012871931313296916,"st_perimeter(shape)":4.6460872002031275,"liqcodepk":null,"creator":null,"createdate":null,"editor":null,"modifydate":null,"codemove":null},"geometry":{"type":"Polygon","coordinates":[]}}]}