{"type":"FeatureCollection","features":[{"type":"Feature","properties":{"fid":187,"objectid":10016,"lccode":"01","liqcode":null,"mappers":"DJLBuhay, MJVReyes, MITAbigania, KLPapiona, KMVitto","project":"MELP","province":"Sultan Kudarat","otherinfo":null,"datemapped":2020,"publishdate":2021,"globalid":"{1B7E7CC9-093D-4716-9F84-3DA25042BFE2}","st_area(shape)":0.08978084284158963,"st_perimeter(shape)":9.534125484685708,"liqcodepk":null,"creator":null,"createdate":null,"editor":null,"modifydate":null,"codemove":null},"geometry":{"type":"Polygon","coordinates":[[[124.68367110500003,6.576495143000046],[124.6841909630001,6.573927513000058],[124.68451313100002,6.573228221000022],[124.68350031999998,6.572882505000052],[124.68071458800011,6.572360149000076],[124.68058697000002,6.572065937000045],[124.67846593100013,6.570657440000047],[124.67799934000006,6.569811864000031],[124.67777484300007,6.569670260000065],[124.67544794000003,6.570432240000058],[124.67326269100012,6.571643510000058],[124.6728788988526,6.57208136013846],[124.67332226176009,6.5724079002989235],[124.67713535335668,6.574676136294463],[124.6811524279302,6.576559649794975],[124.68376979441551,6.577486261496843],[124.68367110500003,6.576495143000046]]]}},{"type":"Feature","properties":{"fid":189,"objectid":10018,"lccode":"02","liqcode":null,"mappers":"OPCHalasan, KSSochayseng, AATMagnaye, RPADizon, MJVReyes, HALVidal, MITAbigania, DJLBuhay","project":"ACER-DeLTA Liquefaction","province":"South Cotabato","otherinfo":"General Santos merged with the rest of South Cotabato","datemapped":2025,"publishdate":2025,"globalid":"{5C1DBB9D-146F-4CBC-A9A0-7B9670F2F55D}","st_area(shape)":0.0277513408469407,"st_perimeter(shape)":12.12541707282386,"liqcodepk":null,"creator":null,"createdate":null,"editor":"DJLB","modifydate":"2025-07-07T08:00:00","codemove":null},"geometry":{"type":"MultiPolygon","coordinates":[[[[124.69712974810041,6.535449120463241],[124.69707376625006,6.535501300843045],[124.69712566900012,6.535459206000041],[124.69712974810041,6.535449120463241]]],[[[124.69399347800004,6.540182858000037],[124.69312422700013,6.540630779000026],[124.69277373500006,6.541510363000043],[124.69285406400003,6.542865579000022],[124.69349579800009,6.5442823640000265],[124.69523508093636,6.545507239471919],[124.69524465400004,6.545244727000067],[124.69372022100004,6.544359882000037],[124.69299746500008,6.542847905000031],[124.69294246800008,6.541434161000041],[124.69331315800004,6.540693649000048],[124.69416563900006,6.540238607000049],[124.69502930300007,6.538843300000052],[124.69574704000001,6.5367379310000615],[124.69707376625006,6.535501300843045],[124.69570382200004,6.536612367000033],[124.69489769700012,6.538753920000032],[124.69399347800004,6.540182858000037]]],[[[124.69537346400011,6.545604694000077],[124.69523508093636,6.545507239471919],[124.6952007159613,6.54644960124546],[124.69537346400011,6.545604694000077]]],[[[124.69497541422359,6.5473194406669295],[124.69518005900011,6.547016064000046],[124.6952007159613,6.54644960124546],[124.69506448100005,6.547115923000036],[124.69497541422359,6.5473194406669295]]],[[[124.69497541422359,6.5473194406669295],[124.69455165400007,6.547947645000019],[124.69451387808323,6.548374049181767],[124.69497541422359,6.5473194406669295]]],[[[124.6960155060001,6.550740332000032],[124.69510044100004,6.549264533000041],[124.69447214900003,6.5488450760000205],[124.69451387808323,6.548374049181767],[124.69435144300009,6.5487452120000285],[124.69478553800003,6.549223108000033],[124.69476013300006,6.550293969000051],[124.69572943900005,6.550393972000051],[124.69549005880913,6.551881694347471],[124.69580159500005,6.5517556790000535],[124.6960155060001,6.550740332000032]]],[[[124.69549005880913,6.551881694347471],[124.69470545970687,6.552199061024096],[124.69548358200007,6.5519219470000385],[124.69549005880913,6.551881694347471]]],[[[124.69470545970687,6.552199061024096],[124.69376748700006,6.552533101000051],[124.69348122300003,6.553338133000068],[124.6936403745284,6.55349601515995],[124.69421400600002,6.552397851000023],[124.69470545970687,6.552199061024096]]],[[[124.6936403745284,6.55349601515995],[124.69360881700004,6.553556429000026],[124.69372284513024,6.553577827919368],[124.6936403745284,6.55349601515995]]],[[[124.69170131900013,6.556265846000031],[124.68972858100007,6.557741624000072],[124.68945525000004,6.5587215390000315],[124.68873864163065,6.5591766219647365],[124.68944986400004,6.558843843000032],[124.68979570000009,6.557823499000051],[124.69177154900001,6.556352666000065],[124.69190792800009,6.555648830000053],[124.6930634160001,6.554946340000072],[124.69498160100011,6.554471133000049],[124.6947082700001,6.553762755000036],[124.69372284513024,6.553577827919368],[124.69437826800004,6.5542280210000285],[124.69184392600003,6.55554566400002],[124.69170131900013,6.556265846000031]]],[[[124.68873864163065,6.5591766219647365],[124.688131397,6.5594607490000385],[124.68807158174288,6.559600237649049],[124.68873864163065,6.5591766219647365]]],[[[124.6887604540001,6.562742930000069],[124.68794592600013,6.562469988000032],[124.68758070700005,6.56074495100006],[124.68807158174288,6.559600237649049],[124.68768502100012,6.559845722000033],[124.68745723600011,6.560765169000035],[124.68781674800005,6.5630912980000735],[124.6885770560001,6.563176599000028],[124.68971572026854,6.562700412830567],[124.68957552300003,6.562341166000067],[124.6887604540001,6.562742930000069]]],[[[124.68971572026854,6.562700412830567],[124.6897602734301,6.56281457739387],[124.68981582300012,6.562658550000037],[124.68971572026854,6.562700412830567]]],[[[124.6859055760001,6.5669272310000215],[124.68602660700002,6.565591143000062],[124.68768683400002,6.56469032800004],[124.68940802300004,6.564258448000032],[124.68989526500002,6.5631604840000355],[124.6897602734301,6.56281457739387],[124.68925298000012,6.564239458000031],[124.68760135100003,6.564636403000065],[124.68571403300007,6.565728223000065],[124.6858470630001,6.566839251000032],[124.68524955100008,6.567776132000064],[124.68517075300008,6.570820110000057],[124.68450344100006,6.573224913000048],[124.68451313100002,6.573228221000022],[124.6852724040001,6.572050383000033],[124.68556950300001,6.569394055000033],[124.6853517410001,6.567634866000048],[124.6859055760001,6.5669272310000215]]],[[[124.68997386,6.576388410000049],[124.68827461200009,6.577609508000022],[124.68775221038759,6.578481125183386],[124.68834768300007,6.577694413000074],[124.69005297600006,6.576846514000068],[124.6907307340001,6.57493505800005],[124.69207913600006,6.573709891000021],[124.69207727900003,6.572584346000041],[124.69455252800003,6.572420860000021],[124.69589661700002,6.5719467920000625],[124.69640944500009,6.570614265000073],[124.69801162800002,6.56963740200007],[124.69704764900008,6.5680067770000505],[124.69735013900005,6.567160905000037],[124.69825035500003,6.567368387000044],[124.69844445800004,6.5663593500000275],[124.69916700400006,6.565565984000044],[124.69929059800008,6.563969804000067],[124.70010432391464,6.563332071631328],[124.69916700400006,6.563554230000021],[124.69894833800004,6.5654432010000505],[124.69818485100008,6.566462435000061],[124.69673748900006,6.567351616000052],[124.69576666900001,6.568893506000051],[124.69585606300008,6.569551167000043],[124.695185519,6.5706359560000465],[124.69283533700002,6.5712535350000385],[124.69148228700011,6.572676152000042],[124.69120047900003,6.574068386000021],[124.69037153700003,6.5751334290000605],[124.68997386,6.576388410000049]]],[[[124.68765268525802,6.578612613151154],[124.68767073254322,6.5786170691748875],[124.68775221038759,6.578481125183386],[124.68765268525802,6.578612613151154]]],[[[124.72643062856572,6.499951224148189],[124.72629839700006,6.5000166650000315],[124.72621886483283,6.5001529325966745],[124.72643062856572,6.499951224148189]]],[[[124.72494289400004,6.502339127000027],[124.72621886483283,6.5001529325966745],[124.72535670700006,6.500974150000047],[124.72494123900003,6.502127247000033],[124.72379396600002,6.503140830000063],[124.72191630000009,6.503861087000077],[124.7217309568393,6.504608517370328],[124.72239657000011,6.503725233000069],[124.72377299400011,6.503326394000055],[124.72494289400004,6.502339127000027]]],[[[124.7217309568393,6.504608517370328],[124.72157460108103,6.504816004694383],[124.72171427200011,6.5046758020000635],[124.7217309568393,6.504608517370328]]],[[[124.72061296493831,6.5060921119192425],[124.72157460108103,6.504816004694383],[124.72056152800008,6.505832932000033],[124.72061296493831,6.5060921119192425]]],[[[124.72061296493831,6.5060921119192425],[124.72058683100012,6.506126792000031],[124.72064076093989,6.506232169938046],[124.72061296493831,6.5060921119192425]]],[[[124.71971393300011,6.511989137000058],[124.71949095389272,6.512663872668499],[124.71988444500006,6.511830910000071],[124.72132240500001,6.510992591000048],[124.72239040800001,6.508842781000056],[124.72200064100004,6.507851027000073],[124.72099017300002,6.506914912000069],[124.72064076093989,6.506232169938046],[124.72072790300001,6.506671259000029],[124.72195280100004,6.507851190000054],[124.72234256800004,6.508842944000036],[124.72127456500004,6.51099275400003],[124.72046645500006,6.511193479000043],[124.71971393300011,6.511989137000058]]],[[[124.71949095389272,6.512663872668499],[124.71925687098603,6.513159390656538],[124.71932508000009,6.513165807000064],[124.71949095389272,6.512663872668499]]],[[[124.71795331200008,6.5130551390000715],[124.71922354199998,6.513229943000055],[124.71925687098603,6.513159390656538],[124.7179501600001,6.5130364680000525],[124.71772833656668,6.513370720829083],[124.71795331200008,6.5130551390000715]]],[[[124.71772833656668,6.513370720829083],[124.71705445352909,6.514316000562167],[124.7170852800001,6.5143397030000765],[124.71772833656668,6.513370720829083]]],[[[124.71145326500005,6.516951669000036],[124.71219532200007,6.515685992000043],[124.71322512700011,6.515186547000039],[124.71364369600008,6.514235719000055],[124.71601093400011,6.51353689100006],[124.71703744000001,6.514339866000055],[124.71705445352909,6.514316000562167],[124.71599198000001,6.513499063000039],[124.71359585600011,6.514235881000047],[124.713177287,6.515186709000033],[124.71214748100012,6.515686154000037],[124.71140542400009,6.5169518310000285],[124.71043102800003,6.517414446000032],[124.7095731830001,6.518393425000056],[124.70936339500008,6.520024970000066],[124.70986897300008,6.520995351000066],[124.70958553200012,6.522068095000066],[124.70840261900003,6.5231247230000236],[124.70792231400004,6.52432274900002],[124.70825818000004,6.525101130000051],[124.70913402000008,6.525820220000069],[124.7082610440001,6.526570627000067],[124.7084306668369,6.527932791584168],[124.70904106500005,6.528035915000031],[124.70920076300003,6.525845971000024],[124.70971177300011,6.52510213100004],[124.70863536400009,6.524873777000039],[124.70822506800003,6.524388502000022],[124.70845046000012,6.523124561000031],[124.70963337300009,6.52206793300007],[124.70991681400005,6.520995189000073],[124.70941123600005,6.520024808000072],[124.70962102400007,6.518393263000065],[124.71047886900008,6.517414284000039],[124.71145326500005,6.516951669000036]]],[[[124.7084306668369,6.527932791584168],[124.70784521853777,6.5278338825439315],[124.70843988300011,6.528006802000049],[124.7084306668369,6.527932791584168]]],[[[124.70641033900006,6.528214655000055],[124.70765284100004,6.5278013810000735],[124.70784521853777,6.5278338825439315],[124.70746539800007,6.527723436000031],[124.70677612800013,6.528042223000058],[124.70395249100012,6.527664401000037],[124.70262320304373,6.528200861558019],[124.70291281700008,6.528311648000055],[124.70373222400008,6.527821793000044],[124.70641033900006,6.528214655000055]]],[[[124.70130515899992,6.528344570187783],[124.70196430900013,6.527948813000022],[124.70258733689606,6.528187141612783],[124.70204643600006,6.527833552000059],[124.70130515899992,6.528344570187783]]],[[[124.70262320304373,6.528200861558019],[124.70258733689606,6.528187141612783],[124.70261400400011,6.528204574000029],[124.70262320304373,6.528200861558019]]],[[[124.70130515899992,6.528344570187783],[124.7009544870001,6.528555115000073],[124.70092283749308,6.528608132536639],[124.70130515899992,6.528344570187783]]],[[[124.69712974810041,6.535449120463241],[124.69736724900008,6.535227747000021],[124.69814953700006,6.533114984000065],[124.69891452800005,6.532258305000028],[124.6991103810001,6.530750413000019],[124.69989835000003,6.530324293000033],[124.70092283749308,6.528608132536639],[124.70053758200005,6.528873717000068],[124.70000553500006,6.5300047110000605],[124.69899475500007,6.530735026000058],[124.6989079540001,6.531950673000039],[124.69818375000011,6.532843101000026],[124.69712974810041,6.535449120463241]]],[[[124.708918175,6.548449514000026],[124.70855075300005,6.547357810000052],[124.70894134800005,6.546453814000073],[124.70796529200003,6.545500225000068],[124.70704531400008,6.54550816400007],[124.70506084300007,6.546050681000052],[124.70353385200008,6.547986113000036],[124.70266234700011,6.55023377300006],[124.70243391800012,6.551832771000021],[124.70178119500008,6.552858168000057],[124.70266918600011,6.556163537000031],[124.70242752600006,6.556753368000044],[124.70149123700003,6.557103453000025],[124.70073012300008,6.5581826140000326],[124.70088581100003,6.559488809000073],[124.70239095300008,6.559688034000034],[124.7025122760001,6.560431682000058],[124.70200254700002,6.561142562000041],[124.70161035100013,6.562486958000022],[124.70108255193823,6.5630637322542045],[124.70164838000007,6.562921423000032],[124.70297760400003,6.560477262000063],[124.70306958800006,6.559645431000035],[124.70415521400002,6.5585960070000615],[124.70520995800008,6.557106118000036],[124.70523282700002,6.555924526000069],[124.70600495700013,6.5555156900000515],[124.70619442200005,6.553319770000031],[124.705603601,6.552835935000076],[124.70745221100003,6.549974679000059],[124.70760892200009,6.548852705000058],[124.708918175,6.548449514000026]]],[[[124.70010432391464,6.563332071631328],[124.70103992000008,6.563110320000021],[124.70108255193823,6.5630637322542045],[124.70014624400007,6.563299218000053],[124.70010432391464,6.563332071631328]]],[[[124.72643062856572,6.499951224148189],[124.72690406226434,6.499716923402354],[124.72687034937351,6.499686571196024],[124.72677906073179,6.499619336308992],[124.72643062856572,6.499951224148189]]]]}},{"type":"Feature","properties":{"fid":210,"objectid":10019,"lccode":"03","liqcode":null,"mappers":"OPCHalasan, KSSochayseng, AATMagnaye, RPADizon, MJVReyes, HALVidal, MITAbigania, DJLBuhay","project":"ACER-DeLTA Liquefaction","province":"South Cotabato","otherinfo":"General Santos merged with the rest of South Cotabato","datemapped":2025,"publishdate":2025,"globalid":"{A08B4111-30CD-46F1-8E61-734C7ABFBD03}","st_area(shape)":0.027808614318137116,"st_perimeter(shape)":9.22104192901392,"liqcodepk":null,"creator":null,"createdate":null,"editor":"DJLB","modifydate":"2025-07-07T08:00:00","codemove":null},"geometry":{"type":"MultiPolygon","coordinates":[[[[124.6910681290001,6.5464595570000474],[124.69077531600011,6.547590560000062],[124.69074733700005,6.549517216000026],[124.69094858600012,6.552321440000071],[124.69071548000011,6.553119042000048],[124.69121769400009,6.553838196000071],[124.69030830200005,6.554380903000038],[124.69018900900004,6.555369828000039],[124.68934838900007,6.556379741000056],[124.68931690800001,6.557260955000062],[124.68819870000004,6.557487999999999],[124.68860179400008,6.558333494000066],[124.68782183400002,6.558962177000069],[124.68669006900006,6.559110017000023],[124.68623836800009,6.557886254000038],[124.68380034400003,6.558422070000062],[124.68413602500004,6.5573815110000755],[124.68349083800001,6.556431398000028],[124.68264255400005,6.556055541000035],[124.6818660890001,6.5574967990000355],[124.68245415900005,6.559136777000049],[124.68123686200012,6.5593198680000455],[124.68064704800008,6.560610562000022],[124.68122560600011,6.5613934400000735],[124.68068368300011,6.56232702500006],[124.67981163200011,6.564741534000063],[124.6800430840001,6.565308777000039],[124.67951670000004,6.566315515000042],[124.67886384900011,6.568555517000047],[124.68019511800004,6.569417064000048],[124.68013984100003,6.570535055000049],[124.67946907200006,6.5709183910000215],[124.67815669600009,6.570097032000035],[124.67846593100013,6.570657440000047],[124.68058697000002,6.572065937000045],[124.68071458800011,6.572360149000076],[124.68350031999998,6.572882505000052],[124.68450344100006,6.573224913000048],[124.68517075300008,6.570820110000057],[124.68524955100008,6.567776132000064],[124.6858470630001,6.566839251000032],[124.68571403300007,6.565728223000065],[124.68760135100003,6.564636403000065],[124.68925298000012,6.564239458000031],[124.68981582300012,6.562658550000037],[124.6885770560001,6.563176599000028],[124.68781674800005,6.5630912980000735],[124.68745723600011,6.560765169000035],[124.68768502100012,6.559845722000033],[124.68945525000004,6.5587215390000315],[124.68972858100007,6.557741624000072],[124.69170131900013,6.556265846000031],[124.69184392600003,6.55554566400002],[124.69437826800004,6.5542280210000285],[124.69348122300003,6.553338133000068],[124.69376748700006,6.552533101000051],[124.69548358200007,6.5519219470000385],[124.69572943900005,6.550393972000051],[124.69476013300006,6.550293969000051],[124.69478553800003,6.549223108000033],[124.69435144300009,6.5487452120000285],[124.69506448100005,6.547115923000036],[124.69537346400011,6.545604694000077],[124.69349579800009,6.5442823640000265],[124.69285406400003,6.542865579000022],[124.69277373500006,6.541510363000043],[124.69312422700013,6.540630779000026],[124.69399347800004,6.540182858000037],[124.69489769700012,6.538753920000032],[124.69570382200004,6.536612367000033],[124.69712566900012,6.535459206000041],[124.69818375000011,6.532843101000026],[124.69845588739311,6.532507749717101],[124.6979904640001,6.5329693830000215],[124.697162,6.535220092000031],[124.69580698900005,6.536334698000075],[124.69451500800005,6.539133347000075],[124.69337024800006,6.539589839000028],[124.69262281200008,6.541521573000067],[124.69192102000011,6.542059038000048],[124.69204956600005,6.543032397000048],[124.69119176800007,6.54390269000004],[124.6910681290001,6.5464595570000474]]],[[[124.72593584300013,6.499168778000066],[124.72390127900007,6.502929958000038],[124.72382316200003,6.502960126000063],[124.72196468700007,6.503684188000021],[124.721467103,6.504709452000043],[124.72048104200009,6.505675203000066],[124.72025613400002,6.506536846000074],[124.72136227600004,6.509289681000042],[124.72061484400002,6.5105140730000235],[124.71918472900006,6.511621632000072],[124.71687609600008,6.511716773000045],[124.71613506000006,6.511639607000062],[124.71574768200003,6.511719618000029],[124.7136887040001,6.513341185000059],[124.71177589900005,6.513586152000072],[124.70957976500006,6.516755563000061],[124.70730323900011,6.517209345000026],[124.70644771900004,6.51850117300006],[124.70523840500006,6.518830717000069],[124.7042597200001,6.519753601000047],[124.70407901700004,6.520718050000029],[124.70429809100004,6.522816565000028],[124.70370324200007,6.523482091000062],[124.70266451100008,6.523953415000051],[124.70363998200004,6.5267101660000435],[124.70313365100003,6.527941223000028],[124.70193207200009,6.52756648600007],[124.70122874700009,6.526669842000047],[124.70045202600011,6.527631702000065],[124.69955525700004,6.5302973460000535],[124.69890696900006,6.5305442840000305],[124.69863741298984,6.532284057876218],[124.6989079540001,6.531950673000039],[124.69899475500007,6.530735026000058],[124.70000553500006,6.5300047110000605],[124.70053758200005,6.528873717000068],[124.70204643600006,6.527833552000059],[124.70261400400011,6.528204574000029],[124.70395249100012,6.527664401000037],[124.70677612800013,6.528042223000058],[124.70746539800007,6.527723436000031],[124.70843988300011,6.528006802000049],[124.7082610440001,6.526570627000067],[124.70913402000008,6.525820220000069],[124.70825818000004,6.525101130000051],[124.70792231400004,6.52432274900002],[124.70840261900003,6.5231247230000236],[124.70958553200012,6.522068095000066],[124.70986897300008,6.520995351000066],[124.70936339500008,6.520024970000066],[124.7095731830001,6.518393425000056],[124.71043102800003,6.517414446000032],[124.71140542400009,6.5169518310000285],[124.71214748100012,6.515686154000037],[124.713177287,6.515186709000033],[124.71359585600011,6.514235881000047],[124.71599198000001,6.513499063000039],[124.7170852800001,6.5143397030000765],[124.7179501600001,6.5130364680000525],[124.71932508000009,6.513165807000064],[124.71971393300011,6.511989137000058],[124.72046645500006,6.511193479000043],[124.72127456500004,6.51099275400003],[124.72234256800004,6.508842944000036],[124.72195280100004,6.507851190000054],[124.72072790300001,6.506671259000029],[124.72056152800008,6.505832932000033],[124.72171427200011,6.5046758020000635],[124.72191630000009,6.503861087000077],[124.72379396600002,6.503140830000063],[124.72494123900003,6.502127247000033],[124.72535670700006,6.500974150000047],[124.72677906073179,6.499619336308992],[124.7259764754646,6.499028223506138],[124.72593584300013,6.499168778000066]]],[[[124.69862942300006,6.532335627000067],[124.69863741298984,6.532284057876218],[124.69845588739311,6.532507749717101],[124.69862942300006,6.532335627000067]]]]}},{"type":"Feature","properties":{"fid":211,"objectid":10020,"lccode":"04","liqcode":null,"mappers":"OPCHalasan, KSSochayseng, AATMagnaye, RPADizon, MJVReyes, HALVidal, MITAbigania, DJLBuhay","project":"ACER-DeLTA Liquefaction","province":"South Cotabato","otherinfo":"General Santos merged with the rest of South Cotabato","datemapped":2025,"publishdate":2025,"globalid":"{10411778-8217-49CD-9A6B-AC131A16B836}","st_area(shape)":0.0318710172763168,"st_perimeter(shape)":5.428132055188376,"liqcodepk":null,"creator":null,"createdate":null,"editor":"DJLB","modifydate":"2025-07-07T08:00:00","codemove":null},"geometry":{"type":"Polygon","coordinates":[[[124.67326269100012,6.571643510000058],[124.67544794000003,6.570432240000058],[124.67777484300007,6.569670260000065],[124.67799934000006,6.569811864000031],[124.67815669600009,6.570097032000035],[124.67946907200006,6.5709183910000215],[124.68013984100003,6.570535055000049],[124.68019511800004,6.569417064000048],[124.67886384900011,6.568555517000047],[124.67951670000004,6.566315515000042],[124.6800430840001,6.565308777000039],[124.67981163200011,6.564741534000063],[124.68068368300011,6.56232702500006],[124.68122560600011,6.5613934400000735],[124.68064704800008,6.560610562000022],[124.68123686200012,6.5593198680000455],[124.68245415900005,6.559136777000049],[124.6818660890001,6.5574967990000355],[124.68264255400005,6.556055541000035],[124.68349083800001,6.556431398000028],[124.68413602500004,6.5573815110000755],[124.68380034400003,6.558422070000062],[124.68623836800009,6.557886254000038],[124.68669006900006,6.559110017000023],[124.68782183400002,6.558962177000069],[124.68860179400008,6.558333494000066],[124.68819870000004,6.557487999999999],[124.68931690800001,6.557260955000062],[124.68934838900007,6.556379741000056],[124.69018900900004,6.555369828000039],[124.69030830200005,6.554380903000038],[124.69121769400009,6.553838196000071],[124.69071548000011,6.553119042000048],[124.69094858600012,6.552321440000071],[124.69074733700005,6.549517216000026],[124.69077531600011,6.547590560000062],[124.6910681290001,6.5464595570000474],[124.69119176800007,6.54390269000004],[124.69204956600005,6.543032397000048],[124.69192102000011,6.542059038000048],[124.69262281200008,6.541521573000067],[124.69337024800006,6.539589839000028],[124.69451500800005,6.539133347000075],[124.69580698900005,6.536334698000075],[124.697162,6.535220092000031],[124.6979904640001,6.5329693830000215],[124.69862942300006,6.532335627000067],[124.69890696900006,6.5305442840000305],[124.69955525700004,6.5302973460000535],[124.70045202600011,6.527631702000065],[124.70122874700009,6.526669842000047],[124.70193207200009,6.52756648600007],[124.70313365100003,6.527941223000028],[124.70363998200004,6.5267101660000435],[124.70266451100008,6.523953415000051],[124.70370324200007,6.523482091000062],[124.70429809100004,6.522816565000028],[124.70407901700004,6.520718050000029],[124.7042597200001,6.519753601000047],[124.70523840500006,6.518830717000069],[124.70644771900004,6.51850117300006],[124.70730323900011,6.517209345000026],[124.70957976500006,6.516755563000061],[124.71177589900005,6.513586152000072],[124.7136887040001,6.513341185000059],[124.71574768200003,6.511719618000029],[124.71613506000006,6.511639607000062],[124.71687609600008,6.511716773000045],[124.71918472900006,6.511621632000072],[124.72061484400002,6.5105140730000235],[124.72136227600004,6.509289681000042],[124.72025613400002,6.506536846000074],[124.72048104200009,6.505675203000066],[124.721467103,6.504709452000043],[124.72196468700007,6.503684188000021],[124.72382316200003,6.502960126000063],[124.72390127900007,6.502929958000038],[124.72593584300013,6.499168778000066],[124.7259764754646,6.499028223506138],[124.72329840402396,6.497055772608068],[124.71948587359604,6.4947877815665525],[124.71546946675792,6.492904436616615],[124.71128785411582,6.49142387304888],[124.706981296162,6.490360348333398],[124.70259125595364,6.48972410485405],[124.6981600002371,6.489521271264012],[124.69373019284257,6.489753803412687],[124.68934448424821,6.490419465415111],[124.68504510124995,6.491511851049819],[124.68087344067315,6.493020445284208],[124.67686967102463,6.494930725341317],[124.67307234590926,6.497224300342075],[124.6695180329243,6.499879088186361],[124.66624096159822,6.502869527978082],[124.66327269376067,6.506166825957303],[124.66064181951727,6.509739232579598],[124.65837368175903,6.513552348082464],[124.6564901318659,6.517569453603418],[124.65500931896433,6.521751864667424],[124.65394551478107,6.526059303644544],[124.65330897579197,6.530450287594557],[124.65310584400954,6.534882527765544],[124.65333808738093,6.539313336899473],[124.65400348038737,6.5437000404208705],[124.6550956250494,6.54800038754563],[124.65660401215166,6.55217295834606],[124.65851412211329,6.556177562845807],[124.66080756454545,6.559975628293792],[124.66346225516334,6.563530570879065],[124.66645262835623,6.566808148297706],[124.66974988337402,6.569776789766962],[124.6728788988526,6.57208136013846],[124.67326269100012,6.571643510000058]]]}}]}