{"type":"FeatureCollection","features":[{"type":"Feature","properties":{"fid":16,"objectid":1861,"lccode":"07","liqcode":"2010600070000000","mappers":"MITAbigania, DJLBuhay","project":"Cebu Multi-Hazard Mapping","province":"Cebu","otherinfo":null,"datemapped":2016,"publishdate":null,"globalid":"{C53CB127-C117-49E0-BEC2-5269D4100696}","st_area(shape)":0.02168908556211633,"st_perimeter(shape)":9.044842936189752,"liqcodepk":"201060007000000000053","creator":"SNOOPYPC","createdate":"2019-02-19T15:21:28","editor":"LENOVO","modifydate":"2019-03-10T17:50:55","codemove":"na"},"geometry":{"type":"Polygon","coordinates":[]}},{"type":"Feature","properties":{"fid":25,"objectid":1871,"lccode":"07","liqcode":"2010600070000000","mappers":"PJDelosReyes, ACPidlaoan","project":"READY","province":"Bohol","otherinfo":null,"datemapped":2008,"publishdate":null,"globalid":"{24D4EC03-5006-45F6-AD98-9C84307BF998}","st_area(shape)":0.043795715989879205,"st_perimeter(shape)":13.054531899785706,"liqcodepk":"201060007000000000063","creator":"SNOOPYPC","createdate":"2019-02-19T15:21:28","editor":"LENOVO","modifydate":"2019-03-10T17:50:55","codemove":"na"},"geometry":{"type":"Polygon","coordinates":[]}},{"type":"Feature","properties":{"fid":40,"objectid":1888,"lccode":"05","liqcode":"2010600050000000","mappers":"MITAbigania, DJLBuhay","project":"Cebu Multi-Hazard Mapping","province":"Cebu","otherinfo":null,"datemapped":2016,"publishdate":null,"globalid":"{6B113CA7-0A16-415A-8510-4591ABBD34CB}","st_area(shape)":0.011277825227989341,"st_perimeter(shape)":7.92725888477651,"liqcodepk":"201060005000000000082","creator":"SNOOPYPC","createdate":"2019-02-19T15:21:28","editor":"LENOVO","modifydate":"2019-03-10T17:50:55","codemove":"na"},"geometry":{"type":"Polygon","coordinates":[]}},{"type":"Feature","properties":{"fid":52,"objectid":1901,"lccode":"05","liqcode":"2010600050000000","mappers":"PJDelosReyes, ACPidlaoan","project":"READY","province":"Bohol","otherinfo":null,"datemapped":2008,"publishdate":null,"globalid":"{6E90D3A1-B401-4667-B32C-C40E7388D630}","st_area(shape)":0.010533775520257218,"st_perimeter(shape)":3.327242015595593,"liqcodepk":"201060005000000000095","creator":"SNOOPYPC","createdate":"2019-02-19T15:21:28","editor":"LENOVO","modifydate":"2019-03-10T17:50:55","codemove":"na"},"geometry":{"type":"Polygon","coordinates":[]}},{"type":"Feature","properties":{"fid":66,"objectid":1930,"lccode":"06","liqcode":"2010600060000000","mappers":"PJDelosReyes, ACPidlaoan","project":"READY","province":"Bohol","otherinfo":null,"datemapped":2008,"publishdate":null,"globalid":"{D63C31C2-E045-4C3D-A292-79031F3364A0}","st_area(shape)":0.006668240995906857,"st_perimeter(shape)":3.000289637999567,"liqcodepk":"201060006000000000128","creator":"SNOOPYPC","createdate":"2019-02-19T15:21:28","editor":"LENOVO","modifydate":"2019-03-10T17:50:55","codemove":"na"},"geometry":{"type":"Polygon","coordinates":[]}},{"type":"Feature","properties":{"fid":91,"objectid":1919,"lccode":"06","liqcode":"2010600060000000","mappers":"MITAbigania, DJLBuhay","project":"Cebu Multi-Hazard Mapping","province":"Cebu","otherinfo":null,"datemapped":2016,"publishdate":null,"globalid":"{EDC44F95-33EE-45BE-975C-40D829DF5178}","st_area(shape)":0.012637099910309046,"st_perimeter(shape)":9.940336299625505,"liqcodepk":"201060006000000000117","creator":"SNOOPYPC","createdate":"2019-02-19T15:21:28","editor":"LENOVO","modifydate":"2019-03-10T17:50:55","codemove":"na"},"geometry":{"type":"Polygon","coordinates":[]}}]}