{"type":"FeatureCollection","features":[{"type":"Feature","properties":{"fid":174,"objectid":9616,"lccode":"07","liqcode":null,"mappers":"DJLBuhay, MITAbigania","project":"LiquePhi","province":"Pangasinan","otherinfo":null,"datemapped":2024,"publishdate":null,"globalid":"{4C1C6B5C-6BC5-4098-AF34-1358D72BE295}","st_area(shape)":0.0990952810399136,"st_perimeter(shape)":16.14272038398808,"liqcodepk":null,"creator":null,"createdate":null,"editor":null,"modifydate":null,"codemove":null},"geometry":{"type":"Polygon","coordinates":[[[120.56288771800007,16.071836583000046],[120.55982409600006,16.069862815000022],[120.55711660900009,16.068435273000034],[120.55447385500008,16.066629220000042],[120.55292089900001,16.06515175500005],[120.55188699200005,16.06447341200004],[120.55007914200007,16.063854658000025],[120.54535602800001,16.06308763700002],[120.54140804000008,16.061469040000077],[120.53923858500004,16.059800060000036],[120.53790757800004,16.05897780500004],[120.53684788600003,16.057866342000064],[120.53056327500006,16.056328291000053],[120.52860599500004,16.05505912500007],[120.52700165700004,16.052889224000065],[120.52691252700004,16.051033369000034],[120.52596180800003,16.04994840000006],[120.5241197900001,16.048777768000036],[120.5228125520001,16.046921875000066],[120.52238555123718,16.045854930596033],[120.5211986861837,16.045784775024767],[120.51661866497362,16.045949214758586],[120.51207735750403,16.046546879170357],[120.50761846924553,16.047572012155353],[120.50328491322632,16.0490147437211],[120.50229532232693,16.0494533038445],[120.50230036500012,16.049465309000023],[120.50204367100001,16.05075357000004],[120.50307044800002,16.05239814600003],[120.50623634200007,16.05426198300006],[120.50814728700003,16.055796894000025],[120.50955910400012,16.056235438000044],[120.51186935100009,16.05748254100007],[120.51219734900008,16.058798159000045],[120.51152709200005,16.06026451400004],[120.5118408300001,16.061593817000073],[120.51271073700002,16.062539399000055],[120.51326690800012,16.063978318000068],[120.51385160000007,16.06500611200005],[120.5154202860001,16.06696575700005],[120.51573402400004,16.068637606000035],[120.51573402400004,16.07024092400007],[120.51512655300006,16.073439087000054],[120.51478126500001,16.07484791100006],[120.51457505800009,16.077124431000072],[120.51483446400005,16.078383190000068],[120.51606541100013,16.081235055000032],[120.51622415800013,16.08320752900005],[120.51725696400001,16.084772296000036],[120.517597947,16.086299730000064],[120.51815566000005,16.087462662000064],[120.518345242,16.089102579000038],[120.51809723600002,16.090680122000037],[120.51747277400011,16.09119866700007],[120.51569801900007,16.091587445000066],[120.51506477900011,16.092748485000076],[120.51431868600004,16.093915312000032],[120.51218904200006,16.095743163000062],[120.51079266500005,16.098063976000052],[120.51103628700004,16.099005959000067],[120.51054249100002,16.10141901700007],[120.50941412200008,16.102950819000053],[120.50920895000002,16.10431156900006],[120.50823453900013,16.106222776000035],[120.50702838100005,16.108051829000033],[120.50674951100005,16.10999008100003],[120.50565839900001,16.113219682000025],[120.50492003300009,16.11874286800003],[120.5047733990001,16.119822142000032],[120.50515520400005,16.121088497000073],[120.504621014,16.12392946400007],[120.50439908000011,16.12762125800003],[120.50391529600007,16.13119258700004],[120.50427451498813,16.133186826399356],[120.50653973600991,16.13400028763391],[120.50956560659291,16.134770609110603],[120.50940871900002,16.134193565000032],[120.50843577400008,16.132338686000022],[120.50792692200004,16.129337295000028],[120.50842876800004,16.128262961000075],[120.51004011200007,16.127269907000024],[120.51162486400007,16.12741697100006],[120.51306476600007,16.12831202800004],[120.51681398399998,16.131345490000054],[120.51795484700007,16.133023647000066],[120.51954519800006,16.134743193000077],[120.5201782910001,16.135989457000047],[120.52020143185942,16.13609857610762],[120.52235132418406,16.136021534898408],[120.52202596900008,16.135222483000067],[120.51907041100003,16.132092078000028],[120.51795484700007,16.13021529400004],[120.51627012000006,16.12902648300007],[120.5150670380001,16.127852138000037],[120.51352850400008,16.125046323000053],[120.51237382600006,16.12406025100006],[120.51164445000006,16.122577745000058],[120.51107401900003,16.119734994000055],[120.51100271500002,16.117508716000035],[120.51039663200002,16.11370685900005],[120.51079396500005,16.111630539000032],[120.5112879310001,16.107952558000022],[120.51232183700006,16.10528086200003],[120.51478182300004,16.101992571000046],[120.51550272800013,16.101416643000046],[120.51648397800011,16.102332449000073],[120.51606412500007,16.103334503000042],[120.51481747500009,16.10397925300003],[120.51435399900004,16.104698564000046],[120.51449660700005,16.105760399000076],[120.5151055020001,16.106336283000072],[120.51734876400008,16.10761003500005],[120.51778277100003,16.106852287000034],[120.51569522500006,16.105736285000038],[120.5157360500001,16.105010863000075],[120.51775947800002,16.104394400000043],[120.52010217100009,16.105397665000055],[120.52087830800008,16.10500683900005],[120.51806910900005,16.10349135800004],[120.51783083500003,16.103115719000073],[120.51769436500003,16.10060724500005],[120.51849296800003,16.09956593500004],[120.51927255800001,16.09960247200007],[120.52136414000006,16.10108222700006],[120.5228714090001,16.10179725600005],[120.52345921900007,16.102965651000034],[120.52466860100003,16.102531144000068],[120.52567406500009,16.102524217000052],[120.5271476800001,16.102980926000047],[120.5287616620001,16.104131781000035],[120.530522732,16.106588891000058],[120.53190127399999,16.10750229000007],[120.53322365400004,16.107814857000047],[120.53438265100012,16.108436388000026],[120.53567562800005,16.109989148000068],[120.53747292300011,16.111171853000027],[120.53791932500006,16.113514783000028],[120.5403911940001,16.116675013000073],[120.54177924400007,16.117003820000033],[120.5432243360001,16.11764316600005],[120.54508308000004,16.120368621000065],[120.54784483000003,16.121570531000028],[120.5481300460001,16.120912931000074],[120.5463997380001,16.12014572900006],[120.54573423400007,16.119049720000074],[120.54527788900008,16.116327938000037],[120.54605747900007,16.113861863000068],[120.54579127700003,16.111651502000026],[120.54520183200009,16.110756390000056],[120.54381378200003,16.11004395100002],[120.53888905800011,16.10871040500007],[120.53649324700008,16.10719417100006],[120.53491505300008,16.105933678000042],[120.53329883100002,16.105878873000055],[120.53208191100009,16.104928931000074],[120.53074210600005,16.102723651000073],[120.52951497000004,16.101786782000033],[120.52508462000004,16.10017915200007],[120.52449517400011,16.099832048000053],[120.5236205120001,16.098297477000077],[120.5232845920001,16.094304491000056],[120.52456950300008,16.09404000400002],[120.52373046400011,16.092332901000077],[120.52267085000007,16.090981008000025],[120.52283916500004,16.089318439000067],[120.52262525400009,16.08753714500006],[120.52066439600004,16.08315235300006],[120.519666141,16.081268233000056],[120.51779805700005,16.078735668000032],[120.51734549200013,16.074269717000046],[120.51698897200004,16.072200517000056],[120.51771627200003,16.07192644900005],[120.51851487600004,16.073666773000067],[120.51949538300005,16.073950991000064],[120.52057682500003,16.07349421500004],[120.52128986500009,16.072557821000032],[120.52143247200001,16.071381613000025],[120.52051740600007,16.07027391600008],[120.519103211,16.069440283000063],[120.51843169900009,16.068574570000063],[120.51811319800004,16.067354029000057],[120.51835087700012,16.065983653000046],[120.51829145700003,16.062300720000053],[120.51852192600006,16.061016089000073],[120.51968655600001,16.059348743000044],[120.52117414800011,16.058375276000046],[120.5229907590001,16.057967692000034],[120.5247491350001,16.05836660200003],[120.52699021800004,16.05914634800007],[120.52978325300012,16.061313874000064],[120.53089008400002,16.06301291600005],[120.53244344600013,16.064981319000026],[120.53410902400003,16.066487116000072],[120.5362243730001,16.067297921000034],[120.53924290600003,16.067880328000054],[120.54061034100005,16.06926590100005],[120.54132260300003,16.070609626000078],[120.54372316900005,16.071580287000078],[120.54590982200013,16.073350305000076],[120.54731350000009,16.075525023000065],[120.54816357500012,16.07645129200006],[120.54920117000006,16.076976604000038],[120.55017884700011,16.07704859300003],[120.5524892300001,16.076459525000075],[120.55396653300012,16.076290534000066],[120.55745399300007,16.076834008000052],[120.56090741300012,16.078157822000037],[120.56273940700008,16.08007991900007],[120.56345220700005,16.08299693200007],[120.56383843700006,16.083682063000026],[120.56505654500005,16.08473830100007],[120.5654724850001,16.086222735000035],[120.56630436400008,16.086650935000026],[120.56709170941731,16.08643478978284],[120.56655949142251,16.082660239543692],[120.56549806966653,16.07834851631715],[120.56400469374135,16.07415814177417],[120.56291177015869,16.071854018644345],[120.56288771800007,16.071836583000046]]]}},{"type":"Feature","properties":{"fid":175,"objectid":9617,"lccode":"06","liqcode":null,"mappers":"DJLBuhay, MITAbigania","project":"LiquePhi","province":"Pangasinan","otherinfo":null,"datemapped":2024,"publishdate":null,"globalid":"{66023685-1332-44EF-8443-E51FD3597412}","st_area(shape)":0.04411879143836554,"st_perimeter(shape)":22.502158641584156,"liqcodepk":null,"creator":null,"createdate":null,"editor":null,"modifydate":null,"codemove":null},"geometry":{"type":"MultiPolygon","coordinates":[[[[120.51385160000007,16.06500611200005],[120.51326690800012,16.063978318000068],[120.51361216900011,16.06768107200003],[120.51485998700002,16.068480453000067],[120.51530563700008,16.06913708400003],[120.51500497200006,16.07170420700004],[120.51512655300006,16.073439087000054],[120.51573402400004,16.07024092400007],[120.51573402400004,16.068637606000035],[120.5154202860001,16.06696575700005],[120.51385160000007,16.06500611200005]]],[[[120.518345242,16.089102579000038],[120.51815566000005,16.087462662000064],[120.517597947,16.086299730000064],[120.51725696400001,16.084772296000036],[120.51622415800013,16.08320752900005],[120.51606541100013,16.081235055000032],[120.51483446400005,16.078383190000068],[120.51457505800009,16.077124431000072],[120.5144434980001,16.079303953000018],[120.51489179799998,16.080886455000037],[120.51582539000003,16.083106037000046],[120.51576646,16.086203063000028],[120.51531011500005,16.090752213000027],[120.51506477900011,16.092748485000076],[120.51569801900007,16.091587445000066],[120.51747277400011,16.09119866700007],[120.51809723600002,16.090680122000037],[120.518345242,16.089102579000038]]],[[[120.55666785800008,16.063687543000064],[120.554748775,16.062385723000034],[120.55392978800013,16.061896883000024],[120.55219947900004,16.061184269000023],[120.54953746600007,16.06045338000007],[120.54763602900005,16.060234113000032],[120.5450500730001,16.05946667600005],[120.53723516400011,16.056177627000068],[120.5346111790001,16.055757356000072],[120.53208226700008,16.054861992000045],[120.5306752030001,16.05407626200002],[120.52930616800006,16.05281543200005],[120.52829840600009,16.050037923000048],[120.52675824100002,16.04886843500003],[120.52542088504974,16.04603431921612],[120.52238555123718,16.045854930596033],[120.5228125520001,16.046921875000066],[120.5241197900001,16.048777768000036],[120.52596180800003,16.04994840000006],[120.52691252700004,16.051033369000034],[120.52700165700004,16.052889224000065],[120.52860599500004,16.05505912500007],[120.53056327500006,16.056328291000053],[120.53684788600003,16.057866342000064],[120.53790757800004,16.05897780500004],[120.53923858500004,16.059800060000036],[120.54140804000008,16.061469040000077],[120.54535602800001,16.06308763700002],[120.55007914200007,16.063854658000025],[120.55188699200005,16.06447341200004],[120.55292089900001,16.06515175500005],[120.55447385500008,16.066629220000042],[120.55711660900009,16.068435273000034],[120.55982409600006,16.069862815000022],[120.56288771800007,16.071836583000046],[120.56291177015869,16.071854018644345],[120.56209377175306,16.070129466026483],[120.55978372956491,16.066301279382],[120.55851018972328,16.064599305078293],[120.55666785800008,16.063687543000064]]],[[[120.56630436400008,16.086650935000026],[120.5654724850001,16.086222735000035],[120.56505654500005,16.08473830100007],[120.56383843700006,16.083682063000026],[120.56345220700005,16.08299693200007],[120.56273940700008,16.08007991900007],[120.56090741300012,16.078157822000037],[120.55745399300007,16.076834008000052],[120.55396653300012,16.076290534000066],[120.5524892300001,16.076459525000075],[120.55017884700011,16.07704859300003],[120.54920117000006,16.076976604000038],[120.54816357500012,16.07645129200006],[120.54731350000009,16.075525023000065],[120.54590982200013,16.073350305000076],[120.54372316900005,16.071580287000078],[120.54132260300003,16.070609626000078],[120.54061034100005,16.06926590100005],[120.53924290600003,16.067880328000054],[120.5362243730001,16.067297921000034],[120.53410902400003,16.066487116000072],[120.53244344600013,16.064981319000026],[120.53089008400002,16.06301291600005],[120.52978325300012,16.061313874000064],[120.52699021800004,16.05914634800007],[120.5247491350001,16.05836660200003],[120.5229907590001,16.057967692000034],[120.52117414800011,16.058375276000046],[120.51968655600001,16.059348743000044],[120.51852192600006,16.061016089000073],[120.51829145700003,16.062300720000053],[120.51835087700012,16.065983653000046],[120.51811319800004,16.067354029000057],[120.51843169900009,16.068574570000063],[120.519103211,16.069440283000063],[120.52051740600007,16.07027391600008],[120.52143247200001,16.071381613000025],[120.52128986500009,16.072557821000032],[120.52057682500003,16.07349421500004],[120.51949538300005,16.073950991000064],[120.51851487600004,16.073666773000067],[120.51771627200003,16.07192644900005],[120.51698897200004,16.072200517000056],[120.51734549200013,16.074269717000046],[120.51779805700005,16.078735668000032],[120.519666141,16.081268233000056],[120.52066439600004,16.08315235300006],[120.52262525400009,16.08753714500006],[120.52283916500004,16.089318439000067],[120.52267085000007,16.090981008000025],[120.52373046400011,16.092332901000077],[120.52456950300008,16.09404000400002],[120.5232845920001,16.094304491000056],[120.5236205120001,16.098297477000077],[120.52449517400011,16.099832048000053],[120.52508462000004,16.10017915200007],[120.52951497000004,16.101786782000033],[120.53074210600005,16.102723651000073],[120.53208191100009,16.104928931000074],[120.53329883100002,16.105878873000055],[120.53491505300008,16.105933678000042],[120.53649324700008,16.10719417100006],[120.53888905800011,16.10871040500007],[120.54381378200003,16.11004395100002],[120.54520183200009,16.110756390000056],[120.54579127700003,16.111651502000026],[120.54605747900007,16.113861863000068],[120.54527788900008,16.116327938000037],[120.54573423400007,16.119049720000074],[120.5463997380001,16.12014572900006],[120.5481300460001,16.120912931000074],[120.54784483000003,16.121570531000028],[120.54508308000004,16.120368621000065],[120.5432243360001,16.11764316600005],[120.54177924400007,16.117003820000033],[120.5403911940001,16.116675013000073],[120.53791932500006,16.113514783000028],[120.53747292300011,16.111171853000027],[120.53567562800005,16.109989148000068],[120.53438265100012,16.108436388000026],[120.53322365400004,16.107814857000047],[120.53190127399999,16.10750229000007],[120.530522732,16.106588891000058],[120.5287616620001,16.104131781000035],[120.5271476800001,16.102980926000047],[120.52567406500009,16.102524217000052],[120.52466860100003,16.102531144000068],[120.52345921900007,16.102965651000034],[120.5228714090001,16.10179725600005],[120.52136414000006,16.10108222700006],[120.51927255800001,16.09960247200007],[120.51849296800003,16.09956593500004],[120.51769436500003,16.10060724500005],[120.51783083500003,16.103115719000073],[120.51806910900005,16.10349135800004],[120.52087830800008,16.10500683900005],[120.52010217100009,16.105397665000055],[120.51775947800002,16.104394400000043],[120.5157360500001,16.105010863000075],[120.51569522500006,16.105736285000038],[120.51778277100003,16.106852287000034],[120.51734876400008,16.10761003500005],[120.5151055020001,16.106336283000072],[120.51449660700005,16.105760399000076],[120.51435399900004,16.104698564000046],[120.51481747500009,16.10397925300003],[120.51606412500007,16.103334503000042],[120.51648397800011,16.102332449000073],[120.51550272800013,16.101416643000046],[120.51478182300004,16.101992571000046],[120.51232183700006,16.10528086200003],[120.5112879310001,16.107952558000022],[120.51079396500005,16.111630539000032],[120.51039663200002,16.11370685900005],[120.51100271500002,16.117508716000035],[120.51107401900003,16.119734994000055],[120.51164445000006,16.122577745000058],[120.51237382600006,16.12406025100006],[120.51352850400008,16.125046323000053],[120.5150670380001,16.127852138000037],[120.51627012000006,16.12902648300007],[120.51795484700007,16.13021529400004],[120.51907041100003,16.132092078000028],[120.52202596900008,16.135222483000067],[120.52235132418406,16.136021534898408],[120.52370661102084,16.135972957062815],[120.52326139900003,16.134018446000027],[120.52210525500004,16.132902870000066],[120.5212411220001,16.131153028000032],[120.52012659400009,16.12973224300003],[120.517470451,16.127684702000067],[120.5162854990001,16.126552289000074],[120.51409977900006,16.123714895000035],[120.51339769100001,16.122579357000067],[120.51220929200008,16.11817250500008],[120.51154378900003,16.115044266000037],[120.51131799300003,16.112772266000036],[120.5120310320001,16.110077800000056],[120.513200116,16.10815281000003],[120.51407706200008,16.107610156000074],[120.51506400000001,16.10754765300004],[120.51652507600011,16.108343873000024],[120.5176672330001,16.108593394000017],[120.5192921480001,16.10772582100003],[120.52140252200002,16.10736030200007],[120.5220590570001,16.106179742000055],[120.5215029540001,16.10419433100003],[120.52265024600001,16.10400240900003],[120.52463034400012,16.10613577800006],[120.52623468200011,16.10819092300005],[120.52684076600009,16.109629512000023],[120.52869466800009,16.111650370000064],[120.53008509400001,16.11257516200004],[120.53261638300013,16.11394521700003],[120.5360746230001,16.11562352100003],[120.53742939800009,16.11641129200007],[120.54063807400007,16.11870608400005],[120.54220676000011,16.120110346000047],[120.54434587800007,16.12148034900002],[120.54917858000012,16.123851803000036],[120.55008584300003,16.123740833000056],[120.55047801500007,16.122884592000048],[120.54965802000004,16.12072684900005],[120.54851715700012,16.119151339000037],[120.54783977000011,16.11671954900003],[120.54799305900009,16.11518505400005],[120.54730499000004,16.112643665000064],[120.54644934300006,16.110691321000047],[120.54488065700002,16.10938974800007],[120.54227806400002,16.108464941000022],[120.54006764300004,16.10743737200005],[120.53714418200003,16.10627278800007],[120.53561114800004,16.104765669000074],[120.53422072100012,16.103772334000038],[120.53172508400006,16.10147736900006],[120.52994248600008,16.10048401800003],[120.52522636500008,16.098285622000052],[120.52463193800008,16.097441552000078],[120.52446773300007,16.096292947000055],[120.525043997,16.09425278200007],[120.52499646100013,16.093122375000064],[120.52440226200008,16.090827288000067],[120.52461617400002,16.089251540000078],[120.52448655800004,16.087438139000028],[120.52392690300007,16.085380629000046],[120.52264343200011,16.082366063000052],[120.52115793400004,16.07943138400003],[120.5192921480001,16.076987688000024],[120.51854655200009,16.07536310500007],[120.51888929900007,16.074510540000063],[120.52022030600006,16.074693250000053],[120.52143247200001,16.07444202400006],[120.52226435200008,16.073745442000074],[120.52266920800004,16.072629674000037],[120.52212174400006,16.071187481000035],[120.52067189700004,16.069622998000053],[120.52096018400003,16.06549482900004],[120.52081533700004,16.062772116000072],[120.52143330400008,16.06103626400005],[120.52300199,16.06048809800006],[120.52642457900005,16.061310347000074],[120.52837355200006,16.063046196000073],[120.53051267,16.066243773000057],[120.53198628400003,16.067568468000047],[120.53361164000013,16.068211104000053],[120.53702509400013,16.06871044000007],[120.53982971500011,16.070446225000065],[120.54177868900001,16.072227672000054],[120.54406041400011,16.073735038000052],[120.5449160610001,16.07469426500006],[120.54648474800003,16.076978120000035],[120.5486459660001,16.077934616000054],[120.55090559100006,16.078074361000063],[120.55437571500009,16.077526241000047],[120.55660990400008,16.07757191800005],[120.55821424200008,16.07800013700006],[120.5605371580001,16.079263321000045],[120.56160117800005,16.080540881000044],[120.56325305200005,16.084160673000042],[120.56409719700002,16.084956334000026],[120.56481030000009,16.08679106000005],[120.5656475620001,16.087541766000072],[120.56675226500012,16.087634982000047],[120.56719208647445,16.087398251283794],[120.56717870841572,16.08705178991889],[120.56709170941731,16.08643478978284],[120.56630436400008,16.086650935000026]]],[[[120.5201782910001,16.135989457000047],[120.51954519800006,16.134743193000077],[120.51795484700007,16.133023647000066],[120.51681398399998,16.131345490000054],[120.51306476600007,16.12831202800004],[120.51162486400007,16.12741697100006],[120.51004011200007,16.127269907000024],[120.50842876800004,16.128262961000075],[120.50792692200004,16.129337295000028],[120.50843577400008,16.132338686000022],[120.50940871900002,16.134193565000032],[120.50956560659291,16.134770609110603],[120.5104369861287,16.13499243480759],[120.50939278700004,16.130273987000066],[120.50936901900003,16.12937210900003],[120.50990379900007,16.128401730000068],[120.51066437400004,16.12791083100006],[120.51150813700006,16.128184821000044],[120.5129817510001,16.12952052000003],[120.51577448800003,16.131392766000033],[120.51653506300012,16.13216905700005],[120.51779476600007,16.134178269000063],[120.51949417600008,16.135902065000035],[120.51956134826646,16.136072480503067],[120.52007752880702,16.136103015496012],[120.52020143185942,16.13609857610762],[120.5201782910001,16.135989457000047]]],[[[120.50391529600007,16.13119258700004],[120.50439908000011,16.12762125800003],[120.504621014,16.12392946400007],[120.50515520400005,16.121088497000073],[120.5047733990001,16.119822142000032],[120.50492003300009,16.11874286800003],[120.50446601600004,16.120142165000065],[120.50346678100004,16.121837374000048],[120.50299367500007,16.124543968000065],[120.50287591000006,16.12609831800006],[120.50363648500002,16.12887476300005],[120.50372604900006,16.13203231500006],[120.50388758943028,16.133047875020562],[120.50427451498813,16.133186826399356],[120.50391529600007,16.13119258700004]]]]}},{"type":"Feature","properties":{"fid":176,"objectid":9618,"lccode":"05","liqcode":null,"mappers":"DJLBuhay, MITAbigania","project":"LiquePhi","province":"Pangasinan","otherinfo":null,"datemapped":2024,"publishdate":null,"globalid":"{5ACB73C5-6107-4512-9787-F18573022798}","st_area(shape)":0.06533832536059311,"st_perimeter(shape)":23.271340040578984,"liqcodepk":null,"creator":null,"createdate":null,"editor":null,"modifydate":null,"codemove":null},"geometry":{"type":"MultiPolygon","coordinates":[[[[120.52675824100002,16.04886843500003],[120.52829840600009,16.050037923000048],[120.52930616800006,16.05281543200005],[120.5306752030001,16.05407626200002],[120.53208226700008,16.054861992000045],[120.5346111790001,16.055757356000072],[120.53723516400011,16.056177627000068],[120.5450500730001,16.05946667600005],[120.54763602900005,16.060234113000032],[120.54953746600007,16.06045338000007],[120.55219947900004,16.061184269000023],[120.55392978800013,16.061896883000024],[120.554748775,16.062385723000034],[120.55666785800008,16.063687543000064],[120.55851018972328,16.064599305078293],[120.55709683248207,16.062710439083148],[120.55405897012574,16.059391514746768],[120.55069940659531,16.056376455905106],[120.54705049834355,16.05369428483178],[120.5431473824923,16.05137081759138],[120.5390276385935,16.049428415978177],[120.53473092708666,16.047885772711748],[120.5302986079204,16.046757731937284],[120.5257733429889,16.04605514673951],[120.52542088504974,16.04603431921612],[120.52675824100002,16.04886843500003]]],[[[120.51489179799998,16.080886455000037],[120.5144434980001,16.079303953000018],[120.5130722900001,16.08328980000004],[120.51189242400007,16.08489632500004],[120.51062550400002,16.08544025300006],[120.50988410200011,16.08645526000004],[120.51066171800005,16.08858829300004],[120.51129808100005,16.089049148000072],[120.51380797900005,16.089542428000076],[120.51531011500005,16.090752213000027],[120.51576646,16.086203063000028],[120.51582539000003,16.083106037000046],[120.51489179799998,16.080886455000037]]],[[[120.50205495400006,16.129856728000043],[120.50329088900004,16.130989208000077],[120.50372604900006,16.13203231500006],[120.50363648500002,16.12887476300005],[120.50287591000006,16.12609831800006],[120.50299367500007,16.124543968000065],[120.50178875300004,16.126678441000028],[120.50131339300003,16.128048398000033],[120.50205495400006,16.129856728000043]]],[[[120.56675226500012,16.087634982000047],[120.5656475620001,16.087541766000072],[120.56481030000009,16.08679106000005],[120.56409719700002,16.084956334000026],[120.56325305200005,16.084160673000042],[120.56160117800005,16.080540881000044],[120.5605371580001,16.079263321000045],[120.55821424200008,16.07800013700006],[120.55660990400008,16.07757191800005],[120.55437571500009,16.077526241000047],[120.55090559100006,16.078074361000063],[120.5486459660001,16.077934616000054],[120.54648474800003,16.076978120000035],[120.5449160610001,16.07469426500006],[120.54406041400011,16.073735038000052],[120.54177868900001,16.072227672000054],[120.53982971500011,16.070446225000065],[120.53702509400013,16.06871044000007],[120.53361164000013,16.068211104000053],[120.53198628400003,16.067568468000047],[120.53051267,16.066243773000057],[120.52837355200006,16.063046196000073],[120.52642457900005,16.061310347000074],[120.52300199,16.06048809800006],[120.52143330400008,16.06103626400005],[120.52081533700004,16.062772116000072],[120.52096018400003,16.06549482900004],[120.52067189700004,16.069622998000053],[120.52212174400006,16.071187481000035],[120.52266920800004,16.072629674000037],[120.52226435200008,16.073745442000074],[120.52143247200001,16.07444202400006],[120.52022030600006,16.074693250000053],[120.51888929900007,16.074510540000063],[120.51854655200009,16.07536310500007],[120.5192921480001,16.076987688000024],[120.52115793400004,16.07943138400003],[120.52264343200011,16.082366063000052],[120.52392690300007,16.085380629000046],[120.52448655800004,16.087438139000028],[120.52461617400002,16.089251540000078],[120.52440226200008,16.090827288000067],[120.52499646100013,16.093122375000064],[120.525043997,16.09425278200007],[120.52446773300007,16.096292947000055],[120.52463193800008,16.097441552000078],[120.52522636500008,16.098285622000052],[120.52994248600008,16.10048401800003],[120.53172508400006,16.10147736900006],[120.53422072100012,16.103772334000038],[120.53561114800004,16.104765669000074],[120.53714418200003,16.10627278800007],[120.54006764300004,16.10743737200005],[120.54227806400002,16.108464941000022],[120.54488065700002,16.10938974800007],[120.54644934300006,16.110691321000047],[120.54730499000004,16.112643665000064],[120.54799305900009,16.11518505400005],[120.54783977000011,16.11671954900003],[120.54851715700012,16.119151339000037],[120.54965802000004,16.12072684900005],[120.55047801500007,16.122884592000048],[120.55008584300003,16.123740833000056],[120.54917858000012,16.123851803000036],[120.54434587800007,16.12148034900002],[120.54220676000011,16.120110346000047],[120.54063807400007,16.11870608400005],[120.53742939800009,16.11641129200007],[120.5360746230001,16.11562352100003],[120.53261638300013,16.11394521700003],[120.53008509400001,16.11257516200004],[120.52869466800009,16.111650370000064],[120.52684076600009,16.109629512000023],[120.52623468200011,16.10819092300005],[120.52463034400012,16.10613577800006],[120.52265024600001,16.10400240900003],[120.5215029540001,16.10419433100003],[120.5220590570001,16.106179742000055],[120.52140252200002,16.10736030200007],[120.5192921480001,16.10772582100003],[120.5176672330001,16.108593394000017],[120.51652507600011,16.108343873000024],[120.51506400000001,16.10754765300004],[120.51407706200008,16.107610156000074],[120.513200116,16.10815281000003],[120.5120310320001,16.110077800000056],[120.51131799300003,16.112772266000036],[120.51154378900003,16.115044266000037],[120.51220929200008,16.11817250500008],[120.51339769100001,16.122579357000067],[120.51409977900006,16.123714895000035],[120.5162854990001,16.126552289000074],[120.517470451,16.127684702000067],[120.52012659400009,16.12973224300003],[120.5212411220001,16.131153028000032],[120.52210525500004,16.132902870000066],[120.52326139900003,16.134018446000027],[120.52370661102084,16.135972957062815],[120.52465963951865,16.135938792250666],[120.52920302478826,16.13534114430444],[120.53366389929643,16.134315827129313],[120.53799927368445,16.132872717796104],[120.5421673696729,16.13102571974637],[120.54612802342164,16.128792628679548],[120.54984307320748,16.12619496085557],[120.55327672765183,16.123257745478966],[120.55639591092532,16.12000928317952],[120.55917058158478,16.116480872934314],[120.56157402196126,16.112706510081313],[120.56358309530921,16.108722558354746],[120.56517846824741,16.104567399122644],[120.56634479636402,16.100281061226323],[120.5670708712216,16.095904835006607],[120.56734972737617,16.091480874252227],[120.56719208647445,16.087398251283794],[120.56675226500012,16.087634982000047]]],[[[120.51949417600008,16.135902065000035],[120.51779476600007,16.134178269000063],[120.51653506300012,16.13216905700005],[120.51577448800003,16.131392766000033],[120.5129817510001,16.12952052000003],[120.51150813700006,16.128184821000044],[120.51066437400004,16.12791083100006],[120.50990379900007,16.128401730000068],[120.50936901900003,16.12937210900003],[120.50939278700004,16.130273987000066],[120.5104369861287,16.13499243480759],[120.51097371152045,16.13512906618297],[120.51550085109723,16.1358322355894],[120.51956134826646,16.136072480503067],[120.51949417600008,16.135902065000035]]]]}}]}