{"type":"FeatureCollection","features":[{"type":"Feature","properties":{"fid":218,"objectid":8402,"lccode":"07","liqcode":null,"mappers":"PJDelosReyes, ACPidlaoan","project":"READY","province":"Pampanga","otherinfo":"as of October 2015, reupdate 2021","datemapped":2008,"publishdate":null,"globalid":"{523547B0-D8C4-4084-9EE8-AA20F7B2A472}","st_area(shape)":0.07539067039960894,"st_perimeter(shape)":2.422972172763333,"liqcodepk":null,"creator":null,"createdate":null,"editor":null,"modifydate":"1905-07-07T08:00:00","codemove":null},"geometry":{"type":"Polygon","coordinates":[]}},{"type":"Feature","properties":{"fid":224,"objectid":8406,"lccode":"06","liqcode":null,"mappers":"PJDelosReyes, ACPidlaoan","project":"READY","province":"Pampanga","otherinfo":"as of October 2015, reupdate 2021","datemapped":2008,"publishdate":null,"globalid":"{99820630-6422-44D3-9964-5FCA6C67C1BF}","st_area(shape)":0.008066255598890066,"st_perimeter(shape)":0.53923123619839,"liqcodepk":null,"creator":null,"createdate":null,"editor":null,"modifydate":"1905-07-07T08:00:00","codemove":null},"geometry":{"type":"Polygon","coordinates":[[[120.49403723200011,15.007854509000019],[120.49470745300005,15.009136717000045],[120.49625209600003,15.009286853000049],[120.49677297400001,15.008265137000025],[120.49755968200009,15.007950367000035],[120.49761545500007,15.00652396800007],[120.499071823,15.005855016000055],[120.50051977500003,15.00590904200004],[120.50202783700003,15.007523866000042],[120.50204665100011,15.009274517000053],[120.502928429,15.010882369000056],[120.501578891,15.01246580700007],[120.50128449300007,15.014213015000053],[120.50178279600004,15.015131781000033],[120.50344402700013,15.017052658000068],[120.504677248,15.018740506000032],[120.50508398900003,15.020799878000048],[120.50675500999999,15.021883692000072],[120.5092785940001,15.02035121000006],[120.51002253200011,15.016972617000024],[120.51159158300004,15.016723358000036],[120.51344341100004,15.015716250000027],[120.515367823,15.015204500000037],[120.51642125200011,15.015520472000048],[120.51766081300002,15.016675543000073],[120.51861746600002,15.018588726000074],[120.51786353200009,15.022842441000023],[120.51828192000005,15.023912497000024],[120.52132370700008,15.024973158000023],[120.5224124030001,15.025631984000032],[120.52282503300012,15.02719664700004],[120.52140244800012,15.028322760000032],[120.520916381,15.029725433000063],[120.51952677500003,15.031384588000035],[120.51786571800005,15.032812531000047],[120.5168402820001,15.033448182000027],[120.517057571,15.034972691000062],[120.51609370500013,15.037055096000074],[120.51714599200011,15.037485229000026],[120.5187287660001,15.036056443000062],[120.52081434100012,15.035166010000069],[120.52211912500002,15.034076648000054],[120.52260124400006,15.033016418000047],[120.52547238000012,15.031906087000038],[120.52718439000012,15.029451257000064],[120.52735938100012,15.027854878000028],[120.52698631800003,15.026252624000051],[120.52629565100007,15.02502733700004],[120.52717576900012,15.023400607000042],[120.5283946730001,15.022957214000028],[120.52980317700008,15.023048666000019],[120.5314511680001,15.019337291000062],[120.53252396600008,15.01797897500006],[120.53350619100003,15.017685258000032],[120.53432390500006,15.018074644000022],[120.53567837900005,15.019459296000035],[120.53770406900003,15.02035644400007],[120.53800550800008,15.021387185000037],[120.53870191000011,15.022117737000027],[120.53983331200003,15.022472478000056],[120.54013737900006,15.023274919000075],[120.53969104400005,15.02464005600007],[120.54046396700005,15.025523621000046],[120.5418711980001,15.025729152000055],[120.54316711800004,15.025400674000027],[120.543729105,15.024188966000057],[120.545111172,15.02317651000004],[120.54750969100006,15.022289088000035],[120.54871944000003,15.02264463300003],[120.55031155300003,15.023803357000075],[120.55292745027337,15.023749611688157],[120.55254030555245,15.02310578657239],[120.5498642920161,15.019516515184169],[120.5468392732724,15.016199427264418],[120.5434943894416,15.013186455613281],[120.53986185573787,15.010506603358627],[120.53597665214032,15.00818566515329],[120.53187618664576,15.00624597928474],[120.52759993534195,15.00470621306446],[120.5231890627542,15.003581183544291],[120.51868602610165,15.002881715267794],[120.51413416724857,15.00261453640952],[120.5095772962478,15.002782214288006],[120.50505927045158,15.003383130861652],[120.50062357320422,15.004411498435278],[120.49631289613309,15.00585741542102],[120.49404873653162,15.00686792643549],[120.49403723200011,15.007854509000019]]]}}]}