{"type":"FeatureCollection","features":[{"type":"Feature","properties":{"fid":16,"objectid":1861,"lccode":"07","liqcode":"2010600070000000","mappers":"MITAbigania, DJLBuhay","project":"Cebu Multi-Hazard Mapping","province":"Cebu","otherinfo":null,"datemapped":2016,"publishdate":null,"globalid":"{C53CB127-C117-49E0-BEC2-5269D4100696}","st_area(shape)":0.02168908556211633,"st_perimeter(shape)":9.044842936189752,"liqcodepk":"201060007000000000053","creator":"SNOOPYPC","createdate":"2019-02-19T15:21:28","editor":"LENOVO","modifydate":"2019-03-10T17:50:55","codemove":"na"},"geometry":{"type":"Polygon","coordinates":[]}},{"type":"Feature","properties":{"fid":25,"objectid":1871,"lccode":"07","liqcode":"2010600070000000","mappers":"PJDelosReyes, ACPidlaoan","project":"READY","province":"Bohol","otherinfo":null,"datemapped":2008,"publishdate":null,"globalid":"{24D4EC03-5006-45F6-AD98-9C84307BF998}","st_area(shape)":0.043795715989879205,"st_perimeter(shape)":13.054531899785706,"liqcodepk":"201060007000000000063","creator":"SNOOPYPC","createdate":"2019-02-19T15:21:28","editor":"LENOVO","modifydate":"2019-03-10T17:50:55","codemove":"na"},"geometry":{"type":"Polygon","coordinates":[]}},{"type":"Feature","properties":{"fid":40,"objectid":1888,"lccode":"05","liqcode":"2010600050000000","mappers":"MITAbigania, DJLBuhay","project":"Cebu Multi-Hazard Mapping","province":"Cebu","otherinfo":null,"datemapped":2016,"publishdate":null,"globalid":"{6B113CA7-0A16-415A-8510-4591ABBD34CB}","st_area(shape)":0.011277825227989341,"st_perimeter(shape)":7.92725888477651,"liqcodepk":"201060005000000000082","creator":"SNOOPYPC","createdate":"2019-02-19T15:21:28","editor":"LENOVO","modifydate":"2019-03-10T17:50:55","codemove":"na"},"geometry":{"type":"Polygon","coordinates":[]}},{"type":"Feature","properties":{"fid":52,"objectid":1901,"lccode":"05","liqcode":"2010600050000000","mappers":"PJDelosReyes, ACPidlaoan","project":"READY","province":"Bohol","otherinfo":null,"datemapped":2008,"publishdate":null,"globalid":"{6E90D3A1-B401-4667-B32C-C40E7388D630}","st_area(shape)":0.010533775520257218,"st_perimeter(shape)":3.327242015595593,"liqcodepk":"201060005000000000095","creator":"SNOOPYPC","createdate":"2019-02-19T15:21:28","editor":"LENOVO","modifydate":"2019-03-10T17:50:55","codemove":"na"},"geometry":{"type":"Polygon","coordinates":[]}},{"type":"Feature","properties":{"fid":66,"objectid":1930,"lccode":"06","liqcode":"2010600060000000","mappers":"PJDelosReyes, ACPidlaoan","project":"READY","province":"Bohol","otherinfo":null,"datemapped":2008,"publishdate":null,"globalid":"{D63C31C2-E045-4C3D-A292-79031F3364A0}","st_area(shape)":0.006668240995906857,"st_perimeter(shape)":3.000289637999567,"liqcodepk":"201060006000000000128","creator":"SNOOPYPC","createdate":"2019-02-19T15:21:28","editor":"LENOVO","modifydate":"2019-03-10T17:50:55","codemove":"na"},"geometry":{"type":"Polygon","coordinates":[[[124.42580379800006,10.006026841000049],[124.42529404400011,10.004563292000059],[124.42610869900012,10.003811385000063],[124.42506782200006,10.003192091000074],[124.42471739600012,10.002195674000065],[124.42358457300007,10.002138148000027],[124.42276902500011,10.002703017000043],[124.42109888500012,10.002086399000063],[124.42191253700001,10.001085003000075],[124.42326505000005,10.001016845000036],[124.42363794900007,9.99995495600007],[124.42439229800004,9.99979578900007],[124.42524362700011,10.00022877200007],[124.4248320150001,9.997842727000034],[124.42370075500004,9.998037136000052],[124.42345492800007,9.996996786000064],[124.42289322600004,9.99679506600006],[124.42233564100003,9.997972190000041],[124.42165918900002,9.99860878000004],[124.41826337200007,9.998623269000063],[124.41747971500001,9.997557271000062],[124.41765639300002,9.996843717000045],[124.4165342560001,9.99603670600004],[124.415756954,9.996435963000065],[124.41433327700008,9.995194590000041],[124.41429068300012,9.994580956000048],[124.4158198660001,9.99251515200007],[124.41673895800011,9.992570636000035],[124.41733614200005,9.992092864000028],[124.4173909430001,9.990904599000032],[124.41702901400004,9.990351718000053],[124.41547725900013,9.991803717000037],[124.41346009600012,9.991891475000042],[124.41245018000008,9.993935270000065],[124.41189164200011,9.994115907000033],[124.4099526230001,9.993787475000033],[124.40872687600007,9.992109597000022],[124.40810626100007,9.991795370000034],[124.40688938300002,9.992176758000028],[124.40632768600005,9.991604909000046],[124.40680278000002,9.990612842000075],[124.40750003399998,9.990174258000021],[124.40787539700011,9.989202409000027],[124.4064938360001,9.988435957000036],[124.40628811200008,9.987050812000064],[124.40488698100012,9.986383423000062],[124.40404489600007,9.985654370000077],[124.40374064800005,9.98456660100004],[124.40425678600003,9.983831824000045],[124.40500607800004,9.981551487000045],[124.40380983200009,9.982071355000071],[124.40252073700003,9.984235177000073],[124.40236947100004,9.986235648000045],[124.40265480300002,9.987561160000041],[124.40367419300003,9.987715247000036],[124.40411639100013,9.988346999000042],[124.40352538900005,9.99027022100006],[124.40373026600003,9.991477194000023],[124.40343306000011,9.99203287100005],[124.40269036500003,9.995857666000061],[124.40209170700008,9.995998772000064],[124.40029157400011,9.995451924000063],[124.39815243500006,9.995045074000075],[124.39670922700009,9.993882888000027],[124.3965865330001,9.993210100000052],[124.39688973600006,9.990743429000073],[124.39455372900012,9.989634694000074],[124.39488742100004,9.98824718600002],[124.39634765700009,9.988736101000029],[124.39778610300004,9.988789462000055],[124.39905996900006,9.987714859000048],[124.398736911,9.98690433000007],[124.39668294600007,9.987724833000073],[124.39570298900004,9.987451681000039],[124.3959586630001,9.98652002800003],[124.39428076900003,9.986527054000021],[124.39292371600004,9.986809898000047],[124.39219953300007,9.985624880000042],[124.39071855200007,9.984957851000049],[124.38941977500008,9.984864189000064],[124.38802724000003,9.986216511000066],[124.38686895400008,9.986280728000056],[124.38571334800008,9.986978639000027],[124.38559034600007,9.986226654000063],[124.38618489100008,9.985115325000036],[124.38728374900006,9.984197975000027],[124.386458671,9.98372807000004],[124.38542146600003,9.984088834000033],[124.38486032700008,9.983655524000026],[124.38471556400009,9.982487876000048],[124.3858307170001,9.981671442000051],[124.387097551,9.980387815000029],[124.38512708100006,9.980605105000052],[124.38419070500005,9.980048056000042],[124.38367065600005,9.981007109000073],[124.38187614700009,9.981786757000066],[124.38060698700009,9.983970229000022],[124.38007570800006,9.985873291000075],[124.38038230200003,9.987535309000066],[124.38204145900009,9.987825488000054],[124.38380720000009,9.989699310000047],[124.38453228800007,9.991102211000053],[124.38495964600008,9.992961697000057],[124.38442437300012,9.993934194000072],[124.3839144650001,9.996173825000028],[124.38227753300009,9.996418291000055],[124.38100198500001,9.997116598000044],[124.38095518188618,9.997188295099768],[124.38228783529966,9.99837553799801],[124.3858940518238,10.001003501928446],[124.38974281488679,10.003268384048068],[124.39379704814147,10.005148365821755],[124.39801769381502,10.006625336865051],[124.4023640893687,10.00768506955799],[124.40679435969545,10.008317356205755],[124.41126582105521,10.008516107419482],[124.41573539283225,10.008279410766738],[124.42016001312184,10.007609549126347],[124.42449705411731,10.00651297857326],[124.42582047485553,10.006037199427627],[124.42580379800006,10.006026841000049]]]}},{"type":"Feature","properties":{"fid":91,"objectid":1919,"lccode":"06","liqcode":"2010600060000000","mappers":"MITAbigania, DJLBuhay","project":"Cebu Multi-Hazard Mapping","province":"Cebu","otherinfo":null,"datemapped":2016,"publishdate":null,"globalid":"{EDC44F95-33EE-45BE-975C-40D829DF5178}","st_area(shape)":0.012637099910309046,"st_perimeter(shape)":9.940336299625505,"liqcodepk":"201060006000000000117","creator":"SNOOPYPC","createdate":"2019-02-19T15:21:28","editor":"LENOVO","modifydate":"2019-03-10T17:50:55","codemove":"na"},"geometry":{"type":"Polygon","coordinates":[]}}]}