{"type":"FeatureCollection","features":[{"type":"Feature","properties":{"fid":97,"objectid":1953,"lccode":"01","liqcode":"2010600010000000","mappers":"DJLBuhay, MJVReyes, MITAbigania, KLPapiona, KMVitto","project":"MELP","province":"Masbate","otherinfo":null,"datemapped":2018,"publishdate":null,"globalid":"{40D12474-2C0F-4764-AF7B-985F1E55E0D2}","st_area(shape)":0.02447278181245312,"st_perimeter(shape)":18.320280805301095,"liqcodepk":"201060001000000000948","creator":null,"createdate":"2019-06-04T13:29:47","editor":"SDE","modifydate":"2019-06-04T11:39:42","codemove":"na"},"geometry":{"type":"MultiPolygon","coordinates":[[[[123.2777375930001,12.338552713000066],[123.27701942300007,12.335976582000056],[123.2773619830001,12.335437892000073],[123.27985759900002,12.334805175000042],[123.28106265100007,12.33476656000005],[123.28220802000011,12.333731422000028],[123.28256443000011,12.332776733000061],[123.28409711200004,12.332387536000052],[123.28495136800008,12.33247995700003],[123.2860533170001,12.332091198000057],[123.28731701900007,12.332218719000021],[123.28865083300002,12.330767731000034],[123.2868992640001,12.33125767600006],[123.28236615700007,12.331693077000065],[123.28148568200004,12.333163210000068],[123.2806914890001,12.333562724000044],[123.27744798800008,12.333916092000035],[123.27597431000004,12.335281075000067],[123.275405524,12.336471131000053],[123.27532020500007,12.337715352000032],[123.27576678100003,12.338899252000031],[123.27766659800011,12.340462103000048],[123.27939803000004,12.341023567000034],[123.27873732400009,12.342722045000073],[123.277855314,12.342878465000068],[123.27713606400005,12.34376408500003],[123.27634420100003,12.343735652000023],[123.27521248400001,12.342937911000032],[123.27429059500004,12.343348639000055],[123.27368735600008,12.342457991000062],[123.27068765700007,12.342161907000046],[123.270801387,12.343340742000066],[123.27019851800003,12.34424996100006],[123.26877021600001,12.343268937000062],[123.26793215300006,12.341985182000032],[123.2668920860001,12.341430337000075],[123.26688805100002,12.339488300000028],[123.26627456300002,12.339186981000067],[123.26533575500004,12.342620072000045],[123.26548539700002,12.343460163000032],[123.26641195600008,12.344175970000036],[123.26769587800004,12.346258586000035],[123.26853212100002,12.346351141000069],[123.26902563800002,12.347044517000029],[123.26986538000007,12.347221973000046],[123.27047295200009,12.34636716700004],[123.27132462000009,12.346270615000034],[123.27280805800001,12.345043329000077],[123.27476614000011,12.345468029000074],[123.27734346200009,12.345587442000067],[123.27966343000003,12.344457283000056],[123.28056848000004,12.343753781000034],[123.28082321200009,12.343007019000028],[123.28050626900004,12.340179259000022],[123.27976824500003,12.339562719000071],[123.2777375930001,12.338552713000066]]],[[[123.26225732200011,12.369850072000077],[123.26212156100009,12.370386151000048],[123.26331007200008,12.371179355000038],[123.26413205100006,12.372153938000054],[123.26452660300004,12.370785784000075],[123.26523374800003,12.370446737000066],[123.26629844300011,12.370784055000058],[123.26687437600003,12.372305201000072],[123.26756266200003,12.372585487000038],[123.26927942200008,12.372685650000049],[123.27028437800004,12.37306008100006],[123.27176448400006,12.37266014200003],[123.27270503000011,12.371457213000042],[123.27033924800001,12.371383011000033],[123.26842800100007,12.368341484000041],[123.2668592010001,12.366945734000067],[123.26560266800004,12.366267458000035],[123.2650285410001,12.36651685000004],[123.265458523,12.368133847000022],[123.26480751200006,12.369378647000076],[123.26407787100004,12.369886593000047],[123.26225732200011,12.369850072000077]]],[[[123.26877533100003,12.380639131000065],[123.27191601900006,12.381515297000021],[123.2724418360001,12.381155505000036],[123.27396611300004,12.381028732000063],[123.27389628000003,12.379338137000047],[123.27437429000008,12.378547747000027],[123.27533950800012,12.378195518000037],[123.27456466200012,12.377343489000056],[123.27434450500004,12.376487789000068],[123.27297566200001,12.376501689000065],[123.27162626600013,12.377946245000034],[123.26942511400011,12.379376379000064],[123.26877533100003,12.380639131000065]]],[[[123.26679071,12.381722991000057],[123.26820208700009,12.381483596000068],[123.26863844200011,12.379767654000034],[123.26797351100004,12.379308926000023],[123.26678343800006,12.379424944000048],[123.26677531300005,12.378613851000068],[123.26541675900012,12.378191687000022],[123.2635696540001,12.378430354000045],[123.26362201300003,12.379672075000029],[123.26565898600006,12.379447578000052],[123.26622912200004,12.380035605000044],[123.26618539100004,12.381011333000062],[123.26679071,12.381722991000057]]],[[[123.29326279500003,12.39123945500006],[123.29451843100004,12.391411149000021],[123.29685391500006,12.390847011000062],[123.29665301300008,12.389179118000072],[123.29705481600003,12.388639502000046],[123.2989633840001,12.388124414000059],[123.29994278000004,12.388762142000072],[123.30240382800004,12.388001775000077],[123.30308187100002,12.387437629000031],[123.30380724900012,12.385675484000046],[123.30428728200003,12.385303677000026],[123.30499043900011,12.386407447000066],[123.30622096200011,12.386431976000042],[123.30654742800004,12.385867826000036],[123.30594472300004,12.385009337000042],[123.30355901300004,12.384199902000029],[123.30227826400005,12.38564707200004],[123.30122352900003,12.385230092000029],[123.29971676600007,12.385033866000073],[123.2980167610001,12.386112524000051],[123.29743150700007,12.385450847000067],[123.29617587100007,12.385033865000022],[123.29404128899999,12.386750842000026],[123.29376504900004,12.38797724600005],[123.29045016900011,12.389399868000055],[123.29007347800007,12.390062121000026],[123.29037483100001,12.391214927000023],[123.29002325200008,12.392024341000024],[123.28670837300001,12.394746896000072],[123.2850760450001,12.39562988100005],[123.28422243000013,12.394978137000066],[123.28229620900004,12.396430073000031],[123.2821457230001,12.396827404000021],[123.28032974000008,12.397641114000065],[123.27922478000005,12.397493951000058],[123.27917455400006,12.398622197000066],[123.28115845900004,12.398965575000036],[123.28256477200011,12.397714695000047],[123.2849755940001,12.396586444000036],[123.28672272300003,12.395393368000038],[123.28738641600013,12.395286498000075],[123.2880644600001,12.39420729300002],[123.2906008450001,12.392907335000073],[123.29107798700011,12.392220562000036],[123.2906008450001,12.390577206000044],[123.29147979100004,12.389473452000063],[123.29228339800012,12.390577205000056],[123.29326279500003,12.39123945500006]]],[[[123.28572175800004,12.40895792600003],[123.28500719800003,12.409963577000042],[123.28626335700005,12.410062744000072],[123.28572175800004,12.40895792600003]]]]}}]}