{"type":"FeatureCollection","features":[{"type":"Feature","properties":{"fid":189,"objectid":10018,"lccode":"02","liqcode":null,"mappers":"OPCHalasan, KSSochayseng, AATMagnaye, RPADizon, MJVReyes, HALVidal, MITAbigania, DJLBuhay","project":"ACER-DeLTA Liquefaction","province":"South Cotabato","otherinfo":"General Santos merged with the rest of South Cotabato","datemapped":2025,"publishdate":2025,"globalid":"{5C1DBB9D-146F-4CBC-A9A0-7B9670F2F55D}","st_area(shape)":0.0277513408469407,"st_perimeter(shape)":12.12541707282386,"liqcodepk":null,"creator":null,"createdate":null,"editor":"DJLB","modifydate":"2025-07-07T08:00:00","codemove":null},"geometry":{"type":"Polygon","coordinates":[]}},{"type":"Feature","properties":{"fid":210,"objectid":10019,"lccode":"03","liqcode":null,"mappers":"OPCHalasan, KSSochayseng, AATMagnaye, RPADizon, MJVReyes, HALVidal, MITAbigania, DJLBuhay","project":"ACER-DeLTA Liquefaction","province":"South Cotabato","otherinfo":"General Santos merged with the rest of South Cotabato","datemapped":2025,"publishdate":2025,"globalid":"{A08B4111-30CD-46F1-8E61-734C7ABFBD03}","st_area(shape)":0.027808614318137116,"st_perimeter(shape)":9.22104192901392,"liqcodepk":null,"creator":null,"createdate":null,"editor":"DJLB","modifydate":"2025-07-07T08:00:00","codemove":null},"geometry":{"type":"Polygon","coordinates":[]}},{"type":"Feature","properties":{"fid":211,"objectid":10020,"lccode":"04","liqcode":null,"mappers":"OPCHalasan, KSSochayseng, AATMagnaye, RPADizon, MJVReyes, HALVidal, MITAbigania, DJLBuhay","project":"ACER-DeLTA Liquefaction","province":"South Cotabato","otherinfo":"General Santos merged with the rest of South Cotabato","datemapped":2025,"publishdate":2025,"globalid":"{10411778-8217-49CD-9A6B-AC131A16B836}","st_area(shape)":0.0318710172763168,"st_perimeter(shape)":5.428132055188376,"liqcodepk":null,"creator":null,"createdate":null,"editor":"DJLB","modifydate":"2025-07-07T08:00:00","codemove":null},"geometry":{"type":"Polygon","coordinates":[]}},{"type":"Feature","properties":{"fid":212,"objectid":10021,"lccode":"04","liqcode":null,"mappers":"OPCHalasan, KSSochayseng, AATMagnaye, RPADizon, MJVReyes, HALVidal, MITAbigania, DJLBuhay","project":"ACER-DeLTA Liquefaction","province":"Sarangani","otherinfo":null,"datemapped":2025,"publishdate":2025,"globalid":"{4B0F16AF-9FC5-426E-BE2A-C2A0BDACB3B7}","st_area(shape)":0.00681203411406619,"st_perimeter(shape)":4.420543025412032,"liqcodepk":null,"creator":null,"createdate":null,"editor":"DJLB","modifydate":"2025-07-07T08:00:00","codemove":null},"geometry":{"type":"MultiPolygon","coordinates":[[[[124.7393786350001,5.948062952000043],[124.73992233100012,5.948788628000044],[124.74032004900005,5.950753895000048],[124.74102120400006,5.95101393400006],[124.74111627500008,5.951994988000023],[124.74065280000002,5.953531576000045],[124.74204322700007,5.9538270730000695],[124.74256016000004,5.952785981000032],[124.74324204500012,5.95248351200007],[124.74248293400001,5.951498552000032],[124.7421620670001,5.950257458000068],[124.74097366800005,5.949205480000045],[124.74049067900012,5.947327079000047],[124.73989836200008,5.947031089000063],[124.7394924068299,5.947038535953912],[124.7390469153784,5.947989353193529],[124.7393786350001,5.948062952000043]]],[[[124.75589451100008,5.9293582770000635],[124.75777989900006,5.929814360000024],[124.76129397800003,5.930024705000051],[124.76186440900007,5.930762297000058],[124.76278660600009,5.930313122000029],[124.76311874400005,5.929221375000053],[124.764704713,5.92734217800006],[124.76426311300008,5.925406346000045],[124.76443102283226,5.925018956307272],[124.76230886919686,5.925786880523462],[124.75830928566326,5.9276965515435025],[124.75558368291178,5.929344086914554],[124.75589451100008,5.9293582770000635]]],[[[124.78243348200012,5.923734624000076],[124.78313389200001,5.92345139300005],[124.78531335800004,5.923587920000045],[124.78586545300006,5.922897138000053],[124.78507941096576,5.9226500781948275],[124.7840029889697,5.922493738969782],[124.78212812144623,5.922407557103182],[124.78243348200012,5.923734624000076]]]]}},{"type":"Feature","properties":{"fid":213,"objectid":10022,"lccode":"03","liqcode":null,"mappers":"OPCHalasan, KSSochayseng, AATMagnaye, RPADizon, MJVReyes, HALVidal, MITAbigania, DJLBuhay","project":"ACER-DeLTA Liquefaction","province":"Sarangani","otherinfo":null,"datemapped":2025,"publishdate":2025,"globalid":"{6B71C9FC-C348-4B94-AE03-7E47FA7930C0}","st_area(shape)":0.011541225204631354,"st_perimeter(shape)":8.576922001598057,"liqcodepk":null,"creator":null,"createdate":null,"editor":"DJLB","modifydate":"2025-07-07T08:00:00","codemove":null},"geometry":{"type":"MultiPolygon","coordinates":[[[[124.78586545300006,5.922897138000053],[124.78531335800004,5.923587920000045],[124.78313389200001,5.92345139300005],[124.78243348200012,5.923734624000076],[124.78212812144623,5.922407557103182],[124.77957669373752,5.922290265479472],[124.77942769608863,5.9222980742211195],[124.77944794700011,5.922447466000051],[124.78224662500008,5.924250098000073],[124.7827695210001,5.924835213000051],[124.78377966000006,5.924882495000078],[124.78451646700013,5.923830469000052],[124.7853008100001,5.923718174000043],[124.78594700200006,5.924963761000071],[124.7853245780001,5.925875416000054],[124.78541370800008,5.926838784000041],[124.78449646800004,5.928790004000064],[124.78625747100011,5.931448745000068],[124.7882958890001,5.932769868000037],[124.788419168,5.931187515000033],[124.7880374770001,5.9295812450000644],[124.78753975300002,5.928711142000054],[124.78857713900003,5.927117616000031],[124.79045192500008,5.9272572280000295],[124.79089103700007,5.926198706000036],[124.79068900900005,5.925258978000044],[124.79087915400011,5.923917349000021],[124.79136823766274,5.923867853840877],[124.78838805033313,5.923130609803311],[124.78507941096576,5.9226500781948275],[124.78586545300006,5.922897138000053]]],[[[124.76426311300008,5.925406346000045],[124.764704713,5.92734217800006],[124.76311874400005,5.929221375000053],[124.76278660600009,5.930313122000029],[124.76186440900007,5.930762297000058],[124.76129397800003,5.930024705000051],[124.75777989900006,5.929814360000024],[124.75589451100008,5.9293582770000635],[124.75558368291178,5.929344086914554],[124.75451586538274,5.929989541304578],[124.75096513894167,5.932643772975638],[124.74876964690431,5.934648868300426],[124.74949900200012,5.934516554000027],[124.74989830400011,5.934977545000038],[124.74985552200008,5.936239951000061],[124.74865761600007,5.936984626000026],[124.74788753400003,5.938048447000028],[124.74829396600012,5.938700923000058],[124.74959169700003,5.938296672000036],[124.75086090700007,5.937388879000024],[124.7519589870001,5.935771868000074],[124.75181638000004,5.934573291000049],[124.752450984,5.933771875000046],[124.75457584100003,5.9341477610000775],[124.75555761600002,5.936256273000026],[124.75564613700011,5.936991672000032],[124.75564612700009,5.936991810000052],[124.75666811300005,5.937743052000029],[124.7587549640001,5.936849876000052],[124.75939669800006,5.935473997000032],[124.75929687400003,5.934743503000049],[124.76096115500002,5.932661160000066],[124.76102977100004,5.932566812000062],[124.76177646700013,5.9322647830000514],[124.76261310000008,5.931219863000023],[124.7636821220001,5.930875471000036],[124.76331187800007,5.929602835000026],[124.764389617,5.9278273600000375],[124.76505766700008,5.927164871000059],[124.76458349600013,5.926366990000075],[124.76450981200003,5.925084108000023],[124.76472473768918,5.924912671681717],[124.76443102283226,5.925018956307272],[124.76426311300008,5.925406346000045]]],[[[124.73989836200008,5.947031089000063],[124.74049067900012,5.947327079000047],[124.74097366800005,5.949205480000045],[124.7421620670001,5.950257458000068],[124.74248293400001,5.951498552000032],[124.74324204500012,5.95248351200007],[124.74256016000004,5.952785981000032],[124.74204322700007,5.9538270730000695],[124.74065280000002,5.953531576000045],[124.74111627500008,5.951994988000023],[124.74102120400006,5.95101393400006],[124.74032004900005,5.950753895000048],[124.73992233100012,5.948788628000044],[124.7393786350001,5.948062952000043],[124.7390469153784,5.947989353193529],[124.73794932009287,5.950331952391664],[124.73646958917604,5.954514071282],[124.73540638628465,5.958821273064779],[124.73476996127205,5.963212076728031],[124.73459819167222,5.9669529827546235],[124.73580995700001,5.966724491000036],[124.73715047000009,5.968005735000076],[124.7378444950001,5.9682941320000396],[124.7385955630001,5.969230242000037],[124.73906616900001,5.968932389000031],[124.73812806800004,5.967572922000045],[124.73798531600004,5.965969356000073],[124.73700166300011,5.965544125000065],[124.736973142,5.96400520800006],[124.7372797490001,5.961629450000032],[124.73694462000003,5.9600054190000264],[124.73624584100001,5.959182764000048],[124.73652947300002,5.958172725000052],[124.738255706,5.957290323000053],[124.73928655800013,5.9564801280000665],[124.74132585000005,5.956257915000038],[124.74309238,5.955268536000063],[124.74386385400011,5.95454276700002],[124.74494767200008,5.954854811000073],[124.74513068600002,5.956141993000073],[124.74601010100001,5.956626605000053],[124.7469548780001,5.9561656320000225],[124.74705110400009,5.954882980000035],[124.74804325700006,5.955387965000057],[124.74932076700009,5.955455077000067],[124.75038098900006,5.9561022190000585],[124.75046160500007,5.956051767000076],[124.75099281900009,5.955139276000067],[124.75265063600013,5.953892280000048],[124.75430250900001,5.9535790530000545],[124.75642286900006,5.954051522000042],[124.75707928500005,5.9532445640000455],[124.75663177100013,5.9524207020000395],[124.75553844400008,5.951681958000051],[124.75370831000009,5.951439649000064],[124.75272193900001,5.951752877000046],[124.75134339600004,5.951546028000053],[124.75058876400011,5.950245834000043],[124.750660067,5.948401918000059],[124.74869326800003,5.948644228000035],[124.74825950200011,5.948106418000066],[124.74856254400005,5.94628022400002],[124.74740385500003,5.946741206000069],[124.74637589000008,5.94253065600003],[124.74466821300008,5.939483135000046],[124.74445692265661,5.939296018626449],[124.74209745053868,5.942502470623523],[124.73983131842824,5.946315191630755],[124.7394924068299,5.947038535953912],[124.73989836200008,5.947031089000063]]],[[[124.76604611400013,5.925010282000074],[124.76780180902676,5.923941916609291],[124.76647610194763,5.924278913548776],[124.76525661242668,5.924720205284444],[124.76604611400013,5.925010282000074]]],[[[124.76993129000006,5.924054902000023],[124.77132524500009,5.923726449000071],[124.77263367000013,5.925144910000029],[124.77333957800012,5.924251279000032],[124.77469435300009,5.923854110000035],[124.77535034900006,5.924109433000068],[124.77611330000002,5.922740615000064],[124.77599502301099,5.922477964447915],[124.77515178169043,5.922522151532639],[124.77077085718348,5.923187167558508],[124.76856983637204,5.923746681259831],[124.76993129000006,5.924054902000023]]]]}},{"type":"Feature","properties":{"fid":214,"objectid":10023,"lccode":"02","liqcode":null,"mappers":"OPCHalasan, KSSochayseng, AATMagnaye, RPADizon, MJVReyes, HALVidal, MITAbigania, DJLBuhay","project":"ACER-DeLTA Liquefaction","province":"Sarangani","otherinfo":null,"datemapped":2025,"publishdate":2025,"globalid":"{80FA53E4-996E-4B30-88CB-5CF3D52CBB3A}","st_area(shape)":0.00512214156560372,"st_perimeter(shape)":11.803879412251622,"liqcodepk":null,"creator":null,"createdate":null,"editor":"DJLB","modifydate":"2025-07-07T08:00:00","codemove":null},"geometry":{"type":"MultiPolygon","coordinates":[[[[124.76312581500008,5.957128160000024],[124.7637960710001,5.956887035000022],[124.76368911600002,5.955461564000075],[124.76280494700008,5.954724005000059],[124.76238425400005,5.953830422000066],[124.76169973600007,5.953390723000041],[124.76010965900001,5.953518377000024],[124.75749161700003,5.953108227000031],[124.75665379600001,5.951748938000035],[124.755156413,5.951104750000069],[124.75513127000012,5.950125145000072],[124.75634481200007,5.950501933000054],[124.75805016400011,5.950235985000062],[124.75683205500003,5.948988978000045],[124.75564365700005,5.949296297000045],[124.75493061800012,5.94901852700002],[124.7540868550001,5.947529207000059],[124.75355801700003,5.947411007000028],[124.750723686,5.948143848000029],[124.74936891200004,5.948114298000062],[124.74890543700006,5.947718327000073],[124.74902427600013,5.94674317500005],[124.75111585800005,5.9466072450000516],[124.75113685300005,5.94554265200003],[124.7518784140001,5.9447979880000625],[124.75188554500005,5.94356397100006],[124.75343283900008,5.942422148000048],[124.75450239800013,5.94203208400006],[124.75410309600012,5.941081744000029],[124.75386779300004,5.939081770000029],[124.75301927700004,5.939159783000036],[124.7528053650001,5.937982491000072],[124.75334014400005,5.936826472000064],[124.75318327500008,5.9356278970000735],[124.75386779300004,5.93496123400007],[124.75466639700005,5.935457685000075],[124.75477335300002,5.936585338000044],[124.75587143300004,5.937826464000069],[124.75632064700007,5.9389186510000505],[124.75714777400003,5.938429295000049],[124.75842411300005,5.93876971700007],[124.75887056100008,5.939668462000043],[124.75894463200008,5.940847705000067],[124.75851680900007,5.941720032000035],[124.75913715200011,5.942826397000033],[124.75991436500009,5.942422148000048],[124.75940940600002,5.941628832000047],[124.76003558200011,5.9401030350000505],[124.76027088500008,5.938656243000025],[124.7603593020001,5.936197398000048],[124.76152868600003,5.935686762000043],[124.76166416400008,5.9351761260000435],[124.76073053800008,5.934137666000025],[124.76120589700008,5.93268140200007],[124.7619284440001,5.932416627000065],[124.76268901900005,5.931414261000042],[124.76400101100013,5.930771233000029],[124.76365875200008,5.929106921000026],[124.765027787,5.927669557000058],[124.76521793100005,5.92685631000006],[124.76472355700002,5.925191986000073],[124.76622569300002,5.925248725000074],[124.7682602320001,5.924038305000067],[124.77002856900005,5.924416561000043],[124.77151169000001,5.924132869000061],[124.77282368300007,5.925456766000026],[124.77383144500004,5.924340910000069],[124.7759230260001,5.924265259000039],[124.77631421778787,5.922461237840946],[124.77599502301099,5.922477964447915],[124.77611330000002,5.922740615000064],[124.77535034900006,5.924109433000068],[124.77469435300009,5.923854110000035],[124.77333957800012,5.924251279000032],[124.77263367000013,5.925144910000029],[124.77132524500009,5.923726449000071],[124.76993129000006,5.924054902000023],[124.76856983637204,5.923746681259831],[124.76780180902676,5.923941916609291],[124.76604611400013,5.925010282000074],[124.76525661242668,5.924720205284444],[124.76472473768918,5.924912671681717],[124.76450981200003,5.925084108000023],[124.76458349600013,5.926366990000075],[124.76505766700008,5.927164871000059],[124.764389617,5.9278273600000375],[124.76331187800007,5.929602835000026],[124.7636821220001,5.930875471000036],[124.76261310000008,5.931219863000023],[124.76177646700013,5.9322647830000514],[124.76102977100004,5.932566812000062],[124.76096115500002,5.932661160000066],[124.75929687400003,5.934743503000049],[124.75939669800006,5.935473997000032],[124.7587549640001,5.936849876000052],[124.75666811300005,5.937743052000029],[124.75564612700009,5.936991810000052],[124.75564613700011,5.936991672000032],[124.75555761600002,5.936256273000026],[124.75457584100003,5.9341477610000775],[124.752450984,5.933771875000046],[124.75181638000004,5.934573291000049],[124.7519589870001,5.935771868000074],[124.75086090700007,5.937388879000024],[124.74959169700003,5.938296672000036],[124.74829396600012,5.938700923000058],[124.74788753400003,5.938048447000028],[124.74865761600007,5.936984626000026],[124.74985552200008,5.936239951000061],[124.74989830400011,5.934977545000038],[124.74949900200012,5.934516554000027],[124.74876964690431,5.934648868300426],[124.74807632201765,5.935282062938745],[124.74832248700011,5.935580380000032],[124.7479257230001,5.937127391000046],[124.74691066900006,5.937431431000049],[124.74656807961587,5.936882442496459],[124.74472588472061,5.938930504933244],[124.74445692265661,5.939296018626449],[124.74466821300008,5.939483135000046],[124.74637589000008,5.94253065600003],[124.74740385500003,5.946741206000069],[124.74856254400005,5.94628022400002],[124.74825950200011,5.948106418000066],[124.74869326800003,5.948644228000035],[124.750660067,5.948401918000059],[124.75058876400011,5.950245834000043],[124.75134339600004,5.951546028000053],[124.75272193900001,5.951752877000046],[124.75370831000009,5.951439649000064],[124.75553844400008,5.951681958000051],[124.75663177100013,5.9524207020000395],[124.75707928500005,5.9532445640000455],[124.75642286900006,5.954051522000042],[124.75430250900001,5.9535790530000545],[124.75265063600013,5.953892280000048],[124.75099281900009,5.955139276000067],[124.75046160500007,5.956051767000076],[124.75038098900006,5.9561022190000585],[124.74932076700009,5.955455077000067],[124.74804325700006,5.955387965000057],[124.74705110400009,5.954882980000035],[124.74696719647427,5.956001431619623],[124.74704612800008,5.955540867000025],[124.74885724700006,5.955625969000039],[124.7500266310001,5.956406079000033],[124.75146697100001,5.956391895000025],[124.75240170500003,5.957085608000057],[124.75381352300008,5.956511165000051],[124.75484030000007,5.955738148000023],[124.75743576200013,5.955681413000035],[124.7609938280001,5.956504073000075],[124.7619493000001,5.956546625000044],[124.76312581500008,5.957128160000024]]],[[[124.77951674400002,5.922903534000056],[124.78086676500006,5.923603309000042],[124.78244495800004,5.924946120000072],[124.78373793600008,5.925210899000035],[124.78514500000001,5.923849176000033],[124.78575346000004,5.924794818000066],[124.785183028,5.925589155000069],[124.78508795700009,5.927045437000061],[124.784403439,5.928085636000048],[124.78432738100003,5.929088008000064],[124.78508795700009,5.930468631000052],[124.78639994900004,5.932114026000022],[124.78729362400007,5.932813790000068],[124.78860561600004,5.933116390000066],[124.78869250000004,5.9320149400000455],[124.78846776200011,5.929461533000051],[124.78808272100001,5.928525356000024],[124.788510545,5.927631732000066],[124.78973697200003,5.927745208000033],[124.79056409700001,5.927433148000034],[124.79119157200012,5.926014692000023],[124.79087783500006,5.92543312500004],[124.79130565800007,5.924000479000028],[124.79175472748129,5.923963462966918],[124.79136823766274,5.923867853840877],[124.79087915400011,5.923917349000021],[124.79068900900005,5.925258978000044],[124.79089103700007,5.926198706000036],[124.79045192500008,5.9272572280000295],[124.78857713900003,5.927117616000031],[124.78753975300002,5.928711142000054],[124.7880374770001,5.9295812450000644],[124.788419168,5.931187515000033],[124.7882958890001,5.932769868000037],[124.78625747100011,5.931448745000068],[124.78449646800004,5.928790004000064],[124.78541370800008,5.926838784000041],[124.7853245780001,5.925875416000054],[124.78594700200006,5.924963761000071],[124.7853008100001,5.923718174000043],[124.78451646700013,5.923830469000052],[124.78377966000006,5.924882495000078],[124.7827695210001,5.924835213000051],[124.78224662500008,5.924250098000073],[124.77944794700011,5.922447466000051],[124.77942769608863,5.9222980742211195],[124.77905843585081,5.922317426421297],[124.77951674400002,5.922903534000056]]],[[[124.7469548780001,5.9561656320000225],[124.74696719647427,5.956001431619623],[124.74693761205373,5.956174056372108],[124.7469548780001,5.9561656320000225]]],[[[124.73555841200005,5.970515419000036],[124.73668501500003,5.970312124000031],[124.73834401900001,5.970903100000044],[124.73991270600004,5.971111123000071],[124.7401028490001,5.969806248000054],[124.73827574600011,5.967686805000026],[124.73861154800011,5.964553600000046],[124.73974561600005,5.963337036000041],[124.73966922700005,5.961225996000052],[124.73995480000008,5.96014609200006],[124.74058904300013,5.959141946000043],[124.74071106800012,5.958259363000024],[124.7418124200001,5.956448630000067],[124.74382319100005,5.9549025950000205],[124.74465031600006,5.9549025950000205],[124.74496405300012,5.956278424000061],[124.74560578900002,5.956746489000069],[124.74683221600003,5.956789041000037],[124.74693761205373,5.956174056372108],[124.74601010100001,5.956626605000053],[124.74513068600002,5.956141993000073],[124.74494767200008,5.954854811000073],[124.74386385400011,5.95454276700002],[124.74309238,5.955268536000063],[124.74132585000005,5.956257915000038],[124.73928655800013,5.9564801280000665],[124.738255706,5.957290323000053],[124.73652947300002,5.958172725000052],[124.73624584100001,5.959182764000048],[124.73694462000003,5.9600054190000264],[124.7372797490001,5.961629450000032],[124.736973142,5.96400520800006],[124.73700166300011,5.965544125000065],[124.73798531600004,5.965969356000073],[124.73812806800004,5.967572922000045],[124.73906616900001,5.968932389000031],[124.7385955630001,5.969230242000037],[124.7378444950001,5.9682941320000396],[124.73715047000009,5.968005735000076],[124.73580995700001,5.966724491000036],[124.73459819167222,5.9669529827546235],[124.73456645412104,5.967644194978515],[124.7347053524319,5.9703040070304505],[124.73555841200005,5.970515419000036]]]]}}]}