{"type":"FeatureCollection","features":[{"type":"Feature","properties":{"fid":171,"objectid":9613,"lccode":"01","liqcode":"2010600010000000","mappers":"DJLBuhay, MJVReyes, MITAbigania, KLPapiona, KMVitto","project":"MELP","province":"Nueva Ecija","otherinfo":"hazard boundary with Pangasinan updated on 2024","datemapped":2018,"publishdate":null,"globalid":"{142EC992-C228-490B-8C06-5B4A68BA1242}","st_area(shape)":0.21874224791512728,"st_perimeter(shape)":7.9099228422392365,"liqcodepk":"201060001000000000019","creator":"SNOOPYPC","createdate":"2019-02-19T15:21:28","editor":"LENOVO","modifydate":"2019-03-10T17:53:06","codemove":"na"},"geometry":{"type":"Polygon","coordinates":[]}},{"type":"Feature","properties":{"fid":174,"objectid":9616,"lccode":"07","liqcode":null,"mappers":"DJLBuhay, MITAbigania","project":"LiquePhi","province":"Pangasinan","otherinfo":null,"datemapped":2024,"publishdate":null,"globalid":"{4C1C6B5C-6BC5-4098-AF34-1358D72BE295}","st_area(shape)":0.0990952810399136,"st_perimeter(shape)":16.14272038398808,"liqcodepk":null,"creator":null,"createdate":null,"editor":null,"modifydate":null,"codemove":null},"geometry":{"type":"MultiPolygon","coordinates":[[[[120.83234517300001,15.98832711300003],[120.83040049300007,15.989626808000027],[120.82478174500011,15.992944372000068],[120.81887368700008,15.995919585000022],[120.81507984200005,15.998261457000067],[120.81364407300009,15.998989874000072],[120.81117695700003,16.00053891900006],[120.81003972700012,16.00150643700005],[120.80716922300009,16.004957631000025],[120.80644237700004,16.00626891000007],[120.80494410100005,16.007670353000037],[120.80396106900002,16.00920785200003],[120.80280587700008,16.009421705000022],[120.8011323830001,16.010740833000053],[120.79926145700006,16.011948962000073],[120.79201903600004,16.01803061700002],[120.78840316500009,16.020915739000035],[120.78625128500005,16.021978722000032],[120.78489842500007,16.022344434000047],[120.78291939600001,16.022535475000044],[120.78004110400002,16.02220352600005],[120.77269219700007,16.02056307100003],[120.76922959700006,16.020148693000063],[120.76676961200009,16.019531879000056],[120.76363223900012,16.01850385100005],[120.7617070330001,16.01771569200002],[120.75888799000006,16.017313380000076],[120.75760705800009,16.016344975000038],[120.75696532300005,16.015282662000057],[120.75475490100007,16.013740585000054],[120.751036934,16.00879324700003],[120.75012628915624,16.00807474636042],[120.74960165300935,16.011257527839177],[120.74932715717696,16.01568230405086],[120.74942665285118,16.018197273763207],[120.74996017100013,16.01835229900007],[120.75148953900008,16.01990978200007],[120.75358538700004,16.02057307700005],[120.7554682970001,16.022212541000044],[120.75605298900008,16.022568918000044],[120.75799245600001,16.02223995500004],[120.75873488800005,16.02261087600004],[120.76075904800005,16.02485794000006],[120.76306136800008,16.026376832000036],[120.76483264900004,16.026530733000072],[120.76552345000005,16.027416316000025],[120.76517412700002,16.02792820400003],[120.76309658800005,16.027374463000054],[120.76191294300008,16.02677137800003],[120.76118564300009,16.026922149000026],[120.75990217300013,16.026332769000078],[120.75854053100012,16.026651548000075],[120.75746239000011,16.025640930000066],[120.75648929800002,16.02537889100006],[120.75540053600002,16.024480610000072],[120.75373268500005,16.024306291000073],[120.75311285100008,16.02451698700003],[120.75169017100006,16.023952372000053],[120.75058282200007,16.024132760000047],[120.75010580275162,16.024363144989618],[120.75012570199722,16.02450334432735],[120.75033762725063,16.025360937602315],[120.75081686500005,16.025092666000035],[120.75191337200009,16.024902299000075],[120.75301302600006,16.02543533100004],[120.75421672000004,16.025084079000067],[120.75533753400009,16.02543533100004],[120.7556655320001,16.026244019000046],[120.75692643700008,16.026372236000046],[120.7578966550001,16.027694489000055],[120.75954090000003,16.027374463000054],[120.76090393200003,16.027817189000075],[120.76204129000007,16.027634886000044],[120.76365295500013,16.027972885000054],[120.76473482900009,16.028523733000043],[120.76639205700008,16.030080101000063],[120.767204922,16.03224568100006],[120.76823956000008,16.033905852000032],[120.77007625800002,16.035245935000034],[120.77140726500011,16.03593123000007],[120.77373652600012,16.036753581000024],[120.77658868300011,16.037484557000028],[120.77853765600003,16.038261216000024],[120.78319617900003,16.040362748000064],[120.79139798200005,16.041916549000067],[120.79218554300007,16.042796843000076],[120.79241371600006,16.044368390000038],[120.7921747900001,16.047082902000056],[120.79326877200005,16.047408753000074],[120.79383495400009,16.04428773500007],[120.79388690700011,16.043192221000027],[120.79431959000009,16.042327204000056],[120.7971629660001,16.040271017000062],[120.79851511600009,16.03846291100006],[120.79885102900005,16.035716486000073],[120.7971772530001,16.03392346100003],[120.79694931300003,16.032913835000045],[120.79824205900002,16.03264422900002],[120.80363219900006,16.034445508000026],[120.80579076700009,16.035358019000054],[120.80898518200001,16.037185466000043],[120.81160916600004,16.04063929600005],[120.81230319100008,16.041708326000045],[120.81484161100002,16.044814877000025],[120.81792194000002,16.04700770800003],[120.81918639600008,16.048533538000076],[120.8216107290001,16.050698918000016],[120.82388994075666,16.05235847000898],[120.8252768607146,16.051385477560213],[120.8255558149022,16.05114610254294],[120.82372132500007,16.048807638000028],[120.82211461000009,16.046030074000043],[120.82076459000008,16.045417908000044],[120.81701875700003,16.042503242000066],[120.8144993520001,16.04009107300004],[120.81075351900006,16.03499252800003],[120.81034471000008,16.034279817000026],[120.80832918600004,16.03259854200007],[120.806884093,16.03111827700008],[120.80581928800007,16.030451241000033],[120.80427912400012,16.029939540000044],[120.80238719300007,16.02975678900003],[120.8003423780001,16.029785215000057],[120.79855721300011,16.02911327100003],[120.79725774700012,16.02893606000003],[120.79548263800008,16.028331759000025],[120.79441466200001,16.027433405000068],[120.7931069860001,16.025516808000074],[120.79264556000011,16.023202948000062],[120.79279844000006,16.021311092000076],[120.79323666100004,16.020070617000044],[120.79476457200009,16.018177319000074],[120.79750449900007,16.01591964500005],[120.79836014600005,16.015462736000078],[120.80050936900011,16.01332765500007],[120.80321759100002,16.011364158000053],[120.80661980700006,16.008083047000074],[120.80702706900001,16.007447787000043],[120.80931426600011,16.004926751000028],[120.80993475400008,16.003910975000053],[120.81136234700013,16.002416948000075],[120.81355850800004,16.000785668000052],[120.81763709200006,15.998564913000052],[120.81981899200002,15.997098104000028],[120.82073471500009,15.996695091000053],[120.82337606700003,15.996145739000038],[120.82537590700008,15.995398454000053],[120.82896154100001,15.993358302000043],[120.83185529100001,15.991147746000024],[120.83365643505677,15.989503121564479],[120.83259997737284,15.988094787652166],[120.83234517300001,15.98832711300003]]],[[[120.78976465600012,16.060525823000038],[120.78945567300003,16.058196098000053],[120.79004987200007,16.056894180000025],[120.79114319900009,16.056003390000054],[120.79071537500012,16.055044073000037],[120.78997856800005,16.055455210000048],[120.78909915300007,16.05527248200008],[120.78743539500012,16.053536566000044],[120.78546265300008,16.051846316000027],[120.78255466400005,16.050889212000072],[120.7774564340001,16.047931227000046],[120.77341587800005,16.046789136000026],[120.77234632000012,16.046663506000073],[120.76878112400004,16.045509987000063],[120.76753330500004,16.045224461000032],[120.76521592800009,16.04393388000005],[120.76337562700007,16.04214602600007],[120.76185276000002,16.038942795000025],[120.76038451400007,16.03747668400007],[120.75833148200002,16.036628306000065],[120.75682583300011,16.03625875000006],[120.75402997705297,16.03582609584303],[120.75460314279897,16.03703166331538],[120.75564024323941,16.03874682159225],[120.75713834500003,16.03902241000003],[120.75948040600007,16.040064651000016],[120.76055443400004,16.041182517000035],[120.76100602600002,16.042233271000043],[120.76223007600005,16.043615231000043],[120.76312137500008,16.043992128000074],[120.76343035900004,16.04474591900004],[120.76504144400006,16.04594626200003],[120.76852300500002,16.047848036000055],[120.7675475970001,16.048346245000058],[120.76583630300001,16.048140670000063],[120.76329313000006,16.047341207000045],[120.76144929153621,16.046455214551685],[120.76264904756539,16.04776340598117],[120.76298785123437,16.04806685868108],[120.7642676170001,16.048688870000028],[120.76702470100008,16.049100020000026],[120.7681180280001,16.049100020000026],[120.76966294600004,16.048551820000057],[120.77107568500003,16.04850587800007],[120.77471869500005,16.049347887000067],[120.77620079000008,16.050698316000027],[120.77775460200006,16.051092255000068],[120.77988506500003,16.051987217000033],[120.78165038600004,16.053396821000035],[120.784292853,16.053613915000028],[120.78545055500001,16.05423449100004],[120.78733021900007,16.055967160000026],[120.787186141,16.058472508000023],[120.78770923800006,16.060283790000028],[120.78788873952882,16.060598330212898],[120.78989531154137,16.060907354922634],[120.78976465600012,16.060525823000038]]]]}},{"type":"Feature","properties":{"fid":175,"objectid":9617,"lccode":"06","liqcode":null,"mappers":"DJLBuhay, MITAbigania","project":"LiquePhi","province":"Pangasinan","otherinfo":null,"datemapped":2024,"publishdate":null,"globalid":"{66023685-1332-44EF-8443-E51FD3597412}","st_area(shape)":0.04411879143836554,"st_perimeter(shape)":22.502158641584156,"liqcodepk":null,"creator":null,"createdate":null,"editor":null,"modifydate":null,"codemove":null},"geometry":{"type":"MultiPolygon","coordinates":[[[[120.751036934,16.00879324700003],[120.75475490100007,16.013740585000054],[120.75696532300005,16.015282662000057],[120.75760705800009,16.016344975000038],[120.75888799000006,16.017313380000076],[120.7617070330001,16.01771569200002],[120.76363223900012,16.01850385100005],[120.76676961200009,16.019531879000056],[120.76922959700006,16.020148693000063],[120.77269219700007,16.02056307100003],[120.78004110400002,16.02220352600005],[120.78291939600001,16.022535475000044],[120.78489842500007,16.022344434000047],[120.78625128500005,16.021978722000032],[120.78840316500009,16.020915739000035],[120.79201903600004,16.01803061700002],[120.79926145700006,16.011948962000073],[120.8011323830001,16.010740833000053],[120.80280587700008,16.009421705000022],[120.80396106900002,16.00920785200003],[120.80494410100005,16.007670353000037],[120.80644237700004,16.00626891000007],[120.80716922300009,16.004957631000025],[120.81003972700012,16.00150643700005],[120.81117695700003,16.00053891900006],[120.81364407300009,15.998989874000072],[120.81507984200005,15.998261457000067],[120.81887368700008,15.995919585000022],[120.82478174500011,15.992944372000068],[120.83040049300007,15.989626808000027],[120.83234517300001,15.98832711300003],[120.83259997737284,15.988094787652166],[120.8324384696762,15.987879484322214],[120.83059261943461,15.985867704525582],[120.82893313000011,15.98758699300004],[120.82693908400005,15.988355003000034],[120.82604065500006,15.989095296000075],[120.82472866300009,15.990712962000027],[120.82368944000007,15.991340313000025],[120.82210467900006,15.991795969000062],[120.82062155700008,15.99253624800002],[120.8185680040001,15.994071634000022],[120.81545915400011,15.995154623000074],[120.81399029300007,15.99593601600003],[120.81294925600002,15.997156080000027],[120.80988699400008,15.998994982000054],[120.80831450100005,16.00072026800007],[120.80693120500007,16.002886167000042],[120.80428820200005,16.00503361600005],[120.80379383200011,16.00595676900002],[120.80358745800002,16.008046249000074],[120.8029111830001,16.00908316500005],[120.8011128050001,16.00978124600004],[120.79958690100011,16.009767539000052],[120.79870273300003,16.01001427700004],[120.79615968500002,16.01223288300002],[120.794709839,16.01321525200006],[120.7937591200001,16.013557938000076],[120.79190521800003,16.014700219000076],[120.79027950400005,16.015308730000072],[120.78899702400008,16.016334871000023],[120.78614486800008,16.017648476000033],[120.78421372000004,16.01836238700002],[120.78061881400004,16.01884784600003],[120.77607318900004,16.01879073300006],[120.77061126900004,16.018049737000073],[120.76513512800013,16.016953165000075],[120.76190268399999,16.015929693000032],[120.76057167700003,16.015308297000043],[120.75759853800002,16.013428530000052],[120.75431594699998,16.01057465500003],[120.75315607000005,16.00887490300005],[120.7512926600001,16.006882702000038],[120.75047207593005,16.006330565996105],[120.75032320769482,16.006880073707425],[120.75012628915624,16.00807474636042],[120.751036934,16.00879324700003]]],[[[120.75058282200007,16.024132760000047],[120.75169017100006,16.023952372000053],[120.75311285100008,16.02451698700003],[120.75373268500005,16.024306291000073],[120.75540053600002,16.024480610000072],[120.75648929800002,16.02537889100006],[120.75746239000011,16.025640930000066],[120.75854053100012,16.026651548000075],[120.75990217300013,16.026332769000078],[120.76118564300009,16.026922149000026],[120.76191294300008,16.02677137800003],[120.76309658800005,16.027374463000054],[120.76517412700002,16.02792820400003],[120.76552345000005,16.027416316000025],[120.76483264900004,16.026530733000072],[120.76306136800008,16.026376832000036],[120.76075904800005,16.02485794000006],[120.75873488800005,16.02261087600004],[120.75799245600001,16.02223995500004],[120.75605298900008,16.022568918000044],[120.7554682970001,16.022212541000044],[120.75358538700004,16.02057307700005],[120.75148953900008,16.01990978200007],[120.74996017100013,16.01835229900007],[120.74942665285118,16.018197273763207],[120.74950239274045,16.020111794783944],[120.75010580275162,16.024363144989618],[120.75058282200007,16.024132760000047]]],[[[120.79177807500002,16.054781831000078],[120.78932997400013,16.05395955500006],[120.78773752000005,16.052406357000052],[120.78659665700002,16.050944512000058],[120.78426739600002,16.049870963000046],[120.78134393500011,16.048180682000062],[120.77987032100009,16.04701575100006],[120.77782627500004,16.046216284000025],[120.77525933400013,16.04566807700007],[120.77250224900001,16.04443460400006],[120.76878669200005,16.043398702000044],[120.76663840900005,16.043095309000027],[120.76554443200007,16.04191673400004],[120.76378011700001,16.04072496800006],[120.76282928800002,16.039614313000076],[120.76201867400006,16.037774600000034],[120.75997449600004,16.035758095000066],[120.758548355,16.03481843600002],[120.75779038000009,16.034659843000046],[120.75505619400008,16.034724936000035],[120.75342157111794,16.0345463910248],[120.75402997705297,16.03582609584303],[120.75682583300011,16.03625875000006],[120.75833148200002,16.036628306000065],[120.76038451400007,16.03747668400007],[120.76185276000002,16.038942795000025],[120.76337562700007,16.04214602600007],[120.76521592800009,16.04393388000005],[120.76753330500004,16.045224461000032],[120.76878112400004,16.045509987000063],[120.77234632000012,16.046663506000073],[120.77341587800005,16.046789136000026],[120.7774564340001,16.047931227000046],[120.78255466400005,16.050889212000072],[120.78546265300008,16.051846316000027],[120.78743539500012,16.053536566000044],[120.78909915300007,16.05527248200008],[120.78997856800005,16.055455210000048],[120.79071537500012,16.055044073000037],[120.79114319900009,16.056003390000054],[120.79004987200007,16.056894180000025],[120.78945567300003,16.058196098000053],[120.78976465600012,16.060525823000038],[120.78989531154137,16.060907354922634],[120.79095511915277,16.061070564134784],[120.79100531335295,16.061073468004697],[120.79035199700002,16.058482034000065],[120.79080358800002,16.05724864100006],[120.79234850600005,16.056038081000057],[120.79177807500002,16.054781831000078]]],[[[120.75174191500003,16.027226941000038],[120.75452276800003,16.027747787000063],[120.75604465900007,16.02823999600002],[120.75802374999999,16.02850037000007],[120.75956391500006,16.02814400400007],[120.76146535300006,16.028134866000073],[120.76344284800007,16.02834503100007],[120.76453617500012,16.028957249000026],[120.76601929600008,16.03029133000007],[120.76647564100006,16.031625402000028],[120.7676925620001,16.03363563100004],[120.76897045700002,16.03508929800006],[120.77155522400007,16.036631210000053],[120.77482332000011,16.038058895000056],[120.78082473400003,16.04022895800006],[120.78293414100006,16.041827936000058],[120.78438993000009,16.042170572000032],[120.7859051380001,16.041970701000025],[120.78851961500003,16.04202780700007],[120.79036163300009,16.042570314000045],[120.79137177200005,16.043626771000046],[120.79132357300011,16.04634943900004],[120.79145538400007,16.047871958000027],[120.79226891200007,16.049523149000034],[120.79376109700003,16.049156711000027],[120.79416904200002,16.04835728000006],[120.7948851210001,16.04554086800004],[120.79640187700011,16.043005907000065],[120.79912473900004,16.039555973000063],[120.80051533400001,16.03644504200002],[120.8016799710001,16.035716153000063],[120.80363845200007,16.03613646700006],[120.80630878700003,16.037441092000048],[120.80786080300004,16.038687074000045],[120.80964870700008,16.040649355000028],[120.81035045300007,16.04296904200004],[120.8122459120001,16.044229880000046],[120.81395134600007,16.046739003000027],[120.8149317750001,16.047338601000035],[120.81691967900008,16.04799894600006],[120.81864587300005,16.050088398000067],[120.82185419700012,16.051735603000054],[120.82317351324643,16.05286107132774],[120.82388994075666,16.05235847000898],[120.8216107290001,16.050698918000016],[120.81918639600008,16.048533538000076],[120.81792194000002,16.04700770800003],[120.81484161100002,16.044814877000025],[120.81230319100008,16.041708326000045],[120.81160916600004,16.04063929600005],[120.80898518200001,16.037185466000043],[120.80579076700009,16.035358019000054],[120.80363219900006,16.034445508000026],[120.79824205900002,16.03264422900002],[120.79694931300003,16.032913835000045],[120.7971772530001,16.03392346100003],[120.79885102900005,16.035716486000073],[120.79851511600009,16.03846291100006],[120.7971629660001,16.040271017000062],[120.79431959000009,16.042327204000056],[120.79388690700011,16.043192221000027],[120.79383495400009,16.04428773500007],[120.79326877200005,16.047408753000074],[120.7921747900001,16.047082902000056],[120.79241371600006,16.044368390000038],[120.79218554300007,16.042796843000076],[120.79139798200005,16.041916549000067],[120.78319617900003,16.040362748000064],[120.77853765600003,16.038261216000024],[120.77658868300011,16.037484557000028],[120.77373652600012,16.036753581000024],[120.77140726500011,16.03593123000007],[120.77007625800002,16.035245935000034],[120.76823956000008,16.033905852000032],[120.767204922,16.03224568100006],[120.76639205700008,16.030080101000063],[120.76473482900009,16.028523733000043],[120.76365295500013,16.027972885000054],[120.76204129000007,16.027634886000044],[120.76090393200003,16.027817189000075],[120.75954090000003,16.027374463000054],[120.7578966550001,16.027694489000055],[120.75692643700008,16.026372236000046],[120.7556655320001,16.026244019000046],[120.75533753400009,16.02543533100004],[120.75421672000004,16.025084079000067],[120.75301302600006,16.02543533100004],[120.75191337200009,16.024902299000075],[120.75081686500005,16.025092666000035],[120.75033762725063,16.025360937602315],[120.75080636216241,16.0272577374671],[120.75174191500003,16.027226941000038]]],[[[120.82574827200007,16.050093001000047],[120.82439346600007,16.047824863000073],[120.82249681300004,16.045104354000046],[120.82084256200005,16.04408102700006],[120.81580375200008,16.039987663000037],[120.81471978900005,16.03852809400007],[120.81438808000007,16.03667774000007],[120.81359808400009,16.034541898000043],[120.81288476400005,16.03342974500004],[120.81120980000003,16.03175305800005],[120.80992830900003,16.030028013000045],[120.8080862830001,16.028372143000063],[120.80522433700004,16.026998196000022],[120.80284578800003,16.026426995000058],[120.801232635,16.02624193800005],[120.79869482700009,16.025183622000046],[120.79775180200009,16.023980751000064],[120.7973217770001,16.02246200100006],[120.79728374800004,16.020415108000062],[120.7975227810001,16.019652001000054],[120.79880489800007,16.01838647000005],[120.80051619200003,16.01736300500005],[120.80236058700008,16.01542571800007],[120.80445216800001,16.01197145200007],[120.80656664300012,16.00982809600003],[120.80730432500002,16.008663342000027],[120.80978439200011,16.00540837400007],[120.8106875750001,16.00387764500004],[120.81199481300007,16.002621067000064],[120.81422900200006,16.001044622000055],[120.8181507180001,15.999171149000064],[120.81974317200002,15.998120169000059],[120.82209620100002,15.997023488000018],[120.8243066230001,15.996315211000027],[120.82570893300012,15.996132430000047],[120.82770544300003,15.995241368000055],[120.829083985,15.994373151000048],[120.83413999192129,15.99014773007511],[120.83365643505677,15.989503121564479],[120.83185529100001,15.991147746000024],[120.82896154100001,15.993358302000043],[120.82537590700008,15.995398454000053],[120.82337606700003,15.996145739000038],[120.82073471500009,15.996695091000053],[120.81981899200002,15.997098104000028],[120.81763709200006,15.998564913000052],[120.81355850800004,16.000785668000052],[120.81136234700013,16.002416948000075],[120.80993475400008,16.003910975000053],[120.80931426600011,16.004926751000028],[120.80702706900001,16.007447787000043],[120.80661980700006,16.008083047000074],[120.80321759100002,16.011364158000053],[120.80050936900011,16.01332765500007],[120.79836014600005,16.015462736000078],[120.79750449900007,16.01591964500005],[120.79476457200009,16.018177319000074],[120.79323666100004,16.020070617000044],[120.79279844000006,16.021311092000076],[120.79264556000011,16.023202948000062],[120.7931069860001,16.025516808000074],[120.79441466200001,16.027433405000068],[120.79548263800008,16.028331759000025],[120.79725774700012,16.02893606000003],[120.79855721300011,16.02911327100003],[120.8003423780001,16.029785215000057],[120.80238719300007,16.02975678900003],[120.80427912400012,16.029939540000044],[120.80581928800007,16.030451241000033],[120.806884093,16.03111827700008],[120.80832918600004,16.03259854200007],[120.81034471000008,16.034279817000026],[120.81075351900006,16.03499252800003],[120.8144993520001,16.04009107300004],[120.81701875700003,16.042503242000066],[120.82076459000008,16.045417908000044],[120.82211461000009,16.046030074000043],[120.82372132500007,16.048807638000028],[120.8255558149022,16.05114610254294],[120.8261978691565,16.05059514173796],[120.82574827200007,16.050093001000047]]],[[[120.78770923800006,16.060283790000028],[120.787186141,16.058472508000023],[120.78733021900007,16.055967160000026],[120.78545055500001,16.05423449100004],[120.784292853,16.053613915000028],[120.78165038600004,16.053396821000035],[120.77988506500003,16.051987217000033],[120.77775460200006,16.051092255000068],[120.77620079000008,16.050698316000027],[120.77471869500005,16.049347887000067],[120.77107568500003,16.04850587800007],[120.77033624800004,16.04808906400007],[120.76852300500002,16.047848036000055],[120.76504144400006,16.04594626200003],[120.76343035900004,16.04474591900004],[120.76312137500008,16.043992128000074],[120.76223007600005,16.043615231000043],[120.76100602600002,16.042233271000043],[120.76055443400004,16.041182517000035],[120.75948040600007,16.040064651000016],[120.75713834500003,16.03902241000003],[120.75564024323941,16.03874682159225],[120.756916952429,16.040858203684024],[120.75960755367306,16.04444697594676],[120.76264904756539,16.04776340598117],[120.76473108846334,16.049628184298008],[120.76610676700011,16.05002479900003],[120.76779429300008,16.050001957000063],[120.7698383390001,16.04936239400007],[120.77112181000008,16.049339552000045],[120.77356991100011,16.05105266400005],[120.77523366900006,16.051692222000046],[120.77646960300001,16.052902809000045],[120.77801452200003,16.05349667900003],[120.77920292000012,16.05367940700006],[120.77974958400011,16.05447884400007],[120.78257797200001,16.05644316100006],[120.7843130340001,16.058453139000047],[120.78478839400009,16.058064849000065],[120.78433680200011,16.05696849800006],[120.78236406100007,16.054958505000055],[120.78260174000002,16.054593049000054],[120.78414665900004,16.05516407300007],[120.785382593,16.05676293100003],[120.78585795300013,16.05920687500003],[120.78626525012334,16.06033215775742],[120.78642784301397,16.06037333076406],[120.78788873952882,16.060598330212898],[120.78770923800006,16.060283790000028]]]]}},{"type":"Feature","properties":{"fid":176,"objectid":9618,"lccode":"05","liqcode":null,"mappers":"DJLBuhay, MITAbigania","project":"LiquePhi","province":"Pangasinan","otherinfo":null,"datemapped":2024,"publishdate":null,"globalid":"{5ACB73C5-6107-4512-9787-F18573022798}","st_area(shape)":0.06533832536059311,"st_perimeter(shape)":23.271340040578984,"liqcodepk":null,"creator":null,"createdate":null,"editor":null,"modifydate":null,"codemove":null},"geometry":{"type":"MultiPolygon","coordinates":[[[[120.82210467900006,15.991795969000062],[120.82368944000007,15.991340313000025],[120.82472866300009,15.990712962000027],[120.82604065500006,15.989095296000075],[120.82693908400005,15.988355003000034],[120.82893313000011,15.98758699300004],[120.83059261943461,15.985867704525582],[120.82939646505825,15.984563996496362],[120.8260332546062,15.981552858235153],[120.8223812293464,15.978875054156854],[120.81847555591838,15.976556358465965],[120.81435383807064,15.974619087287499],[120.81005575490181,15.973081884291501],[120.8056226793158,15.971959541651945],[120.80109728034351,15.97126285804499],[120.79652311313133,15.970998535037063],[120.79194420051043,15.971169112845985],[120.78740461013767,15.971772946082435],[120.78294803123826,15.97280421969751],[120.77861735498308,15.97425300497892],[120.77445426249945,15.976105355056541],[120.7704988244415,15.978343439001808],[120.76678911593937,15.980945713237396],[120.76336085060271,15.983887128618226],[120.76024703707705,15.987139371204236],[120.75747766144117,15.990671134423668],[120.75507939849261,15.994448420025355],[120.753075354699,15.998434864942451],[120.75148484529646,16.002592090941054],[120.75047207593005,16.006330565996105],[120.7512926600001,16.006882702000038],[120.75315607000005,16.00887490300005],[120.75431594699998,16.01057465500003],[120.75759853800002,16.013428530000052],[120.76057167700003,16.015308297000043],[120.76190268399999,16.015929693000032],[120.76513512800013,16.016953165000075],[120.77061126900004,16.018049737000073],[120.77607318900004,16.01879073300006],[120.78061881400004,16.01884784600003],[120.78421372000004,16.01836238700002],[120.78614486800008,16.017648476000033],[120.78899702400008,16.016334871000023],[120.79027950400005,16.015308730000072],[120.79190521800003,16.014700219000076],[120.7937591200001,16.013557938000076],[120.794709839,16.01321525200006],[120.79615968500002,16.01223288300002],[120.79870273300003,16.01001427700004],[120.79958690100011,16.009767539000052],[120.79840138400004,16.00885592500003],[120.79727478200006,16.00886963300007],[120.79626226600008,16.00843098500007],[120.79582018200007,16.007498855000048],[120.79456523300009,16.007512563000034],[120.79358123900012,16.007046496000047],[120.79302506800002,16.006155483000043],[120.79199829200002,16.00592244800003],[120.79065777800008,16.00425007200005],[120.789844914,16.00274218100003],[120.78967378400012,15.998835318000033],[120.7908003860001,15.997957977000056],[120.79131377400006,15.994763874000057],[120.79335658900003,15.993568316000054],[120.793713109,15.992860028000054],[120.79471136300003,15.992585851000062],[120.79540063500008,15.99304281200006],[120.79632758600007,15.992517307000071],[120.79768236000008,15.992654395000047],[120.79941742200005,15.991877559000041],[120.79994031700004,15.992425914000025],[120.80293627000003,15.993439225000035],[120.80357800600007,15.993123923000043],[120.80429104500003,15.993713401000035],[120.80376696100006,15.995099125000017],[120.8035854860001,15.996910456000027],[120.80377765700007,15.99836062200006],[120.80424826300009,15.999196836000067],[120.8035494840001,15.999676630000067],[120.80138184500002,15.998183554000036],[120.80003538900009,15.998320639000042],[120.79857696300009,15.999872923000057],[120.79863307900007,16.001816266000045],[120.79923263400008,16.002372992000062],[120.80096294500005,16.002784485000067],[120.80329494400007,16.003898548000052],[120.80367737100005,16.004633471000034],[120.80379383200011,16.00595676900002],[120.80428820200005,16.00503361600005],[120.80693120500007,16.002886167000042],[120.80831450100005,16.00072026800007],[120.80988699400008,15.998994982000054],[120.81294925600002,15.997156080000027],[120.81399029300007,15.99593601600003],[120.81545915400011,15.995154623000074],[120.8185680040001,15.994071634000022],[120.82062155700008,15.99253624800002],[120.82210467900006,15.991795969000062]]],[[[120.82209620100002,15.997023488000018],[120.81974317200002,15.998120169000059],[120.8181507180001,15.999171149000064],[120.81422900200006,16.001044622000055],[120.81199481300007,16.002621067000064],[120.8106875750001,16.00387764500004],[120.80978439200011,16.00540837400007],[120.80730432500002,16.008663342000027],[120.80656664300012,16.00982809600003],[120.80445216800001,16.01197145200007],[120.80236058700008,16.01542571800007],[120.80051619200003,16.01736300500005],[120.79880489800007,16.01838647000005],[120.7975227810001,16.019652001000054],[120.79728374800004,16.020415108000062],[120.7973217770001,16.02246200100006],[120.79775180200009,16.023980751000064],[120.79869482700009,16.025183622000046],[120.801232635,16.02624193800005],[120.80284578800003,16.026426995000058],[120.80522433700004,16.026998196000022],[120.8080862830001,16.028372143000063],[120.80992830900003,16.030028013000045],[120.81120980000003,16.03175305800005],[120.81288476400005,16.03342974500004],[120.81359808400009,16.034541898000043],[120.81438808000007,16.03667774000007],[120.81471978900005,16.03852809400007],[120.81580375200008,16.039987663000037],[120.82084256200005,16.04408102700006],[120.82249681300004,16.045104354000046],[120.82439346600007,16.047824863000073],[120.82574827200007,16.050093001000047],[120.8261978691565,16.05059514173796],[120.82780618356746,16.049214988351572],[120.82621238100012,16.04810357300005],[120.82436798700006,16.04439404000004],[120.8233412100001,16.042712851000033],[120.82280880800009,16.04037378000004],[120.82180104500003,16.039533170000023],[120.82220034700003,16.038802202000053],[120.82218133300012,16.037742293000065],[120.82062215400005,16.037029592000067],[120.82018482300008,16.035585909000076],[120.82024186600006,16.034690455000028],[120.82086934100006,16.033557426000073],[120.82524264800008,16.032022343000047],[120.82567997900003,16.031382722000046],[120.82537574900005,16.029737973000064],[120.8265166110001,16.029281095000044],[120.82664103700007,16.02811245400005],[120.82626074900008,16.026559054000074],[120.82637958900013,16.024617288000062],[120.82711639600006,16.023543597000067],[120.82801957900006,16.022972482000053],[120.8280187470001,16.02166022800003],[120.82936876800011,16.021020573000044],[120.82917862400006,16.01930263400004],[120.83011032900004,16.018918837000054],[120.83071878900013,16.017803994000076],[120.83079484600012,16.01637844800007],[120.83172655100007,16.015830159000075],[120.833570946,16.01416700500005],[120.83330474400009,16.01275970900002],[120.8336125610001,16.01191402000006],[120.83502134400008,16.01106683200004],[120.8352019800001,16.01026265200005],[120.83652348000011,16.009376222000068],[120.83682771000007,16.00724694800005],[120.83750272000009,16.006333089000066],[120.83755976300006,16.00551975200005],[120.83841541000004,16.004733827000052],[120.8379780800001,16.00409411800007],[120.83674214500002,16.003637182000034],[120.83653298700006,16.00278727800003],[120.83675165200009,16.00157181800006],[120.83750272000009,16.00133420900005],[120.83794005100003,15.999415044000042],[120.8372460260001,15.998537705000047],[120.83605762800006,15.997642085000049],[120.83406111800002,15.998062479000051],[120.83193388400004,15.99979202400004],[120.830484038,16.000077615000066],[120.82891535200008,16.002190973000044],[120.82775072100004,16.003207661000033],[120.82665739400012,16.00496686300005],[120.82582551500002,16.005823611000043],[120.82476784000005,16.00597211400003],[120.82332987800011,16.00738859600006],[120.82242669500012,16.007491404000064],[120.82147597600009,16.00830244900004],[120.8205965610001,16.007936908000033],[120.81963395800005,16.008530912000023],[120.81865654300009,16.009865128000058],[120.818300023,16.010996007000067],[120.8163272810001,16.012572374000058],[120.81528149100006,16.012309647000052],[120.81450903100006,16.01252668200004],[120.8121203500001,16.01222968600007],[120.81113397900005,16.011749923000025],[120.80970790100002,16.009602397000037],[120.80988616100001,16.008254470000054],[120.81169698000006,16.006997840000054],[120.81301376500006,16.005566301000044],[120.81330533000006,16.004301170000076],[120.81299283000011,16.003355366000047],[120.81607299800011,16.002510414000028],[120.81720922600003,16.002671253000074],[120.81773188900002,16.00201586100008],[120.81852015900007,16.002163244000034],[120.8201524320001,16.001127714000063],[120.8214520900001,16.000944722000046],[120.8221239930001,16.000301397000044],[120.823574332,16.00093358500004],[120.82565871800011,15.999957362000034],[120.82730249200006,15.998732268000019],[120.82746277200012,15.998328994000074],[120.82929845900003,15.99706290700004],[120.82971115600004,15.99636761100004],[120.83172240300007,15.995148738000072],[120.83265270200002,15.995367253000042],[120.83439996600008,15.99413271600002],[120.83421421000003,15.992669768000042],[120.8353815107534,15.991883112275374],[120.83512996504282,15.991467405272314],[120.83413999192129,15.99014773007511],[120.829083985,15.994373151000048],[120.82770544300003,15.995241368000055],[120.82570893300012,15.996132430000047],[120.8243066230001,15.996315211000027],[120.82209620100002,15.997023488000018]]],[[[120.82185419700012,16.051735603000054],[120.81864587300005,16.050088398000067],[120.81691967900008,16.04799894600006],[120.8149317750001,16.047338601000035],[120.81395134600007,16.046739003000027],[120.8122459120001,16.044229880000046],[120.81035045300007,16.04296904200004],[120.80964870700008,16.040649355000028],[120.80786080300004,16.038687074000045],[120.80630878700003,16.037441092000048],[120.80363845200007,16.03613646700006],[120.8016799710001,16.035716153000063],[120.80051533400001,16.03644504200002],[120.79912473900004,16.039555973000063],[120.79640187700011,16.043005907000065],[120.7948851210001,16.04554086800004],[120.79416904200002,16.04835728000006],[120.79376109700003,16.049156711000027],[120.79226891200007,16.049523149000034],[120.79145538400007,16.047871958000027],[120.79132357300011,16.04634943900004],[120.79137177200005,16.043626771000046],[120.79036163300009,16.042570314000045],[120.78851961500003,16.04202780700007],[120.7859051380001,16.041970701000025],[120.78438993000009,16.042170572000032],[120.78293414100006,16.041827936000058],[120.78082473400003,16.04022895800006],[120.77482332000011,16.038058895000056],[120.77155522400007,16.036631210000053],[120.76897045700002,16.03508929800006],[120.7676925620001,16.03363563100004],[120.76647564100006,16.031625402000028],[120.76601929600008,16.03029133000007],[120.76453617500012,16.028957249000026],[120.76344284800007,16.02834503100007],[120.76146535300006,16.028134866000073],[120.75956391500006,16.02814400400007],[120.75802374999999,16.02850037000007],[120.75604465900007,16.02823999600002],[120.75452276800003,16.027747787000063],[120.75174191500003,16.027226941000038],[120.75080636216241,16.0272577374671],[120.75119111181395,16.0288146595073],[120.7526883900082,16.033004216995778],[120.75342157111794,16.0345463910248],[120.75505619400008,16.034724936000035],[120.75779038000009,16.034659843000046],[120.758548355,16.03481843600002],[120.75997449600004,16.035758095000066],[120.76201867400006,16.037774600000034],[120.76282928800002,16.039614313000076],[120.76378011700001,16.04072496800006],[120.76554443200007,16.04191673400004],[120.76663840900005,16.043095309000027],[120.76878669200005,16.043398702000044],[120.77250224900001,16.04443460400006],[120.77525933400013,16.04566807700007],[120.77782627500004,16.046216284000025],[120.77987032100009,16.04701575100006],[120.78134393500011,16.048180682000062],[120.78426739600002,16.049870963000046],[120.78659665700002,16.050944512000058],[120.78773752000005,16.052406357000052],[120.78932997400013,16.05395955500006],[120.79177807500002,16.054781831000078],[120.79234850600005,16.056038081000057],[120.79080358800002,16.05724864100006],[120.79035199700002,16.058482034000065],[120.79100531335295,16.061073468004697],[120.79553130189701,16.06133526025986],[120.80011229095959,16.06116486458275],[120.80465393888701,16.060561015493565],[120.80911247738334,16.059529528650437],[120.81344493997133,16.058080340959922],[120.81760957687588,16.056227414756542],[120.82156625809161,16.053988603109122],[120.82317351324643,16.05286107132774],[120.82185419700012,16.051735603000054]]],[[[120.78585795300013,16.05920687500003],[120.785382593,16.05676293100003],[120.78414665900004,16.05516407300007],[120.78260174000002,16.054593049000054],[120.78236406100007,16.054958505000055],[120.78433680200011,16.05696849800006],[120.78478839400009,16.058064849000065],[120.7843130340001,16.058453139000047],[120.78257797200001,16.05644316100006],[120.77974958400011,16.05447884400007],[120.77920292000012,16.05367940700006],[120.77801452200003,16.05349667900003],[120.77646960300001,16.052902809000045],[120.77523366900006,16.051692222000046],[120.77356991100011,16.05105266400005],[120.77112181000008,16.049339552000045],[120.7698383390001,16.04936239400007],[120.76779429300008,16.050001957000063],[120.76610676700011,16.05002479900003],[120.76473108846334,16.049628184298008],[120.76601215031576,16.050775541138343],[120.76966447503685,16.05345435848986],[120.77357084358115,16.055774044891674],[120.77769362548727,16.05771224614629],[120.78199310076553,16.05925028284128],[120.78626525012334,16.06033215775742],[120.78585795300013,16.05920687500003]]]]}}]}