{"type":"FeatureCollection","features":[{"type":"Feature","properties":{"fid":192,"objectid":2053,"lccode":"01","liqcode":null,"mappers":"DJLBuhay, MJVReyes, MITAbigania, KLPapiona, KMVitto","project":"MELP","province":"Lanao del Sur","otherinfo":null,"datemapped":2018,"publishdate":null,"globalid":"{22B1851D-C2EE-4AE5-B511-229F233C1746}","st_area(shape)":0.021864599324414365,"st_perimeter(shape)":5.17999445853216,"liqcodepk":null,"creator":null,"createdate":null,"editor":null,"modifydate":null,"codemove":null},"geometry":{"type":"Polygon","coordinates":[]}},{"type":"Feature","properties":{"fid":193,"objectid":2144,"lccode":"01","liqcode":null,"mappers":"DJLBuhay, MJVReyes, MITAbigania, KLPapiona, KMVitto","project":"MELP","province":"Lanao del Norte","otherinfo":null,"datemapped":2018,"publishdate":null,"globalid":"{8CF0E7EB-3CCD-4F04-8515-11CAD40BD1AE}","st_area(shape)":0.03055360554823452,"st_perimeter(shape)":7.260406778623517,"liqcodepk":null,"creator":null,"createdate":null,"editor":null,"modifydate":null,"codemove":null},"geometry":{"type":"Polygon","coordinates":[[[123.82007270800011,7.852244237000036],[123.81905281800005,7.852731451000067],[123.8189876880001,7.853834910000046],[123.81777975400009,7.853655742000057],[123.81777254600003,7.852781572000025],[123.8170347890001,7.851871553000024],[123.81596427000011,7.852251286000071],[123.81634036300011,7.853369089000066],[123.81547237300002,7.853712999000038],[123.81528427100011,7.855110229000045],[123.814363092,7.8568145490000365],[123.81312150400004,7.856872826000026],[123.81167486000004,7.857266874000063],[123.81276703400012,7.858449170000029],[123.81390985900008,7.858972265000032],[123.8139170720001,7.859688787000038],[123.81465482600004,7.860670441000025],[123.81485613000005,7.862329816000055],[123.8145589840001,7.8639896900000394],[123.81397118500003,7.864414221000062],[123.81217014000003,7.863962766000044],[123.80984104000005,7.864679213000046],[123.80841610900005,7.864600356000037],[123.80743606400006,7.864980350000054],[123.80650164500001,7.864625158000024],[123.80542877200003,7.865990304000036],[123.80270908700004,7.866520444000059],[123.80203637600006,7.867451887000072],[123.79988085500008,7.868763033000051],[123.79981814200006,7.869663439000021],[123.79926599300006,7.870274840000035],[123.79722622600002,7.870783499000027],[123.79576513400004,7.870511186000044],[123.79508691700003,7.871276058000035],[123.79217926600006,7.872790635000058],[123.79158105900001,7.874466154000062],[123.7905649820001,7.874413151000055],[123.78982817800012,7.874804770000025],[123.78650656800005,7.874537649000048],[123.78575132700009,7.874134077000065],[123.78354090700009,7.87428704900003],[123.78333843100008,7.87492446700003],[123.78235471200001,7.875225367000042],[123.78131314600012,7.874867089000077],[123.77957718100004,7.875053329000027],[123.77957722700012,7.873462707000044],[123.78057544100011,7.872144378000028],[123.78236928400008,7.871513908000054],[123.7843587310001,7.871437823000066],[123.784409062,7.870611174000029],[123.78701303300012,7.869522163000054],[123.7886188340001,7.868175178000058],[123.78711434200011,7.867974513000037],[123.78652120800008,7.868461721000074],[123.78330966100009,7.869221125000023],[123.78044532000003,7.869493316000049],[123.77924459600001,7.870138135000048],[123.77771115300004,7.870567993000067],[123.77504934900003,7.870524928000062],[123.77332784500004,7.870911790000035],[123.77214161400003,7.870610825000028],[123.77075284400006,7.870696766000039],[123.76978360800001,7.870424468000065],[123.76687441100012,7.871216396000023],[123.76612358800003,7.871785717000025],[123.76133522200007,7.8721295010000745],[123.76039489700007,7.872616694000044],[123.75770414899999,7.87297486700004],[123.75706761300013,7.873605367000039],[123.75582349700005,7.874020900000063],[123.75427560100003,7.873949206000019],[123.75253961700002,7.874808952000024],[123.75138230600011,7.874966548000033],[123.75060107900003,7.876542812000024],[123.74895189000004,7.877517193000072],[123.74795034600005,7.877680875000066],[123.74692655900003,7.8790934120000315],[123.74540756400008,7.880153770000047],[123.74378921200004,7.880943016000059],[123.7428917100001,7.881105972000058],[123.74245638600009,7.881772941000065],[123.74174743000003,7.885455629000035],[123.74122662400009,7.886100443000032],[123.74052512559507,7.886189508169555],[123.74222271717764,7.888463334499365],[123.74521775240358,7.8917464313123],[123.74852115401467,7.894720980913739],[123.75210110575118,7.897358330099128],[123.75592312538609,7.899633073601481],[123.75995039701125,7.90152329899798],[123.76414412589303,7.903010797949883],[123.76846391246873,7.9040812417328725],[123.77286814186745,7.904724319360423],[123.77731438518602,7.904933836964686],[123.78175980863638,7.904707777474506],[123.7861615866028,7.90404832001463],[123.79047731460984,7.902961818840255],[123.79466541820292,7.901458742012857],[123.79868555378383,7.89955357041304],[123.80249899752377,7.897264658069839],[123.806069018593,7.894614055160004],[123.80936123310153,7.891627295391511],[123.8123439353342,7.888333149829221],[123.81498840308677,7.884763349544256],[123.81726917416267,7.880952279768682],[123.81916429137263,7.87693664851112],[123.82065551368643,7.872755132833821],[123.82172849151497,7.868448006205646],[123.82237290445107,7.864056750526043],[123.82258256015895,7.859623656560903],[123.82235545348092,7.85519141664076],[123.82189233884664,7.8521196903271555],[123.82007270800011,7.852244237000036]]]}}]}