{"type":"FeatureCollection","features":[{"type":"Feature","properties":{"fid":207,"objectid":7271,"lccode":"01","liqcode":null,"mappers":"DJLBuhay, MJVReyes, MITAbigania, KLPapiona, KMVitto","project":"MELP","province":"Zamboanga del Norte","otherinfo":null,"datemapped":2020,"publishdate":2021,"globalid":"{6B0290BE-0A77-4263-894C-1C10E652B59E}","st_area(shape)":0.033021563613966895,"st_perimeter(shape)":18.189103020785044,"liqcodepk":null,"creator":null,"createdate":null,"editor":null,"modifydate":null,"codemove":null},"geometry":{"type":"MultiPolygon","coordinates":[[[[122.54836347600009,7.892453211000032],[122.54999898600009,7.893285824000032],[122.55027631200005,7.894300823000039],[122.55122034500006,7.895847885000024],[122.55354805400009,7.896352954000068],[122.55493946200012,7.897048472000051],[122.55570603800005,7.898461290000057],[122.55575291800004,7.899514358000035],[122.5551512850001,7.9009735860000205],[122.55611050500009,7.901812234000033],[122.55812690400013,7.90167077700005],[122.55896292800003,7.901970255000037],[122.55881103600008,7.90373509800003],[122.55814952000003,7.905080588000033],[122.55934866000005,7.906039145000019],[122.55991765700001,7.9070568650000705],[122.56072517100006,7.909510771000045],[122.56129446100012,7.910259253000049],[122.56228409700009,7.910738937000075],[122.56279322500005,7.911636930000045],[122.56104136100008,7.91353331700003],[122.5606805220001,7.914274837000049],[122.55967183400004,7.914776351000056],[122.55916676500011,7.9157091750000745],[122.5583985180001,7.915828024000062],[122.55731921900009,7.915013184000032],[122.55616699000008,7.915059825000071],[122.55535148100012,7.914484583000049],[122.55362290900007,7.914769924000041],[122.55247132700003,7.914218250000031],[122.55239818000005,7.915271189000067],[122.55345382700011,7.915750964000039],[122.55400508900006,7.916517385000076],[122.55554076600004,7.917045533000022],[122.55637920900007,7.918625953000059],[122.5589463020001,7.919873151000048],[122.55925703000003,7.921117956000046],[122.56006187900005,7.92270790600003],[122.56021864500009,7.9242732400000495],[122.560000564,7.926197161000061],[122.56190129800005,7.926586866000037],[122.56253543800004,7.926185471000052],[122.56374515200001,7.926287254000044],[122.56462458700001,7.925455332000069],[122.56626726400009,7.924710359000075],[122.56739034900009,7.925013073000058],[122.56944814200006,7.9267239670000444],[122.56941785900005,7.928145512000072],[122.570670328,7.928692460000037],[122.57048210900005,7.9296399830000714],[122.56865291600002,7.929681171000025],[122.56776401600007,7.931001310000054],[122.56418703800013,7.930652958000053],[122.56240139899998,7.930363898000055],[122.5601390370001,7.931424106000067],[122.56061409100005,7.932187328000057],[122.56139163800002,7.9318418480000314],[122.56461810900011,7.931615484000075],[122.56663420200003,7.9319047740000315],[122.56812259500009,7.93257522700003],[122.56872214000009,7.933126290000074],[122.57054667700005,7.9329606510000295],[122.5713877610001,7.932076024000027],[122.57172479300004,7.931143012000062],[122.57338365600005,7.928679692000061],[122.57403222100005,7.928249575000051],[122.57508834600003,7.928322450000054],[122.5761911080001,7.92973557800002],[122.579095057,7.930336829000055],[122.57967058600002,7.930911786000025],[122.58094305200005,7.9306976770000706],[122.58192663900002,7.9312969730000304],[122.58367850200013,7.931777374000035],[122.5867271530001,7.931732547000022],[122.58720753400007,7.931445835000034],[122.58726014800006,7.926826952000058],[122.58784808400003,7.925350621000063],[122.5888554940001,7.925368658000026],[122.59073609500001,7.926729865000026],[122.59162661200004,7.926783716000047],[122.59256088700012,7.926272153000069],[122.5936555090001,7.926254076000019],[122.59517335800001,7.925470573000043],[122.59597988700013,7.9254905010000725],[122.59624939000003,7.924820657000054],[122.59498561700002,7.92314446000006],[122.59564261700008,7.9218093800000675],[122.59550095100008,7.919392076000066],[122.59730107000006,7.919585277000067],[122.59854863300006,7.920256586000049],[122.59941315100002,7.919874500000047],[122.5987428200001,7.918031064000048],[122.59744748700005,7.917120387000068],[122.59595952300003,7.916831760000039],[122.59480866800006,7.915466500000034],[122.59478578700009,7.914317725000047],[122.59423447300004,7.913527422000072],[122.59320304000006,7.912784515000055],[122.59138055300004,7.910963877000027],[122.59097350600008,7.909934388000068],[122.58929465900007,7.9085207320000555],[122.58807124500005,7.9077536920000275],[122.58665552300009,7.907273647000067],[122.58314349800003,7.904418221000072],[122.58230420000008,7.903609667000067],[122.57966542300007,7.900082987000077],[122.57877816500002,7.89924446300006],[122.57695504500009,7.898165668000047],[122.57642835000003,7.8968249250000335],[122.57568482800002,7.8962737280000415],[122.57350083100005,7.896032184000036],[122.57270980200008,7.89500228700007],[122.57244781500003,7.893015638000068],[122.57206451500008,7.8922972770000674],[122.56997756600003,7.891074590000072],[122.56873073400004,7.889828828000075],[122.56672988600008,7.888518981000061],[122.56678956400003,7.886931016000065],[122.56561358600004,7.886810136000063],[122.56439105800008,7.885301132000053],[122.56311915300013,7.885108348000073],[122.56242382500011,7.884413586000052],[122.56225686800009,7.883408256000051],[122.5603853780001,7.8827840570000385],[122.55995455900008,7.881634855000073],[122.55857200392998,7.880488648682034],[122.55808790739762,7.880845849961872],[122.55478658713793,7.8838229615363025],[122.55179377224812,7.887108360131366],[122.54913828570668,7.890670412375212],[122.54833632006776,7.892001238679177],[122.54836347600009,7.892453211000032]],[[122.56711872200002,7.909279722000065],[122.5692075390001,7.9087793040000625],[122.56951916100003,7.909186474000023],[122.5691813750001,7.910861385000033],[122.57222890500009,7.911750013000074],[122.57167598400008,7.912563144000044],[122.56994817200008,7.912130586000047],[122.5690349670001,7.913158732000057],[122.56829078000011,7.913229760000037],[122.56728188000011,7.913946683000061],[122.56615430800002,7.913371138000058],[122.56663663000006,7.911217735000037],[122.56524523000007,7.910450456000036],[122.56524618300013,7.909541031000061],[122.56577470800006,7.909110800000065],[122.56711872200002,7.909279722000065]],[[122.57847668600003,7.9246881850000355],[122.57998910300012,7.924546118000026],[122.58030280800006,7.922919038000032],[122.58167075900009,7.923207601000058],[122.58157329200003,7.924643441000055],[122.58003577800002,7.925862441000048],[122.57876352100006,7.925885089000078],[122.57847668600003,7.9246881850000355]]],[[[122.54336001900003,7.906297751000064],[122.545136618,7.905964639000047],[122.54540136000003,7.905318757000033],[122.54465834000008,7.90433672800003],[122.54396164800005,7.904886409000028],[122.54286049428046,7.904933998360564],[122.5424357748931,7.906616721648592],[122.54336001900003,7.906297751000064]]],[[[122.54249609100007,7.923261165000041],[122.54420667200009,7.924371470000042],[122.54454149400009,7.925496648000033],[122.54571704600005,7.926096236000033],[122.54614946400011,7.925785589000043],[122.54588709600011,7.924253643000043],[122.54823877600006,7.9249263000000365],[122.54888530100004,7.926386865000042],[122.54984596800013,7.925933192000057],[122.54910993500005,7.924033579000023],[122.55044971100006,7.922583335000072],[122.55172262700012,7.921938536000029],[122.55097912400005,7.9213633630000695],[122.55011417300011,7.922104329000034],[122.54888993900012,7.922126938000078],[122.5480487000001,7.9231311800000395],[122.54550405300007,7.923319870000061],[122.5449285850001,7.922744870000031],[122.54478608500006,7.921356648000027],[122.54371270600006,7.919537825000022],[122.5435981830001,7.918905890000076],[122.5440416020001,7.917317278000041],[122.54233240600001,7.917430280000076],[122.54151943760807,7.916894039140773],[122.54167972353933,7.920221829724676],[122.54213415408897,7.9232995405969415],[122.54249609100007,7.923261165000041]]]]}},{"type":"Feature","properties":{"fid":208,"objectid":7461,"lccode":"01","liqcode":null,"mappers":"DJLBuhay, MJVReyes, MITAbigania, KLPapiona, KMVitto","project":"MELP","province":"Zamboanga del Sur","otherinfo":null,"datemapped":2020,"publishdate":2021,"globalid":"{956CA67A-D8B3-4AFB-A15B-79E0A6393BB2}","st_area(shape)":0.059065434056611577,"st_perimeter(shape)":16.76855550220317,"liqcodepk":null,"creator":null,"createdate":null,"editor":null,"modifydate":null,"codemove":null},"geometry":{"type":"Polygon","coordinates":[]}}]}