{"type":"FeatureCollection","features":[{"type":"Feature","properties":{"fid":10,"objectid":1841,"lccode":"01","liqcode":"2010600010000000","mappers":"DJLBuhay, MJVReyes, MITAbigania, KLPapiona, KMVitto","project":"MELP","province":"Capiz","otherinfo":null,"datemapped":2017,"publishdate":null,"globalid":"{FE12B36A-531F-4D3F-AE5B-76F7E9CFE484}","st_area(shape)":0.04128187917080134,"st_perimeter(shape)":8.871881460062728,"liqcodepk":"201060001000000000013","creator":"SNOOPYPC","createdate":"2019-02-19T15:21:28","editor":"LENOVO","modifydate":"2019-03-10T17:53:06","codemove":"na"},"geometry":{"type":"Polygon","coordinates":[]}},{"type":"Feature","properties":{"fid":32,"objectid":1878,"lccode":"07","liqcode":"2010600070000000","mappers":"PJDelosReyes, ACPidlaoan","project":"READY","province":"Iloilo","otherinfo":null,"datemapped":2010,"publishdate":null,"globalid":"{2F92972A-C07C-4633-B325-DF2A08960C6C}","st_area(shape)":0.031106077518548395,"st_perimeter(shape)":5.287074988133156,"liqcodepk":"201060007000000000071","creator":"SNOOPYPC","createdate":"2019-02-19T15:21:28","editor":"LENOVO","modifydate":"2019-03-10T17:50:55","codemove":"na"},"geometry":{"type":"MultiPolygon","coordinates":[[[[123.04385518800008,11.19914743100003],[123.04288655600011,11.200781803000044],[123.04312889500011,11.201459457000054],[123.04486499300003,11.202535367000051],[123.04610524944424,11.202475949505022],[123.04562394667524,11.201148518331971],[123.0439612129926,11.1976789075639],[123.04385518800008,11.19914743100003]]],[[[123.02726088400004,11.180893814000054],[123.02645365900004,11.182886903000052],[123.02657486300008,11.183484743000065],[123.02766489700004,11.184162244000047],[123.0289163020001,11.18364393400003],[123.02992558900007,11.184201901000053],[123.03028899200002,11.185198372000055],[123.03210565000008,11.185238058000037],[123.03315512300003,11.184400844000038],[123.03332796893149,11.184362901957007],[123.03236337370753,11.183499876483097],[123.02875319681787,11.180856752404326],[123.02718564152691,11.179929247939235],[123.02726088400004,11.180893814000054]]],[[[123.02609004700004,11.179379309000067],[123.02673282003029,11.179661316019637],[123.02590919515875,11.179173978805986],[123.02609004700004,11.179379309000067]]]]}},{"type":"Feature","properties":{"fid":59,"objectid":1908,"lccode":"05","liqcode":"2010600050000000","mappers":"PJDelosReyes, ACPidlaoan","project":"READY","province":"Iloilo","otherinfo":null,"datemapped":2010,"publishdate":null,"globalid":"{282D04BA-68E2-41E5-9B8A-0D8D85396F2D}","st_area(shape)":0.06128738608791496,"st_perimeter(shape)":10.692281506054618,"liqcodepk":"201060005000000000103","creator":"SNOOPYPC","createdate":"2019-02-19T15:21:28","editor":"LENOVO","modifydate":"2019-03-10T17:50:55","codemove":"na"},"geometry":{"type":"MultiPolygon","coordinates":[[[[122.9990290290001,11.26286945700002],[123.00126864200001,11.261882537000075],[123.00203713400005,11.261269767000044],[123.00284431300007,11.26145358100007],[123.004769053,11.263108306000047],[123.00589002209334,11.263550879998663],[123.00780071119242,11.26345818091761],[123.01224763832663,11.262806898899282],[123.01618679704256,11.261832718376459],[123.01588257100003,11.261054786000045],[123.017186314,11.25939996300002],[123.01821079500007,11.259859590000076],[123.01830788504505,11.261128098891884],[123.02084113623397,11.260233185660145],[123.0217457479947,11.259810772316072],[123.02206017000002,11.25946094500006],[123.0229603680001,11.258817368000052],[123.02438819500004,11.257254460000068],[123.02535054300006,11.257315683000057],[123.02555816711802,11.257948975988382],[123.02876063426875,11.256053817553795],[123.03237115634445,11.253409966531658],[123.03570170264285,11.250429469657321],[123.03872019628588,11.247141040496762],[123.0413975695987,11.243576358154264],[123.04370804396358,11.23976976180888],[123.04562937784812,11.235757919649192],[123.04714308062916,11.231579475408534],[123.04823459016751,11.227274675917368],[123.04861117255055,11.224765546803676],[123.04604374700011,11.227082448000035],[123.04160994500013,11.232408763000022],[123.03877570500005,11.234395011000055],[123.03836434800009,11.235342924000063],[123.03616974900001,11.234801590000075],[123.03580394400001,11.23398922200005],[123.03680953900003,11.232544842000038],[123.0379981300001,11.232003085000029],[123.04028379200008,11.230197394000074],[123.04544894300011,11.223742652000052],[123.04604290300006,11.221756693000033],[123.0455399220001,11.221034596000038],[123.0433455200001,11.220673881000037],[123.04174547600007,11.220899794000045],[123.04115120800009,11.221441485000069],[123.03758560500012,11.22392422200005],[123.03452273700009,11.22509813800002],[123.0312767900001,11.224692245000028],[123.02944806500011,11.224286270000045],[123.02665934000005,11.224286532000065],[123.02455646700004,11.225415049000048],[123.02355074900004,11.22672394100005],[123.02324778600007,11.227129674000025],[123.02138249700012,11.227774409000062],[123.0206363750001,11.22777446200007],[123.01956370200003,11.226853800000073],[123.01863106400002,11.226715700000057],[123.01629959800006,11.229984474000048],[123.01574001400002,11.230536963000077],[123.01546027200004,11.231780054000067],[123.01399614800005,11.232546787000047],[123.0129904060001,11.234938860000053],[123.01225896500011,11.23597698800006],[123.01033887500013,11.238008046000063],[123.0091044400001,11.238955855000027],[123.00851015900002,11.239813403000028],[123.00709289100007,11.240670971000041],[123.00654423100003,11.241573634000078],[123.00567555000009,11.242070140000067],[123.00421254700007,11.24225073100007],[123.00421253700007,11.241528557000036],[123.00622417600005,11.23940729900005],[123.00613265900007,11.237872715000035],[123.00677271700012,11.236744366000037],[123.00837285900002,11.235932004000063],[123.009470049,11.233539853000025],[123.00928714200008,11.232998251000028],[123.00722981500009,11.233043427000037],[123.00654402900012,11.232637282000043],[123.00777843900005,11.23146379800005],[123.00919558600003,11.228259317000036],[123.00960691000013,11.226002633000064],[123.01042980000011,11.224558346000036],[123.01006399700009,11.223520261000033],[123.00882966000006,11.223204376000066],[123.00718384500011,11.222256651000064],[123.00640667400012,11.221489375000031],[123.00663524100003,11.220812314000057],[123.007778131,11.219954754000073],[123.00576654800011,11.217562770000027],[123.00590363100002,11.21656987800003],[123.00448192600004,11.21680291300004],[123.00312094000004,11.21587640800004],[123.00354331500013,11.213050272000036],[123.00415334800005,11.212471132000074],[123.00387173500008,11.21177617600006],[123.00232314500009,11.211428712000043],[123.00118843000007,11.211825658000066],[122.99914915400007,11.211351955000055],[122.99762972700012,11.211312524000046],[122.99643010800003,11.212575754000055],[122.99627011000005,11.213365289000025],[122.99810951900008,11.214273292000028],[122.99906914700011,11.21561547400006],[122.99782955400008,11.217273568000051],[122.9968298550001,11.219247402000065],[122.99619011300003,11.219365753000035],[122.99331102500003,11.21893151100005],[122.99143167400007,11.219484103000072],[122.9906718740001,11.220313130000022],[122.98887244100001,11.220589388000063],[122.98775276900005,11.221221010000022],[122.98695305400008,11.220707759000051],[122.98595335500012,11.220905098000058],[122.98487368700013,11.222010415000058],[122.98383405900006,11.221536656000065],[122.98191476700005,11.219996895000063],[122.980795166,11.219365159000063],[122.97919573200011,11.218930860000057],[122.97791607700005,11.219246601000064],[122.97739624700012,11.219838715000037],[122.97683628400011,11.221615130000032],[122.97499679800002,11.22272035100002],[122.9748767100001,11.22422038900004],[122.97579632900012,11.22524689900007],[122.97727580300011,11.22607606500003],[122.97771559900002,11.227102441000055],[122.97671575800007,11.228720951000069],[122.97683566100011,11.229431561000068],[122.9784750760001,11.230339669000044],[122.98055439200004,11.232234717000042],[122.9815940410001,11.23290587100007],[122.98175391700012,11.233655904000042],[122.98019433600007,11.23476117400003],[122.97939434500006,11.236734960000033],[122.97971420600004,11.237682479000059],[122.97951422000006,11.23906415300007],[122.97879425200006,11.240524726000046],[122.97735446000002,11.242301076000047],[122.97635469400008,11.243248495000044],[122.97567470600006,11.245103831000048],[122.97455477300002,11.247314474000063],[122.9761142840001,11.249051545000045],[122.97803372500006,11.249762293000062],[122.97787370100002,11.250946584000074],[122.97855334400003,11.253749520000042],[122.9799929950001,11.25473653900002],[122.9819525700001,11.254697152000062],[122.98395211700004,11.255881569000055],[122.9828721890001,11.257776411000066],[122.98334395332022,11.259096193942597],[122.98386419114404,11.259339111998363],[122.98491168300006,11.259789872000054],[122.98711129500009,11.260145230000036],[122.9878321003663,11.260958530137685],[122.99001253547316,11.261728733101872],[122.99437337351893,11.262807098005217],[122.99759859105644,11.263279386024603],[122.9990290290001,11.26286945700002]],[[123.03537586800007,11.244107395000068],[123.03571753300001,11.245731453000076],[123.03466229900005,11.246926641000075],[123.03317225600006,11.24720258800005],[123.0324892450001,11.245884993000061],[123.0330168260001,11.244934996000039],[123.03432047800003,11.243954259000077],[123.03537586800007,11.244107395000068]],[[123.01529152700003,11.237827267000057],[123.01696794100008,11.24073820500007],[123.01693695100005,11.241749450000041],[123.01510544400003,11.24037066300002],[123.0146086760001,11.239144882000062],[123.01448448400005,11.237674047000045],[123.01529152700003,11.237827267000057]],[[123.01927359700005,11.234403874000066],[123.02024020700003,11.236012087000065],[123.019218496,11.236230245000058],[123.01863856300008,11.235276184000043],[123.01855563600009,11.234403919000046],[123.01927359700005,11.234403874000066]]],[[[123.01490761800007,11.17599460500003],[123.01289637900004,11.175814132000028],[123.01207353900008,11.17486639300006],[123.01115935400001,11.174866429000076],[123.01057188519063,11.173861071694887],[123.00779829680916,11.173454916387726],[123.00726924521221,11.173429266351596],[123.00687677000008,11.174075119000063],[123.00707875400009,11.175043684000059],[123.00855012500004,11.175641858000061],[123.01131978800004,11.177180066000064],[123.01253157500003,11.177464838000045],[123.01556081000001,11.17649621700002],[123.01671479700008,11.176410618000034],[123.0176380170001,11.177094314000044],[123.01951356600013,11.180996865000056],[123.0215621000001,11.182449487000039],[123.02268741600005,11.184415022000053],[123.02283173900003,11.185184116000073],[123.02219712800002,11.187092818000052],[123.0223414530001,11.187890393000032],[123.02369754300004,11.188915821000021],[123.02384194100011,11.190539554000054],[123.02271700100006,11.193815611000048],[123.02326533400004,11.195296902000052],[123.0233520160001,11.196806711000022],[123.02237108000008,11.197974727000032],[123.02115934100004,11.198601509000069],[123.02092860000005,11.199854913000024],[123.02000541300004,11.200823543000068],[123.01951481500008,11.199655635000054],[123.01844734000007,11.200396324000051],[123.01873601500006,11.202475851000031],[123.01765188900002,11.204112589000031],[123.01865753800007,11.203706276000048],[123.01911472300004,11.204428423000023],[123.02025759900005,11.20483450900002],[123.02098895000005,11.204022045000043],[123.02007456,11.202397370000028],[123.02007450100008,11.201539837000041],[123.02076014900001,11.20077249600007],[123.021857253,11.200366256000054],[123.02300014300012,11.201088255000057],[123.02418860500008,11.200230628000043],[123.02478284200004,11.199463285000038],[123.02624553900012,11.198425151000036],[123.02729694600009,11.198199371000042],[123.02894240400008,11.196258464000039],[123.02912508000009,11.194362813000055],[123.02885061200006,11.193008906000045],[123.02706780300002,11.191970973000025],[123.02615357200013,11.192061292000062],[123.02519336800003,11.189849908000042],[123.02510187800011,11.188721577000026],[123.02391324000008,11.186826040000028],[123.02359309600003,11.185336684000049],[123.02405003800004,11.183305655000026],[123.02382116400008,11.17937904700005],[123.02359253000009,11.178340964000027],[123.02304524840311,11.177710604788748],[123.02083514784755,11.176678678645839],[123.01681344916783,11.175258108546299],[123.01490761800007,11.17599460500003]]],[[[123.01020053700006,11.205241274000059],[123.01056626000002,11.204699652000043],[123.01230332000011,11.204112857000037],[123.012418323,11.203249714000039],[123.01148044800004,11.202404334000049],[123.01119497000002,11.201558929000045],[123.01217356000006,11.200713473000064],[123.01209182700008,11.196969410000062],[123.01433421500008,11.19145384400002],[123.01441574800003,11.190608423000072],[123.0139671620001,11.188957755000043],[123.01286621500005,11.188877332000061],[123.01168378700004,11.18919945300007],[123.0111944570001,11.18819301800005],[123.00988965800002,11.188193064000073],[123.00907426900005,11.189602089000061],[123.00764709000009,11.18907878400006],[123.00679088300001,11.189722949000041],[123.00666854100008,11.19056836900006],[123.00740251900005,11.192017678000068],[123.00703565200001,11.194835865000075],[123.00789193700007,11.196526678000057],[123.00891136000007,11.197412303000021],[123.0071580550001,11.199546146000047],[123.00699500600001,11.20071363900007],[123.00764742500009,11.201840876000063],[123.00858535900011,11.202565468000042],[123.00907470800009,11.203692706000027],[123.00858543400011,11.205101808000048],[123.00891163400001,11.206349760000021],[123.01001773200005,11.207182031000059],[123.01020053700006,11.205241274000059]]]]}},{"type":"Feature","properties":{"fid":73,"objectid":1937,"lccode":"06","liqcode":"2010600060000000","mappers":"PJDelosReyes, ACPidlaoan","project":"READY","province":"Iloilo","otherinfo":null,"datemapped":2010,"publishdate":null,"globalid":"{DBB85F45-4FB4-4F72-8BD3-A1308397A487}","st_area(shape)":0.017575391436836466,"st_perimeter(shape)":7.287100410898002,"liqcodepk":"201060006000000000136","creator":"SNOOPYPC","createdate":"2019-02-19T15:21:28","editor":"LENOVO","modifydate":"2019-03-10T17:50:55","codemove":"na"},"geometry":{"type":"MultiPolygon","coordinates":[[[[123.02359253000009,11.178340964000027],[123.02382116400008,11.17937904700005],[123.02405003800004,11.183305655000026],[123.02359309600003,11.185336684000049],[123.02391324000008,11.186826040000028],[123.02510187800011,11.188721577000026],[123.02519336800003,11.189849908000042],[123.02615357200013,11.192061292000062],[123.02706780300002,11.191970973000025],[123.02885061200006,11.193008906000045],[123.02912508000009,11.194362813000055],[123.02894240400008,11.196258464000039],[123.02729694600009,11.198199371000042],[123.02624553900012,11.198425151000036],[123.02478284200004,11.199463285000038],[123.02418860500008,11.200230628000043],[123.02300014300012,11.201088255000057],[123.021857253,11.200366256000054],[123.02076014900001,11.20077249600007],[123.02007450100008,11.201539837000041],[123.02007456,11.202397370000028],[123.02098895000005,11.204022045000043],[123.02025759900005,11.20483450900002],[123.01911472300004,11.204428423000023],[123.01865753800007,11.203706276000048],[123.01765188900002,11.204112589000031],[123.0169204980001,11.205692250000027],[123.01618910200011,11.205963095000072],[123.0131262450001,11.205105712000034],[123.01230332000011,11.204112857000037],[123.01056626000002,11.204699652000043],[123.01020053700006,11.205241274000059],[123.01001773200005,11.207182031000059],[123.010429197,11.207768745000065],[123.010612121,11.209167880000052],[123.01038360000005,11.210612149000042],[123.00951511100003,11.213951979000054],[123.00764081100012,11.214629089000027],[123.00590363100002,11.21656987800003],[123.00576654800011,11.217562770000027],[123.007778131,11.219954754000073],[123.00663524100003,11.220812314000057],[123.00640667400012,11.221489375000031],[123.00718384500011,11.222256651000064],[123.00882966000006,11.223204376000066],[123.01006399700009,11.223520261000033],[123.01042980000011,11.224558346000036],[123.00960691000013,11.226002633000064],[123.00919558600003,11.228259317000036],[123.00777843900005,11.23146379800005],[123.00654402900012,11.232637282000043],[123.00722981500009,11.233043427000037],[123.00928714200008,11.232998251000028],[123.009470049,11.233539853000025],[123.00837285900002,11.235932004000063],[123.00677271700012,11.236744366000037],[123.00613265900007,11.237872715000035],[123.00622417600005,11.23940729900005],[123.00421253700007,11.241528557000036],[123.00421254700007,11.24225073100007],[123.00567555000009,11.242070140000067],[123.00654423100003,11.241573634000078],[123.00709289100007,11.240670971000041],[123.00851015900002,11.239813403000028],[123.0091044400001,11.238955855000027],[123.01033887500013,11.238008046000063],[123.01225896500011,11.23597698800006],[123.0129904060001,11.234938860000053],[123.01399614800005,11.232546787000047],[123.01459039300006,11.231598899000064],[123.01687601200003,11.226589037000053],[123.01463584600003,11.226634275000036],[123.01417865900011,11.226363492000072],[123.01417856800003,11.22451298200002],[123.014635655,11.222843106000026],[123.01532134300011,11.221624407000036],[123.01760715500006,11.221308357000053],[123.01843001500004,11.220225091000033],[123.01920713700008,11.21981888000005],[123.01993874200001,11.22103740600005],[123.0223159860001,11.221217804000046],[123.0224074900001,11.222526609000054],[123.02295620400002,11.223384190000045],[123.02291063700011,11.225099257000068],[123.02355074900004,11.22672394100005],[123.02455646700004,11.225415049000048],[123.02665934000005,11.224286532000065],[123.02944806500011,11.224286270000045],[123.0312767900001,11.224692245000028],[123.03452273700009,11.22509813800002],[123.03758560500012,11.22392422200005],[123.04115120800009,11.221441485000069],[123.04174547600007,11.220899794000045],[123.0433455200001,11.220673881000037],[123.0455399220001,11.221034596000038],[123.04604290300006,11.221756693000033],[123.04544894300011,11.223742652000052],[123.04028379200008,11.230197394000074],[123.0379981300001,11.232003085000029],[123.03680953900003,11.232544842000038],[123.03580394400001,11.23398922200005],[123.03616974900001,11.234801590000075],[123.03836434800009,11.235342924000063],[123.03877570500005,11.234395011000055],[123.04160994500013,11.232408763000022],[123.04604374700011,11.227082448000035],[123.04861117255055,11.224765546803676],[123.04889341244345,11.22288498327085],[123.04894166791465,11.221911955916678],[123.04887737900003,11.221756242000025],[123.04895351900511,11.221672988573658],[123.04911322193156,11.218452675355202],[123.04889192177525,11.214020438586529],[123.04823166321029,11.209630956787764],[123.04713882407941,11.205326500163915],[123.04610524944424,11.202475949505022],[123.04486499300003,11.202535367000051],[123.04312889500011,11.201459457000054],[123.04288655600011,11.200781803000044],[123.04385518800008,11.19914743100003],[123.0439612129926,11.1976789075639],[123.04370163553727,11.197137241320121],[123.04139041621363,11.193331292371665],[123.03871255636922,11.189767316272988],[123.03569385098183,11.186479626773897],[123.03332796893149,11.184362901957007],[123.03315512300003,11.184400844000038],[123.03210565000008,11.185238058000037],[123.03028899200002,11.185198372000055],[123.02992558900007,11.184201901000053],[123.0289163020001,11.18364393400003],[123.02766489700004,11.184162244000047],[123.02657486300008,11.183484743000065],[123.02645365900004,11.182886903000052],[123.02726088400004,11.180893814000054],[123.02718564152691,11.179929247939235],[123.02673282003029,11.179661316019637],[123.02609004700004,11.179379309000067],[123.02590919515875,11.179173978805986],[123.02489808240821,11.178575700031477],[123.02304524840311,11.177710604788748],[123.02359253000009,11.178340964000027]]],[[[123.01115935400001,11.174866429000076],[123.01207353900008,11.17486639300006],[123.01289637900004,11.175814132000028],[123.01490761800007,11.17599460500003],[123.01681344916783,11.175258108546299],[123.01660350868306,11.175183950159031],[123.01224390242389,11.174105903523008],[123.01057188519063,11.173861071694887],[123.01115935400001,11.174866429000076]]]]}}]}