{"type":"FeatureCollection","features":[{"type":"Feature","properties":{"fid":33,"objectid":1879,"lccode":"07","liqcode":"2010600070000000","mappers":"PJDelosReyes, ACPidlaoan","project":"READY","province":"Isabela","otherinfo":null,"datemapped":2012,"publishdate":null,"globalid":"{91DB2F3C-1BB4-4146-BF15-299122E74073}","st_area(shape)":0.020995608528075003,"st_perimeter(shape)":7.369078683303569,"liqcodepk":"201060007000000000072","creator":"SNOOPYPC","createdate":"2019-02-19T15:21:28","editor":"LENOVO","modifydate":"2019-03-10T17:50:55","codemove":"na"},"geometry":{"type":"Polygon","coordinates":[[[121.81018254000003,17.38638248600006],[121.81132120100006,17.38438182200002],[121.81080654100005,17.383143407000034],[121.8084749520001,17.383090926000023],[121.8080901573773,17.382812387726172],[121.80862871417094,17.386454265719735],[121.80905226963266,17.38812172295183],[121.81018254000003,17.38638248600006]]]}},{"type":"Feature","properties":{"fid":60,"objectid":1909,"lccode":"05","liqcode":"2010600050000000","mappers":"PJDelosReyes, ACPidlaoan","project":"READY","province":"Isabela","otherinfo":null,"datemapped":2012,"publishdate":null,"globalid":"{CB433018-447B-4349-A32C-A82989A96D3F}","st_area(shape)":0.11608726533381088,"st_perimeter(shape)":15.125533415932647,"liqcodepk":"201060005000000000104","creator":"SNOOPYPC","createdate":"2019-02-19T15:21:28","editor":"LENOVO","modifydate":"2019-03-10T17:50:55","codemove":"na"},"geometry":{"type":"MultiPolygon","coordinates":[[[[121.8323515410001,17.339540633000066],[121.83150251100007,17.340307779000057],[121.82969036500002,17.340837707000045],[121.83284125800002,17.341466653000055],[121.83457697400002,17.34298817600006],[121.83667865200005,17.345473486000056],[121.83701033500004,17.34731653500006],[121.83606578500007,17.347365978000028],[121.83501605300012,17.345958427000024],[121.83267366600012,17.34534028300004],[121.82979505700008,17.343564755000045],[121.82897509200006,17.342021176000056],[121.82915676000006,17.340962484000045],[121.82799822400011,17.34144548500006],[121.8273097760001,17.342252135000024],[121.82741269900009,17.345032302000046],[121.82630870100002,17.34795981100007],[121.82624910200002,17.351009281000074],[121.82719596600009,17.35383298000005],[121.82894844000009,17.356391227000078],[121.82974266300006,17.357940078000066],[121.82961888400008,17.358441197000044],[121.82715545300005,17.36020254600004],[121.82534203700004,17.360886833000052],[121.81864871000006,17.364013037000063],[121.81768163400011,17.36435474100006],[121.81481676900012,17.365997804000074],[121.81424727500007,17.367036688000045],[121.81403857700002,17.368232221000028],[121.81467034600007,17.370011837000046],[121.81539171200006,17.370363536000067],[121.81796286300005,17.37064901900004],[121.82012781700007,17.371588332000044],[121.81999658400004,17.373247499000055],[121.8172452560001,17.375972195000028],[121.8147717810001,17.379238918000052],[121.8150856970001,17.380437552000046],[121.81279944200003,17.385828638000074],[121.8115624290001,17.39060826400004],[121.81135143200004,17.392151195000054],[121.81084441456066,17.393831412753176],[121.81125198628689,17.394946849367457],[121.81320080458639,17.398967219786286],[121.81555076628986,17.4027848116254],[121.81827925757246,17.40636284684399],[121.82063852281397,17.408893093051958],[121.8225404950001,17.405105782000078],[121.82291891700004,17.40338347300008],[121.82453128200007,17.400218305000063],[121.8261418400001,17.39732743200005],[121.82607994500007,17.39423072900007],[121.8269882930001,17.392629076000045],[121.82924904800008,17.390173173000054],[121.82909472300004,17.388761257000056],[121.8251475600001,17.386817627000028],[121.82331301400006,17.38645407000007],[121.82266265600003,17.386019054000027],[121.82210322900006,17.38413444100007],[121.8235353450001,17.383594238000057],[121.82786306900005,17.383462830000042],[121.82664524700012,17.382397510000036],[121.8274223190001,17.38216687600004],[121.82819457200003,17.382680931000042],[121.82917543500004,17.382490701000055],[121.82971553400012,17.381004515000026],[121.82931335700005,17.380061544000053],[121.82891766400007,17.378099475000056],[121.82941568100013,17.376809027000032],[121.83235692700009,17.37643427300003],[121.83309438700007,17.376007399000056],[121.83319556700008,17.372911728000076],[121.83353578900007,17.370757978000025],[121.83419745500008,17.369390039000052],[121.83550926800001,17.368496287000028],[121.83687047,17.36623091900003],[121.83565426400003,17.364930466000033],[121.83337163200008,17.36444684700007],[121.83186202600008,17.36435959900007],[121.8304358030001,17.36399850600003],[121.82831448500009,17.363829312000064],[121.827545299,17.36284497100007],[121.82942965300002,17.361758540000043],[121.83335140100009,17.361193603000064],[121.83470149900006,17.36069195400006],[121.83687293000001,17.359372012000055],[121.83761772200013,17.357769341000047],[121.84145679900008,17.350854257000037],[121.84248985700002,17.348822135000034],[121.84351797800002,17.347573831000034],[121.84434576400008,17.34573649600003],[121.84292203200005,17.344983541000037],[121.84035357200004,17.344576789000033],[121.83994985100003,17.34386893900006],[121.83983980100002,17.341908538000038],[121.84013700400011,17.34006814500003],[121.8396536597474,17.335195009349086],[121.83709493658176,17.33605760224932],[121.8329091438882,17.337929271685898],[121.83218711312828,17.338339209666845],[121.8323515410001,17.339540633000066]]],[[[121.88176837200001,17.413167885000064],[121.88111403100002,17.41336020000006],[121.87785014100007,17.41298910000006],[121.87609446600004,17.413018427000054],[121.87454023100008,17.413479972000058],[121.87411967000003,17.415476581000068],[121.87533319200008,17.41732555300006],[121.87447058900013,17.418182967000057],[121.87259718000007,17.41742765300006],[121.87231977500005,17.41605427400003],[121.87343145200008,17.414531979000053],[121.87279890000003,17.411157702000025],[121.87375490500006,17.40838026700004],[121.8735943030001,17.407948262000044],[121.87204275200008,17.407978709000073],[121.86995350000007,17.409142705000022],[121.86900828800003,17.410156400000055],[121.86798478400011,17.41062090400004],[121.86684119800009,17.41069283900003],[121.86635420900006,17.41021967000006],[121.86612252400006,17.40806269300003],[121.86493941200001,17.407938408000064],[121.863531555,17.411144315000058],[121.8635267080001,17.41192813800006],[121.86412908300008,17.413538578000043],[121.86240477800006,17.41509644700005],[121.86084247800012,17.416851302000058],[121.85718899200005,17.420044306000023],[121.856774157,17.421100191000043],[121.85680596500002,17.42255051500007],[121.85631311600002,17.42301808700006],[121.85629545713418,17.423023773382486],[121.85917412324228,17.422904547295246],[121.86374747211575,17.422279983135887],[121.86823498844439,17.4212279963772],[121.87259342504088,17.41975872366224],[121.87678078101366,17.41788632307243],[121.88075670729023,17.415628837459614],[121.88434494627612,17.41310505001391],[121.88176837200001,17.413167885000064]]]]}},{"type":"Feature","properties":{"fid":74,"objectid":1938,"lccode":"06","liqcode":"2010600060000000","mappers":"PJDelosReyes, ACPidlaoan","project":"READY","province":"Isabela","otherinfo":null,"datemapped":2012,"publishdate":null,"globalid":"{57DA03B8-A8DC-43FC-92E3-BCA08FF4E128}","st_area(shape)":0.09517793329217689,"st_perimeter(shape)":18.374122243984093,"liqcodepk":"201060006000000000137","creator":"SNOOPYPC","createdate":"2019-02-19T15:21:28","editor":"LENOVO","modifydate":"2019-03-10T17:50:55","codemove":"na"},"geometry":{"type":"Polygon","coordinates":[[[121.8084749520001,17.383090926000023],[121.81080654100005,17.383143407000034],[121.81132120100006,17.38438182200002],[121.81018254000003,17.38638248600006],[121.80905226963266,17.38812172295183],[121.80972305694135,17.390762429239455],[121.81084441456066,17.393831412753176],[121.81135143200004,17.392151195000054],[121.8115624290001,17.39060826400004],[121.81279944200003,17.385828638000074],[121.8150856970001,17.380437552000046],[121.8147717810001,17.379238918000052],[121.8172452560001,17.375972195000028],[121.81999658400004,17.373247499000055],[121.82012781700007,17.371588332000044],[121.81796286300005,17.37064901900004],[121.81539171200006,17.370363536000067],[121.81467034600007,17.370011837000046],[121.81403857700002,17.368232221000028],[121.81424727500007,17.367036688000045],[121.81481676900012,17.365997804000074],[121.81768163400011,17.36435474100006],[121.81864871000006,17.364013037000063],[121.82534203700004,17.360886833000052],[121.82715545300005,17.36020254600004],[121.82961888400008,17.358441197000044],[121.82974266300006,17.357940078000066],[121.82894844000009,17.356391227000078],[121.82719596600009,17.35383298000005],[121.82624910200002,17.351009281000074],[121.82630870100002,17.34795981100007],[121.82741269900009,17.345032302000046],[121.8273097760001,17.342252135000024],[121.82799822400011,17.34144548500006],[121.82915676000006,17.340962484000045],[121.82969036500002,17.340837707000045],[121.83150251100007,17.340307779000057],[121.8323515410001,17.339540633000066],[121.83218711312828,17.338339209666845],[121.82893443022563,17.340185886282615],[121.82520905679571,17.34280572606411],[121.82176888920016,17.345763574534264],[121.81864705249009,17.34903096099095],[121.81587361237405,17.352576434141483],[121.81347528564618,17.35636586440553],[121.81147518262385,17.36036277201642],[121.80989258408445,17.364528677783646],[121.80874275486897,17.368823473159775],[121.80803679597332,17.37320580606743],[121.80778153658679,17.377633478787878],[121.80797946715703,17.382063854093015],[121.8080901573773,17.382812387726172],[121.8084749520001,17.383090926000023]]]}}]}