{"type":"FeatureCollection","features":[{"type":"Feature","properties":{"fid":174,"objectid":9616,"lccode":"07","liqcode":null,"mappers":"DJLBuhay, MITAbigania","project":"LiquePhi","province":"Pangasinan","otherinfo":null,"datemapped":2024,"publishdate":null,"globalid":"{4C1C6B5C-6BC5-4098-AF34-1358D72BE295}","st_area(shape)":0.0990952810399136,"st_perimeter(shape)":16.14272038398808,"liqcodepk":null,"creator":null,"createdate":null,"editor":null,"modifydate":null,"codemove":null},"geometry":{"type":"MultiPolygon","coordinates":[[[[119.84492811700011,15.976439226000023],[119.844988867143,15.976573368004786],[119.84496194216455,15.976158931544605],[119.84492811700011,15.976439226000023]]],[[[119.84408795800005,15.971862133000057],[119.84436065500006,15.973621012000024],[119.84479588839979,15.974165758082668],[119.84433683688434,15.971430254922982],[119.84408795800005,15.971862133000057]]],[[[119.84362974200008,15.969027635000032],[119.84324307600002,15.970031464000042],[119.84429224082119,15.971164499352781],[119.84412161171512,15.970147681253186],[119.84378692289157,15.968926167598383],[119.84362974200008,15.969027635000032]]],[[[119.83662750000009,15.959132313000055],[119.83605793100004,15.958705379000035],[119.8363490590001,15.957588828000038],[119.8355434240001,15.957003663000027],[119.83543043200005,15.95870314500007],[119.83720952700003,15.960304563000019],[119.83909492900011,15.961631796000058],[119.84057379400008,15.961775261000069],[119.84156061815654,15.962268783432288],[119.84134642149199,15.961713644721497],[119.84037210897783,15.959789095002204],[119.83662750000009,15.959132313000055]]],[[[119.82636830800004,15.95829745000003],[119.82347384000003,15.958961822000049],[119.81973279100009,15.958145277000028],[119.81691366700011,15.957991304000073],[119.81768533800005,15.958400863000065],[119.81936047900003,15.958410380000032],[119.82095947600011,15.958886273000077],[119.82115935100002,15.959514450000027],[119.819103497,15.960846948000032],[119.818298098,15.961972764000047],[119.81859801100006,15.96349793000007],[119.819231951,15.96340496000005],[119.81980755200006,15.962329499000077],[119.82116084000008,15.961757097000032],[119.82265253300011,15.962051458000076],[119.82332941900005,15.962464982000027],[119.82541382700005,15.962388839000026],[119.82614670100008,15.961151519000056],[119.82612024700008,15.959352616000045],[119.82637052200003,15.958903071000066],[119.82771514200012,15.958316110000052],[119.82636830800004,15.95829745000003]]]]}},{"type":"Feature","properties":{"fid":175,"objectid":9617,"lccode":"06","liqcode":null,"mappers":"DJLBuhay, MITAbigania","project":"LiquePhi","province":"Pangasinan","otherinfo":null,"datemapped":2024,"publishdate":null,"globalid":"{66023685-1332-44EF-8443-E51FD3597412}","st_area(shape)":0.04411879143836554,"st_perimeter(shape)":22.502158641584156,"liqcodepk":null,"creator":null,"createdate":null,"editor":null,"modifydate":null,"codemove":null},"geometry":{"type":"Polygon","coordinates":[[[119.82637052200003,15.958903071000066],[119.82612024700008,15.959352616000045],[119.82614670100008,15.961151519000056],[119.82541382700005,15.962388839000026],[119.82332941900005,15.962464982000027],[119.82265253300011,15.962051458000076],[119.82116084000008,15.961757097000032],[119.81980755200006,15.962329499000077],[119.819231951,15.96340496000005],[119.81859801100006,15.96349793000007],[119.818298098,15.961972764000047],[119.819103497,15.960846948000032],[119.82115935100002,15.959514450000027],[119.82095947600011,15.958886273000077],[119.81936047900003,15.958410380000032],[119.81768533800005,15.958400863000065],[119.81691366700011,15.957991304000073],[119.81502279800009,15.95749916600005],[119.81352398600005,15.95678849900002],[119.8124374680001,15.956604636000066],[119.81399176000001,15.95797083400004],[119.81537660600007,15.958741780000024],[119.81821768300004,15.960911848000025],[119.8178750400001,15.962353802000056],[119.81826925400004,15.963075393000057],[119.81791787100008,15.963952799000026],[119.81657585500011,15.964880789000063],[119.8171183720001,15.96543758300004],[119.81694705100006,15.967621928000026],[119.81620465900005,15.968621302000033],[119.81691849700007,15.969435078000064],[119.81808919200012,15.967179349000046],[119.81820340600007,15.96486651200007],[119.81871522300003,15.964452157000043],[119.8200362450001,15.964187712000072],[119.82220631400003,15.962379321000071],[119.82308195600001,15.963626159000059],[119.82469047100004,15.96323592700003],[119.82618477300002,15.961951018000036],[119.8268605400001,15.95988564600003],[119.82743161000008,15.959029040000074],[119.82949608200012,15.958433411000044],[119.82771514200012,15.958316110000052],[119.82637052200003,15.958903071000066]]]}},{"type":"Feature","properties":{"fid":176,"objectid":9618,"lccode":"05","liqcode":null,"mappers":"DJLBuhay, MITAbigania","project":"LiquePhi","province":"Pangasinan","otherinfo":null,"datemapped":2024,"publishdate":null,"globalid":"{5ACB73C5-6107-4512-9787-F18573022798}","st_area(shape)":0.06533832536059311,"st_perimeter(shape)":23.271340040578984,"liqcodepk":null,"creator":null,"createdate":null,"editor":null,"modifydate":null,"codemove":null},"geometry":{"type":"MultiPolygon","coordinates":[[[[119.78810889300007,15.942549418000056],[119.78920222000012,15.942058061000067],[119.78964192700005,15.94245229000006],[119.79095510800005,15.941983786000035],[119.79183452300003,15.941355304000068],[119.79157901700013,15.940246885000018],[119.79249408400004,15.939332720000037],[119.79293379100011,15.93825857100006],[119.79277335800008,15.937618650000047],[119.79538151600002,15.936321052000036],[119.79579151400003,15.936618160000027],[119.79687295700013,15.936069652000073],[119.79800193500012,15.93450982400003],[119.79799248582196,15.934413057770382],[119.79784494299531,15.934407963307567],[119.7973635541654,15.934437113420055],[119.79730078000011,15.934835503000041],[119.79610643900003,15.936012516000064],[119.7949715190001,15.935915384000058],[119.79446050700007,15.93646389200006],[119.79340877400011,15.93598394700007],[119.79263037300005,15.936989545000074],[119.79211528200005,15.939110844000027],[119.79151514000012,15.939453657000064],[119.790652066,15.941498141000066],[119.79006975100002,15.941903797000064],[119.78871497600005,15.941549562000032],[119.78625308600012,15.942453158000037],[119.78587874000006,15.943555851000037],[119.78464280500009,15.944058632000063],[119.78243238400013,15.943104491000044],[119.78226006600006,15.941927520000036],[119.78063790200007,15.942870240000047],[119.78257499200005,15.943567278000042],[119.7831513650001,15.944738526000036],[119.78447643000004,15.945047049000038],[119.78456060800012,15.946580590000053],[119.78405553800008,15.948574534000047],[119.78273641600005,15.950134253000046],[119.78274235800006,15.951002662000063],[119.783954525,15.953362204000019],[119.78485770800012,15.953379343000051],[119.7835861210001,15.952053890000057],[119.78347322300012,15.950802700000056],[119.7837465550001,15.949362965000034],[119.78463191200001,15.94850597400005],[119.78493495300006,15.946089242000024],[119.78487454300011,15.944441430000037],[119.78651453300006,15.944081485000028],[119.78641946100005,15.943287320000026],[119.78750090400001,15.942304608000025],[119.78810889300007,15.942549418000056]]],[[[119.79532043300003,15.942160751000072],[119.79445765500009,15.940981489000025],[119.79282479500013,15.942476134000062],[119.79189071400005,15.94373080400004],[119.79388722400006,15.944724936000053],[119.79489973900002,15.944430125000057],[119.79391574500006,15.94299720000003],[119.79532043300003,15.942160751000072]]],[[[119.79723137800012,15.943161747000033],[119.79646129500009,15.943813077000073],[119.79798719900009,15.944361564000078],[119.79816545900007,15.943264588000034],[119.79723137800012,15.943161747000033]]],[[[119.7963828610001,15.946966857000062],[119.79755937600011,15.94717253600004],[119.79810841600012,15.94604129600003],[119.79770911400009,15.944711224000054],[119.79693190100011,15.945280276000053],[119.79571973400003,15.944868913000043],[119.79584095100006,15.945938456000022],[119.7947286100001,15.946630913000035],[119.79494965200003,15.947494767000022],[119.79608338400011,15.94791983700003],[119.7963828610001,15.946966857000062]]],[[[119.79822749300001,15.947350525000045],[119.79751445400008,15.947615623000047],[119.79797079900004,15.949151353000046],[119.79894053200007,15.948639444000037],[119.79822749300001,15.947350525000045]]],[[[119.80082295600006,15.95585899100007],[119.8016595890001,15.957604898000055],[119.80325085400011,15.957688308000057],[119.80190796400005,15.956534275000026],[119.8020743400001,15.955968682000048],[119.8012840550001,15.955106007000037],[119.80082295600006,15.95585899100007]]],[[[119.80571583500011,15.956810675000042],[119.80542912900012,15.957733003000044],[119.80561927300005,15.959689130000069],[119.80527701400001,15.96090484500007],[119.80431678800005,15.961617817000048],[119.80421220900007,15.962358208000069],[119.80537208600003,15.962010864000035],[119.80625625500011,15.962120552000039],[119.80676964300004,15.961517269000058],[119.80720697400011,15.96001819600002],[119.80698830800009,15.958939588000078],[119.80842538400007,15.956173098000018],[119.80930955300006,15.955713768000066],[119.81025789500008,15.95445231700006],[119.80814016900003,15.95430834600006],[119.8073201740001,15.955809747000046],[119.80571583500011,15.956810675000042]]],[[[119.78575563000004,15.96576921200006],[119.78678240700003,15.965421874000073],[119.78712466600007,15.964123923000045],[119.78823308100004,15.963632536000036],[119.78900554000006,15.964603718000037],[119.79038408300005,15.963198359000044],[119.7910495860001,15.96395245500003],[119.79196465300005,15.963952455000022],[119.79220233300009,15.964877933000025],[119.79327842800001,15.963976545000035],[119.79475204200003,15.96392170100006],[119.79556015300011,15.96437872800004],[119.79613058400004,15.962596318000063],[119.79689116000009,15.962194131000048],[119.79706228900012,15.960969284000047],[119.79643481500011,15.960091776000068],[119.7955126170001,15.960110058000057],[119.79571999300003,15.95667416500004],[119.79501883800003,15.956182843000018],[119.79484057800005,15.954880261000032],[119.79576800400002,15.954973517000042],[119.79671872300003,15.954159971000026],[119.79825888800009,15.955147195000048],[119.79714654600001,15.955988161000054],[119.79685182400011,15.956655446000068],[119.7977074710001,15.957350151000073],[119.79757437,15.958849244000076],[119.79899094100006,15.958529317000055],[119.80060716300011,15.959397690000062],[119.80058814900006,15.957953446000033],[119.80023638300007,15.957377574000079],[119.79852508900001,15.957596954000053],[119.7984585390001,15.956262388000031],[119.79957088000002,15.956161838000074],[119.80016983300006,15.954699289000079],[119.79952334400002,15.953099613000068],[119.80085435,15.953273293000057],[119.80041935200006,15.950294452000037],[119.80157031600004,15.950338444000066],[119.80201180600011,15.951185713000026],[119.80165588100009,15.95312190900006],[119.80336717500006,15.953622380000068],[119.80373082500013,15.951305119000041],[119.8049709190001,15.951409671000023],[119.80591272500011,15.951106300000047],[119.80684680600007,15.951833018000059],[119.80726749900009,15.950146479000065],[119.80780227800005,15.949591152000039],[119.80764426500002,15.948148928000025],[119.80803045100004,15.947431532000053],[119.80794048100007,15.945652427000034],[119.80720806400006,15.946107423000056],[119.80695165900009,15.947292434000074],[119.80582144000005,15.948644167000056],[119.80509273000008,15.948082848000073],[119.80438682100008,15.948199400000018],[119.80332630900013,15.947650461000023],[119.80443877800008,15.945404980000031],[119.80646499700005,15.944542260000052],[119.80612036200013,15.944199456000035],[119.80341081300003,15.945050751000053],[119.80236502200012,15.946479090000025],[119.80150036300007,15.946246081000027],[119.801963838,15.944758321000052],[119.80270285100005,15.94495806400004],[119.80285513700005,15.943901311000044],[119.80174992700006,15.94366820400006],[119.80167862300006,15.94482688200003],[119.80074454100009,15.946122673000046],[119.7991245920001,15.946451126000056],[119.79886076700008,15.947376684000062],[119.79941693800004,15.947760619000066],[119.79994399200008,15.94893469900006],[119.79980138500002,15.949940231000028],[119.79897192700003,15.950174459000038],[119.79825888800009,15.94958942400006],[119.79671872300003,15.950585812000043],[119.79648104300009,15.95268826600005],[119.79497130200002,15.953634801000081],[119.79486482100005,15.952112379000027],[119.79569194700002,15.950576671000018],[119.7938779750001,15.949978362000024],[119.79336696300003,15.948572901000029],[119.79416578700013,15.947956549000022],[119.79317333400003,15.947108049000065],[119.79194067400012,15.948296439000048],[119.79143114100009,15.947962188000076],[119.78948090000007,15.948652886000044],[119.78870844100005,15.947247416000035],[119.79014640300012,15.946573243000044],[119.79234494100001,15.94684748300006],[119.79301044400006,15.945807655000067],[119.79159624900001,15.944265043000028],[119.79065741500006,15.944973503000025],[119.78924322000013,15.945293452000042],[119.78832815300005,15.945910495000076],[119.78732989800005,15.947830173000058],[119.78780525800006,15.94952130300004],[119.78870844100005,15.94997836200002],[119.78943336400006,15.951143859000071],[119.78838757300002,15.951566636000056],[119.78752004200011,15.95121241800007],[119.7872942460001,15.95266356600007],[119.78809047300001,15.953417702000023],[119.78836380500002,15.954628884000046],[119.78933829200001,15.95523447200003],[119.78924322000013,15.956319956000069],[119.78811424100002,15.956582757000033],[119.78794786600008,15.95580578000005],[119.78652772900011,15.956100575000047],[119.78662874300005,15.95803386600005],[119.78540469300005,15.957394008000053],[119.7844896260001,15.957611103000026],[119.78444209000008,15.95852518400005],[119.78540469300005,15.959245020000022],[119.78528585300012,15.960261927000035],[119.78623657200002,15.96133595800006],[119.78607887500004,15.962897564000057],[119.786411627,15.963560255000058],[119.78623336700002,15.96454286300008],[119.78370207800003,15.963845898000045],[119.78315541400002,15.964291499000069],[119.78229976700004,15.96321748400004],[119.78219281100007,15.962314850000038],[119.78106383300008,15.962669049000054],[119.77951891400005,15.962474811000048],[119.7790079030001,15.963308890000063],[119.7773322610001,15.96408583700003],[119.77564473500001,15.963126078000078],[119.77406416500003,15.962988970000028],[119.77316098200004,15.964725674000022],[119.773339242,15.965262678000043],[119.77286388200002,15.966748001000038],[119.77360068900009,15.967422105000026],[119.77585864700008,15.966999362000024],[119.77642907800008,15.966176724000036],[119.77811660400005,15.966907958000037],[119.7785800800001,15.96880458400005],[119.7772015370001,15.969535808000046],[119.77689255300004,15.970883996000051],[119.77978036200012,15.972849136000036],[119.78117078900004,15.973237591000041],[119.78092122500006,15.974265852000034],[119.7800061580001,15.974265852000034],[119.77891283100006,15.974734280000064],[119.7815391920001,15.975716833000037],[119.78175310400003,15.975853933000055],[119.78818947100001,15.975055705000043],[119.78801834100013,15.974306221000063],[119.78691550800009,15.972715842000072],[119.78710565100006,15.972167433000038],[119.7861929610001,15.97061359800006],[119.78645916200003,15.96944364400002],[119.78417743700005,15.967140277000057],[119.78391123600011,15.966226235000024],[119.78470984000012,15.96562296500002],[119.78575563000004,15.96576921200006]],[[119.79173826300007,15.961307488000045],[119.7920805220001,15.962184990000022],[119.79171508900002,15.962969845000032],[119.79044350300002,15.96253566600007],[119.79095451400009,15.961484493000059],[119.79043161900006,15.95805671800002],[119.79166755300002,15.958273812000073],[119.79289725000001,15.959464917000048],[119.79366406300007,15.959313576000058],[119.79405249400008,15.958608163000067],[119.794856621,15.95911371700004],[119.79442879800001,15.959991228000034],[119.79313582000009,15.959927243000037],[119.79173826300007,15.961307488000045]],[[119.79280176100008,15.951573054000047],[119.7902509820001,15.953942396000057],[119.78994437500013,15.952777829000066],[119.79048866200004,15.951858237000065],[119.7912409150001,15.951916547000051],[119.79229740500011,15.951372387000049],[119.79280176100008,15.951573054000047]],[[119.79849656700004,15.953099613000065],[119.79763141300009,15.95401371500003],[119.796823302,15.952880228000026],[119.79796416500005,15.952350047000035],[119.79849656700004,15.953099613000065]],[[119.79624467100008,15.96096928400004],[119.79567423900005,15.961618271000079],[119.7948376070001,15.961225222000055],[119.79545557400002,15.960493968000035],[119.79624467100008,15.96096928400004]]],[[[119.81537660600007,15.958741780000024],[119.81399176000001,15.95797083400004],[119.8124374680001,15.956604636000066],[119.8124883170001,15.958198442000025],[119.81349845500007,15.959409595000066],[119.81362917900005,15.960380797000028],[119.81488888200009,15.961134904000055],[119.81479381000008,15.962631684000028],[119.81576829700008,15.962140376000033],[119.81826925400004,15.963075393000057],[119.8178750400001,15.962353802000056],[119.81821768300004,15.960911848000025],[119.81537660600007,15.958741780000024]]],[[[119.82136159000004,15.963073094000038],[119.82135270730784,15.963090665851077],[119.82136718183169,15.96307860371063],[119.82136159000004,15.963073094000038]]],[[[119.82553562600003,15.96429861800004],[119.82713283400004,15.96303722100004],[119.82711144300002,15.96109712300006],[119.82788382600005,15.959780910000063],[119.82968018700001,15.959484013000063],[119.82949608200012,15.958433411000044],[119.82743161000008,15.959029040000074],[119.8268605400001,15.95988564600003],[119.82618477300002,15.961951018000036],[119.82469047100004,15.96323592700003],[119.82308195600001,15.963626159000059],[119.82220631400003,15.962379321000071],[119.82136718183169,15.96307860371063],[119.82208356600006,15.963784463000028],[119.82248762200005,15.964858475000028],[119.82071928400002,15.966330090000039],[119.82087615300009,15.96729440400003],[119.82182211800011,15.96676426000005],[119.82263022900008,15.96689222600003],[119.82174404400007,15.968050231000065],[119.82287190900001,15.968135892000076],[119.82476824200012,15.965826349000054],[119.82553562600003,15.96429861800004]]],[[[119.82074531,15.96429222000006],[119.82135270730784,15.963090665851077],[119.8200362450001,15.964187712000072],[119.81871522300003,15.964452157000043],[119.82074531,15.96429222000006]]],[[[119.84509629178207,15.980214814366512],[119.84510271330953,15.980039442910114],[119.8450580130001,15.980076769000048],[119.84509629178207,15.980214814366512]]],[[[119.79445916100009,16.003000647000018],[119.79369773400003,16.00193464800003],[119.79451626800005,16.00044986500006],[119.79604983100012,16.000894824000053],[119.79845903500006,15.998812795000047],[119.79887544100008,15.996611794000044],[119.80086824000013,15.995094888000038],[119.80146310500004,15.994946171000036],[119.80265283500012,15.992864143000075],[119.80434820100004,15.991912359000022],[119.80494306700007,15.99102006100003],[119.80502321500002,15.989974835000053],[119.8039386800001,15.988710217000056],[119.804000039,15.987583759000074],[119.80515126900004,15.987093950000032],[119.8042887150001,15.986142166000034],[119.80354513300006,15.986320625000078],[119.80273563199998,15.987867886000062],[119.80182002400011,15.988194451000023],[119.80030311800012,15.987956505000051],[119.799083644,15.987093950000034],[119.798770396,15.985498685000039],[119.79949206800006,15.983443867000059],[119.79865449800003,15.982853760000062],[119.79774078500007,15.983044117000077],[119.79625600100007,15.984167223000046],[119.79549457400005,15.98416722300004],[119.79494253900008,15.984890579000023],[119.79541843100002,15.985632971000031],[119.79724585700001,15.985366471000075],[119.7978046830001,15.985963706000065],[119.79709084500007,15.988521627000068],[119.79831031900005,15.98926520800006],[119.7986374950001,15.990603655000031],[119.79753699400011,15.993815927000073],[119.79661495300003,15.994946171000032],[119.7953359930001,15.995243604000057],[119.79310524800007,15.995094888000041],[119.79213338700004,15.994475732000069],[119.79178836500013,15.993571537000038],[119.79144334300008,15.990775670000064],[119.79064622400007,15.989954756000028],[119.78943269900005,15.990014243000074],[119.78807640600007,15.990692389000058],[119.78656544800005,15.990632903000058],[119.7858397130001,15.99181073600005],[119.78406701400002,15.991775044000061],[119.78420978200006,15.992893391000049],[119.78467377700008,15.993488256000033],[119.78575643100008,15.992975878000038],[119.78640364500006,15.991909880000033],[119.78750771500006,15.99183373700004],[119.7885009910001,15.99272137500003],[119.78829159800011,15.993349553000026],[119.78682585000003,15.994168088000034],[119.7879870270001,15.994777230000066],[119.78699717200003,15.995957442000075],[119.78522685300004,15.996147799000026],[119.78596924400006,15.996966334000032],[119.78534106700012,15.997632583000037],[119.78389435400004,15.997461262000058],[119.7826760700001,15.998432082000024],[119.78195271400011,15.99784197500003],[119.78010625300008,15.997213798000077],[119.77968746700004,15.997651619000063],[119.78067732300008,15.998546296000027],[119.78048696600003,15.99904122400005],[119.78111514400008,16.000297579000055],[119.7826760700001,16.001306471000078],[119.78416085400012,16.001363578000056],[119.78579792300002,16.001116114000073],[119.78646417200004,16.001858506000076],[119.78732077800011,16.00163007700007],[119.78888170500011,16.00191561300005],[119.79076623800007,15.999897830000066],[119.7915276650001,16.00008818700008],[119.7927078780001,15.999307723000069],[119.79405941200002,15.999859758000074],[119.79337412700012,16.00067829300002],[119.79316473500013,16.00202982700006],[119.79219391400012,16.003933396000033],[119.79101370200011,16.004466395000065],[119.79074720200003,16.006179607000036],[119.79122309400007,16.007435962000045],[119.79289823500005,16.00827353200003],[119.79421169700005,16.008292568000055],[119.79634369400003,16.009586995000063],[119.79687669400005,16.008844603000053],[119.79687669400005,16.007740533000057],[119.79615333800007,16.007493069000077],[119.795372874,16.007930890000065],[119.79424976900009,16.007359819000044],[119.79265077100001,16.007607283000027],[119.79200355800003,16.007074284000055],[119.7919654860001,16.00623671400006],[119.79247945000007,16.003971467000046],[119.79354544800003,16.003210039000063],[119.79445916100009,16.003000647000018]]],[[[119.77651282000011,16.001436399000056],[119.77681739100001,16.003644539000046],[119.77615114200012,16.005186430000034],[119.77744556900007,16.005262572000046],[119.7778262830001,16.00335900400006],[119.77733135500011,16.002140720000053],[119.77873999600001,16.001341221000068],[119.77755978300002,16.000903400000027],[119.77651282000011,16.001436399000056]]],[[[119.77872096000011,16.006518928000048],[119.77948238800003,16.005643286000062],[119.78091006400008,16.006157250000054],[119.78157631300007,16.005586179000034],[119.782718455,16.00547196500003],[119.78256616900002,16.00461535900007],[119.78153824200001,16.004767645000076],[119.78071970700013,16.00442500200006],[119.77948238800003,16.004996073000026],[119.77824506800005,16.00520546500007],[119.77767399700006,16.006537963000028],[119.77872096000011,16.006518928000048]]],[[[119.78437455900007,16.007432641000037],[119.78500273700003,16.008232140000068],[119.78269941900011,16.008403461000054],[119.78279459700002,16.00910778100007],[119.78429841700006,16.01007860100003],[119.78669691300001,16.009355245000048],[119.78660173500008,16.008727068000034],[119.7861639140001,16.00712807000002],[119.7870395560001,16.005357751000076],[119.78724894800006,16.004425002000062],[119.78604970000004,16.004463074000057],[119.78523116500003,16.003968146000034],[119.78410806000011,16.004501145000063],[119.78342277500009,16.005338715000054],[119.78387963200011,16.006214357000033],[119.7832895250001,16.006861570000066],[119.78437455900007,16.007432641000037]]],[[[119.7776164820001,16.01975921200005],[119.77623759000005,16.018777355000054],[119.77599934849715,16.019084367666817],[119.77702115143715,16.019658861077627],[119.77760394001875,16.019916269211738],[119.7776164820001,16.01975921200005]]]]}}]}