{"type":"FeatureCollection","features":[{"type":"Feature","properties":{"fid":89,"objectid":1949,"lccode":"01","liqcode":"2010600010000000","mappers":"DJLBuhay, MITAbigania, KLPapiona, KMVitto","project":"MELP","province":"Agusan del Sur","otherinfo":null,"datemapped":2018,"publishdate":null,"globalid":"{1E6CEE5B-C387-4818-8ED8-6D59425E2C9E}","st_area(shape)":0.13568303251391492,"st_perimeter(shape)":20.45926534020769,"liqcodepk":"201060001000000000548","creator":null,"createdate":"2019-06-04T13:29:47","editor":"SDE","modifydate":"2019-06-04T10:20:42","codemove":"na"},"geometry":{"type":"Polygon","coordinates":[]}},{"type":"Feature","properties":{"fid":202,"objectid":3462,"lccode":"01","liqcode":null,"mappers":"DJLBuhay, MJVReyes, MITAbigania, KLPapiona, KMVitto","project":"MELP","province":"Agusan del Norte","otherinfo":null,"datemapped":2020,"publishdate":2021,"globalid":"{F30BEACC-4BAB-4756-9553-08938B67A184}","st_area(shape)":0.04058329790888213,"st_perimeter(shape)":7.333080156487654,"liqcodepk":null,"creator":null,"createdate":"2021-01-18T08:00:00","editor":null,"modifydate":null,"codemove":null},"geometry":{"type":"MultiPolygon","coordinates":[[[[125.60451751600012,8.759551933000068],[125.60434086500004,8.761960393000036],[125.60473829800004,8.762304861000073],[125.60456376800005,8.763704618000078],[125.60539632600012,8.764404416000048],[125.605854484,8.765527621000045],[125.60817332500004,8.766631549000069],[125.60874459700005,8.767669475000048],[125.61046975800002,8.768581892000043],[125.61190263100002,8.768110516000036],[125.611717934,8.766305612000053],[125.61061906400003,8.765015196000036],[125.61073518600006,8.763688054000058],[125.6120954160001,8.762510220000024],[125.61135046500011,8.761318848000029],[125.61120806400002,8.760267233000036],[125.61175344300011,8.75747482400004],[125.61271845100009,8.75657940000002],[125.61357816600001,8.75677478700004],[125.6145652140001,8.757616162000037],[125.61545952700011,8.756171922000023],[125.61575763400003,8.75515830300003],[125.61561852200009,8.754204307000068],[125.61618823200003,8.753621312000062],[125.61732102100007,8.753899564000049],[125.61798423200003,8.753651564000052],[125.61922198,8.753873843000065],[125.62026688100002,8.75200777500004],[125.62148724800011,8.751641995000057],[125.62223079700004,8.751942884000071],[125.6243540790001,8.75127932000004],[125.62724041000001,8.751959491000033],[125.62898915100003,8.751114321000044],[125.63109084000007,8.751563136000073],[125.63270004700009,8.751343564000026],[125.63349413600008,8.750599193000026],[125.63453918800008,8.750615786000024],[125.6349704810001,8.750134698000066],[125.63647910500002,8.749480781000045],[125.63731606800002,8.748563621000073],[125.63834741600012,8.747985354000036],[125.6383141030001,8.746658551000053],[125.64080952000008,8.744610488000033],[125.64173880900012,8.744533057000067],[125.64274353400005,8.744891847000074],[125.64462889700009,8.746399792000034],[125.64480564600001,8.747319593000045],[125.64658705000011,8.747373053000048],[125.64659600800009,8.748641188000025],[125.6480444770001,8.749189063000074],[125.648560287,8.750030918000048],[125.64734385500005,8.751053987000033],[125.64766625200004,8.753385213000055],[125.64860131500006,8.753429395000069],[125.64825363700005,8.754733843000052],[125.64955161300009,8.75511133800006],[125.65000626500012,8.754824667000037],[125.64967329200012,8.753607890000067],[125.64911091400006,8.75339200800005],[125.64883182500012,8.752379406000044],[125.64972583700012,8.751426227000021],[125.65057041100012,8.751652983000042],[125.65154202600003,8.750868053000035],[125.65135123800009,8.750268364000021],[125.65007034900009,8.750568472000053],[125.64940724600002,8.74910623900007],[125.64862732200002,8.748630203000062],[125.64817852700004,8.747233651000043],[125.64895179900009,8.74676914200006],[125.64851489500008,8.745462087000021],[125.64912491200005,8.744192498000075],[125.6491959340001,8.743094643000061],[125.65038843400009,8.74303031100004],[125.6511403610001,8.743337255000027],[125.65208057100004,8.742888718000074],[125.65316810000003,8.743010848000038],[125.65340948300002,8.74405492900007],[125.65497678600002,8.74573035900005],[125.65515265300007,8.746725702000049],[125.65591141800009,8.747392227000034],[125.6563928920001,8.746423899000034],[125.65525999400005,8.745387268000059],[125.65582478800003,8.744267579000052],[125.65436298100008,8.744071545000056],[125.65421516900007,8.743325917000048],[125.65592446100004,8.743260855000074],[125.6570540350001,8.744437033000052],[125.65830360700011,8.74510235300005],[125.65917996600001,8.744894645000041],[125.65878979500006,8.743833627000072],[125.65757066800008,8.743315904000042],[125.65665134500011,8.742225002000053],[125.65528658500011,8.742104614000027],[125.65440465600012,8.741221783000073],[125.65275168000005,8.741360360000042],[125.651907821,8.740337019000036],[125.65209050015254,8.740180060554831],[125.650498456914,8.739795133693342],[125.64967084300008,8.740224753000062],[125.64898666700003,8.741657460000052],[125.64822007300008,8.74163279000004],[125.64798087100006,8.740822093000075],[125.64721255200004,8.740015280000023],[125.64616260600008,8.739853082000023],[125.64509712500002,8.740184158000034],[125.644146953,8.739307008000024],[125.64341387100002,8.740396820000056],[125.6418014090001,8.740974907000066],[125.64134957500005,8.74180553600007],[125.63982131600004,8.743061444000032],[125.6387424300001,8.743346784000039],[125.63761373700004,8.742884346000038],[125.63554775300008,8.743570588000066],[125.63401394000005,8.74613143500005],[125.6318012920001,8.746756062000031],[125.63098400400008,8.747899007000058],[125.63035276800008,8.747905650000066],[125.62948920400005,8.747221655000033],[125.627885062,8.747095801000055],[125.62732948500003,8.747566741000071],[125.62724974600007,8.74848375700003],[125.62667831100009,8.748902393000037],[125.6244855980001,8.749174832000051],[125.62400054400007,8.74884257800005],[125.62273807200006,8.749234631000036],[125.62091081300004,8.749128304000063],[125.62053871500008,8.749513715000031],[125.61837922200004,8.750324403000032],[125.61786094100012,8.751447414000042],[125.61625294600003,8.753015640000058],[125.615736018,8.752699798000036],[125.61569481400012,8.74963995300004],[125.61667157400007,8.747759408000036],[125.61622638900006,8.747194578000059],[125.6163541852648,8.746820656600157],[125.61468366875592,8.748071236489547],[125.61500932700007,8.748561626000026],[125.61458643300011,8.749247615000057],[125.61356401600007,8.749501029000044],[125.61265756800005,8.751858836000052],[125.61304029000009,8.753055498000037],[125.61268148000012,8.753779807000056],[125.6131997540001,8.754816436000054],[125.61081434700007,8.755321451000043],[125.60925951500009,8.755334736000066],[125.60859615600009,8.755857269000046],[125.60769301000006,8.755928791000027],[125.60661724840608,8.755733575540289],[125.60661034267679,8.755741262003873],[125.60430522515063,8.758878537668576],[125.60451751600012,8.759551933000068]]],[[[125.6319695430001,8.74035214400004],[125.63200957316343,8.740098814305242],[125.63135302435478,8.740267288661139],[125.6319695430001,8.74035214400004]]],[[[125.62614773000007,8.74286319300006],[125.6266771610001,8.742971099000043],[125.62743005300001,8.741818222000067],[125.62832815500009,8.741955448000054],[125.62833498244876,8.741051882862438],[125.62660033620124,8.741682989603762],[125.62614773000007,8.74286319300006]]],[[[125.62197098600006,8.743976427000064],[125.6227549247485,8.743253657302088],[125.62150636005592,8.743851781575431],[125.62197098600006,8.743976427000064]]],[[[125.62450127800003,8.743688345000066],[125.62495059905417,8.742283195869089],[125.62424436326108,8.742540135579123],[125.62304928727612,8.743112642308445],[125.62450127800003,8.743688345000066]]],[[[125.60516964900013,8.772380235000071],[125.60415436900009,8.772384561000022],[125.6043075240001,8.774648161000071],[125.60310789400013,8.776940812000023],[125.60178820900012,8.778159290000076],[125.60178524200012,8.778720061000056],[125.60362732600005,8.780408580000026],[125.60437908000007,8.781679950000067],[125.60643353300009,8.782431472000042],[125.60818780100011,8.78397899200007],[125.61049279500003,8.784215729000039],[125.61255738300008,8.785626789000048],[125.61318107900003,8.784888826000042],[125.61253996200003,8.783347969000033],[125.61118713500002,8.783043801000074],[125.60915382400002,8.782005277000053],[125.60741972900007,8.78190529300002],[125.60599218100002,8.780571414000063],[125.60562607400004,8.779722903000051],[125.60594966300005,8.777705048000026],[125.60528545800003,8.776074742000048],[125.60573677200011,8.773003403000073],[125.60516964900013,8.772380235000071]]]]}}]}