{"type":"FeatureCollection","features":[{"type":"Feature","properties":{"fid":16,"objectid":1861,"lccode":"07","liqcode":"2010600070000000","mappers":"MITAbigania, DJLBuhay","project":"Cebu Multi-Hazard Mapping","province":"Cebu","otherinfo":null,"datemapped":2016,"publishdate":null,"globalid":"{C53CB127-C117-49E0-BEC2-5269D4100696}","st_area(shape)":0.02168908556211633,"st_perimeter(shape)":9.044842936189752,"liqcodepk":"201060007000000000053","creator":"SNOOPYPC","createdate":"2019-02-19T15:21:28","editor":"LENOVO","modifydate":"2019-03-10T17:50:55","codemove":"na"},"geometry":{"type":"Polygon","coordinates":[]}},{"type":"Feature","properties":{"fid":25,"objectid":1871,"lccode":"07","liqcode":"2010600070000000","mappers":"PJDelosReyes, ACPidlaoan","project":"READY","province":"Bohol","otherinfo":null,"datemapped":2008,"publishdate":null,"globalid":"{24D4EC03-5006-45F6-AD98-9C84307BF998}","st_area(shape)":0.043795715989879205,"st_perimeter(shape)":13.054531899785706,"liqcodepk":"201060007000000000063","creator":"SNOOPYPC","createdate":"2019-02-19T15:21:28","editor":"LENOVO","modifydate":"2019-03-10T17:50:55","codemove":"na"},"geometry":{"type":"Polygon","coordinates":[]}},{"type":"Feature","properties":{"fid":40,"objectid":1888,"lccode":"05","liqcode":"2010600050000000","mappers":"MITAbigania, DJLBuhay","project":"Cebu Multi-Hazard Mapping","province":"Cebu","otherinfo":null,"datemapped":2016,"publishdate":null,"globalid":"{6B113CA7-0A16-415A-8510-4591ABBD34CB}","st_area(shape)":0.011277825227989341,"st_perimeter(shape)":7.92725888477651,"liqcodepk":"201060005000000000082","creator":"SNOOPYPC","createdate":"2019-02-19T15:21:28","editor":"LENOVO","modifydate":"2019-03-10T17:50:55","codemove":"na"},"geometry":{"type":"Polygon","coordinates":[]}},{"type":"Feature","properties":{"fid":52,"objectid":1901,"lccode":"05","liqcode":"2010600050000000","mappers":"PJDelosReyes, ACPidlaoan","project":"READY","province":"Bohol","otherinfo":null,"datemapped":2008,"publishdate":null,"globalid":"{6E90D3A1-B401-4667-B32C-C40E7388D630}","st_area(shape)":0.010533775520257218,"st_perimeter(shape)":3.327242015595593,"liqcodepk":"201060005000000000095","creator":"SNOOPYPC","createdate":"2019-02-19T15:21:28","editor":"LENOVO","modifydate":"2019-03-10T17:50:55","codemove":"na"},"geometry":{"type":"Polygon","coordinates":[[[124.29004325800008,9.937121805000062],[124.28913977700006,9.93763824000007],[124.28798418200006,9.939822792000028],[124.28768789600008,9.941234694000059],[124.28506824700004,9.94393791400006],[124.28287456000011,9.945314245000075],[124.28283613500001,9.946511349000046],[124.28227743500008,9.946983686000065],[124.28263309500005,9.949718236000022],[124.28237971100009,9.951087120000066],[124.28109216900009,9.952631014000076],[124.28002316800007,9.95494350100006],[124.27924981800005,9.955673135000042],[124.28071741400005,9.956052276000033],[124.280249463,9.957678550000026],[124.28055328900007,9.958190341000034],[124.28184669200004,9.958142620000046],[124.28249618600012,9.958824129000048],[124.28370215200005,9.958477497000048],[124.28404146600006,9.957022760000028],[124.28524625300008,9.956376889000067],[124.28657595300001,9.954576340000074],[124.28808237800003,9.953886629000067],[124.288386789,9.954526604000021],[124.28791964100003,9.956366596000063],[124.28899814800002,9.956490722000067],[124.28990563200011,9.95700017400003],[124.29201695600013,9.956607257000028],[124.29240235500004,9.955921858000066],[124.29507168700002,9.954885528000034],[124.29580199300005,9.954198700000061],[124.29782574600007,9.953464180000026],[124.29984687700005,9.952088424000067],[124.30156295600011,9.94990156500006],[124.30375708700001,9.948653399000023],[124.30526487400004,9.948305520000075],[124.30917753200004,9.945511578000039],[124.31084956900008,9.94311114100003],[124.31209921300002,9.942935290000037],[124.31408539400002,9.943611489000032],[124.31667118600001,9.943302087000063],[124.31813438800009,9.942612334000044],[124.32011260700007,9.94132207300004],[124.32106205000002,9.941532130000043],[124.3235245520001,9.94271933900006],[124.32602078200011,9.941597949000027],[124.32740018100003,9.941507050000041],[124.3289059980001,9.940688802000066],[124.32963343200004,9.939318024000043],[124.33053459200005,9.938245789000064],[124.33058977199983,9.937997421128143],[124.3301605021847,9.937744643137316],[124.32610741508819,9.935863721859349],[124.32188792453576,9.934385671362543],[124.31754265133007,9.933324722486004],[124.3131134261172,9.932691090796133],[124.30864288717278,9.932490878277605],[124.30417407044307,9.932726014575323],[124.29974999576343,9.933394238353205],[124.295413253214,9.934489118951412],[124.29120559357067,9.936000118138205],[124.29016243982515,9.93649419962537],[124.29004325800008,9.937121805000062]]]}},{"type":"Feature","properties":{"fid":66,"objectid":1930,"lccode":"06","liqcode":"2010600060000000","mappers":"PJDelosReyes, ACPidlaoan","project":"READY","province":"Bohol","otherinfo":null,"datemapped":2008,"publishdate":null,"globalid":"{D63C31C2-E045-4C3D-A292-79031F3364A0}","st_area(shape)":0.006668240995906857,"st_perimeter(shape)":3.000289637999567,"liqcodepk":"201060006000000000128","creator":"SNOOPYPC","createdate":"2019-02-19T15:21:28","editor":"LENOVO","modifydate":"2019-03-10T17:50:55","codemove":"na"},"geometry":{"type":"Polygon","coordinates":[]}},{"type":"Feature","properties":{"fid":91,"objectid":1919,"lccode":"06","liqcode":"2010600060000000","mappers":"MITAbigania, DJLBuhay","project":"Cebu Multi-Hazard Mapping","province":"Cebu","otherinfo":null,"datemapped":2016,"publishdate":null,"globalid":"{EDC44F95-33EE-45BE-975C-40D829DF5178}","st_area(shape)":0.012637099910309046,"st_perimeter(shape)":9.940336299625505,"liqcodepk":"201060006000000000117","creator":"SNOOPYPC","createdate":"2019-02-19T15:21:28","editor":"LENOVO","modifydate":"2019-03-10T17:50:55","codemove":"na"},"geometry":{"type":"Polygon","coordinates":[]}}]}