{"type":"FeatureCollection","features":[{"type":"Feature","properties":{"fid":17,"objectid":1863,"lccode":"07","liqcode":"2010600070000000","mappers":"MITAbigania, DJVRivera, PJDelosReyes, ACPidlaoan","project":"GMMA-READY","province":"Bulacan","otherinfo":null,"datemapped":2013,"publishdate":null,"globalid":"{70EE0B92-1310-4863-994B-262A0419985C}","st_area(shape)":0.05460415768202689,"st_perimeter(shape)":2.604001747145809,"liqcodepk":"201060007000000000055","creator":"SNOOPYPC","createdate":"2019-02-19T15:21:28","editor":"LENOVO","modifydate":"2019-03-10T17:50:55","codemove":"na"},"geometry":{"type":"Polygon","coordinates":[[[120.95173825300003,15.126930793000039],[120.95257558100003,15.128813508000063],[120.95275558600008,15.13018137100005],[120.95233065000002,15.131329370000062],[120.9509663020001,15.132602822000031],[120.95113236900009,15.135187726000028],[120.94889402700005,15.135515578000021],[120.94777695800009,15.13689839500006],[120.94372757800011,15.139031445000057],[120.94336300217071,15.139565616839876],[120.9433625610432,15.139566779887616],[120.94221201477718,15.143857198660397],[120.94149990435689,15.148236490838343],[120.94123311319879,15.152662488859095],[120.94126474110664,15.153436059738365],[120.9420943660001,15.15283861000006],[120.9451727820001,15.150188434000027],[120.94864961200005,15.14706356300007],[120.95203429300011,15.143268272000062],[120.9544176820001,15.141185477000022],[120.95660504700004,15.139005297000036],[120.95858256200006,15.138162324000062],[120.9601671150001,15.137220111000035],[120.96038423200001,15.135117745000057],[120.95833484500008,15.133186241000036],[120.95472943400013,15.129231804000034],[120.95259728900011,15.125673457000063],[120.95233130924925,15.123820125273983],[120.95206629096194,15.124098901789134],[120.95058248616516,15.12600496322799],[120.95173825300003,15.126930793000039]]]}},{"type":"Feature","properties":{"fid":41,"objectid":1890,"lccode":"05","liqcode":"2010600050000000","mappers":"MITAbigania, DJVRivera, PJDelosReyes, ACPidlaoan","project":"GMMA-READY","province":"Bulacan","otherinfo":null,"datemapped":2013,"publishdate":null,"globalid":"{962B0335-0147-4964-AF91-92BBA0EB94A8}","st_area(shape)":0.006518104617901708,"st_perimeter(shape)":1.6741822690840518,"liqcodepk":"201060005000000000084","creator":"SNOOPYPC","createdate":"2019-02-19T15:21:28","editor":"LENOVO","modifydate":"2019-03-10T17:50:55","codemove":"na"},"geometry":{"type":"Polygon","coordinates":[[[120.98478069600004,15.108521041000078],[120.98570197700006,15.11001186800007],[120.98601361500006,15.113505861000018],[120.98594993200004,15.115035704000038],[120.98485841000002,15.115934647000076],[120.98191028800012,15.11533448900008],[120.98061998500009,15.116422889000033],[120.98085569100012,15.117525008000028],[120.98038952400009,15.119959916000026],[120.98249316600004,15.121365648000051],[120.98327406600005,15.122090031000022],[120.98484077800005,15.123012678000068],[120.98349034000012,15.125248450000072],[120.98269774100004,15.12576744000006],[120.98179307400005,15.127720159000033],[120.98049589000004,15.129525899000049],[120.98030828100002,15.133732923000021],[120.98063885200008,15.135218402000078],[120.98237762400004,15.138773031000026],[120.98416026000005,15.142901901000073],[120.98508346500013,15.144201414000063],[120.9867397060001,15.14608141500003],[120.98701701500009,15.14799689800003],[120.98744658900011,15.149435466000059],[120.98880974300005,15.15107370400005],[120.98908661900009,15.153037065000037],[120.99100003500006,15.153771440000074],[120.99630659500008,15.154966456000066],[120.99713285400004,15.156121607000042],[120.99711619400013,15.157891012000047],[120.99636365200003,15.15936694900006],[120.9947664250001,15.161648369000035],[120.993673768,15.162642991000043],[120.9909530750001,15.163957822000045],[120.9887748540001,15.165181875000027],[120.98694898500003,15.16559596800005],[120.98246292700004,15.166129801000066],[120.97975667700008,15.165914213000061],[120.97768325400013,15.166469562000032],[120.97624309300012,15.167747896000037],[120.97613503100001,15.168751259000029],[120.97878627300008,15.174753185000043],[120.97938637000006,15.178967163000037],[120.98056131700002,15.179695111000054],[120.983810284,15.17981989500004],[120.98523552900008,15.180119579000063],[120.98699920800006,15.181091809000064],[120.9878773910001,15.181960533000053],[120.98875059800002,15.183355276000043],[120.98874017900005,15.184455195000053],[120.98763459800011,15.186788712000068],[120.98570193500005,15.188062692000075],[120.9841704070001,15.188575044000062],[120.98302867400004,15.189521361000054],[120.98336020900001,15.190911268000036],[120.98414088400013,15.191683462000071],[120.98553942100013,15.19480458000004],[120.9868622450001,15.195533830000045],[120.98802234100003,15.197839811000053],[120.9886875512687,15.198206507262746],[120.99187938596305,15.198082806539064],[120.99640164986378,15.197472541109406],[120.99988952662869,15.196657039946087],[120.99973235800007,15.196456472000024],[120.99915757800012,15.19472960200005],[120.99684116400009,15.189687184000036],[120.99523461700004,15.187711985000023],[120.9948478770001,15.185740871000064],[120.99556529000004,15.184537296000027],[120.99432482800012,15.18396160500004],[120.99350842800006,15.182770477000078],[120.99338687400008,15.179995415000063],[120.99355180100008,15.178179546000026],[120.99531645200011,15.175702425000054],[120.99466007,15.174849616000078],[120.99463103100005,15.173406489000058],[120.99589089500012,15.170356786000074],[120.99630106100004,15.168638675000066],[120.99735763400008,15.16625668200004],[120.99894407500005,15.165122962000053],[121.00051296100004,15.165854302000072],[121.00145298900009,15.165384362000053],[121.00157576200002,15.162802803000034],[121.00210674500012,15.158694442000062],[121.00290086300005,15.15803185100004],[121.00368869300007,15.158038827000038],[121.00461566900005,15.158955799000065],[121.00514739000005,15.16001264500005],[121.00677492800003,15.159740108000051],[121.00816077200011,15.158987144000033],[121.00886040500008,15.15789329700004],[121.0092789350001,15.155266451000044],[121.01258094700006,15.154960849000078],[121.01567801000012,15.155514194000034],[121.0172482390001,15.156101872000022],[121.01887618800004,15.155781453000031],[121.0194079780001,15.156838274000052],[121.01919725300003,15.158319064000068],[121.01963285200009,15.159135989000053],[121.02129672600006,15.160250631000054],[121.02282309400005,15.160264021000044],[121.02470435200009,15.159180476000074],[121.02687665400005,15.158577745000061],[121.02795814600005,15.158778466000058],[121.03006782500007,15.159610010000048],[121.03184752700008,15.15886033200007],[121.03378612850526,15.159199257920278],[121.03399381656408,15.157918675948277],[121.03405188032616,15.156948476338645],[121.03354153900011,15.156722823000054],[121.03152276900005,15.156705210000043],[121.0307424560001,15.155885384000046],[121.03000519800004,15.155735477000064],[121.02808272400013,15.15595781800004],[121.02734591400008,15.155760024000072],[121.0268801850001,15.152886331000051],[121.0256563810001,15.152110313000033],[121.02523097300002,15.150193541000025],[121.0244480450001,15.149660609000023],[121.02460821500006,15.148322834000053],[121.02604495199999,15.147378839000053],[121.0270922090001,15.145953143000042],[121.02842644000009,15.145438726000066],[121.02945677500007,15.14583033700006],[121.03019709400006,15.145645540000034],[121.03119993400001,15.143693354000046],[121.03041885600008,15.142969110000024],[121.03057669100008,15.141870447000027],[121.03245561100005,15.141025936000062],[121.03252078997043,15.140939642756456],[121.03237703535905,15.140360174271473],[121.0317697481537,15.138663696562991],[121.02952094200009,15.13889593100003],[121.02872926400005,15.139319423000074],[121.02699232700002,15.140786897000053],[121.02629329000003,15.141833031000035],[121.02597971400009,15.143791221000068],[121.02318083700004,15.14295362100006],[121.02150063500007,15.143608531000043],[121.02005331200009,15.145700231000038],[121.01836106100008,15.147646301000066],[121.01800126800003,15.149269248000053],[121.01504712000008,15.14924327500006],[121.01451216800001,15.148521145000077],[121.01531735800006,15.146662983000057],[121.01631052900008,15.145762944000067],[121.01636734900002,15.144950436000046],[121.01558669300005,15.144178356000054],[121.01435763200004,15.143976197000026],[121.01277946600008,15.14424923800004],[121.01134404400013,15.145049690000063],[121.01063285400006,15.147386944000061],[121.00920321700005,15.147565683000039],[121.00793698300002,15.146071874000032],[121.00572233300012,15.145956638000031],[121.00598058200002,15.144667546000052],[121.00579263200007,15.143709416000032],[121.00496009000005,15.143223778000053],[121.00392616300007,15.143214636000035],[121.00084257700007,15.143880819000058],[120.99935787800007,15.144680663000033],[120.9977291040001,15.145096703000034],[120.99659803200005,15.144943199000064],[120.99483285400002,15.144162223000027],[120.99419822200004,15.143582723000062],[120.98944463100008,15.141196927000069],[120.98856162000004,15.140854248000037],[120.98597307800003,15.138631137000061],[120.98520206500007,15.136854712000055],[120.98405672800006,15.133018381000058],[120.98389142900011,15.129668981000062],[120.98489457200003,15.127717041000041],[120.98495330700007,15.12671322300002],[120.98728877700012,15.124438427000028],[120.98687368000003,15.121469491000022],[120.98343179800008,15.12100831900006],[120.98216408700011,15.119705733000044],[120.98207284800003,15.118939624000063],[120.98282485100003,15.117511603000029],[120.98592704500005,15.117443593000077],[120.98637418300008,15.11701709300007],[120.98750238900006,15.117457625000043],[120.98863503300004,15.11741982500007],[120.99194364400012,15.116349313000054],[120.99288615400009,15.115592385000074],[120.9933373230001,15.114735509000068],[120.99359783000013,15.11320740400004],[120.99312629000008,15.111003177000045],[120.9929495770001,15.108849358000043],[120.99225744237211,15.108136019197564],[120.98817167499273,15.107904609810486],[120.98415165653904,15.10806060938045],[120.98478069600004,15.108521041000078]]]}},{"type":"Feature","properties":{"fid":92,"objectid":1921,"lccode":"06","liqcode":"2010600060000000","mappers":"MITAbigania, DJVRivera, PJDelosReyes, ACPidlaoan","project":"GMMA-READY","province":"Bulacan","otherinfo":null,"datemapped":2013,"publishdate":null,"globalid":"{AD30FD4E-4565-4937-AC43-8F5ADC174AC4}","st_area(shape)":0.01360742625474969,"st_perimeter(shape)":2.0316826783369253,"liqcodepk":"201060006000000000119","creator":"SNOOPYPC","createdate":"2019-02-19T15:21:28","editor":"LENOVO","modifydate":"2019-03-10T17:50:55","codemove":"na"},"geometry":{"type":"Polygon","coordinates":[[[120.95259728900011,15.125673457000063],[120.95472943400013,15.129231804000034],[120.95833484500008,15.133186241000036],[120.96038423200001,15.135117745000057],[120.9601671150001,15.137220111000035],[120.95858256200006,15.138162324000062],[120.95660504700004,15.139005297000036],[120.9544176820001,15.141185477000022],[120.95203429300011,15.143268272000062],[120.94864961200005,15.14706356300007],[120.9451727820001,15.150188434000027],[120.9420943660001,15.15283861000006],[120.94126474110664,15.153436059738365],[120.94141423792313,15.157092572958772],[120.94204156230008,15.16148408142683],[120.9431090726974,15.165794721364755],[120.94460651492275,15.169982975996524],[120.94651949195442,15.174008504608445],[120.94882960165887,15.177832531262764],[120.95151461320536,15.181418218533462],[120.9545486805099,15.184731022653617],[120.95790259067873,15.187739026639212],[120.96154404507686,15.19041324816398],[120.96543797032606,15.192727919200912],[120.969546856239,15.19466073471697],[120.97383111742965,15.196193068004899],[120.97824947510333,15.197310150558183],[120.98275935532752,15.198001214737515],[120.98731729992008,15.198259597837799],[120.9886875512687,15.198206507262746],[120.98802234100003,15.197839811000053],[120.9868622450001,15.195533830000045],[120.98553942100013,15.19480458000004],[120.98414088400013,15.191683462000071],[120.98336020900001,15.190911268000036],[120.98302867400004,15.189521361000054],[120.9841704070001,15.188575044000062],[120.98570193500005,15.188062692000075],[120.98763459800011,15.186788712000068],[120.98874017900005,15.184455195000053],[120.98875059800002,15.183355276000043],[120.9878773910001,15.181960533000053],[120.98699920800006,15.181091809000064],[120.98523552900008,15.180119579000063],[120.983810284,15.17981989500004],[120.98056131700002,15.179695111000054],[120.97938637000006,15.178967163000037],[120.97878627300008,15.174753185000043],[120.97613503100001,15.168751259000029],[120.97624309300012,15.167747896000037],[120.97768325400013,15.166469562000032],[120.97975667700008,15.165914213000061],[120.98246292700004,15.166129801000066],[120.98694898500003,15.16559596800005],[120.9887748540001,15.165181875000027],[120.9909530750001,15.163957822000045],[120.993673768,15.162642991000043],[120.9947664250001,15.161648369000035],[120.99636365200003,15.15936694900006],[120.99711619400013,15.157891012000047],[120.99713285400004,15.156121607000042],[120.99630659500008,15.154966456000066],[120.99100003500006,15.153771440000074],[120.98908661900009,15.153037065000037],[120.98880974300005,15.15107370400005],[120.98744658900011,15.149435466000059],[120.98701701500009,15.14799689800003],[120.9867397060001,15.14608141500003],[120.98508346500013,15.144201414000063],[120.98416026000005,15.142901901000073],[120.98237762400004,15.138773031000026],[120.98063885200008,15.135218402000078],[120.98030828100002,15.133732923000021],[120.98049589000004,15.129525899000049],[120.98179307400005,15.127720159000033],[120.98269774100004,15.12576744000006],[120.98349034000012,15.125248450000072],[120.98484077800005,15.123012678000068],[120.98327406600005,15.122090031000022],[120.98249316600004,15.121365648000051],[120.98038952400009,15.119959916000026],[120.98085569100012,15.117525008000028],[120.98061998500009,15.116422889000033],[120.98191028800012,15.11533448900008],[120.98485841000002,15.115934647000076],[120.98594993200004,15.115035704000038],[120.98601361500006,15.113505861000018],[120.98570197700006,15.11001186800007],[120.98478069600004,15.108521041000078],[120.98415165653904,15.10806060938045],[120.98361153955177,15.108081563496178],[120.97909120605773,15.10869180476989],[120.97465418010978,15.109729456989248],[120.97034316635028,15.111184529962813],[120.9661996582034,15.113043016049621],[120.96226353918966,15.115287024852169],[120.95857269962085,15.117894955213234],[120.95516267233592,15.120841702871347],[120.95233130924925,15.123820125273983],[120.95259728900011,15.125673457000063]]]}},{"type":"Feature","properties":{"fid":171,"objectid":9613,"lccode":"01","liqcode":"2010600010000000","mappers":"DJLBuhay, MJVReyes, MITAbigania, KLPapiona, KMVitto","project":"MELP","province":"Nueva Ecija","otherinfo":"hazard boundary with Pangasinan updated on 2024","datemapped":2018,"publishdate":null,"globalid":"{142EC992-C228-490B-8C06-5B4A68BA1242}","st_area(shape)":0.21874224791512728,"st_perimeter(shape)":7.9099228422392365,"liqcodepk":"201060001000000000019","creator":"SNOOPYPC","createdate":"2019-02-19T15:21:28","editor":"LENOVO","modifydate":"2019-03-10T17:53:06","codemove":"na"},"geometry":{"type":"Polygon","coordinates":[]}},{"type":"Feature","properties":{"fid":218,"objectid":8402,"lccode":"07","liqcode":null,"mappers":"PJDelosReyes, ACPidlaoan","project":"READY","province":"Pampanga","otherinfo":"as of October 2015, reupdate 2021","datemapped":2008,"publishdate":null,"globalid":"{523547B0-D8C4-4084-9EE8-AA20F7B2A472}","st_area(shape)":0.07539067039960894,"st_perimeter(shape)":2.422972172763333,"liqcodepk":null,"creator":null,"createdate":null,"editor":null,"modifydate":"1905-07-07T08:00:00","codemove":null},"geometry":{"type":"Polygon","coordinates":[[[120.94372757800011,15.139031445000057],[120.94777695800009,15.13689839500006],[120.94889402700005,15.135515578000021],[120.95113236900009,15.135187726000028],[120.9509663020001,15.132602822000031],[120.95233065000002,15.131329370000062],[120.95275558600008,15.13018137100005],[120.95257558100003,15.128813508000063],[120.95173825300003,15.126930793000039],[120.95058248616516,15.12600496322799],[120.94931337397288,15.127635196846876],[120.94693043757866,15.131416545293686],[120.94494044020684,15.135406544072632],[120.94336300217071,15.139565616839876],[120.94372757800011,15.139031445000057]]]}}]}