{"type":"FeatureCollection","features":[{"type":"Feature","properties":{"fid":21,"objectid":1867,"lccode":"07","liqcode":"2010600070000000","mappers":"DJLBuhay","project":"Negros Occidental Multi-Hazard Mapping","province":"Negros Occidental","otherinfo":null,"datemapped":2018,"publishdate":null,"globalid":"{BDFFB75F-E1DC-47A8-B9CF-113E0CE8D2E7}","st_area(shape)":0.051419613090430895,"st_perimeter(shape)":11.901738684521376,"liqcodepk":"201060007000000000059","creator":"SNOOPYPC","createdate":"2019-02-19T15:21:28","editor":"LENOVO","modifydate":"2019-03-10T17:50:55","codemove":"na"},"geometry":{"type":"Polygon","coordinates":[]}},{"type":"Feature","properties":{"fid":22,"objectid":1868,"lccode":"07","liqcode":"2010600070000000","mappers":"MITAbigania, DJLBuhay","project":"Negros Oriental Multi-Hazard Mapping","province":"Negros Oriental","otherinfo":null,"datemapped":2017,"publishdate":null,"globalid":"{DD19AC1E-E4AF-4725-8D22-5A4E2D602DF5}","st_area(shape)":0.012485453463948751,"st_perimeter(shape)":5.8153243548739875,"liqcodepk":"201060007000000000060","creator":"SNOOPYPC","createdate":"2019-02-19T15:21:28","editor":"LENOVO","modifydate":"2019-03-10T17:50:55","codemove":"na"},"geometry":{"type":"Polygon","coordinates":[]}},{"type":"Feature","properties":{"fid":46,"objectid":1895,"lccode":"05","liqcode":"2010600050000000","mappers":"DJLBuhay","project":"Negros Occidental Multi-Hazard Mapping","province":"Negros Occidental","otherinfo":null,"datemapped":2018,"publishdate":null,"globalid":"{149718D2-4D93-4457-9604-37CB70EA27A9}","st_area(shape)":0.01745435689673941,"st_perimeter(shape)":6.697527242466418,"liqcodepk":"201060005000000000089","creator":"SNOOPYPC","createdate":"2019-02-19T15:21:28","editor":"LENOVO","modifydate":"2019-03-10T17:50:55","codemove":"na"},"geometry":{"type":"MultiPolygon","coordinates":[[[[122.63773218800009,9.84548126900006],[122.63932550000004,9.844991019000076],[122.64147034300004,9.844929739000062],[122.6430636550001,9.844500770000023],[122.64422799800002,9.844684614000071],[122.64502465300006,9.844378208000022],[122.64667924600008,9.844378208000022],[122.64845640100009,9.843704114000047],[122.65115277500001,9.842172083000033],[122.65182686800006,9.841375428000045],[122.65348146100008,9.84027236600002],[122.6552586160001,9.841007740000064],[122.65550374100006,9.841497990000052],[122.6570357710001,9.84272361400002],[122.65826139600004,9.84272361400002],[122.660590081,9.842049521000034],[122.66199954900004,9.840394929000068],[122.66414439200004,9.840333647000023],[122.66518617300007,9.839659554000036],[122.66579898500002,9.838617773000069],[122.6657377040001,9.837698555000031],[122.66659564100009,9.837147024000046],[122.66733101600006,9.837575993000028],[122.66702460900001,9.839414429000044],[122.66782126600003,9.839536992000033],[122.6683727960001,9.840211085000021],[122.66929201400002,9.838066242000027],[122.6701499510001,9.837943680000024],[122.67113045100008,9.838433930000063],[122.67284632500002,9.838556492000066],[122.67370426200011,9.838985461000052],[122.6745621990001,9.838372648000073],[122.67284632500002,9.837330867000048],[122.67162070100005,9.835921400000073],[122.67137557600005,9.834818338000046],[122.67174326300007,9.833102464000035],[122.67088532600008,9.831631714000025],[122.67125301300007,9.830528653000044],[122.67247863800004,9.829670716000065],[122.6746847610001,9.82881277900003],[122.67627807300006,9.82617768700004],[122.67701344800003,9.825809999000054],[122.67738113500002,9.826790498000037],[122.6783616340001,9.827158186000077],[122.67866804000006,9.828322529000047],[122.67872932200011,9.829854560000056],[122.67970982100009,9.830528653000044],[122.68259003800006,9.83108018400003],[122.6825287570001,9.830222246000064],[122.67989366500001,9.829548153000072],[122.68056775800005,9.828077404000055],[122.68050647600013,9.826729218000025],[122.67977110200002,9.824829500000021],[122.68056775800005,9.822010564000037],[122.68013879000013,9.82127518900006],[122.68118057000004,9.819007784000062],[122.68234491300007,9.817353192000038],[122.68430591200001,9.817720879000033],[122.68534769300004,9.818578816000068],[122.68657331700003,9.818823941000062],[122.6875538170001,9.818149847000027],[122.6875538170001,9.817230629000049],[122.68828919100008,9.815147067000055],[122.68828919100008,9.814227850000066],[122.68877944100007,9.81355375700002],[122.6898212220001,9.813676319000024],[122.69092428300007,9.814718099000062],[122.69165965800005,9.814044006000076],[122.69165965800005,9.812940944000049],[122.69123069000013,9.811531476000027],[122.69141453300007,9.810244571000053],[122.69245631400008,9.809386634000075],[122.694785,9.808467415000052],[122.69545909300007,9.807793322000066],[122.69545909300007,9.80699666600003],[122.69490756200003,9.805342073000077],[122.6932529700001,9.802706981000025],[122.69245631400008,9.802952106000019],[122.69080172100008,9.804606699000033],[122.69025019000003,9.805464636000066],[122.69074043900002,9.808222290000058],[122.68884072200001,9.809202790000029],[122.68902456500008,9.809999446000063],[122.69012762800003,9.811102508000035],[122.69025019000003,9.811776601000076],[122.68939225300007,9.812389413000062],[122.6875538170001,9.812757100000054],[122.68706356700012,9.814105287000075],[122.68577666100009,9.815085787000045],[122.68387694400009,9.815208349000045],[122.68185466400008,9.813860162000024],[122.68118057000004,9.812634538000054],[122.67995494600007,9.811837883000065],[122.67940341500002,9.810550977000046],[122.67866804000006,9.810489695000054],[122.677503697,9.811163788000044],[122.67627807300006,9.813921444000071],[122.677503697,9.813798881000023],[122.67915829000003,9.814105287000077],[122.68013879000013,9.81588244200003],[122.67989366500001,9.818211129000074],[122.67952597700003,9.819007784000064],[122.67701344800003,9.82243953200003],[122.67358169900001,9.822255688000041],[122.67303016900007,9.822500814000023],[122.6720496690001,9.824645657000076],[122.6714368570001,9.824768219000024],[122.66959842000004,9.824094125000045],[122.6678825460001,9.824339250000035],[122.66757614000007,9.823848999999997],[122.6657377040001,9.82354259400006],[122.66402183000002,9.824645657000076],[122.6637154230001,9.825626156000055],[122.662122113,9.827525873000068],[122.66126417600003,9.827709717000063],[122.66052880100005,9.827158186000075],[122.66028367600006,9.826116405000048],[122.65918061400009,9.826116405000048],[122.65936445800004,9.82470693700003],[122.65770986500002,9.822623376000022],[122.65758730300003,9.821397751000061],[122.6567906460001,9.82133647100005],[122.65599399100006,9.82219440800003],[122.65581014700003,9.822991063000075],[122.65685192800002,9.824155406000047],[122.65709705300003,9.825319750000062],[122.65593270900001,9.827648435000073],[122.65495221000003,9.82869021600004],[122.653665304,9.829486872000073],[122.65231711800004,9.828445092000038],[122.651643024,9.828567654000041],[122.65017227600003,9.82991584000007],[122.6480887140001,9.83016096600005],[122.64667924600008,9.829609435000064],[122.64649540300003,9.827464592000068],[122.64600515300003,9.826545374000032],[122.64465696600007,9.825319750000064],[122.64465696600007,9.824645657000074],[122.64576002800003,9.82354259400006],[122.64563746600004,9.822623376000024],[122.6436764660001,9.823297469000067],[122.64196059300001,9.824584375000025],[122.64067368700012,9.82446181300003],[122.63944806200004,9.822623376000022],[122.6372419390001,9.823971563000043],[122.63711937700009,9.82446181300003],[122.63852884500011,9.825013343000023],[122.6388965320001,9.825871281000046],[122.63981575000003,9.826545374000032],[122.63969318700003,9.828016123000053],[122.63981575000003,9.83101890300003],[122.63920293800003,9.832367089000057],[122.63963190600008,9.833715276000019],[122.63950934400009,9.834634494000056],[122.63846756300006,9.835186025000041],[122.6391416560001,9.835921400000073],[122.64116393700012,9.834879619000048],[122.6441667160001,9.834695776000046],[122.6454536220001,9.833653995000075],[122.6463115590001,9.833653995000077],[122.64735334000012,9.834205525000073],[122.6480887140001,9.833653995000077],[122.64925305700002,9.83377655700002],[122.64968202500008,9.834573213000056],[122.6510914930001,9.835063463000038],[122.65060124400009,9.836166524000022],[122.65084636900008,9.837269587000039],[122.65305249200004,9.837085743000046],[122.65348146100008,9.837330867000048],[122.6528686490001,9.839782116000036],[122.651643024,9.841069022000056],[122.65035611900008,9.841191584000056],[122.649498181,9.841865677000044],[122.64802743300004,9.842355927000026],[122.64600515300003,9.842723614000022],[122.6454536220001,9.843275145000064],[122.64361518500004,9.84370411400005],[122.64238956100009,9.84370411400005],[122.64055112400003,9.84407180100004],[122.63901909400012,9.844071801000043],[122.63736450100009,9.845297425000068],[122.63773218800009,9.84548126900006]],[[122.66276918500013,9.835517213000058],[122.66191257900003,9.836123975000021],[122.660484902,9.835517213000058],[122.66012798300007,9.83455353200003],[122.65930706900008,9.834482147000072],[122.65909291800007,9.833625542000048],[122.65973537200011,9.832983087000057],[122.65944983600004,9.831805254000072],[122.6600209080001,9.831234183000047],[122.66248365000001,9.831162800000074],[122.66273349300002,9.830698804000063],[122.66498208300004,9.83077018800003],[122.66541038600008,9.830056350000065],[122.66637406900009,9.830234810000034],[122.66787312900011,9.829306819000065],[122.66787312900011,9.828414522000056],[122.66872973500007,9.82827175500006],[122.67008602700002,9.826844077000032],[122.67229892600005,9.826308699000036],[122.6734410680001,9.826487159000068],[122.67283430500004,9.827557916000044],[122.6694435730001,9.829021285000064],[122.66937219000012,9.830520345000027],[122.66862265900012,9.83159110300005],[122.66876542700003,9.833518466000044],[122.66801589700002,9.83516029300006],[122.66648114400006,9.836802122000053],[122.66555315500011,9.836802122000051],[122.66387563400008,9.83612397500002],[122.66276918500013,9.835517213000058]],[[122.652347146,9.830841572000052],[122.65152623200005,9.831198491000066],[122.65031270600002,9.831198491000066],[122.64909918100011,9.832519092000043],[122.6483139600001,9.832162173000029],[122.64724320200003,9.832447708000073],[122.64645798000004,9.831626794000044],[122.64681489900012,9.83077018800003],[122.64888503000009,9.830805880000069],[122.6495988690001,9.830484653000042],[122.65113362000011,9.830484653000042],[122.65184745900002,9.829699431000055],[122.652347146,9.830841572000052]]],[[[122.68871720800007,9.833982460000069],[122.68971658100008,9.83376830900005],[122.691643944,9.832876011000055],[122.69264331800002,9.832162173000027],[122.69303592900006,9.830448961000057],[122.69371407600009,9.829271128000075],[122.69050180300009,9.82969943100005],[122.6891812020001,9.828807133000055],[122.68839598000011,9.829271128000073],[122.68625446500005,9.82909266800004],[122.68500524800004,9.830306194000059],[122.68632584900001,9.830520345000021],[122.68703968700004,9.83123418300005],[122.68775352600005,9.831269875000032],[122.68825321200006,9.83034188500005],[122.68925258600007,9.83080588000007],[122.68850305600006,9.831769562000034],[122.68828890500004,9.832840320000056],[122.68871720800007,9.833982460000069]]]]}},{"type":"Feature","properties":{"fid":47,"objectid":1896,"lccode":"05","liqcode":"2010600050000000","mappers":"MITAbigania, DJLBuhay","project":"Negros Oriental Multi-Hazard Mapping","province":"Negros Oriental","otherinfo":null,"datemapped":2017,"publishdate":null,"globalid":"{34172A9D-EBC4-4E95-9DC5-EE06261E8E15}","st_area(shape)":0.004550996126503224,"st_perimeter(shape)":3.4158207428182443,"liqcodepk":"201060005000000000090","creator":"SNOOPYPC","createdate":"2019-02-19T15:21:28","editor":"LENOVO","modifydate":"2019-03-10T17:50:55","codemove":"na"},"geometry":{"type":"Polygon","coordinates":[]}},{"type":"Feature","properties":{"fid":61,"objectid":1925,"lccode":"06","liqcode":"2010600060000000","mappers":"DJLBuhay","project":"Negros Occidental Multi-Hazard Mapping","province":"Negros Occidental","otherinfo":null,"datemapped":2018,"publishdate":null,"globalid":"{E5539A65-5F4C-46A4-8778-850E85BFF908}","st_area(shape)":0.021565408471292534,"st_perimeter(shape)":8.733756823540528,"liqcodepk":"201060006000000000123","creator":"SNOOPYPC","createdate":"2019-02-19T15:21:28","editor":"LENOVO","modifydate":"2019-03-10T17:50:55","codemove":"na"},"geometry":{"type":"Polygon","coordinates":[]}},{"type":"Feature","properties":{"fid":62,"objectid":1926,"lccode":"06","liqcode":"2010600060000000","mappers":"MITAbigania, DJLBuhay","project":"Negros Oriental Multi-Hazard Mapping","province":"Negros Oriental","otherinfo":null,"datemapped":2017,"publishdate":null,"globalid":"{74B2E222-6508-40FC-AC5E-08E62D8D455D}","st_area(shape)":0.007665256470503308,"st_perimeter(shape)":5.21375505636718,"liqcodepk":"201060006000000000124","creator":"SNOOPYPC","createdate":"2019-02-19T15:21:28","editor":"LENOVO","modifydate":"2019-03-10T17:50:55","codemove":"na"},"geometry":{"type":"Polygon","coordinates":[]}}]}