{"type":"FeatureCollection","features":[{"type":"Feature","properties":{"fid":97,"objectid":1953,"lccode":"01","liqcode":"2010600010000000","mappers":"DJLBuhay, MJVReyes, MITAbigania, KLPapiona, KMVitto","project":"MELP","province":"Masbate","otherinfo":null,"datemapped":2018,"publishdate":null,"globalid":"{40D12474-2C0F-4764-AF7B-985F1E55E0D2}","st_area(shape)":0.02447278181245312,"st_perimeter(shape)":18.320280805301095,"liqcodepk":"201060001000000000948","creator":null,"createdate":"2019-06-04T13:29:47","editor":"SDE","modifydate":"2019-06-04T11:39:42","codemove":"na"},"geometry":{"type":"Polygon","coordinates":[]}},{"type":"Feature","properties":{"fid":183,"objectid":9622,"lccode":"07","liqcode":null,"mappers":"DJLBuhay, MITAbigania, CJMLegaspi, JKAMarquez, BDBBrusas, HALVidal, EMAACortes","project":"LiquePhi","province":"Albay","otherinfo":null,"datemapped":2024,"publishdate":null,"globalid":"{8E5ED226-E547-4B83-B774-07D16C659D39}","st_area(shape)":0.007338373366357547,"st_perimeter(shape)":4.710497907819426,"liqcodepk":null,"creator":null,"createdate":null,"editor":null,"modifydate":null,"codemove":null},"geometry":{"type":"Polygon","coordinates":[]}},{"type":"Feature","properties":{"fid":184,"objectid":9623,"lccode":"05","liqcode":null,"mappers":"DJLBuhay, MITAbigania, CJMLegaspi, JKAMarquez, BDBBrusas, HALVidal, EMAACortes","project":"LiquePhi","province":"Albay","otherinfo":null,"datemapped":2024,"publishdate":null,"globalid":"{55CC64ED-DF56-457A-ADBC-2E45CE875F47}","st_area(shape)":0.017499136663310114,"st_perimeter(shape)":9.399156011576952,"liqcodepk":null,"creator":null,"createdate":null,"editor":null,"modifydate":null,"codemove":null},"geometry":{"type":"Polygon","coordinates":[]}},{"type":"Feature","properties":{"fid":185,"objectid":9624,"lccode":"06","liqcode":null,"mappers":"DJLBuhay, MITAbigania, CJMLegaspi, JKAMarquez, BDBBrusas, HALVidal, EMAACortes","project":"LiquePhi","province":"Albay","otherinfo":null,"datemapped":2024,"publishdate":null,"globalid":"{B1E6E99D-58E5-41F1-B1D1-4A852A7E4988}","st_area(shape)":0.006334232450352406,"st_perimeter(shape)":4.633656865648006,"liqcodepk":null,"creator":null,"createdate":null,"editor":null,"modifydate":null,"codemove":null},"geometry":{"type":"Polygon","coordinates":[]}},{"type":"Feature","properties":{"fid":215,"objectid":10024,"lccode":"04","liqcode":null,"mappers":"OPCHalasan, KSSochayseng, AATMagnaye, RPADizon, MJVReyes, HALVidal, MITAbigania, DJLBuhay","project":"ACER-DeLTA Liquefaction","province":"Sorsogon","otherinfo":null,"datemapped":2025,"publishdate":2025,"globalid":"{12D7C8C1-E314-4B86-BCC5-4F127142426F}","st_area(shape)":0.012657960679715018,"st_perimeter(shape)":7.598941249861992,"liqcodepk":null,"creator":null,"createdate":null,"editor":"DJLB","modifydate":null,"codemove":null},"geometry":{"type":"Polygon","coordinates":[]}},{"type":"Feature","properties":{"fid":219,"objectid":10025,"lccode":"03","liqcode":null,"mappers":"OPCHalasan, KSSochayseng, AATMagnaye, RPADizon, MJVReyes, HALVidal, MITAbigania, DJLBuhay","project":"ACER-DeLTA Liquefaction","province":"Sorsogon","otherinfo":null,"datemapped":2025,"publishdate":2025,"globalid":"{108A2BB0-5838-458D-851D-FF85658DDEEB}","st_area(shape)":0.007981285865231016,"st_perimeter(shape)":12.722540938965222,"liqcodepk":null,"creator":null,"createdate":null,"editor":"DJLB","modifydate":null,"codemove":null},"geometry":{"type":"Polygon","coordinates":[]}},{"type":"Feature","properties":{"fid":220,"objectid":10026,"lccode":"02","liqcode":null,"mappers":"OPCHalasan, KSSochayseng, AATMagnaye, RPADizon, MJVReyes, HALVidal, MITAbigania, DJLBuhay","project":"ACER-DeLTA Liquefaction","province":"Sorsogon","otherinfo":null,"datemapped":2025,"publishdate":2025,"globalid":"{0E469E1D-2896-4FCF-9EC0-42A4EBCBC73F}","st_area(shape)":0.004418214842083968,"st_perimeter(shape)":15.104630556323594,"liqcodepk":null,"creator":null,"createdate":null,"editor":"DJLB","modifydate":null,"codemove":null},"geometry":{"type":"Polygon","coordinates":[]}}]}