{"type":"FeatureCollection","features":[{"type":"Feature","properties":{"fid":31,"objectid":1877,"lccode":"07","liqcode":"2010600070000000","mappers":"PJDelosReyes, ACPidlaoan","project":"READY","province":"Ilocos Sur","otherinfo":null,"datemapped":2012,"publishdate":null,"globalid":"{9BD19C39-D43F-480F-8D4D-C2FF10071B57}","st_area(shape)":0.01783800115070572,"st_perimeter(shape)":3.398456363100086,"liqcodepk":"201060007000000000070","creator":"SNOOPYPC","createdate":"2019-02-19T15:21:28","editor":"LENOVO","modifydate":"2019-03-10T17:50:55","codemove":"na"},"geometry":{"type":"Polygon","coordinates":[]}},{"type":"Feature","properties":{"fid":58,"objectid":1907,"lccode":"05","liqcode":"2010600050000000","mappers":"PJDelosReyes, ACPidlaoan","project":"READY","province":"Ilocos Sur","otherinfo":null,"datemapped":2012,"publishdate":null,"globalid":"{7D41ABB3-20BB-4A8A-A22A-9DDDC45B8904}","st_area(shape)":0.029120699274048492,"st_perimeter(shape)":9.226907297832456,"liqcodepk":"201060005000000000102","creator":"SNOOPYPC","createdate":"2019-02-19T15:21:28","editor":"LENOVO","modifydate":"2019-03-10T17:50:55","codemove":"na"},"geometry":{"type":"MultiPolygon","coordinates":[[[[120.43514867800003,16.86700426000004],[120.43450827800008,16.868489463000056],[120.43393103522142,16.868636823885577],[120.43396545189448,16.868693779865765],[120.43665878542627,16.872287173070845],[120.43970504930577,16.875609043174048],[120.44307491470731,16.87862738445043],[120.44443820471855,16.879627512298182],[120.44477445100007,16.87886147500007],[120.44488522900008,16.877412612000054],[120.44462031100012,16.87675010500004],[120.44500014100004,16.87565623400008],[120.44478499300011,16.874686690000033],[120.44383317700012,16.87419143000005],[120.443887678,16.873532908000072],[120.4455974350001,16.871972148000054],[120.44543433800004,16.870519868000027],[120.4461893020001,16.868683511000025],[120.44592793100003,16.867757369000056],[120.44478948900007,16.867567449000035],[120.44249952800008,16.86815410600008],[120.44172849000007,16.867792938000036],[120.44147246700004,16.866471339000043],[120.44163538400007,16.86453974600004],[120.44142499100008,16.863218716000063],[120.44166436900002,16.86238668500005],[120.4418870940001,16.859401115000026],[120.44391500300003,16.857932187000074],[120.44528683300007,16.857729581000058],[120.44630722300008,16.856511840000053],[120.44677890800007,16.855375034000076],[120.4467498020001,16.854144217000048],[120.44551639100008,16.85083283700004],[120.44287567700007,16.84697655400004],[120.44262496899998,16.84525950100004],[120.4430439250001,16.844649497000038],[120.44478477700012,16.844143824000067],[120.44699615900004,16.842589262000047],[120.44710508900005,16.84127220700003],[120.44669075400009,16.840240078000022],[120.4464300080001,16.83834932000008],[120.44638458900012,16.83792176700007],[120.44592980100002,16.837038762000077],[120.44435058400005,16.83570069700005],[120.44355174300006,16.83402079600006],[120.44274406400007,16.832999897000033],[120.4428512380001,16.831814665000024],[120.4440883740001,16.83143454900005],[120.44577282500008,16.82950593000004],[120.4459460050001,16.829266464000057],[120.44603798100002,16.82834772600006],[120.44599925000011,16.827588412000065],[120.44616601700011,16.826230830000046],[120.44721887000003,16.825980237000067],[120.44920653800011,16.824071203000074],[120.45108882000011,16.823215658000038],[120.453740808,16.82280914000006],[120.45443044800002,16.822422163000056],[120.45512881100001,16.82137608100004],[120.45505694100005,16.819924931000063],[120.45393578800008,16.81846077800003],[120.45224856800007,16.814968],[120.44846207900002,16.81492101700007],[120.44620103500004,16.813398788000026],[120.44598708300009,16.81234140000004],[120.4463472420001,16.810971763000055],[120.44701039600012,16.807475987000032],[120.44687552684886,16.80682918438654],[120.44401274675504,16.808819598839833],[120.44056406667097,16.811752950917818],[120.43743039574245,16.8149976956835],[120.43464191072297,16.81852259957633],[120.43222547023952,16.822293731295055],[120.43020435598156,16.8262747879825],[120.42859804810547,16.830427444258046],[120.42851661683555,16.83072411137856],[120.42915966400005,16.83203666100008],[120.42947837300005,16.835226292000073],[120.42981993400007,16.83672378800003],[120.42939782400003,16.83736559800008],[120.42725283200002,16.83928001000004],[120.426598366,16.84181034100004],[120.42683862000001,16.84315721200005],[120.42907138000011,16.846221572000047],[120.43117343800009,16.84749225300004],[120.43169164400003,16.847399230000068],[120.43280709300008,16.845173272000068],[120.43349099800002,16.84428586000007],[120.43442594300006,16.843949081000062],[120.43628434500012,16.84412167000005],[120.43684749100011,16.844526936000022],[120.43770389100007,16.846180216000047],[120.43744959300012,16.849711078000038],[120.43774225300001,16.85100893400005],[120.43881477100003,16.851968058000068],[120.43848598200007,16.853357664000043],[120.43708517600011,16.85373839000004],[120.4362461950001,16.854623873000037],[120.4353360790001,16.856951926000022],[120.43392919500002,16.857780535000074],[120.43083617200011,16.860977192000068],[120.43026127703787,16.86193623425249],[120.43165097278428,16.864863482723475],[120.43174450403883,16.865018273289976],[120.43514867800003,16.86700426000004]]],[[[120.46167416500009,16.887222349000073],[120.46289214800004,16.886079497000022],[120.46511384700011,16.884820474000033],[120.46542226200005,16.884245164000045],[120.46533830100009,16.883021983000052],[120.46240928600002,16.88221379600003],[120.46201450800004,16.881758564000055],[120.46250964300008,16.87970616100006],[120.46138605200008,16.87879164800006],[120.4602808190001,16.87865252600005],[120.45742915900007,16.879900418000037],[120.45681159900005,16.88111508200006],[120.4560073470001,16.881298068000035],[120.45535053900005,16.880453618000043],[120.45422353500011,16.87979629800003],[120.45269057300004,16.879519874000035],[120.44799628600003,16.880812345000034],[120.44679091230572,16.881345781990717],[120.45065283408397,16.883640349421736],[120.45478789433407,16.88558666466804],[120.45545185834406,16.885824747633833],[120.45671656500008,16.885713360000068],[120.4583185670001,16.88582978900007],[120.4589784190001,16.886449147000068],[120.45892963036512,16.88707175761477],[120.45910127216894,16.887133300620572],[120.46149249176325,16.887741604962194],[120.46167416500009,16.887222349000073]]],[[[120.51665090900008,16.827971252000054],[120.516471668,16.828953692000027],[120.51473466500012,16.83087904200005],[120.51294785900006,16.831155054000078],[120.51222966900004,16.83153557200006],[120.5120357410001,16.833639877000053],[120.51145915700009,16.834090830000036],[120.50968287700005,16.833565564000022],[120.50863791700012,16.831652312000074],[120.50769392300005,16.831114282000044],[120.50286613100002,16.831215822000043],[120.50235008000006,16.83068297500006],[120.50121053400005,16.828705963000054],[120.49956089000011,16.827489699000072],[120.49924323200004,16.82373392100004],[120.49726675400007,16.821616393000056],[120.49626110400006,16.820815685000067],[120.49574194900003,16.819504358000074],[120.49610930600012,16.816969952000022],[120.49604158700005,16.816887278000024],[120.49510284700011,16.816587481000056],[120.49472552600002,16.81737133400003],[120.4934483200001,16.817899482000033],[120.49306498700003,16.819145437000028],[120.49450544700005,16.821229278000025],[120.49493420900001,16.82297450300006],[120.49573980300012,16.823963052000064],[120.49583625800007,16.82521486200005],[120.49473012200008,16.825609189000037],[120.49389234300008,16.82706714400007],[120.49361973400006,16.828477540000055],[120.4938948150001,16.829024623000066],[120.4955607940001,16.82899058600003],[120.49642722400006,16.829653696000037],[120.49689130500009,16.83085562500003],[120.4976970150001,16.831844172000046],[120.49884499200004,16.832565069000054],[120.50008193400004,16.832960772000035],[120.50105808700005,16.83386983900004],[120.50183045100006,16.834042602000064],[120.50281538700007,16.83508497000003],[120.50385959700009,16.83523502500003],[120.50620214700008,16.834278896000058],[120.50693735600011,16.83442527200004],[120.50697327500006,16.83712765100006],[120.506412511,16.840005919000074],[120.50677554500008,16.84314736300007],[120.50658962800001,16.84463342900005],[120.50597514900005,16.84616015900002],[120.50593009800001,16.84778529000005],[120.50700236100009,16.84942409300004],[120.50689681400003,16.850224272000048],[120.50577521300012,16.85053113000004],[120.50397679900004,16.85167708000006],[120.50322297100001,16.85295014800004],[120.50334754100005,16.85432556800004],[120.50496394800007,16.85617708500007],[120.50579377699998,16.85817922700005],[120.50673158000006,16.859198171000063],[120.5069828500001,16.859979749000047],[120.50654444300005,16.86258478400003],[120.50879276800003,16.86703140100008],[120.50938912400012,16.868710113000077],[120.5102893280001,16.868973006000033],[120.5114152300348,16.870330541100994],[120.51194904813048,16.869655455938855],[120.51436478207864,16.86588326787525],[120.51638479581077,16.86190121429043],[120.51692952078916,16.860491428136104],[120.5164218320001,16.86009431800005],[120.51469238900007,16.85778356300005],[120.51346325800012,16.857219150000045],[120.51282090000008,16.855425292000067],[120.51118299000007,16.85339042700002],[120.51088130100004,16.851005405000024],[120.51051228100005,16.850130741000044],[120.51050007700009,16.847428647000072],[120.51103873300009,16.84624450200005],[120.51180484500004,16.845841640000064],[120.51447234600006,16.845507604000026],[120.51631714000008,16.84626268800002],[120.51748730300007,16.84769655300005],[120.51853040800005,16.847938101000064],[120.51996884393058,16.847955496528407],[120.5200921982885,16.846030764545493],[120.5192651530001,16.846298357000023],[120.51770084500005,16.84591306400006],[120.51643317900005,16.844661251000048],[120.5164041480001,16.843241198000044],[120.514516607,16.842119229000048],[120.5146446120001,16.839602055000057],[120.51619595800001,16.837331036000023],[120.51669586900005,16.835459440000022],[120.51756786200006,16.834233515000054],[120.51875390866064,16.833246370107457],[120.51833157757108,16.831531588571377],[120.51702276114948,16.82786427304392],[120.51665090900008,16.827971252000054]]]]}},{"type":"Feature","properties":{"fid":72,"objectid":1936,"lccode":"06","liqcode":"2010600060000000","mappers":"PJDelosReyes, ACPidlaoan","project":"READY","province":"Ilocos Sur","otherinfo":null,"datemapped":2012,"publishdate":null,"globalid":"{33CDE2C7-9AFF-4DEC-86B5-45B4892EBDFF}","st_area(shape)":0.017363484289297154,"st_perimeter(shape)":5.7193106480781575,"liqcodepk":"201060006000000000135","creator":"SNOOPYPC","createdate":"2019-02-19T15:21:28","editor":"LENOVO","modifydate":"2019-03-10T17:50:55","codemove":"na"},"geometry":{"type":"MultiPolygon","coordinates":[[[[120.43450827800008,16.868489463000056],[120.43514867800003,16.86700426000004],[120.43174450403883,16.865018273289976],[120.43393103522142,16.868636823885577],[120.43450827800008,16.868489463000056]]],[[[120.43083617200011,16.860977192000068],[120.43392919500002,16.857780535000074],[120.4353360790001,16.856951926000022],[120.4362461950001,16.854623873000037],[120.43708517600011,16.85373839000004],[120.43848598200007,16.853357664000043],[120.43881477100003,16.851968058000068],[120.43774225300001,16.85100893400005],[120.43744959300012,16.849711078000038],[120.43770389100007,16.846180216000047],[120.43684749100011,16.844526936000022],[120.43628434500012,16.84412167000005],[120.43442594300006,16.843949081000062],[120.43349099800002,16.84428586000007],[120.43280709300008,16.845173272000068],[120.43169164400003,16.847399230000068],[120.43117343800009,16.84749225300004],[120.42907138000011,16.846221572000047],[120.42683862000001,16.84315721200005],[120.426598366,16.84181034100004],[120.42725283200002,16.83928001000004],[120.42939782400003,16.83736559800008],[120.42981993400007,16.83672378800003],[120.42947837300005,16.835226292000073],[120.42915966400005,16.83203666100008],[120.42851661683555,16.83072411137856],[120.42742203703202,16.83471172075892],[120.4266876734711,16.839086368662322],[120.4264020581489,16.84350926650463],[120.42656797233533,16.84793782549285],[120.42718384988275,16.852329399418448],[120.42824379109022,16.85664169523528],[120.42973761830667,16.860833180352877],[120.43026127703787,16.86193623425249],[120.43083617200011,16.860977192000068]]]]}},{"type":"Feature","properties":{"fid":170,"objectid":9612,"lccode":"01","liqcode":"2010600010000000","mappers":"DJLBuhay, MJVReyes, MITAbigania, KLPapiona, KMVitto","project":"MELP","province":"La Union","otherinfo":"hazard boundary with Pangasinan updated on 2024","datemapped":2017,"publishdate":null,"globalid":"{556DE1FA-9488-4F33-9543-8B7DFFAA63AD}","st_area(shape)":0.022191914159391556,"st_perimeter(shape)":5.763901795210022,"liqcodepk":"201060001000000000017","creator":"SNOOPYPC","createdate":"2019-02-19T15:21:28","editor":"LENOVO","modifydate":"2019-03-10T17:53:06","codemove":"na"},"geometry":{"type":"MultiPolygon","coordinates":[[[[120.44598708300009,16.81234140000004],[120.44620103500004,16.813398788000026],[120.44846207900002,16.81492101700007],[120.45224856800007,16.814968],[120.45393578800008,16.81846077800003],[120.45505694100005,16.819924931000063],[120.45512881100001,16.82137608100004],[120.45443044800002,16.822422163000056],[120.453740808,16.82280914000006],[120.45108882000011,16.823215658000038],[120.44920653800011,16.824071203000074],[120.44721887000003,16.825980237000067],[120.44616601700011,16.826230830000046],[120.44599925000011,16.827588412000065],[120.44745798100007,16.82707105000003],[120.44907381000007,16.82706075300007],[120.44954955800006,16.826240664000068],[120.45033390000003,16.826331665000055],[120.45115389300008,16.82793555700005],[120.4522591020001,16.827855932000034],[120.45327521300011,16.826454578000043],[120.45472205300005,16.82633735300004],[120.4552449470001,16.826633107000074],[120.45583914500004,16.82803224500003],[120.45665913900007,16.828168746000067],[120.45807333000006,16.82996599700004],[120.45945187000008,16.83043236900005],[120.46066403400005,16.83028449500005],[120.4611037410001,16.829818122000063],[120.46282691600004,16.829681623000056],[120.46453820600004,16.83000012200006],[120.46501356500006,16.829783997000042],[120.46447878600009,16.82854412300003],[120.46369741600006,16.82769668000003],[120.465218563,16.827150675000045],[120.46485016000007,16.825455775000023],[120.46328147700001,16.825535402000074],[120.46221192000007,16.82629754000004],[120.4612255520001,16.82587665800003],[120.46078584500003,16.823556103000048],[120.46200989300009,16.822702951000057],[120.46260409100013,16.82173604100007],[120.46431538200011,16.821861171000023],[120.46288898400006,16.820719115000028],[120.46181411700002,16.821192824000036],[120.46050063000008,16.820598493000034],[120.45934788500006,16.821178643000056],[120.45896502500013,16.82019143800005],[120.45941918900007,16.819597445000056],[120.45938353699998,16.81767496300005],[120.45806534400003,16.81753539500005],[120.4573038440001,16.81588897200004],[120.45755581100003,16.814734379000072],[120.45853977600007,16.815035785000077],[120.45839595400003,16.81397048500003],[120.45773249100012,16.813560797000033],[120.45763826800008,16.811695608000033],[120.45821890900005,16.81051952000007],[120.46009657500008,16.81051952000007],[120.46110671200005,16.810883555000036],[120.46211684900005,16.81079254700006],[120.46275858300011,16.80997346600003],[120.4612493190001,16.80997346600003],[120.45958556500013,16.809290895000064],[120.45853977600007,16.807891619000028],[120.45610871200006,16.808953281000075],[120.45487292900009,16.808340975000014],[120.45358220500009,16.808382344000044],[120.45296195600008,16.807265808000068],[120.4523693320001,16.80853937900002],[120.45120792100012,16.80852632000006],[120.4501816070001,16.809204232000067],[120.44951937200007,16.808900780000045],[120.44874121300006,16.809523171000023],[120.4471474180001,16.80995803400003],[120.4463472420001,16.810971763000055],[120.44598708300009,16.81234140000004]],[[120.45005658800007,16.82417501700007],[120.45082238700003,16.82359282500005],[120.45208264100006,16.82398204200006],[120.45126424400007,16.824677782000034],[120.45005658800007,16.82417501700007]]],[[[120.46138605200008,16.87879164800006],[120.46250964300008,16.87970616100006],[120.46201450800004,16.881758564000055],[120.46240928600002,16.88221379600003],[120.46533830100009,16.883021983000052],[120.46542226200005,16.884245164000045],[120.46720021400007,16.884552200000034],[120.46727338000005,16.882994519000018],[120.46596725300004,16.882647436000067],[120.46577710900011,16.88106675100005],[120.46632377200001,16.880247974000042],[120.46807071400009,16.88020248600003],[120.46906896700011,16.879417822000047],[120.47120808000011,16.878849222000042],[120.47215781800003,16.879824279000044],[120.47397430700003,16.879437363000022],[120.4744488130001,16.877941305000036],[120.47321040500003,16.87751611500005],[120.47304400100006,16.87690068500007],[120.47178565500008,16.876160622000043],[120.46983397500001,16.876656698000033],[120.466896216,16.876943823000033],[120.46577112100012,16.876859885000044],[120.46364245100004,16.877619611000057],[120.46181933200012,16.877532501000076],[120.4602808190001,16.87865252600005],[120.46138605200008,16.87879164800006]]],[[[120.4440883740001,16.83143454900005],[120.4428512380001,16.831814665000024],[120.44274406400007,16.832999897000033],[120.44355174300006,16.83402079600006],[120.44435058400005,16.83570069700005],[120.44592980100002,16.837038762000077],[120.44638458900012,16.83792176700007],[120.44695885400007,16.83698421200006],[120.44592950000003,16.83601470700006],[120.4450687750001,16.834510402000028],[120.44555654700004,16.832593592000023],[120.44448699000007,16.831956603000037],[120.44445444100006,16.831288542000035],[120.44577282500008,16.82950593000004],[120.4440883740001,16.83143454900005]]],[[[120.49610930600012,16.816969952000022],[120.49689301300009,16.815538270000047],[120.49626687400007,16.81333677500003],[120.4971426100001,16.81126828800006],[120.49697754300006,16.810233869000047],[120.49574435600005,16.808913999000026],[120.49445655300009,16.809486204000052],[120.49545816700005,16.810301394000078],[120.49574758600012,16.812068617000023],[120.49553826300007,16.813270541000065],[120.49506816200005,16.81392440500002],[120.49604158700005,16.816887278000024],[120.49610930600012,16.816969952000022]]],[[[120.44669075400009,16.840240078000022],[120.44738005800002,16.83957015100003],[120.44846728700008,16.839831743000047],[120.44867905800004,16.838912185000023],[120.44778764000012,16.838463112000053],[120.4464300080001,16.83834932000008],[120.44669075400009,16.840240078000022]]],[[[120.4459460050001,16.829266464000057],[120.44704204200004,16.829186811000056],[120.4471489980001,16.82829955900007],[120.44603798100002,16.82834772600006],[120.4459460050001,16.829266464000057]]]]}}]}