{"type":"FeatureCollection","features":[{"type":"Feature","properties":{"fid":89,"objectid":1949,"lccode":"01","liqcode":"2010600010000000","mappers":"DJLBuhay, MITAbigania, KLPapiona, KMVitto","project":"MELP","province":"Agusan del Sur","otherinfo":null,"datemapped":2018,"publishdate":null,"globalid":"{1E6CEE5B-C387-4818-8ED8-6D59425E2C9E}","st_area(shape)":0.13568303251391492,"st_perimeter(shape)":20.45926534020769,"liqcodepk":"201060001000000000548","creator":null,"createdate":"2019-06-04T13:29:47","editor":"SDE","modifydate":"2019-06-04T10:20:42","codemove":"na"},"geometry":{"type":"MultiPolygon","coordinates":[[[[125.77719213300009,8.277227319000076],[125.77789295000002,8.276548332000061],[125.77858424800003,8.274506806000034],[125.77855525600012,8.273448002000066],[125.77953554300008,8.273613326000033],[125.78011641900002,8.274316896000073],[125.78109550600003,8.274310107000078],[125.78180114200008,8.273635864000026],[125.7816756630001,8.272164170000053],[125.78223889200001,8.270343463000073],[125.78332980900005,8.26985779100005],[125.78447550600004,8.268970127000046],[125.7886226820001,8.269017821000032],[125.7888964020001,8.269723511000052],[125.78918560638148,8.269848694331914],[125.79149133793219,8.267737463668066],[125.79445681157254,8.264431887893217],[125.79708270412381,8.260852680380925],[125.79934373591027,8.257034316209191],[125.80121814331592,8.253013572227175],[125.8017938922862,8.251374406179423],[125.79989865900005,8.249944418000041],[125.79916359700007,8.24983479100007],[125.79843840600006,8.249079661000051],[125.79739283900005,8.249861457000065],[125.79895769900008,8.251270522000029],[125.79942444900007,8.252127850000022],[125.79937360400004,8.253089183000043],[125.79839649700013,8.253368504000035],[125.797306337,8.251898763000042],[125.79628684200009,8.252293118000066],[125.79507706300001,8.25224415900004],[125.79274180800009,8.25107713800003],[125.79297756100006,8.253217394000046],[125.79229157300007,8.253948875000049],[125.79037733100007,8.254736695000075],[125.78996095800005,8.255590608000034],[125.78857120200007,8.255887117000041],[125.7865278610001,8.254686908000052],[125.78519293700005,8.253214037000019],[125.78421516100002,8.252699676000075],[125.78366943300011,8.253143313000065],[125.78363704500008,8.25400412600004],[125.78081285500004,8.253698564000048],[125.78048251100006,8.253127122000024],[125.78051077500002,8.251673483000047],[125.77998886700004,8.251160737000019],[125.77856897900004,8.251266173000031],[125.77817705700011,8.250121425000032],[125.77751800300007,8.249571119000054],[125.77749333000008,8.248424085000067],[125.77884723300009,8.247114282000043],[125.77887494700006,8.245165910000024],[125.77999924500013,8.243455032000039],[125.78127674000007,8.242203129000073],[125.78138565900008,8.241303536000032],[125.78034147900007,8.240220667000072],[125.77816433800002,8.239088239000067],[125.77704963500003,8.238904685000017],[125.77499830500005,8.239301315000032],[125.77175322000006,8.239189797000053],[125.76914014600005,8.238863536000054],[125.76782885500006,8.23772508500002],[125.7682870770001,8.236323460000051],[125.76717163400009,8.234645780000049],[125.76622391,8.234664242000063],[125.76517243600006,8.233559849000073],[125.76395812400004,8.233197643000041],[125.76358354600005,8.234106723000027],[125.76416660900009,8.235586777000037],[125.76618634000009,8.23617055300002],[125.76598960600008,8.236638064000031],[125.76455005600006,8.236671852000029],[125.76277176200007,8.236301564000032],[125.76067529800002,8.235152517000076],[125.76078202400004,8.233927813000037],[125.76037692400007,8.233643720000032],[125.76055542100005,8.23169179000007],[125.76097126600008,8.23075183700007],[125.75988943000003,8.229764768000052],[125.76033865500006,8.228097853000065],[125.76017413400007,8.226069941000048],[125.76068367300002,8.225146083000023],[125.75998249200008,8.224722765000022],[125.76009733500008,8.223632082000051],[125.75933631700002,8.222884257000034],[125.7592336680001,8.22191677500007],[125.75819688400009,8.221194738000065],[125.7579289890001,8.220116046000042],[125.7590659540001,8.21926642500006],[125.75858952700003,8.218308197000056],[125.7588309780001,8.216928005000057],[125.75938356000005,8.21633136500003],[125.75833450900006,8.21452169500003],[125.75768127900004,8.214440096000033],[125.75755494700002,8.217003659000058],[125.75797767800009,8.217515864000061],[125.75788926000008,8.218504189000042],[125.75658374400007,8.218962324000074],[125.75689512600002,8.219807555000044],[125.75555617400005,8.221021533000055],[125.7570261730001,8.221931866000032],[125.757477891,8.223064303000058],[125.75816437200002,8.223442103000023],[125.75865422900004,8.224885053000035],[125.75939438800002,8.226087230000072],[125.75857473100007,8.226464572000056],[125.75718825400008,8.225846631000023],[125.75651865300004,8.224776538000073],[125.75554572500005,8.225662921000033],[125.75560653700006,8.226131059000068],[125.75761219300011,8.227465636000032],[125.75780545700002,8.228210812000043],[125.75752661200012,8.229532318000052],[125.75839359500003,8.229985377000048],[125.75799799500011,8.231078187000037],[125.75825334600005,8.23191792300003],[125.75774586500006,8.233489615000053],[125.75694199900012,8.233839360000047],[125.7549425630001,8.233413169000073],[125.75358081600008,8.23359460000006],[125.75308671700007,8.234324714000023],[125.75186131300006,8.234792079000044],[125.75093550100009,8.23460682500007],[125.74922834100006,8.234809726000035],[125.7488170670001,8.233626798000044],[125.74933168500002,8.233087793000038],[125.74836753400007,8.232463254000036],[125.74660449700004,8.23291514400006],[125.74682119400006,8.230924689000062],[125.7473515700001,8.22988455500007],[125.74668186500003,8.228801423000048],[125.74566469500007,8.230244076000075],[125.74491433700008,8.23000056300003],[125.74418656800002,8.230855897000025],[125.74362583000004,8.229665088000047],[125.7428403680001,8.229598309000036],[125.74275400300007,8.228504405000024],[125.74380310400011,8.227521899000065],[125.74441803500008,8.227613339000072],[125.7447562210001,8.226540046000027],[125.74381509000011,8.226469952000059],[125.74262113400005,8.225923452000073],[125.74253924000006,8.225178140000025],[125.74335493500007,8.223209277000022],[125.74451045800004,8.22375125700006],[125.7464727900001,8.22297290900002],[125.74564647600006,8.22144854900006],[125.745001977,8.221943007000048],[125.7429726160001,8.221693842000038],[125.7419854740001,8.221210476000067],[125.74242606900009,8.219980990000067],[125.74305525300008,8.21974493500005],[125.74405271400008,8.218232073000024],[125.74523426200005,8.21907270400004],[125.74616357800005,8.218122094000023],[125.74889952400008,8.218187144000067],[125.74945880000007,8.217513968000047],[125.74887768700012,8.216752935000043],[125.74760926300007,8.217239689000055],[125.74702667700001,8.216263507000065],[125.74622745200008,8.216938312000023],[125.74539841500005,8.216764655000079],[125.74602403000006,8.215266274000042],[125.74550512300004,8.214827542000021],[125.74472427700005,8.216434554000044],[125.74358650400005,8.216729160000058],[125.74266001700003,8.216341004000071],[125.74154754400001,8.216826682000029],[125.74127782200003,8.217736945000071],[125.74009319400012,8.218199204000028],[125.7391904530001,8.217775021000023],[125.73967569400008,8.216609042000075],[125.74054953300005,8.216316239000035],[125.7403469530001,8.21476371500006],[125.73933493900007,8.214149021000026],[125.73934541000006,8.21315920500007],[125.73989637500006,8.212554407000027],[125.74208519500007,8.211966707000045],[125.74233986900003,8.211312342000042],[125.74382990800005,8.211302225000052],[125.74376594300008,8.210370322000072],[125.74146656800008,8.209926933000078],[125.741358063,8.210903039000074],[125.73893477900003,8.211773073000074],[125.7377213540001,8.211530283000059],[125.73705506100009,8.212347609000062],[125.73641366400011,8.211539143000039],[125.73412293700007,8.211662231000046],[125.73447574700003,8.212377030000026],[125.73605831600001,8.21221092300004],[125.73702550100006,8.213252454000042],[125.73760244300001,8.21344358400006],[125.73805641900003,8.214442479000068],[125.73689778900005,8.215671635000035],[125.73734936200003,8.216792165000072],[125.73720188900006,8.218036287000077],[125.73588041700009,8.218021338000026],[125.73493845000007,8.21923259500005],[125.73418842400008,8.219432617000049],[125.73330463700007,8.219086884000033],[125.73301730300011,8.218313264000072],[125.73389345700002,8.218006112000069],[125.73341200100003,8.217077028000062],[125.73251890800009,8.217011355000066],[125.73152907200006,8.215425894000022],[125.7299900800001,8.215651458000027],[125.72904891500004,8.214868911000053],[125.72798267300006,8.214747021000049],[125.72810248300004,8.213311829000077],[125.7272342870001,8.212672220000057],[125.72727298900008,8.212012142000047],[125.72631949200002,8.211393524000071],[125.72639417800008,8.210516453000027],[125.72582207400002,8.209308557000043],[125.72379470700004,8.209346133000052],[125.72370658800003,8.208737113000042],[125.72333058447227,8.208446597345473],[125.72215433042591,8.210049337303046],[125.72327259200006,8.210198332000063],[125.72345298200003,8.211320720000062],[125.72292273800008,8.211682890000077],[125.72163967300004,8.211433346000035],[125.7216297540001,8.21209323200003],[125.72364764100007,8.212423885000023],[125.72419036000008,8.21389764300005],[125.72521614200002,8.214421446000074],[125.72491975600009,8.215298421000057],[125.7223080760001,8.214455402000054],[125.72232802500004,8.215272869000046],[125.72424992800006,8.216307011000026],[125.7244026730001,8.217596928000034],[125.725358432,8.21840807600006],[125.72539230000005,8.219153727000046],[125.72657148700011,8.218944950000036],[125.7279280250001,8.219409131000022],[125.72945361500001,8.219327097000074],[125.73051887600003,8.219627450000075],[125.73054101200012,8.220438559000058],[125.72923205900008,8.22061953800005],[125.72965905300009,8.222007998000038],[125.73134873500011,8.22153158700007],[125.73166800800003,8.222605209000049],[125.73432786700005,8.222061254000039],[125.73442890700004,8.22280166300004],[125.73598462500003,8.223779760000069],[125.73704812100006,8.225062441000032],[125.73667348200003,8.22642285400002],[125.73561425200013,8.227667387000052],[125.73422161300005,8.22730365600006],[125.7330722060001,8.227658088000053],[125.73252390400012,8.228187743000037],[125.73164100400004,8.227955300000076],[125.73038230600002,8.22811921600004],[125.72911716400007,8.227338873000066],[125.72897537800007,8.22941968300006],[125.72792969600003,8.229151837000073],[125.72772428900011,8.227180952000024],[125.72579494600006,8.225486603000032],[125.7251719420001,8.224209429000043],[125.72395945500013,8.223758615000065],[125.72307018500011,8.22284661100002],[125.72273193600007,8.223919903000024],[125.72334368600002,8.22499807500003],[125.72431937500006,8.225440316000059],[125.72519844700003,8.226318335000029],[125.72529159900012,8.227615762000024],[125.72588298900006,8.228125752000041],[125.72559183800001,8.229418666000074],[125.72434349600009,8.229343432000066],[125.72372542399998,8.228439163000075],[125.72272647600003,8.22763309100003],[125.72313872900008,8.226855738000038],[125.72186961900002,8.226548741000045],[125.71996244800005,8.22557187800004],[125.71881738700007,8.226569329000029],[125.71850639200012,8.227417717000034],[125.71707555100011,8.226859724000063],[125.71732540300002,8.225245399000075],[125.71652878200008,8.224547911000057],[125.71717023700012,8.223596891000058],[125.71684357000004,8.222136009000053],[125.71634492624288,8.22141976240751],[125.71571948472346,8.22319917518601],[125.714667491946,8.227507000338493],[125.71459823011212,8.227994959965972],[125.71588558000008,8.22736365700007],[125.71685819100003,8.22853330800007],[125.71887363500002,8.228491035000047],[125.71848239700012,8.230243631000064],[125.71810163000009,8.230712376000042],[125.71683147400006,8.230960005000043],[125.71580419500003,8.231636311000042],[125.71862542000008,8.231868311000028],[125.71877760200003,8.233074564000049],[125.71831699300003,8.234153465000075],[125.7169945510001,8.235537012000064],[125.7162757220001,8.235697252000021],[125.71607776400002,8.236583129000053],[125.71841365600007,8.236017522000056],[125.71962754000003,8.234551032000068],[125.72056297800007,8.234484950000025],[125.72150390600007,8.233462570000029],[125.72095960600005,8.232820772000023],[125.7204160890001,8.230529417000069],[125.72129128400003,8.23042788400005],[125.72204316600005,8.229837099000065],[125.7230615620001,8.231384140000044],[125.72403094800006,8.231018993000022],[125.72536529700005,8.232240755000019],[125.72570240200002,8.23311344900003],[125.72661443100003,8.233838814000023],[125.72592892800003,8.234867044000053],[125.7244905560001,8.235079978000043],[125.72495144800008,8.235806006000074],[125.72698677400003,8.236915833000069],[125.72695462500008,8.235720732000061],[125.72732003900012,8.23476200400006],[125.72907229200007,8.233219735000034],[125.73195883100003,8.232124393000047],[125.7321124990001,8.231434850000028],[125.73298985600002,8.231299809000063],[125.73341354500008,8.23009206100005],[125.73571191200007,8.229316251000057],[125.7359212020001,8.22833945900004],[125.73710155200003,8.227261447000048],[125.73800403599999,8.227293570000027],[125.73825895000006,8.228075961000057],[125.73905123100008,8.228835576000051],[125.7390001880001,8.229792168000072],[125.74010184200006,8.230874800000034],[125.73952736000001,8.23231045700004],[125.7395184070001,8.234506521000071],[125.73811838000006,8.23681102900002],[125.73997097100006,8.237515614000076],[125.73976140000003,8.23844937900003],[125.7405090430001,8.238994132000073],[125.7411045120001,8.238344614000026],[125.74391005300004,8.238038635000066],[125.74502321600005,8.239393692000021],[125.74481332900008,8.240279645000042],[125.74400108100009,8.240811116000033],[125.74415244600004,8.241885855000021],[125.74516520500003,8.242596129000049],[125.74343913200005,8.24284695800003],[125.74304067100002,8.243553803000053],[125.74165463900012,8.244399959000022],[125.74061291600005,8.246462979000057],[125.74142977600002,8.246600851000041],[125.7419864520001,8.247290333000024],[125.7415888580001,8.248799126000051],[125.73824197800002,8.250662698000044],[125.73654903500005,8.252252029000033],[125.7350679540001,8.253242261000025],[125.73452241700012,8.254178315000045],[125.73436685000001,8.256376823000037],[125.73319593500003,8.256239592000043],[125.73208869800011,8.25435374600005],[125.73109041100008,8.253657686000055],[125.7306520840001,8.252728318000038],[125.730623551,8.25066301000004],[125.73008366000009,8.249619580000058],[125.73114010900007,8.246682693000025],[125.73038762400006,8.24613317500007],[125.73011298000007,8.245274412000072],[125.72914789200003,8.244515956000043],[125.72836301700009,8.24435273800003],[125.72697200500012,8.245179764000056],[125.72583476400008,8.245216157000074],[125.72479361000002,8.24456339200003],[125.72367039700009,8.242433762000076],[125.72247478700001,8.242355787000067],[125.722020799,8.243348584000044],[125.72104633300012,8.244029335000052],[125.71969487900003,8.244325349000063],[125.71866847600008,8.245838394000032],[125.71721476200003,8.245919933000039],[125.71481698702732,8.245247136686086],[125.715496861724,8.247875043529836],[125.71625647800012,8.248981662000064],[125.71592616190661,8.249502731431011],[125.71742621265943,8.253591086227111],[125.71819560039808,8.25518342485932],[125.71840033700005,8.255092028000034],[125.71922994400008,8.256391711000049],[125.7190885615635,8.257031488567895],[125.71935643591824,8.257585873542016],[125.72110168821997,8.260442081973645],[125.72173271100007,8.260218924000071],[125.72270172300011,8.260843488000035],[125.72270711200008,8.261632363000045],[125.72411259700006,8.262913777000051],[125.72408746546168,8.26457335969422],[125.72434605882128,8.264915768883315],[125.72451158240513,8.26509520980072],[125.72677194800006,8.264358796000069],[125.7284920210001,8.263213951000067],[125.72899675700012,8.263325271000042],[125.72861893200002,8.264924780000058],[125.72977864200006,8.264307285000028],[125.73042682400012,8.264338738000049],[125.7312907040001,8.26607801800003],[125.73113009700013,8.267154893000052],[125.73173149000002,8.269111112000076],[125.73283851000008,8.26955779200006],[125.733397372,8.268812893000076],[125.73410777000005,8.269166646000029],[125.73418493500002,8.269919165000033],[125.73315120300003,8.271408394000046],[125.73201064100012,8.271320538000056],[125.73114187400006,8.270621220000066],[125.72980169482058,8.270356866120983],[125.73067552114362,8.271134982460572],[125.73426843759778,8.273751446316483],[125.73810154633188,8.276004457467673],[125.74213792116784,8.277872314193043],[125.74633867651826,8.27933702558772],[125.74979128561465,8.280173272226625],[125.74986564300004,8.279748575000044],[125.74956675600004,8.278172837000055],[125.74782485700007,8.276152778000037],[125.74609485500004,8.275853855000038],[125.74500570800001,8.274522578000074],[125.74430663500006,8.274073149000058],[125.74138151900002,8.274475654000073],[125.74084895200008,8.273809924000034],[125.74220728200011,8.27241408800006],[125.74155637600008,8.271988229000042],[125.74167010800011,8.271079021000046],[125.7438064050001,8.271136133000027],[125.745002171,8.270530303000042],[125.74536948500008,8.268113285000023],[125.74483758500004,8.267543180000075],[125.74437191200003,8.26613591000006],[125.74445077500002,8.263649147000024],[125.74384030600002,8.26212333500007],[125.74203393500012,8.261179430000027],[125.74147640900001,8.260370430000025],[125.74142233100008,8.259486275000029],[125.7407459740001,8.258845426000052],[125.74044831500011,8.257436997000072],[125.74085232000003,8.256860496000057],[125.74277174600002,8.256799587000046],[125.74338448300011,8.25516979300005],[125.74436341700005,8.25444593000003],[125.75075569500008,8.252250703000074],[125.75569367500009,8.25145190200004],[125.75663316600003,8.251971389000062],[125.75685788800001,8.25323685300003],[125.7565553500001,8.254601558000047],[125.755895011,8.256279492000033],[125.75590657700003,8.257952817000044],[125.75674993300005,8.25844905300005],[125.75689854300003,8.259117394000043],[125.75630407800008,8.259910364000065],[125.75766212500002,8.261956937000036],[125.7581796290001,8.26391365400002],[125.75652846400011,8.264594356000032],[125.75646375100007,8.265646654000022],[125.7568286730001,8.266361320000044],[125.75814901500009,8.266423967000037],[125.75926396600005,8.264551657000027],[125.76002855900003,8.264068288000033],[125.76125339900011,8.26420329900003],[125.76255934900009,8.265652560000035],[125.76235083700011,8.266729749000035],[125.76285892200008,8.267323893000025],[125.7642354950001,8.267247836000024],[125.76492795000001,8.269509317000031],[125.76514048600006,8.271085621000053],[125.76499087200011,8.27234886900004],[125.76542751000011,8.273019996000075],[125.76617603000012,8.272986147000042],[125.76806831200008,8.273848033000036],[125.7690610070001,8.273726433000038],[125.76955634400008,8.274554923000041],[125.7724154340001,8.275711313000045],[125.77299607100008,8.276381431000063],[125.77364000700005,8.277868674000045],[125.77433227550364,8.278548734658784],[125.77684781034023,8.27763238181355],[125.77706758028873,8.2775269654341],[125.77719213300009,8.277227319000076]],[[125.76891173900003,8.24814524100003],[125.76885330200004,8.246639594000044],[125.77013613600003,8.244766132000052],[125.77204881700004,8.24374892900005],[125.77301381200006,8.24433041000003],[125.77234589000011,8.245061685000053],[125.77254183800007,8.245634066000035],[125.77429700700007,8.24612398000005],[125.77444746000002,8.247055256000067],[125.77412098900004,8.248420117000025],[125.77427726000008,8.25018804200005],[125.77375932100007,8.251625941000041],[125.77381595600002,8.252868634000036],[125.77330000900008,8.254593387000057],[125.7725149260001,8.254694425000025],[125.77113719600004,8.254154101000038],[125.77035813400006,8.254439701000022],[125.77013599700001,8.255117222000024],[125.7692091980001,8.254752274000055],[125.76949914800004,8.25325698000006],[125.76932022300004,8.251680448000059],[125.76891173900003,8.24814524100003]],[[125.738334828,8.220733237000047],[125.73845165500008,8.220006683000063],[125.73928653000007,8.21954342400005],[125.74035646200002,8.21970808700007],[125.74039235500004,8.221591843000054],[125.74188142600008,8.221784929000023],[125.7414068480001,8.222565102000033],[125.74045716800005,8.22229663300004],[125.73961662700005,8.222670067000022],[125.73906276600007,8.221911651000026],[125.738334828,8.220733237000047]]],[[[125.80408658000012,8.238244772000026],[125.8025371780001,8.236979037000024],[125.80225519500003,8.235776192000058],[125.80159113900002,8.235522639000067],[125.80071545400006,8.235887302000037],[125.79970005300005,8.23480429600005],[125.79969543300001,8.234144551000043],[125.79826303800009,8.233136151000053],[125.79816983400009,8.232161475000053],[125.79706310300003,8.232427333000032],[125.795661117,8.231648196000034],[125.79467356400005,8.232486942000037],[125.79340235200006,8.231879005000051],[125.79252726200002,8.232329705000039],[125.7932094150001,8.23311384500005],[125.79441733200008,8.232904667000069],[125.79496831400002,8.233460224000055],[125.79668552800003,8.234022027000037],[125.79722442700005,8.234907552000037],[125.79833538100002,8.235244068000043],[125.8005849540001,8.23781016600003],[125.80049260700002,8.238360520000073],[125.79926911400003,8.239212975000042],[125.79816301400001,8.238885994000043],[125.79725315600001,8.23916961400005],[125.79629088900005,8.238822504000042],[125.79616822200012,8.23775241100003],[125.79520024100009,8.237959934000056],[125.79491618300007,8.238516502000037],[125.79335292700013,8.238699467000059],[125.7927513750001,8.23777612200007],[125.79180764000013,8.23733325100005],[125.79099228600012,8.237405836000049],[125.791125941,8.238676662000048],[125.79371393300005,8.239538421000079],[125.79361477400005,8.240457063000065],[125.79258045600011,8.240723971000023],[125.7924422440001,8.241612643000053],[125.79167322700005,8.24282279400006],[125.79331355300008,8.24267754400006],[125.79432435400007,8.243100818000073],[125.79454868500011,8.242238679000028],[125.79606242400007,8.24183612300004],[125.79693361600006,8.243568760000073],[125.7980319090001,8.244149188000048],[125.79981985200006,8.244524011000067],[125.80148377200011,8.244322386000018],[125.80199689200003,8.245633582000039],[125.80259660000002,8.245605500000064],[125.80285333000008,8.24457580200004],[125.80378275500004,8.243660941000028],[125.80386215303037,8.243651134714977],[125.80436086295464,8.24013178825915],[125.80443976330955,8.238264431881918],[125.80408658000012,8.238244772000026]]],[[[125.8043003570001,8.23588148300007],[125.80427679600007,8.23662747800006],[125.8045062251315,8.236691502417242],[125.80454197754695,8.235845377501153],[125.8043003570001,8.23588148300007]]],[[[125.8040740460001,8.234405737000031],[125.80448278845775,8.234545618337918],[125.80442432930715,8.23350864488682],[125.8040740460001,8.234405737000031]]],[[[125.80355238800007,8.229819631000053],[125.80335727000012,8.230738936000021],[125.80382519600005,8.231768372000035],[125.80365957800007,8.232787871000024],[125.80441805459282,8.23339734002585],[125.80429849021995,8.231276383574807],[125.80409706668155,8.229986017252772],[125.80355238800007,8.229819631000053]]],[[[125.77196471800006,8.193454340000072],[125.7715693770001,8.19527386800007],[125.77119904300002,8.19564048500007],[125.76918326200007,8.195596909000072],[125.7641390020001,8.196186002000047],[125.76292660000001,8.196476939000037],[125.76187263000008,8.195991105000076],[125.76110512100001,8.196034591000059],[125.75874146100013,8.195649091000062],[125.75632389100008,8.195799435000026],[125.75528359100008,8.195251903000042],[125.75236158900009,8.194621542000048],[125.75219460400002,8.195464166000022],[125.75269732700006,8.195996239000067],[125.75462293300006,8.196881999000029],[125.757044188,8.197267128000021],[125.75953867400007,8.19713537800004],[125.76067219400012,8.197280643000056],[125.7612336950001,8.197984422000047],[125.76139947900003,8.19976187700007],[125.76081562700006,8.201391453000046],[125.76247162200002,8.20214512800004],[125.76395236900008,8.202536626000041],[125.76586840000006,8.20202628900006],[125.76649575700003,8.201142271000037],[125.76651649100006,8.198579446000052],[125.76697280700013,8.197945216000049],[125.76963263400013,8.197538205000058],[125.77239097900008,8.19739978700005],[125.77365167000005,8.197546534000027],[125.77723302700008,8.198454280000023],[125.77796827600002,8.198951246000037],[125.7798729660001,8.198543724000043],[125.78145929500012,8.198939212000026],[125.78333047100013,8.198890486000035],[125.78458470094463,8.198611089603359],[125.78413350342315,8.19828249972457],[125.78030117577899,8.196029760316653],[125.77626570800057,8.194162066601262],[125.77206595081752,8.192697403218855],[125.77191619449451,8.192661121097775],[125.77196471800006,8.193454340000072]]]]}}]}