{"type":"FeatureCollection","features":[{"type":"Feature","properties":{"fid":99,"objectid":1955,"lccode":"01","liqcode":"2010600010000000","mappers":"DJLBuhay, MJVReyes, MITAbigania, KLPapiona, KMVitto","project":"MELP","province":"Palawan","otherinfo":null,"datemapped":2018,"publishdate":null,"globalid":"{E70402A7-ADA2-4D45-93BC-46C7B654BDC8}","st_area(shape)":0.142808258668549,"st_perimeter(shape)":79.69829854453282,"liqcodepk":"201060001000000000950","creator":"SDE","createdate":"2019-06-04T11:09:46","editor":"SDE","modifydate":"2019-06-04T11:12:34","codemove":"na"},"geometry":{"type":"MultiPolygon","coordinates":[[[[118.04460409200011,9.073056706000044],[118.04415938700004,9.073992575000032],[118.04614942900004,9.074949619000053],[118.04701538900007,9.074782542000037],[118.04818087600006,9.075513760000034],[118.04851769200002,9.076317180000046],[118.0480521830001,9.079637380000067],[118.04909936700007,9.079377382000075],[118.04993870600003,9.078530327000065],[118.05188030400008,9.078652085000043],[118.05122110400009,9.076866592000044],[118.05042260900007,9.075615748000075],[118.04957165800012,9.072945349000065],[118.04865487900008,9.071573673000046],[118.04754488738571,9.071033902160439],[118.04494001565159,9.07196874969334],[118.04471744315201,9.072074164557524],[118.04460409200011,9.073056706000044]]],[[[118.07809550100002,9.095731261000024],[118.08071748600003,9.094889158000058],[118.08074712200006,9.09412644900004],[118.07989084300004,9.093580692000044],[118.07986629700008,9.092003089000057],[118.07945418500003,9.091184509000069],[118.0800270650001,9.090348066000047],[118.07973538400005,9.089571474000024],[118.07874119000007,9.08858507000002],[118.077645017,9.087979634000021],[118.07730742200012,9.087402738000035],[118.07616447700003,9.088169464000034],[118.07630703100007,9.088972652000054],[118.07724618700001,9.090473413000039],[118.07704760900003,9.092359413000054],[118.0772238410001,9.093506456000057],[118.07773676700003,9.09389495000005],[118.07809550100002,9.095731261000024]]],[[[118.10553407500004,9.10284752900003],[118.10498968600007,9.102231337000035],[118.1050482620001,9.100574689000041],[118.10470645100007,9.099246523000033],[118.10475448700005,9.097482417000037],[118.10465091593453,9.096812696684902],[118.10445190787924,9.096265160145204],[118.1025307935893,9.092259606365742],[118.10022396526738,9.088460477545258],[118.10016251603646,9.088378645381356],[118.0997382260001,9.088793864000023],[118.0989710670001,9.088747764000061],[118.09824544800004,9.08741444000003],[118.09760050200008,9.086965185000052],[118.0966154480001,9.087722116000064],[118.09554226600005,9.08790043700003],[118.09540519500001,9.089259425000021],[118.09594436300006,9.089887457000033],[118.09774272100003,9.089971305000063],[118.09906761100001,9.090466106000065],[118.09934288500006,9.092214493000029],[118.09900265900002,9.09347005400002],[118.09828612200009,9.093920971000044],[118.09616333500004,9.096698927000034],[118.09256507700003,9.095867235000071],[118.09151448900002,9.096214297000076],[118.09078686200007,9.09499668500007],[118.09015636500008,9.094606614000039],[118.0887818220001,9.095112703000039],[118.08711198000002,9.095280931000048],[118.086295144,9.096235714000043],[118.08514530500008,9.096100940000042],[118.08457609300001,9.095616302000053],[118.0829165350001,9.095033459000032],[118.082212539,9.09563204500006],[118.0816803800001,9.096902853000074],[118.08250301700002,9.097197967000056],[118.08287492700003,9.098073421000038],[118.08223147400008,9.099483872000064],[118.08143794800004,9.099458586000026],[118.08126121700002,9.098697854000024],[118.07978203200003,9.098434599000031],[118.07938548600009,9.097957060000056],[118.07769657000006,9.098291906000044],[118.0766963730001,9.098793460000024],[118.07577120500004,9.098022596000021],[118.07460523000007,9.099065609000037],[118.0736867400001,9.097808355000039],[118.0732871350001,9.098604197000041],[118.07405396900003,9.099372921000052],[118.07636046500012,9.099916136000045],[118.0762921380001,9.100977143000026],[118.07456932200013,9.101683520000053],[118.07260821700005,9.104017782000028],[118.07120365400012,9.104575985000052],[118.06868514800009,9.104203031000052],[118.06725004000008,9.103003140000055],[118.06589353000005,9.103068188000066],[118.06461040100011,9.101286115000052],[118.06484985800012,9.103065940000022],[118.064636285,9.103766515000073],[118.0656722560001,9.10432905700003],[118.06754600500007,9.104163724000045],[118.06831905300011,9.104977440000027],[118.068315202,9.105873599000063],[118.06755364400011,9.106226568000066],[118.064765,9.105747533000056],[118.06406257700006,9.105356445000037],[118.06342162700003,9.105729282000025],[118.06202402400002,9.105292974000063],[118.06196747500007,9.104171419000066],[118.05967456000008,9.102542539000067],[118.0587479830001,9.102086503000065],[118.05817213400009,9.10100786600003],[118.05962617100012,9.09908414600005],[118.05896139000005,9.098574337000061],[118.05760675300007,9.100249017000069],[118.0569663330001,9.102326866000054],[118.05775648500003,9.10331531400004],[118.05956269200011,9.103697571000055],[118.05973030100007,9.10459409200007],[118.0603788310001,9.105413690000033],[118.06051012800005,9.106333564000067],[118.06148595600006,9.106907224000052],[118.06257892300005,9.10681477200006],[118.0632529290001,9.107527406000033],[118.06529117000002,9.107614719000027],[118.06645794400005,9.108262505000026],[118.0658063520001,9.109419458000046],[118.06281212300007,9.10940738000005],[118.06224211500013,9.110029179000037],[118.06042772900003,9.110383265000053],[118.0596946510001,9.110301752000055],[118.05886810299998,9.108645104000063],[118.05776395800001,9.108329616000049],[118.05696996400003,9.108490504000029],[118.05619805200003,9.108093688000055],[118.05458838000004,9.107900081000023],[118.05307828600007,9.106749206000073],[118.05140317400004,9.106082544000056],[118.04946878800003,9.106471111000076],[118.04847794500006,9.107386328000075],[118.047084271,9.107139681000037],[118.04568482100001,9.106319372000028],[118.044497492,9.106818250000062],[118.04303099800005,9.106683781000076],[118.04293811900004,9.10715466200003],[118.04167902000007,9.107638240000027],[118.04252049200011,9.108207718000076],[118.04396334300009,9.107969874000046],[118.04466543600006,9.108208374000071],[118.04569444900005,9.107707339000058],[118.04682260800006,9.108366567000077],[118.04863461600006,9.108260305000043],[118.04954881600008,9.10797450700005],[118.05089998900007,9.108121689000027],[118.05188384100006,9.108807556000045],[118.05366938300007,9.108774647000075],[118.05455249200007,9.109459139000021],[118.05399213700002,9.110424435000027],[118.05248537300007,9.111119294000048],[118.05246150800008,9.111805740000023],[118.0551453700001,9.111355839000053],[118.05561601400007,9.11063255100004],[118.05749128600007,9.110357617000032],[118.05887542000005,9.111249233000022],[118.0587985620001,9.112328827000056],[118.06060641400006,9.111723881000048],[118.06090632200005,9.112944132000052],[118.05940092400009,9.113538885000024],[118.05817335200004,9.115127038000024],[118.05800112500005,9.118308186000036],[118.05826204800007,9.118874515000071],[118.0569826730001,9.120881642000027],[118.05700714500007,9.121716599000024],[118.05580369800008,9.122856741000021],[118.05355556500001,9.123195700000052],[118.05242339000007,9.125254874000065],[118.05206054900009,9.126334923000055],[118.05107301500003,9.12660759700003],[118.04995729100006,9.127474669000033],[118.04946855500009,9.128982222000047],[118.04880994500003,9.129760145000034],[118.04889535100006,9.130524386000047],[118.04970062000007,9.131286540000076],[118.04995963400006,9.132064642000046],[118.05129958400005,9.13104607600008],[118.05260908900003,9.129180108000071],[118.05376983300005,9.128528259000065],[118.05379797,9.127360177000067],[118.05481096300002,9.12623420400007],[118.0552522260001,9.124566155000027],[118.05938293400004,9.12214097800006],[118.06039698200004,9.121819451000022],[118.06144359100006,9.123637062000055],[118.06224150100002,9.12406524200003],[118.06327290300011,9.125832009000025],[118.06409284200002,9.125533168000057],[118.06432518300005,9.124344000000002],[118.06345233900002,9.124129422000069],[118.06247828200003,9.12168381200007],[118.06260430800013,9.120373968000024],[118.06216267500007,9.117191598000032],[118.06231515000003,9.116225503000065],[118.06339761800008,9.114981130000047],[118.06495132600003,9.114015009000068],[118.06713205200002,9.113515254000049],[118.06752602300004,9.114178777000062],[118.06755267100004,9.115381014000038],[118.0688131940001,9.114797205000059],[118.06862604500009,9.113750173000028],[118.06941811000002,9.111975107000033],[118.0702698660001,9.111104341000042],[118.0717088670001,9.110277311000063],[118.070634186,9.108164204000046],[118.0712073000001,9.107489961000057],[118.07241596400002,9.107534976000068],[118.07341383300002,9.107205115000054],[118.0728695370001,9.109100717000048],[118.07361137800001,9.110641753000039],[118.073598016,9.111614526000036],[118.07420240700002,9.112681530000033],[118.07404215800013,9.11386693400004],[118.07468835600001,9.115034666000042],[118.07541311000011,9.113627989000063],[118.07537302000003,9.112354016000038],[118.074838236,9.111459654000042],[118.07455973700009,9.109724586000025],[118.07487294500004,9.107883078000041],[118.07610785500003,9.104966637000073],[118.0769544530001,9.104119616000048],[118.07908560300007,9.103513852000049],[118.07983649500011,9.103915410000068],[118.07944998400001,9.105856102000075],[118.07997431100011,9.106464151000067],[118.08106845900011,9.109612488000037],[118.08212960400012,9.108868518000065],[118.08156651900003,9.106886344000031],[118.08073737100004,9.106460176000041],[118.08089817200005,9.105231840000043],[118.081896346,9.103828828000074],[118.08280891400011,9.10447074500007],[118.08414173700008,9.105962541000052],[118.08463582600007,9.105625825000063],[118.08448700400004,9.103878190000046],[118.0841562490001,9.102800587000047],[118.08638323600006,9.099969019000072],[118.08675743100002,9.101905714000054],[118.08887315700007,9.102470876000037],[118.08938068700002,9.102203487000054],[118.09071448300006,9.102925008000057],[118.09103974000003,9.103704446000053],[118.09182233900005,9.103500390000022],[118.09190457700002,9.102750302000056],[118.09331491600007,9.103138984000054],[118.09346797800004,9.102473317000031],[118.09462067900006,9.102050080000026],[118.09640357,9.10098668200004],[118.09804600200005,9.101950822000047],[118.09696489400004,9.103983568000045],[118.09628075700006,9.104532372000051],[118.09606516900008,9.105559683000024],[118.09454265600004,9.106354720000068],[118.09282508000001,9.106674929000064],[118.0914952710001,9.108116433000022],[118.09073670700002,9.109894745000076],[118.0890133370001,9.111688620000054],[118.08945171800006,9.112266888000022],[118.09025475400004,9.111447857000028],[118.09132546600007,9.111450897000053],[118.09245617100011,9.110418086000038],[118.09284704700006,9.109279383000057],[118.09451703600007,9.108228799000074],[118.09551179100005,9.108127763000027],[118.09622726799999,9.107393375000072],[118.0976490280001,9.106596973000023],[118.09966110000003,9.10636829500004],[118.10113378900009,9.106685172000027],[118.1017650460001,9.107106601000055],[118.1029795180001,9.10866132600006],[118.10302727400004,9.11043625600007],[118.10562292400003,9.114348937000047],[118.1052766150001,9.115460355000037],[118.10537385500005,9.116402372000037],[118.10594547600012,9.116823347000034],[118.10654590000001,9.118453707000072],[118.10757889443795,9.119249560932127],[118.10776277513813,9.117991004127914],[118.10796818877728,9.113558329426086],[118.10773545957639,9.109126987452015],[118.10706684470551,9.104739651719967],[118.10672682137434,9.10340778439614],[118.10553407500004,9.10284752900003]]]]}}]}