{"type":"FeatureCollection","features":[{"type":"Feature","properties":{"fid":21,"objectid":1867,"lccode":"07","liqcode":"2010600070000000","mappers":"DJLBuhay","project":"Negros Occidental Multi-Hazard Mapping","province":"Negros Occidental","otherinfo":null,"datemapped":2018,"publishdate":null,"globalid":"{BDFFB75F-E1DC-47A8-B9CF-113E0CE8D2E7}","st_area(shape)":0.051419613090430895,"st_perimeter(shape)":11.901738684521376,"liqcodepk":"201060007000000000059","creator":"SNOOPYPC","createdate":"2019-02-19T15:21:28","editor":"LENOVO","modifydate":"2019-03-10T17:50:55","codemove":"na"},"geometry":{"type":"Polygon","coordinates":[]}},{"type":"Feature","properties":{"fid":32,"objectid":1878,"lccode":"07","liqcode":"2010600070000000","mappers":"PJDelosReyes, ACPidlaoan","project":"READY","province":"Iloilo","otherinfo":null,"datemapped":2010,"publishdate":null,"globalid":"{2F92972A-C07C-4633-B325-DF2A08960C6C}","st_area(shape)":0.031106077518548395,"st_perimeter(shape)":5.287074988133156,"liqcodepk":"201060007000000000071","creator":"SNOOPYPC","createdate":"2019-02-19T15:21:28","editor":"LENOVO","modifydate":"2019-03-10T17:50:55","codemove":"na"},"geometry":{"type":"Polygon","coordinates":[]}},{"type":"Feature","properties":{"fid":59,"objectid":1908,"lccode":"05","liqcode":"2010600050000000","mappers":"PJDelosReyes, ACPidlaoan","project":"READY","province":"Iloilo","otherinfo":null,"datemapped":2010,"publishdate":null,"globalid":"{282D04BA-68E2-41E5-9B8A-0D8D85396F2D}","st_area(shape)":0.06128738608791496,"st_perimeter(shape)":10.692281506054618,"liqcodepk":"201060005000000000103","creator":"SNOOPYPC","createdate":"2019-02-19T15:21:28","editor":"LENOVO","modifydate":"2019-03-10T17:50:55","codemove":"na"},"geometry":{"type":"MultiPolygon","coordinates":[[[[122.75868065700003,11.08135429400005],[122.75741617515662,11.082370270654682],[122.75937222138677,11.081680744921723],[122.75963673340365,11.081557433695291],[122.75868065700003,11.08135429400005]]],[[[122.78585861400005,11.044238119000056],[122.78511222300007,11.044634531000042],[122.78482432900013,11.045824967000046],[122.78505312200002,11.046902384000076],[122.78413157900003,11.051324042000031],[122.78430179500003,11.054045692000043],[122.78344029800007,11.054782083000077],[122.78240537800004,11.057162620000042],[122.7803943330001,11.060052770000027],[122.77752448100011,11.060107365000018],[122.77591574000007,11.062147207000063],[122.77706234800007,11.064019098000074],[122.77683190900007,11.065039488000023],[122.77728971200008,11.066967470000066],[122.77648528100009,11.068044129000041],[122.77625465400003,11.069404675000044],[122.77533554000001,11.070367860000031],[122.7737283690001,11.07036666000005],[122.77235212100004,11.068551368000044],[122.77126160500006,11.068550544000063],[122.770342754,11.069060082000021],[122.76999685200008,11.071044245000053],[122.76947970200001,11.07178085600003],[122.76861691500005,11.074048085000074],[122.7689274689504,11.076311022879073],[122.77090116630072,11.074867498545757],[122.77423230261829,11.071889877290284],[122.77725185413816,11.068604050950574],[122.77993074247475,11.065041673451562],[122.7822431738502,11.061237061758773],[122.7841668872908,11.05722686502762],[122.78568336866061,11.053049711318833],[122.78677802848588,11.048745835295097],[122.78736451544843,11.044859198714086],[122.78585861400005,11.044238119000056]]],[[[122.76597599400009,11.002210809000074],[122.76448113700009,11.005724888000033],[122.76430796700005,11.006972089000046],[122.76310069300008,11.009692591000034],[122.762353876,11.010599184000055],[122.76068861100009,11.011901904000071],[122.76028568700006,11.013375692000064],[122.76062945600006,11.014113061000046],[122.76194825900006,11.015531511000061],[122.76286606200006,11.016042556000057],[122.76596511500007,11.015988179000034],[122.76791583700003,11.016556697000055],[122.76894895500006,11.01644409900007],[122.77153306600007,11.014404929000024],[122.77239478900005,11.013158241000042],[122.77423192200001,11.012309129000071],[122.77537950400006,11.01253684200003],[122.77704296000003,11.013558542000055],[122.77784519600006,11.01520340700006],[122.77945088500009,11.01679207100005],[122.78019557000006,11.018606967000037],[122.77984967300006,11.020761139000058],[122.77996369700008,11.021725092000056],[122.78093778100005,11.023880310000038],[122.7816829950001,11.02501479600005],[122.7814525130001,11.026261965000058],[122.7805910080001,11.027111827000054],[122.78007366900012,11.02824540100005],[122.78035984600001,11.029266172000064],[122.78156440100008,11.030230822000023],[122.78162081100004,11.031534980000059],[122.78213681400007,11.03221566700006],[122.78328456200008,11.032329875000073],[122.78391626100007,11.031820090000053],[122.7844914110001,11.03017622400006],[122.78518039300002,11.029779863000046],[122.78644226674754,11.029723445414232],[122.78570240359687,11.026796600705445],[122.78419215832318,11.022617289448142],[122.78227458021271,11.01860433316846],[122.77996814939571,11.01479637170187],[122.77729508769406,11.01123006957739],[122.77700647938825,11.010915001820502],[122.7755530170001,11.010779308000053],[122.77291355200009,11.010267108000047],[122.77205039900004,11.011554533000039],[122.76975657300011,11.011115125000057],[122.76987241100005,11.009697799000035],[122.77067639500001,11.00901809100003],[122.76964400800013,11.00822351800002],[122.76918562000003,11.007315992000029],[122.76912909100008,11.006238693000057],[122.76769539400006,11.004933571000036],[122.76752391500008,11.004139739000035],[122.76846940399896,11.003132653124654],[122.76734972459658,11.002310886808239],[122.76592635545039,11.001466507085935],[122.76597599400009,11.002210809000074]]]]}},{"type":"Feature","properties":{"fid":73,"objectid":1937,"lccode":"06","liqcode":"2010600060000000","mappers":"PJDelosReyes, ACPidlaoan","project":"READY","province":"Iloilo","otherinfo":null,"datemapped":2010,"publishdate":null,"globalid":"{DBB85F45-4FB4-4F72-8BD3-A1308397A487}","st_area(shape)":0.017575391436836466,"st_perimeter(shape)":7.287100410898002,"liqcodepk":"201060006000000000136","creator":"SNOOPYPC","createdate":"2019-02-19T15:21:28","editor":"LENOVO","modifydate":"2019-03-10T17:50:55","codemove":"na"},"geometry":{"type":"Polygon","coordinates":[]}}]}