{"type":"FeatureCollection","features":[{"type":"Feature","properties":{"fid":101,"objectid":1958,"lccode":"01","liqcode":"2010600010000000","mappers":"DJLBuhay, MJVReyes, MITAbigania, KLPapiona, KMVitto","project":"MELP","province":"Bukidnon","otherinfo":null,"datemapped":2018,"publishdate":null,"globalid":"{A5D2276A-AD83-4D6E-864E-FDB93B8103F6}","st_area(shape)":0.03131405547495108,"st_perimeter(shape)":7.842158519871042,"liqcodepk":"201060001000000001354","creator":"SDE","createdate":"2019-06-04T14:00:05","editor":"SDE","modifydate":"2019-06-04T14:01:32","codemove":"na"},"geometry":{"type":"Polygon","coordinates":[]}},{"type":"Feature","properties":{"fid":198,"objectid":2744,"lccode":"01","liqcode":null,"mappers":"DJLBuhay, MJVReyes, MITAbigania, KLPapiona, KMVitto","project":"MELP","province":"Misamis Oriental","otherinfo":null,"datemapped":2018,"publishdate":null,"globalid":"{A055B8F1-3C12-4227-A276-4D303D4CD1B9}","st_area(shape)":0.020432613133410247,"st_perimeter(shape)":8.030066554013601,"liqcodepk":null,"creator":null,"createdate":null,"editor":null,"modifydate":null,"codemove":null},"geometry":{"type":"Polygon","coordinates":[]}}]}