{"type":"FeatureCollection","features":[{"type":"Feature","properties":{"fid":171,"objectid":9613,"lccode":"01","liqcode":"2010600010000000","mappers":"DJLBuhay, MJVReyes, MITAbigania, KLPapiona, KMVitto","project":"MELP","province":"Nueva Ecija","otherinfo":"hazard boundary with Pangasinan updated on 2024","datemapped":2018,"publishdate":null,"globalid":"{142EC992-C228-490B-8C06-5B4A68BA1242}","st_area(shape)":0.21874224791512728,"st_perimeter(shape)":7.9099228422392365,"liqcodepk":"201060001000000000019","creator":"SNOOPYPC","createdate":"2019-02-19T15:21:28","editor":"LENOVO","modifydate":"2019-03-10T17:53:06","codemove":"na"},"geometry":{"type":"Polygon","coordinates":[[[120.74745165000003,15.446695868000065],[120.74581564900005,15.44809302000004],[120.74447368100003,15.450401150000058],[120.74376207000013,15.450884910000067],[120.74318244400003,15.453545777000047],[120.74349952800003,15.454844368000067],[120.74541925800008,15.456208849000062],[120.74626643700003,15.457022786000039],[120.74617819600007,15.457662177000028],[120.745270763,15.458632333000025],[120.74431896500006,15.461098975000032],[120.74510369400004,15.461873130000068],[120.74527316000002,15.462606287000028],[120.74371962800001,15.463462211000035],[120.74336688100006,15.464494419000058],[120.74369248000004,15.465965447000032],[120.74506483200003,15.46479234500004],[120.7462625390001,15.465598858000021],[120.74613529600003,15.466494371000069],[120.7454360710001,15.467348575000075],[120.74568023000006,15.468031318000046],[120.74695182400002,15.469165636000064],[120.74906812300004,15.472625994000053],[120.74880928800009,15.473195055000078],[120.74766322900008,15.473693410000065],[120.74965120800005,15.476104298000058],[120.74943699700009,15.47773120200003],[120.74975533800011,15.479916869000023],[120.75066682600003,15.480730802000036],[120.7504476810001,15.481729110000058],[120.74938714500003,15.482327578000024],[120.74917611,15.483736481000049],[120.74969525300003,15.484659098000066],[120.74872259000004,15.484949984000023],[120.74940781200009,15.485725118000062],[120.74921743500012,15.48656775500007],[120.7473294890001,15.486137030000073],[120.747192637,15.486763104000035],[120.74848404600004,15.488357537000068],[120.7487210600001,15.489461779000068],[120.74963700300009,15.49148491100004],[120.74750066700005,15.494503580000066],[120.7459912700001,15.493948666000046],[120.745025778,15.495287673000064],[120.74391638600001,15.496234712000042],[120.74487934600005,15.497119671000064],[120.746042353,15.497502666000063],[120.74541170900011,15.498765416000024],[120.74434027100006,15.499779527000046],[120.74474678900003,15.500673693000069],[120.74556077900003,15.501108822000049],[120.74558772700004,15.50352802700007],[120.74588372500011,15.50423778500004],[120.74540941400006,15.50516339200004],[120.7436131070001,15.505919094000035],[120.74333538600001,15.506703378000052],[120.74410458700004,15.507989797000054],[120.74354997600005,15.510334584000073],[120.7417745360001,15.510178358000077],[120.74099504900005,15.510833467000056],[120.7398631420001,15.510182187000051],[120.73841227900004,15.511247429000035],[120.73841304700011,15.512571166000038],[120.73729625900012,15.51395993600005],[120.73691177500008,15.51385011800005],[120.73612802600007,15.515552624000064],[120.73495894761528,15.516508740200072],[120.7355954961027,15.517204348881542],[120.73895047853821,15.520215847481246],[120.74259384602688,15.522893959461612],[120.74649050701598,15.525212878930072],[120.75060292506485,15.52715025948956],[120.7548914807047,15.528687429985952],[120.75931485355918,15.529809574829649],[120.76383042102442,15.53050587713463],[120.7683946696402,15.530769623278738],[120.77296361515552,15.530598267863093],[120.7774932272046,15.52999345843309],[120.78193985446072,15.52896101971503],[120.78626064613016,15.5275108975161],[120.79041396568414,15.525657062828454],[120.79435979280318,15.52341737706533],[120.79806010962578,15.520813419735683],[120.80147926754947,15.517870280229229],[120.80458433102595,15.514616315732354],[120.80734539502158,15.511082877624586],[120.80973587307504,15.5073040090101],[120.81173275317664,15.503316116318238],[120.81331681901182,15.499157618156778],[120.81447283445269,15.494868574820146],[120.81518968954371,15.490490302039847],[120.81546050660468,15.486064972713736],[120.81528270546335,15.481635210464226],[120.81465802722907,15.477243678950392],[120.8135925164192,15.472932670896625],[120.81209646165317,15.468743700799042],[120.81018429552728,15.464717105231447],[120.80787445467365,15.460891654595574],[120.80518920138789,15.457304180046117],[120.80215440857323,15.453989219171895],[120.79879931009772,15.4509786838304],[120.79515621898612,15.448301553317531],[120.7912602161703,15.445983595808576],[120.78714881279768,15.444047120733023],[120.78286158934371,15.442510764447706],[120.77843981498961,15.44138931125249],[120.77392605090968,15.4406935514537],[120.769363741261,15.440430177825224],[120.76479679578102,15.440601721450378],[120.76026916797508,15.441206527550948],[120.75582443291657,15.44223877152863],[120.75150536868294,15.443688515060014],[120.75109422302313,15.44387204706308],[120.75072628100008,15.444626070000027],[120.7497913043412,15.444453651544155],[120.74790583106497,15.445295279749862],[120.74745165000003,15.446695868000065]]]}},{"type":"Feature","properties":{"fid":180,"objectid":9619,"lccode":"07","liqcode":null,"mappers":"DJLBuhay, MITAbigania","project":"EHM","province":"Tarlac","otherinfo":"merged into one feature in 2024","datemapped":2021,"publishdate":null,"globalid":"{86B5AD80-4B79-45B5-89D4-1FDEF062B016}","st_area(shape)":0.06253734240529021,"st_perimeter(shape)":3.2108098594058267,"liqcodepk":null,"creator":null,"createdate":null,"editor":null,"modifydate":null,"codemove":null},"geometry":{"type":"MultiPolygon","coordinates":[[[[120.72506016100012,15.472235868000038],[120.72493523900005,15.474734302000055],[120.72377625000001,15.478144253000043],[120.72283407086343,15.479115097589185],[120.72257383851904,15.480700279663838],[120.72230108249306,15.485125236474701],[120.72247688360132,15.489554810514768],[120.72309957759444,15.493946345357736],[120.72416319620828,15.498257548151297],[120.7256575235393,15.50244689691563],[120.72756819337559,15.506474040525],[120.7298768265865,15.51030018751683],[120.73256120728557,15.51388847997587],[120.73495894761528,15.516508740200072],[120.73612802600007,15.515552624000064],[120.73691177500008,15.51385011800005],[120.73729625900012,15.51395993600005],[120.73841304700011,15.512571166000038],[120.73841227900004,15.511247429000035],[120.7398631420001,15.510182187000051],[120.74099504900005,15.510833467000056],[120.7417745360001,15.510178358000077],[120.74354997600005,15.510334584000073],[120.74410458700004,15.507989797000054],[120.74333538600001,15.506703378000052],[120.7436131070001,15.505919094000035],[120.74540941400006,15.50516339200004],[120.74588372500011,15.50423778500004],[120.74558772700004,15.50352802700007],[120.74556077900003,15.501108822000049],[120.74474678900003,15.500673693000069],[120.74434027100006,15.499779527000046],[120.74541170900011,15.498765416000024],[120.746042353,15.497502666000063],[120.74487934600005,15.497119671000064],[120.74391638600001,15.496234712000042],[120.745025778,15.495287673000064],[120.7459912700001,15.493948666000046],[120.74750066700005,15.494503580000066],[120.74963700300009,15.49148491100004],[120.7487210600001,15.489461779000068],[120.74848404600004,15.488357537000068],[120.747192637,15.486763104000035],[120.7473294890001,15.486137030000073],[120.74921743500012,15.48656775500007],[120.74940781200009,15.485725118000062],[120.74872259000004,15.484949984000023],[120.74969525300003,15.484659098000066],[120.74917611,15.483736481000049],[120.74938714500003,15.482327578000024],[120.7504476810001,15.481729110000058],[120.75066682600003,15.480730802000036],[120.74975533800011,15.479916869000023],[120.74943699700009,15.47773120200003],[120.74965120800005,15.476104298000058],[120.74766322900008,15.473693410000065],[120.74880928800009,15.473195055000078],[120.74906812300004,15.472625994000053],[120.74695182400002,15.469165636000064],[120.74568023000006,15.468031318000046],[120.7454360710001,15.467348575000075],[120.74613529600003,15.466494371000069],[120.7462625390001,15.465598858000021],[120.74506483200003,15.46479234500004],[120.74369248000004,15.465965447000032],[120.74336688100006,15.464494419000058],[120.74371962800001,15.463462211000035],[120.74527316000002,15.462606287000028],[120.74510369400004,15.461873130000068],[120.74431896500006,15.461098975000032],[120.745270763,15.458632333000025],[120.74617819600007,15.457662177000028],[120.74626643700003,15.457022786000039],[120.74541925800008,15.456208849000062],[120.74349952800003,15.454844368000067],[120.74318244400003,15.453545777000047],[120.74376207000013,15.450884910000067],[120.74447368100003,15.450401150000058],[120.74581564900005,15.44809302000004],[120.74745165000003,15.446695868000065],[120.74790583106497,15.445295279749862],[120.74735354541855,15.445541801704968],[120.74340892594134,15.447780791111306],[120.7397094817038,15.450383930530684],[120.73629082777562,15.453326162005299],[120.73318588033689,15.456579163243909],[120.73042453996213,15.460111619884474],[120.72803340373386,15.463889526540033],[120.72603550895518,15.46787651374877],[120.72497487313122,15.470658039989472],[120.72506016100012,15.472235868000038]]],[[[120.75072628100008,15.444626070000027],[120.75109422302313,15.44387204706308],[120.7497913043412,15.444453651544155],[120.75072628100008,15.444626070000027]]]]}},{"type":"Feature","properties":{"fid":181,"objectid":9620,"lccode":"06","liqcode":null,"mappers":"DJLBuhay, MITAbigania","project":"EHM","province":"Tarlac","otherinfo":"merged into one feature in 2024","datemapped":2021,"publishdate":null,"globalid":"{BE285D85-973D-44E5-B8BA-72B267ABCE71}","st_area(shape)":0.021797029366581382,"st_perimeter(shape)":4.340907487629056,"liqcodepk":null,"creator":null,"createdate":null,"editor":null,"modifydate":null,"codemove":null},"geometry":{"type":"Polygon","coordinates":[[[120.72377625000001,15.478144253000043],[120.72493523900005,15.474734302000055],[120.72506016100012,15.472235868000038],[120.72497487313122,15.470658039989472],[120.72445011093414,15.472034197700047],[120.72329249699379,15.47632254938904],[120.72283407086343,15.479115097589185],[120.72377625000001,15.478144253000043]]]}}]}