{"type":"FeatureCollection","features":[{"type":"Feature","properties":{"fid":99,"objectid":1955,"lccode":"01","liqcode":"2010600010000000","mappers":"DJLBuhay, MJVReyes, MITAbigania, KLPapiona, KMVitto","project":"MELP","province":"Palawan","otherinfo":null,"datemapped":2018,"publishdate":null,"globalid":"{E70402A7-ADA2-4D45-93BC-46C7B654BDC8}","st_area(shape)":0.142808258668549,"st_perimeter(shape)":79.69829854453282,"liqcodepk":"201060001000000000950","creator":"SDE","createdate":"2019-06-04T11:09:46","editor":"SDE","modifydate":"2019-06-04T11:12:34","codemove":"na"},"geometry":{"type":"MultiPolygon","coordinates":[[[[117.97975877600005,8.994955014000027],[117.98054584300007,8.993535137000038],[117.98131325000008,8.993054863000053],[117.98155709000002,8.991954382000072],[117.98324201700008,8.990023974000053],[117.98462421400006,8.989966526000044],[117.98519129600004,8.989192178000055],[117.98966321600005,8.987688948000027],[117.99163165500009,8.98546486600003],[117.99263409700006,8.98233107900006],[117.99394742400013,8.981700379000074],[117.99487305300009,8.980543203000023],[117.99546931700002,8.978459176000056],[117.99610228800009,8.977075271000045],[117.99598164200005,8.976081710000074],[117.99540429300008,8.974814889000072],[117.9961179080001,8.973145944000066],[117.9957904470001,8.971844368000061],[117.9960865590001,8.971237976000054],[117.99548478700001,8.97035233500003],[117.99399725,8.969702647000075],[117.99253120700006,8.967489070000056],[117.99160519600002,8.966465500000027],[117.99181116100011,8.965438231000064],[117.99383491300011,8.964759921000052],[117.99319446100003,8.962500335000072],[117.99264912700006,8.962109823000047],[117.99260844800006,8.960297082000066],[117.99370526000007,8.959189316000048],[117.99500932400008,8.959226081000052],[117.99580918300002,8.959656588000028],[117.99788913700002,8.959074374000068],[117.99830475800002,8.958145308000041],[118.00032966900005,8.955979056000043],[118.00115870800006,8.955495904000033],[118.0048175170001,8.95538170000003],[118.00534102200004,8.956380719000038],[118.00697353500004,8.95625019800002],[118.0074806020001,8.955646632000027],[118.00903508500006,8.95561042400004],[118.00995565100004,8.954230333000055],[118.01113588600005,8.953502324000056],[118.01261885300005,8.953083612000054],[118.01482877900003,8.952744480000035],[118.01669158700007,8.952680772000063],[118.0196903530001,8.953655954000055],[118.02246071600008,8.954003339000053],[118.02295591600013,8.954772424000051],[118.02261688000009,8.955453404000025],[118.02174241800003,8.955829098000041],[118.02209627500008,8.958456841000043],[118.02068909600007,8.96052430900005],[118.01985910000009,8.962033234000046],[118.01820045800002,8.962755998000034],[118.01698341100007,8.961875177000024],[118.01737166600003,8.964175506000059],[118.01711170700001,8.96494364100005],[118.01609626100003,8.965809539000075],[118.01680308200004,8.96673474000005],[118.01647582500006,8.968218245000061],[118.01399774200002,8.970517972000039],[118.01294731800012,8.969496307000043],[118.01214593800013,8.969714144000022],[118.01112509000006,8.971180060000052],[118.00555518600002,8.974103152000053],[118.00412577000009,8.975156778000041],[118.00328532900006,8.976981409000073],[118.00195040300004,8.97785379800007],[118.00117694200003,8.981086148000031],[117.99997766400007,8.981794733000072],[117.99965842300004,8.982686946000058],[118.00015009700007,8.983208665000063],[118.00284118000003,8.98284462300006],[118.00396667800011,8.98331771700003],[118.00381367500006,8.98188496600005],[118.00446948100011,8.98023428400006],[118.00568819700003,8.979506865000074],[118.00669589200004,8.978362963000048],[118.00819104700008,8.977763271000072],[118.0093599810001,8.976467651000062],[118.01105609900002,8.975203008000049],[118.011708343,8.973680338000067],[118.01259317400002,8.973292386000026],[118.01379244600001,8.973521940000069],[118.01527054300006,8.973196524000057],[118.0153428660001,8.974156598000034],[118.01595668900008,8.97485077300007],[118.01537655400011,8.97605901700007],[118.01450716800002,8.976417503000048],[118.014155178,8.978558126000053],[118.01315295000006,8.979939482000075],[118.01384147100008,8.98044954900007],[118.01474197900005,8.980366363000028],[118.01460587300005,8.978921902000025],[118.01630811700011,8.978086524000046],[118.01712265400012,8.979027502000063],[118.01680872200008,8.980060512000023],[118.01745060100006,8.98047456300003],[118.01807731800012,8.978491982000039],[118.01700839300008,8.977738324000027],[118.0159098690001,8.976519289000064],[118.01742662600009,8.973463800000047],[118.0175161430001,8.972469501000033],[118.018432286,8.972465264000052],[118.01858671100001,8.970993726000074],[118.01934849100007,8.970044407000048],[118.01861817000008,8.969334439000022],[118.01846502300009,8.96831666500003],[118.02058689700004,8.966116080000061],[118.02200878200007,8.966555476000055],[118.02228355500006,8.968630539000058],[118.02316504300006,8.968709207000076],[118.02322207300007,8.966640210000035],[118.02666311200005,8.964300910000073],[118.02753678900001,8.96398481500006],[118.02842824900006,8.964563161000056],[118.02870522000002,8.96623607500004],[118.02946835700003,8.96523293000007],[118.02897507100012,8.964034009000045],[118.0292829230001,8.963442022000038],[118.03055814000002,8.963201439000045],[118.03351603186083,8.961098407593092],[118.03332774207848,8.957494172158945],[118.03266050602203,8.953106528591467],[118.03156398477829,8.94880503466656],[118.03060934266963,8.946175352189302],[118.03023904100006,8.945670784000072],[118.02937899900009,8.944018651000023],[118.02877401469104,8.941970417709987],[118.02812940977154,8.940624948062146],[118.02582445242534,8.936825120674357],[118.02315608324605,8.933268215478062],[118.0201500028573,8.92998847953372],[118.01994291136724,8.929802872364204],[118.01997910500006,8.930723893000046],[118.01896271900011,8.931401725000056],[118.01797679700009,8.931603062000024],[118.01637530000005,8.931223827000053],[118.01515565800004,8.93009861300004],[118.01366742500011,8.929327455000022],[118.0131811550001,8.928057125000064],[118.01163965600007,8.926796429000033],[118.00936300100011,8.926694221000048],[118.00842332900005,8.926385979000033],[118.00777518900009,8.92680638300004],[118.00725995000005,8.927929642000034],[118.00907327800009,8.928597897000033],[118.00845644000003,8.929845482000076],[118.00679100400009,8.930665456000042],[118.00559735200011,8.932032341000022],[118.0028491600001,8.933805289000079],[118.00161410000011,8.933981506000066],[118.0005040740001,8.93449108800007],[117.99887231700006,8.936328899000047],[117.99854694700002,8.93732596500007],[117.99665520400004,8.938350537000074],[117.99602596700004,8.93890560900007],[117.99453588100005,8.941301386000019],[117.99433102000013,8.94225238200005],[117.9936459920001,8.943244564000057],[117.992434806,8.944134236000023],[117.991787917,8.945842250000055],[117.99030419200005,8.946194448000027],[117.98961267900006,8.94533588300004],[117.98951110700011,8.943999239000048],[117.98561107400008,8.945114704000048],[117.98483179100003,8.945578870000075],[117.98477889800004,8.946343295000073],[117.9854439920001,8.946805355000036],[117.9868732640001,8.94575177000007],[117.98792723300004,8.946475586000075],[117.9882455070001,8.947959392000026],[117.98746989700008,8.949455683000052],[117.98660153700008,8.949825402000045],[117.98586328200008,8.951198330000066],[117.98419127400007,8.952463196000055],[117.9816117270001,8.95171283700006],[117.98205579600007,8.952553404000072],[117.98400146700008,8.955026207000056],[117.98362119700005,8.955849030000023],[117.98293005300002,8.955733175000033],[117.98227385400003,8.95636803900004],[117.97993766800003,8.95570680000003],[117.97828732000005,8.95659862000002],[117.97722295100004,8.955369444000041],[117.97536131700008,8.954728946000046],[117.97433048500012,8.953312915000025],[117.97270061200004,8.952561118000062],[117.9708585210001,8.952593259000023],[117.96900224900004,8.95156655300002],[117.9674598920001,8.951774435000061],[117.96677176700007,8.952637721000029],[117.96491450000008,8.953771180000047],[117.96328444900007,8.954077983000047],[117.96212002300001,8.955049201000065],[117.96380483200005,8.95598776600002],[117.96418474400002,8.956608104000052],[117.96218573800002,8.958626564000042],[117.96321379300001,8.959219256000038],[117.96431909500006,8.95834095200007],[117.96652249400007,8.957626171000072],[117.96792962000008,8.95736017000007],[117.9693935700001,8.957623329000057],[117.97024546100009,8.957092740000062],[117.9719212220001,8.957102615000052],[117.97321416700004,8.958104568000067],[117.97455812400005,8.95872372800005],[117.97513059200003,8.959990464000043],[117.97867603000009,8.961215415000026],[117.97897597000008,8.961949164000034],[117.97853481400011,8.962763333000053],[117.9765510310001,8.96315358500004],[117.97579356400003,8.963739358000055],[117.97828280400007,8.964477490000034],[117.97868652000011,8.965248721000027],[117.97668902100008,8.966975212000023],[117.9753691620001,8.967227094000066],[117.97378860700006,8.96653511300002],[117.97186724399998,8.965006781000056],[117.97216321300003,8.966498647000035],[117.974335847,8.967544001000023],[117.97485578900013,8.968439308000029],[117.9764767690001,8.968803509000052],[117.97811132700008,8.968436498000074],[117.9792534940001,8.969453333000047],[117.97904456100002,8.970412176000023],[117.97933798600003,8.973134356000058],[117.98028215400008,8.97248913300007],[117.98063845900003,8.970648480000023],[117.98121705100003,8.969383102000053],[117.98129212700006,8.968110867000062],[117.98250369000006,8.967867633000024],[117.98317043400004,8.969027],[117.982979279,8.970405860000028],[117.98333492200005,8.971163095000065],[117.98316789800005,8.972346027000073],[117.98366215800003,8.973025153000037],[117.98363536500005,8.974970447000032],[117.98456673800001,8.976299311000048],[117.9843781410001,8.977455556000054],[117.98345996600005,8.979345789000034],[117.98338033800009,8.98094701000002],[117.98375322200002,8.982172012000035],[117.9825386980001,8.982594186000028],[117.979983532,8.982845471000077],[117.97839638900007,8.983853869000027],[117.97588090700003,8.984010287000046],[117.97510572300007,8.984571948000054],[117.97473146400013,8.986665069000026],[117.9728698780001,8.98948178100005],[117.97209777000012,8.991207029000066],[117.9722338160001,8.992467824000071],[117.97356497700002,8.993325314000062],[117.97358751400007,8.994470111000055],[117.97231355400004,8.995024932000037],[117.97022319300004,8.994958186000076],[117.9701508600001,8.996025379000061],[117.96850503200005,8.997109183000022],[117.96562475700011,8.997279558000058],[117.96254949500008,8.997676130000059],[117.96210274700002,8.99807057000004],[117.96187782594059,8.99895540999059],[117.96291357334934,8.999714918910044],[117.96674814410652,9.001986263444174],[117.96677773751111,9.00200008362986],[117.96637252900008,9.001467137000075],[117.96663221400001,9.000726787000072],[117.96757997700003,9.00008759900004],[117.97054109100009,8.999712139000051],[117.97171731000003,8.999289520000046],[117.973267942,8.99953963400003],[117.97518622100007,8.999565874000037],[117.97621504700011,8.998702500000034],[117.97748375000005,8.998529095000036],[117.97897243000013,8.997710141000027],[117.97943182300003,8.996400245000073],[117.9790408460001,8.995536532000074],[117.97975877600005,8.994955014000027]]],[[[117.98303461900004,8.917396788000074],[117.9819574306117,8.917292826140832],[117.98171210942051,8.917329675306487],[117.98341133400004,8.919304627000033],[117.98518381300005,8.92014407700003],[117.9839083920001,8.923224879000028],[117.98272504300009,8.924245317000043],[117.98240396400001,8.926147515000023],[117.98131272100011,8.927038793000063],[117.98013385900005,8.929073376000074],[117.97753679500012,8.930122919000041],[117.97623992700004,8.929759709000052],[117.97523007600013,8.929960594000024],[117.9721562430001,8.93204092700006],[117.9671864720001,8.93423849000004],[117.9650202670001,8.933088388000042],[117.96276245600006,8.933194362000052],[117.96188009800007,8.933888105000051],[117.96040902300003,8.934425801000032],[117.96112476500002,8.935108123000022],[117.96242308300009,8.935130373000048],[117.96355748800009,8.93570871600002],[117.96374560600007,8.936326430000063],[117.96538567900006,8.935633458000042],[117.96584456100004,8.93593998500006],[117.97020429300005,8.936234685000043],[117.97110875600004,8.936723850000018],[117.9726756030001,8.93612521800003],[117.97406906100004,8.935929560000035],[117.97532325700001,8.93539819500006],[117.97728187200006,8.934208765000049],[117.97837315100003,8.933317517000031],[117.97881777300007,8.932369803000029],[117.98010541500003,8.931147395000036],[117.98094876200004,8.930848863000048],[117.9830784300001,8.929423260000018],[117.98556853700006,8.92619037800006],[117.98763960500004,8.924669513000024],[117.98840207800004,8.923621156000024],[117.98953678100007,8.92270658600006],[117.99017056800004,8.921599253000068],[117.99080925500003,8.921245080000059],[117.99221237100006,8.921684081000024],[117.99236640900006,8.923045281000045],[117.99339388200008,8.923660042000051],[117.99397222600011,8.925556321000045],[117.99343893100003,8.926679329000025],[117.99317474300005,8.929527205000054],[117.99116308600004,8.930623055000067],[117.98989296700006,8.930322436000038],[117.99025981700004,8.931901111000059],[117.99439951800002,8.932186028000045],[117.99627478000004,8.93159158700007],[117.99693802,8.932778310000062],[117.99782828000004,8.932823086000042],[117.99851693200003,8.93199848000006],[118.00049263500011,8.93060881300005],[118.00118685100007,8.926415639000023],[118.00127190700005,8.925168488000054],[118.0009642890001,8.923461841000062],[118.00027759600006,8.922122053000066],[118.00020300308702,8.918506198610348],[117.996832812471,8.917676346391152],[117.99241684697338,8.91703703370853],[117.98795913152487,8.916831166601588],[117.98350258050122,8.917060728685584],[117.98343699138672,8.917070580981685],[117.98303461900004,8.917396788000074]]]]}}]}