{"type":"FeatureCollection","features":[{"type":"Feature","properties":{"fid":23,"objectid":1869,"lccode":"07","liqcode":"2010600070000000","mappers":" ","project":"READY","province":"Antique","otherinfo":null,"datemapped":2010,"publishdate":null,"globalid":"{D10F3743-B08E-4BB0-8330-C339D6ABD38B}","st_area(shape)":0.008955404678814158,"st_perimeter(shape)":4.103226410979217,"liqcodepk":"201060007000000000061","creator":"SNOOPYPC","createdate":"2019-02-19T15:21:28","editor":"LENOVO","modifydate":"2019-03-10T17:50:55","codemove":"na"},"geometry":{"type":"Polygon","coordinates":[[[121.9690830950001,10.708167415000048],[121.96730151500003,10.71315249300005],[121.9642832940001,10.718051807000052],[121.96214618600004,10.720850049000035],[121.96202591200004,10.722268689000034],[121.96131493400003,10.72280451600005],[121.95976267100002,10.723370258000044],[121.9569980760001,10.726362091000055],[121.9550759560001,10.728965259000061],[121.95106828300005,10.733714350000072],[121.94616890400006,10.73872127200002],[121.94527698500006,10.73907707300003],[121.94395291400006,10.740410063000068],[121.94255404130583,10.740849394236488],[121.94244149682727,10.7415822829601],[121.94276213400008,10.741335673000037],[121.9442475730001,10.741047169000067],[121.94483995100008,10.741440554000064],[121.94767570500007,10.741776448000051],[121.95021673800012,10.74149139800005],[121.95133943700012,10.741168998000035],[121.95329009600006,10.73990335900004],[121.95523774900006,10.739485900000032],[121.95751327900007,10.739656635000074],[121.95810351400009,10.740702460000021],[121.95845585400002,10.743769906000072],[121.9591709430001,10.74687129500006],[121.95995839200009,10.748113511000042],[121.9618375120001,10.748478625000075],[121.96394519800003,10.749529510000057],[121.9682223100001,10.752871028000072],[121.97232432500005,10.75924564300004],[121.97376871900006,10.761370760000034],[121.97525082600009,10.762093317000053],[121.97660240300002,10.76239133300004],[121.97815424400004,10.762004982000065],[121.9786178170001,10.761484583000026],[121.9783655980001,10.758026006000023],[121.9783082900001,10.75544882500003],[121.97880938000002,10.753591051000056],[121.9800003890001,10.75258375100003],[121.98257894300002,10.750961156000072],[121.98311175000003,10.74946239600007],[121.98215862500001,10.748415420000072],[121.98021775900007,10.74677800100005],[121.97943175900002,10.745079091000036],[121.97914156800006,10.743088344000059],[121.97988096200004,10.739013182000063],[121.98095066200005,10.734808638000057],[121.9811244970001,10.732166935000068],[121.98148886700005,10.731711386000029],[121.98409625700005,10.731263259000059],[121.98584847300005,10.730094571000052],[121.9864135910001,10.728791638000072],[121.98638390000008,10.727812870000037],[121.98794325300003,10.72511048200005],[121.98827739800004,10.723806702000045],[121.98696420800003,10.721943090000025],[121.98624325200001,10.720505419000062],[121.98621507900009,10.719070002000024],[121.98707951600011,10.717017739000026],[121.98724918700009,10.71558296400002],[121.9820570500001,10.709759561000057],[121.9812367830001,10.708452016000027],[121.97919985700004,10.706031449000022],[121.97858666708498,10.703248253591324],[121.9745918447652,10.704223972515852],[121.97036262441299,10.70570485151172],[121.96965461282937,10.70603317109207],[121.9690830950001,10.708167415000048]]]}},{"type":"Feature","properties":{"fid":49,"objectid":1898,"lccode":"05","liqcode":"2010600050000000","mappers":" ","project":"READY","province":"Antique","otherinfo":null,"datemapped":2010,"publishdate":null,"globalid":"{F799DDD2-325B-4E56-934A-EE54555B99CC}","st_area(shape)":0.01053919356163067,"st_perimeter(shape)":4.296469707330003,"liqcodepk":"201060005000000000092","creator":"SNOOPYPC","createdate":"2019-02-19T15:21:28","editor":"LENOVO","modifydate":"2019-03-10T17:50:55","codemove":"na"},"geometry":{"type":"MultiPolygon","coordinates":[[[[122.02679421200004,10.769367897000052],[122.02429016900011,10.769713527000022],[122.02333815700003,10.769239136000067],[122.0222091280001,10.768233844000067],[122.02239154300003,10.76711488300003],[122.02346611600001,10.766528982000068],[122.023708671,10.76523336800005],[122.0227604700001,10.76358050500005],[122.02216627300004,10.763048292000063],[122.02025971000013,10.762924383000037],[122.01876910900012,10.763155368000072],[122.01692479700013,10.762206744000022],[122.01680698400001,10.761793924000074],[122.01812411800006,10.759912433000066],[122.01777033300003,10.758732831000032],[122.01711638900007,10.758259368000038],[122.01556814700007,10.757900871000059],[122.01402259000008,10.756717484000033],[122.01378919600006,10.755184671000052],[122.01159587300003,10.75164216300004],[122.00951309500012,10.750751689000026],[122.0070147130001,10.749388392000073],[122.00660418300004,10.747383619000061],[122.00714472000004,10.746088974000031],[122.00780285600001,10.74526609500003],[122.00929548500007,10.74438702000003],[122.00953634400003,10.743621753000069],[122.00709458300003,10.743201515000067],[122.00531135100003,10.74184049300004],[122.00376514200003,10.74089275800003],[122.00227948100006,10.73965056700007],[122.0004396280001,10.737405503000048],[122.00032320000003,10.736580149000075],[122.0014574590001,10.73593565300007],[122.00205756200013,10.734641208000031],[122.00147216100005,10.731457300000045],[122.00266662200012,10.73063624100007],[122.00231060400004,10.730163708000076],[122.000760591,10.730394430000047],[122.00004735900008,10.729861800000036],[121.99868272100001,10.728089649000026],[121.99790946600001,10.727674624000029],[121.99647899000001,10.72778790800004],[121.9948791500001,10.725072202000034],[121.99375427100006,10.722888272000034],[121.99304216200007,10.722002135000025],[121.99137578700005,10.721407458000048],[121.99102006800001,10.720875968000026],[121.99035150100009,10.717958666000069],[121.98996629700004,10.719567233000022],[121.98931183,10.720584647000067],[121.98941828400005,10.721202121000031],[121.99126000800005,10.72214716700006],[121.99299251800007,10.723333332000035],[121.991873456,10.725342025000032],[121.99013754400004,10.725202231000024],[121.98904533400002,10.727291462000037],[121.98904203600011,10.728284227000074],[121.99000713500004,10.731802083000048],[121.99190045600004,10.733579057000043],[121.99211160000003,10.735350574000051],[121.9917303650001,10.735778598000024],[121.99012764100007,10.736363674000078],[121.98849669500011,10.737270685000054],[121.98722162700004,10.737212832000068],[121.98543351,10.736428948000025],[121.98488973400002,10.736775968000071],[121.98434174500007,10.738383990000047],[121.98593562700013,10.740455114000042],[121.98625684400008,10.741770881000036],[121.98682437500007,10.742443471000058],[121.98687249500004,10.74429492000007],[121.98730294400002,10.745396412000044],[121.98974207900007,10.746236111000028],[121.99049806200003,10.747365419000063],[121.99054994700008,10.74809003000007],[121.98916373200008,10.74880996500002],[121.98779955900011,10.751059312000052],[121.98721948200013,10.754142877000051],[121.98724045200005,10.755994236000047],[121.98801805900007,10.758760374000074],[121.98681716300007,10.760876078000022],[121.9846152020001,10.76207619100006],[121.983008906,10.763680737000074],[121.98232427900007,10.765556630000049],[121.98321791900003,10.766096224000023],[121.98590424300006,10.766105020000055],[121.98891674900005,10.765926987000059],[121.99325972200006,10.765511856000044],[121.99499657600006,10.76543702600003],[121.99770969800012,10.765553120000048],[122.00400206000006,10.766432003000034],[122.00476016800006,10.76694416100003],[122.00437565700007,10.768338113000024],[122.00269105100007,10.769030293000075],[122.0000036240001,10.769343672000048],[121.99927125200009,10.769260755000063],[121.99639803300012,10.768312395000066],[121.99463428000003,10.76830668100007],[121.9930038770001,10.768998982000028],[121.98969348100002,10.768988213000055],[121.98814739200007,10.76879539300006],[121.98635442900002,10.76940666300004],[121.98395880900011,10.77173306900005],[121.98211269500008,10.771995253000057],[121.98170361600012,10.772611035000068],[121.98242778800011,10.775135438000063],[121.98274630900006,10.777256101000035],[121.98241805400005,10.778033165000064],[121.98065560600003,10.77762487500007],[121.97946534700009,10.776520962000063],[121.97851702600008,10.776088490000063],[121.9763188050001,10.77616178900007],[121.9755877890001,10.775676414000031],[121.97280141900002,10.773145083000031],[121.97112137400008,10.772468775000048],[121.9686513150001,10.772675193000053],[121.9639223260001,10.774859491000027],[121.961943259,10.774343150000051],[121.96021078200012,10.773129950000055],[121.95907244600006,10.772723635000034],[121.95706533200008,10.772475409000037],[121.95592735700006,10.77198871200005],[121.95446208800003,10.771983773000041],[121.9528054650001,10.772380584000075],[121.95242312400002,10.77307687500007],[121.95219671400002,10.775785977000055],[121.95224562487839,10.776060059134954],[121.95227529510322,10.776099898921224],[121.95414479574256,10.778153429028373],[121.95495465600003,10.778639325000029],[121.95544043200005,10.779419009000035],[121.95539232628643,10.779501235598637],[121.9585923418913,10.782388585381613],[121.96174633136177,10.784717836970579],[121.96187774600003,10.784698297000036],[121.963044307,10.784958783000034],[121.96589045400003,10.787148571000044],[121.96666744100004,10.787535850000038],[121.96687307751539,10.787735893694462],[121.97007942937384,10.7892483644312],[121.97320006878253,10.790364049284273],[121.97314610700006,10.789609485000026],[121.9736723750001,10.787430957000026],[121.97328953300007,10.785569999000073],[121.97439712000003,10.78409884800004],[121.97517468800002,10.784293720000049],[121.97724183400008,10.78673731800006],[121.97827285900007,10.788728612000057],[121.979366733,10.791297274000044],[121.97936450690759,10.791956997087361],[121.98308628231503,10.792515360913756],[121.98756790344268,10.792747774136483],[121.99205098842089,10.792544691374776],[121.99649234328334,10.791908067548627],[122.0008491763268,10.790844034696603],[122.00507951095473,10.789362842880815],[122.00633467646243,10.788780821427181],[122.00634958600006,10.788689382000031],[122.0057611830001,10.786389396000061],[122.0063012280001,10.785271599000055],[122.00832908300004,10.784806710000055],[122.01083325900002,10.784461132000045],[122.01333635400012,10.784469119000052],[122.01398055808257,10.784495209175962],[122.01661240237748,10.782578239200793],[122.01994717801517,10.779609009157218],[122.02034899670184,10.779173468999927],[122.02020827900004,10.778834139000022],[122.0194967340001,10.777712262000021],[122.02015548700001,10.776712614000076],[122.02111094400003,10.776126438000064],[122.02295991300001,10.775660790000076],[122.0241568990001,10.774073632000068],[122.02488643108003,10.773794791695147],[122.0256561812133,10.77277535759829],[122.02728716667671,10.770104056654267],[122.02679421200004,10.769367897000052]]],[[[121.99395375000006,10.703347613000062],[121.99283804500011,10.704390403000044],[121.99163797500012,10.706318378000049],[121.99092624100001,10.708247837000046],[121.99200895700004,10.709002637000022],[121.99194846000013,10.710880501000075],[121.99350093900011,10.70939359300007],[121.99445011500006,10.710634082000068],[121.99460282300005,10.712203799000065],[121.99642318900011,10.711404757000025],[121.9960139860001,10.710698070000033],[121.99624369700005,10.70878377100007],[121.99526621400004,10.707071714000051],[121.99530160400002,10.705392485000061],[121.99595715000008,10.705335650000052],[121.99690669200005,10.706487803000073],[121.99851430800005,10.706817087000047],[121.99929118800003,10.706112403000077],[121.99941360200012,10.705111065000038],[122.00027953100005,10.704495174000044],[122.00233180400005,10.705503478000026],[122.00338260531248,10.705114032573638],[122.00113374418724,10.704310110133248],[121.9967852722107,10.703218017621019],[121.99405109566979,10.70280789923031],[121.99395375000006,10.703347613000062]]],[[[121.99414283300008,10.718503653000027],[121.99222541400002,10.71737445700006],[121.99086907000003,10.717316363000064],[121.99035150100009,10.717958666000069],[121.99414283300008,10.718503653000027]]]]}},{"type":"Feature","properties":{"fid":59,"objectid":1908,"lccode":"05","liqcode":"2010600050000000","mappers":"PJDelosReyes, ACPidlaoan","project":"READY","province":"Iloilo","otherinfo":null,"datemapped":2010,"publishdate":null,"globalid":"{282D04BA-68E2-41E5-9B8A-0D8D85396F2D}","st_area(shape)":0.06128738608791496,"st_perimeter(shape)":10.692281506054618,"liqcodepk":"201060005000000000103","creator":"SNOOPYPC","createdate":"2019-02-19T15:21:28","editor":"LENOVO","modifydate":"2019-03-10T17:50:55","codemove":"na"},"geometry":{"type":"Polygon","coordinates":[]}},{"type":"Feature","properties":{"fid":64,"objectid":1928,"lccode":"06","liqcode":"2010600060000000","mappers":" ","project":"READY","province":"Antique","otherinfo":null,"datemapped":2010,"publishdate":null,"globalid":"{59F7BC3E-69F7-4D6A-8910-A1F9D73ECE42}","st_area(shape)":0.010710328066056169,"st_perimeter(shape)":5.351824083433743,"liqcodepk":"201060006000000000126","creator":"SNOOPYPC","createdate":"2019-02-19T15:21:28","editor":"LENOVO","modifydate":"2019-03-10T17:50:55","codemove":"na"},"geometry":{"type":"MultiPolygon","coordinates":[[[[121.97919985700004,10.706031449000022],[121.9812367830001,10.708452016000027],[121.9820570500001,10.709759561000057],[121.98724918700009,10.71558296400002],[121.98707951600011,10.717017739000026],[121.98621507900009,10.719070002000024],[121.98624325200001,10.720505419000062],[121.98696420800003,10.721943090000025],[121.98827739800004,10.723806702000045],[121.98794325300003,10.72511048200005],[121.98638390000008,10.727812870000037],[121.9864135910001,10.728791638000072],[121.98584847300005,10.730094571000052],[121.98409625700005,10.731263259000059],[121.98148886700005,10.731711386000029],[121.9811244970001,10.732166935000068],[121.98095066200005,10.734808638000057],[121.97988096200004,10.739013182000063],[121.97914156800006,10.743088344000059],[121.97943175900002,10.745079091000036],[121.98021775900007,10.74677800100005],[121.98215862500001,10.748415420000072],[121.98311175000003,10.74946239600007],[121.98257894300002,10.750961156000072],[121.9800003890001,10.75258375100003],[121.97880938000002,10.753591051000056],[121.9783082900001,10.75544882500003],[121.9783655980001,10.758026006000023],[121.9786178170001,10.761484583000026],[121.97815424400004,10.762004982000065],[121.97660240300002,10.76239133300004],[121.97525082600009,10.762093317000053],[121.97376871900006,10.761370760000034],[121.97232432500005,10.75924564300004],[121.9682223100001,10.752871028000072],[121.96394519800003,10.749529510000057],[121.9618375120001,10.748478625000075],[121.95995839200009,10.748113511000042],[121.9591709430001,10.74687129500006],[121.95845585400002,10.743769906000072],[121.95810351400009,10.740702460000021],[121.95751327900007,10.739656635000074],[121.95523774900006,10.739485900000032],[121.95329009600006,10.73990335900004],[121.95133943700012,10.741168998000035],[121.95021673800012,10.74149139800005],[121.94767570500007,10.741776448000051],[121.94483995100008,10.741440554000064],[121.9442475730001,10.741047169000067],[121.94276213400008,10.741335673000037],[121.94244149682727,10.7415822829601],[121.94223132243603,10.74295092414443],[121.94199572702696,10.747381825876209],[121.94220046071719,10.751814225714531],[121.94284357111891,10.75620543819486],[121.94391888369894,10.760513172644462],[121.94541606051146,10.764695940495644],[121.94732069906654,10.768713454945368],[121.94961447040914,10.772527019108638],[121.95224562487839,10.776060059134954],[121.95219671400002,10.775785977000055],[121.95242312400002,10.77307687500007],[121.9528054650001,10.772380584000075],[121.95446208800003,10.771983773000041],[121.95592735700006,10.77198871200005],[121.95706533200008,10.772475409000037],[121.95907244600006,10.772723635000034],[121.96021078200012,10.773129950000055],[121.961943259,10.774343150000051],[121.9639223260001,10.774859491000027],[121.9686513150001,10.772675193000053],[121.97112137400008,10.772468775000048],[121.97280141900002,10.773145083000031],[121.9755877890001,10.775676414000031],[121.9763188050001,10.77616178900007],[121.97851702600008,10.776088490000063],[121.97946534700009,10.776520962000063],[121.98065560600003,10.77762487500007],[121.98241805400005,10.778033165000064],[121.98274630900006,10.777256101000035],[121.98242778800011,10.775135438000063],[121.98170361600012,10.772611035000068],[121.98211269500008,10.771995253000057],[121.98395880900011,10.77173306900005],[121.98635442900002,10.76940666300004],[121.98814739200007,10.76879539300006],[121.98969348100002,10.768988213000055],[121.9930038770001,10.768998982000028],[121.99463428000003,10.76830668100007],[121.99639803300012,10.768312395000066],[121.99927125200009,10.769260755000063],[122.0000036240001,10.769343672000048],[122.00269105100007,10.769030293000075],[122.00437565700007,10.768338113000024],[122.00476016800006,10.76694416100003],[122.00400206000006,10.766432003000034],[121.99770969800012,10.765553120000048],[121.99499657600006,10.76543702600003],[121.99325972200006,10.765511856000044],[121.98891674900005,10.765926987000059],[121.98590424300006,10.766105020000055],[121.98321791900003,10.766096224000023],[121.98232427900007,10.765556630000049],[121.983008906,10.763680737000074],[121.9846152020001,10.76207619100006],[121.98681716300007,10.760876078000022],[121.98801805900007,10.758760374000074],[121.98724045200005,10.755994236000047],[121.98721948200013,10.754142877000051],[121.98779955900011,10.751059312000052],[121.98916373200008,10.74880996500002],[121.99054994700008,10.74809003000007],[121.99049806200003,10.747365419000063],[121.98974207900007,10.746236111000028],[121.98730294400002,10.745396412000044],[121.98687249500004,10.74429492000007],[121.98682437500007,10.742443471000058],[121.98625684400008,10.741770881000036],[121.98593562700013,10.740455114000042],[121.98434174500007,10.738383990000047],[121.98488973400002,10.736775968000071],[121.98543351,10.736428948000025],[121.98722162700004,10.737212832000068],[121.98849669500011,10.737270685000054],[121.99012764100007,10.736363674000078],[121.9917303650001,10.735778598000024],[121.99211160000003,10.735350574000051],[121.99190045600004,10.733579057000043],[121.99000713500004,10.731802083000048],[121.98904203600011,10.728284227000074],[121.98904533400002,10.727291462000037],[121.99013754400004,10.725202231000024],[121.991873456,10.725342025000032],[121.99299251800007,10.723333332000035],[121.99126000800005,10.72214716700006],[121.98941828400005,10.721202121000031],[121.98931183,10.720584647000067],[121.98996629700004,10.719567233000022],[121.99035150100009,10.717958666000069],[121.99086907000003,10.717316363000064],[121.99222541400002,10.71737445700006],[121.99414283300008,10.718503653000027],[121.9952066510001,10.718323164000022],[121.9951033850001,10.716713013000058],[121.99611106100008,10.715562556000062],[121.99701387700009,10.713257960000023],[121.99642318900011,10.711404757000025],[121.99460282300005,10.712203799000065],[121.99384087800001,10.712898934000068],[121.99240506000001,10.71227725500006],[121.99194846000013,10.710880501000075],[121.99200895700004,10.709002637000022],[121.99092624100001,10.708247837000046],[121.99163797500012,10.706318378000049],[121.99283804500011,10.704390403000044],[121.99395375000006,10.703347613000062],[121.99405109566979,10.70280789923031],[121.99234953230702,10.702552657269688],[121.98786922535318,10.70232043246546],[121.98338748034284,10.702523576959793],[121.978947439748,10.703160133460349],[121.97858666708498,10.703248253591324],[121.97919985700004,10.706031449000022]]],[[[121.95544043200005,10.779419009000035],[121.95495465600003,10.778639325000029],[121.95414479574256,10.778153429028373],[121.95527755544677,10.779397677191598],[121.95539232628643,10.779501235598637],[121.95544043200005,10.779419009000035]]]]}}]}