{"type":"FeatureCollection","features":[{"type":"Feature","properties":{"fid":17,"objectid":1863,"lccode":"07","liqcode":"2010600070000000","mappers":"MITAbigania, DJVRivera, PJDelosReyes, ACPidlaoan","project":"GMMA-READY","province":"Bulacan","otherinfo":null,"datemapped":2013,"publishdate":null,"globalid":"{70EE0B92-1310-4863-994B-262A0419985C}","st_area(shape)":0.05460415768202689,"st_perimeter(shape)":2.604001747145809,"liqcodepk":"201060007000000000055","creator":"SNOOPYPC","createdate":"2019-02-19T15:21:28","editor":"LENOVO","modifydate":"2019-03-10T17:50:55","codemove":"na"},"geometry":{"type":"Polygon","coordinates":[[[120.90014283000005,15.079445182000029],[120.90097500100002,15.08178337100003],[120.90977328100007,15.087624056000042],[120.91416579900012,15.086994874000027],[120.91657380800007,15.086186639000061],[120.91830199700006,15.087193652000053],[120.9191662830001,15.086264048000032],[120.92006364000007,15.085954476000039],[120.92085741000005,15.086604625000065],[120.92310871000007,15.087723640000036],[120.92533737200006,15.088333360000037],[120.92643980000004,15.088450603000071],[120.92788332300007,15.087526266000053],[120.92895235900006,15.088232481000036],[120.93093178700009,15.088947103000065],[120.93138852200002,15.09021026200002],[120.9330988810001,15.090225883000073],[120.93299178500001,15.092742969000026],[120.93358105300003,15.094569977000045],[120.93340460400009,15.096113913000064],[120.9337219250001,15.097536603000037],[120.93478566700003,15.09880539100004],[120.938227201,15.102399544000034],[120.93789839200008,15.105021760000056],[120.93834536100009,15.107302782000032],[120.93742849900002,15.107964118000043],[120.93800194500011,15.108585471000026],[120.93960150700002,15.108653622000078],[120.94064160200001,15.10952034000007],[120.94163708000008,15.109288284000051],[120.94231935200003,15.110071335000042],[120.94198559200005,15.110783978000034],[120.94265901200005,15.112477765000055],[120.9444182530001,15.113163465000067],[120.94517762400007,15.114536505000046],[120.94411193200006,15.116321620000058],[120.94398917800002,15.11760632600004],[120.94439837400012,15.118092288000067],[120.94533874800005,15.117859719000023],[120.9460372420001,15.119821590000068],[120.9452252860001,15.121046460000061],[120.94589901300002,15.12271341400003],[120.94655811400003,15.123040838000062],[120.947335242,15.12256574900004],[120.9488566210001,15.122177727000066],[120.94955054000003,15.124875018000063],[120.95001318200002,15.12554891600007],[120.95173825300003,15.126930793000039],[120.95257558100003,15.128813508000063],[120.95275558600008,15.13018137100005],[120.95233065000002,15.131329370000062],[120.9509663020001,15.132602822000031],[120.95113236900009,15.135187726000028],[120.94889402700005,15.135515578000021],[120.94777695800009,15.13689839500006],[120.94372757800011,15.139031445000057],[120.94269192700006,15.140548858000042],[120.94248507300006,15.141966767000042],[120.94047362500008,15.141653730000026],[120.94001761300001,15.143149674000025],[120.93769130700002,15.144012409000025],[120.93623666600001,15.143195533000045],[120.93576606800002,15.143351945000067],[120.93555077600003,15.145626914000047],[120.9342448440001,15.14655251300007],[120.93300138200006,15.148248465000048],[120.93198226200003,15.148051670000022],[120.93037981100008,15.148251263000072],[120.92951997000011,15.148698777000053],[120.92925987400007,15.149901797000041],[120.927793499,15.15029016400007],[120.92526139900008,15.15243667100003],[120.92354087900004,15.153411955000026],[120.92162465600006,15.154653368000028],[120.92097820700008,15.155852810000056],[120.92249245500012,15.156215025000048],[120.92262051200011,15.157234152000056],[120.9212516350001,15.158935910000025],[120.92176494200011,15.160065731000026],[120.92013557100006,15.160184588000048],[120.92009826300011,15.161175449000037],[120.91945728500002,15.161812390000023],[120.91933851900001,15.162714959000029],[120.920044716,15.163873395000046],[120.91995591900002,15.164488690000042],[120.91889890300001,15.16533607300005],[120.91893955308952,15.165753457923714],[120.92155845001398,15.165141948374552],[120.92587081549031,15.163687992238836],[120.93001562210712,15.161830421708936],[120.93388546126813,15.159625576801853],[120.93802839700004,15.15576662900003],[120.9420943660001,15.15283861000006],[120.94263148756507,15.152376216129655],[120.94415271645825,15.150776407529326],[120.94690606099026,15.147240230263519],[120.94928921210567,15.143458909181673],[120.95127922827854,15.139468873921059],[120.95285695906489,15.135308563306259],[120.95400722896898,15.131018054678743],[120.95438969207459,15.128664815281006],[120.95259728900011,15.125673457000063],[120.9519512620001,15.121171947000049],[120.9511920770001,15.11819979300003],[120.94964166200008,15.115603147000057],[120.94778673800012,15.113960265000062],[120.94584894500008,15.110690478000036],[120.94362423800011,15.106557302000054],[120.94287901900009,15.10215055700007],[120.94282945500005,15.097080530000026],[120.94109800700005,15.092856159000068],[120.93855603300005,15.089351919000027],[120.93653592100009,15.086119011000054],[120.93645110682323,15.085763009130169],[120.93468060698952,15.08446200977231],[120.93078891057847,15.082147076145482],[120.92668250594978,15.080213851871617],[120.9224009256703,15.07868094241733],[120.9179853849511,15.077563099295093],[120.91347838544024,15.076871078426658],[120.90892330676623,15.076611536920726],[120.90436398973313,15.076786969245067],[120.89984431514524,15.077395683397095],[120.89964340478174,15.07744260734298],[120.90014283000005,15.079445182000029]]]}},{"type":"Feature","properties":{"fid":41,"objectid":1890,"lccode":"05","liqcode":"2010600050000000","mappers":"MITAbigania, DJVRivera, PJDelosReyes, ACPidlaoan","project":"GMMA-READY","province":"Bulacan","otherinfo":null,"datemapped":2013,"publishdate":null,"globalid":"{962B0335-0147-4964-AF91-92BBA0EB94A8}","st_area(shape)":0.006518104617901708,"st_perimeter(shape)":1.6741822690840518,"liqcodepk":"201060005000000000084","creator":"SNOOPYPC","createdate":"2019-02-19T15:21:28","editor":"LENOVO","modifydate":"2019-03-10T17:50:55","codemove":"na"},"geometry":{"type":"Polygon","coordinates":[]}},{"type":"Feature","properties":{"fid":88,"objectid":1948,"lccode":"01","liqcode":"2010600010000000","mappers":"DJLBuhay, MJVReyes, MITAbigania, KLPapiona, KMVitto","project":"MELP","province":"Nueva Ecija","otherinfo":null,"datemapped":2018,"publishdate":null,"globalid":"{7108698D-0ACD-424A-BE94-6776F1BFA796}","st_area(shape)":0.0006561752269558942,"st_perimeter(shape)":0.1541196708250089,"liqcodepk":null,"creator":null,"createdate":"2019-06-04T13:29:47","editor":"SDE","modifydate":"2019-06-04T09:15:42","codemove":"na"},"geometry":{"type":"Polygon","coordinates":[]}},{"type":"Feature","properties":{"fid":92,"objectid":1921,"lccode":"06","liqcode":"2010600060000000","mappers":"MITAbigania, DJVRivera, PJDelosReyes, ACPidlaoan","project":"GMMA-READY","province":"Bulacan","otherinfo":null,"datemapped":2013,"publishdate":null,"globalid":"{AD30FD4E-4565-4937-AC43-8F5ADC174AC4}","st_area(shape)":0.01360742625474969,"st_perimeter(shape)":2.0316826783369253,"liqcodepk":"201060006000000000119","creator":"SNOOPYPC","createdate":"2019-02-19T15:21:28","editor":"LENOVO","modifydate":"2019-03-10T17:50:55","codemove":"na"},"geometry":{"type":"MultiPolygon","coordinates":[[[[120.9420943660001,15.15283861000006],[120.93802839700004,15.15576662900003],[120.93388546126813,15.159625576801853],[120.9339529322364,15.159587134088184],[120.93764481065976,15.156979743407351],[120.9410556905498,15.154033371883568],[120.94263148756507,15.152376216129655],[120.9420943660001,15.15283861000006]]],[[[120.93653592100009,15.086119011000054],[120.93855603300005,15.089351919000027],[120.94109800700005,15.092856159000068],[120.94282945500005,15.097080530000026],[120.94287901900009,15.10215055700007],[120.94362423800011,15.106557302000054],[120.94584894500008,15.110690478000036],[120.94778673800012,15.113960265000062],[120.94964166200008,15.115603147000057],[120.9511920770001,15.11819979300003],[120.9519512620001,15.121171947000049],[120.95259728900011,15.125673457000063],[120.95438969207459,15.128664815281006],[120.95471898285952,15.126638677498761],[120.95498539156422,15.122212614957183],[120.95480391665929,15.117782497447667],[120.95417633386805,15.113390991824748],[120.95310871488348,15.109080390410385],[120.95161136783126,15.104892203710081],[120.94969873698717,15.100866760760148],[120.94738926275322,15.097042820950222],[120.94470520327577,15.093457201051006],[120.94167241945361,15.090144421027475],[120.93832012543012,15.087136372034065],[120.93645110682323,15.085763009130169],[120.93653592100009,15.086119011000054]]]]}},{"type":"Feature","properties":{"fid":218,"objectid":8402,"lccode":"07","liqcode":null,"mappers":"PJDelosReyes, ACPidlaoan","project":"READY","province":"Pampanga","otherinfo":"as of October 2015, reupdate 2021","datemapped":2008,"publishdate":null,"globalid":"{523547B0-D8C4-4084-9EE8-AA20F7B2A472}","st_area(shape)":0.07539067039960894,"st_perimeter(shape)":2.422972172763333,"liqcodepk":null,"creator":null,"createdate":null,"editor":null,"modifydate":"1905-07-07T08:00:00","codemove":null},"geometry":{"type":"Polygon","coordinates":[[[120.91889890300001,15.16533607300005],[120.91995591900002,15.164488690000042],[120.920044716,15.163873395000046],[120.91933851900001,15.162714959000029],[120.91945728500002,15.161812390000023],[120.92009826300011,15.161175449000037],[120.92013557100006,15.160184588000048],[120.92176494200011,15.160065731000026],[120.9212516350001,15.158935910000025],[120.92262051200011,15.157234152000056],[120.92249245500012,15.156215025000048],[120.92097820700008,15.155852810000056],[120.92162465600006,15.154653368000028],[120.92354087900004,15.153411955000026],[120.92526139900008,15.15243667100003],[120.927793499,15.15029016400007],[120.92925987400007,15.149901797000041],[120.92951997000011,15.148698777000053],[120.93037981100008,15.148251263000072],[120.93198226200003,15.148051670000022],[120.93300138200006,15.148248465000048],[120.9342448440001,15.14655251300007],[120.93555077600003,15.145626914000047],[120.93576606800002,15.143351945000067],[120.93623666600001,15.143195533000045],[120.93769130700002,15.144012409000025],[120.94001761300001,15.143149674000025],[120.94047362500008,15.141653730000026],[120.94248507300006,15.141966767000042],[120.94269192700006,15.140548858000042],[120.94372757800011,15.139031445000057],[120.94777695800009,15.13689839500006],[120.94889402700005,15.135515578000021],[120.95113236900009,15.135187726000028],[120.9509663020001,15.132602822000031],[120.95233065000002,15.131329370000062],[120.95275558600008,15.13018137100005],[120.95257558100003,15.128813508000063],[120.95173825300003,15.126930793000039],[120.95001318200002,15.12554891600007],[120.94955054000003,15.124875018000063],[120.9488566210001,15.122177727000066],[120.947335242,15.12256574900004],[120.94655811400003,15.123040838000062],[120.94589901300002,15.12271341400003],[120.9452252860001,15.121046460000061],[120.9460372420001,15.119821590000068],[120.94533874800005,15.117859719000023],[120.94439837400012,15.118092288000067],[120.94398917800002,15.11760632600004],[120.94411193200006,15.116321620000058],[120.94517762400007,15.114536505000046],[120.9444182530001,15.113163465000067],[120.94265901200005,15.112477765000055],[120.94198559200005,15.110783978000034],[120.94231935200003,15.110071335000042],[120.94163708000008,15.109288284000051],[120.94064160200001,15.10952034000007],[120.93960150700002,15.108653622000078],[120.93800194500011,15.108585471000026],[120.93742849900002,15.107964118000043],[120.93834536100009,15.107302782000032],[120.93789839200008,15.105021760000056],[120.938227201,15.102399544000034],[120.93478566700003,15.09880539100004],[120.9337219250001,15.097536603000037],[120.93340460400009,15.096113913000064],[120.93358105300003,15.094569977000045],[120.93299178500001,15.092742969000026],[120.9330988810001,15.090225883000073],[120.93138852200002,15.09021026200002],[120.93093178700009,15.088947103000065],[120.92895235900006,15.088232481000036],[120.92788332300007,15.087526266000053],[120.92643980000004,15.088450603000071],[120.92533737200006,15.088333360000037],[120.92310871000007,15.087723640000036],[120.92085741000005,15.086604625000065],[120.92006364000007,15.085954476000039],[120.9191662830001,15.086264048000032],[120.91830199700006,15.087193652000053],[120.91657380800007,15.086186639000061],[120.91416579900012,15.086994874000027],[120.90977328100007,15.087624056000042],[120.90097500100002,15.08178337100003],[120.90014283000005,15.079445182000029],[120.89964340478174,15.07744260734298],[120.89540778227767,15.078431817295131],[120.89109709101221,15.079885395228457],[120.88695373162241,15.081742423822943],[120.88301758612016,15.083985026601578],[120.87932654496787,15.08659161585173],[120.87591614281718,15.089537100154844],[120.8728192167573,15.09279312559384],[120.870065590346,15.096328348331816],[120.86768178645606,15.100108735955194],[120.86569077169922,15.104097894698969],[120.86411173489458,15.108257419422541],[120.8629599017274,15.112547262985764],[120.86224638740423,15.116926121486394],[120.86197808874974,15.121351831666072],[120.86215761681727,15.125781776672195],[120.8627832706993,15.130173296279423],[120.8638490528296,15.13448409762842],[120.86534472567169,15.13867266253033],[120.86725590928873,15.142698647414809],[120.86956421889482,15.146523272066034],[120.87224744109962,15.150109693395287],[120.87527974718039,15.153423360639104],[120.87863194135316,15.156432348547709],[120.88227174167109,15.159107665337588],[120.88616409085517,15.161423532423463],[120.89027149406702,15.16335763321496],[120.89455438036488,15.164891328561334],[120.89897148434807,15.166009836748687],[120.90348024429309,15.166702376297122],[120.90803721291894,15.166962270165323],[120.91259847679156,15.16678701034444],[120.91712008029066,15.166178282207802],[120.91893955308952,15.165753457923714],[120.91889890300001,15.16533607300005]]]}}]}