{"type":"FeatureCollection","features":[{"type":"Feature","properties":{"fid":187,"objectid":10016,"lccode":"01","liqcode":null,"mappers":"DJLBuhay, MJVReyes, MITAbigania, KLPapiona, KMVitto","project":"MELP","province":"Sultan Kudarat","otherinfo":null,"datemapped":2020,"publishdate":2021,"globalid":"{1B7E7CC9-093D-4716-9F84-3DA25042BFE2}","st_area(shape)":0.08978084284158963,"st_perimeter(shape)":9.534125484685708,"liqcodepk":null,"creator":null,"createdate":null,"editor":null,"modifydate":null,"codemove":null},"geometry":{"type":"Polygon","coordinates":[[[124.68269962300008,6.828239505000056],[124.67967971000006,6.820916131000045],[124.67846629100006,6.816135546000055],[124.67614374300001,6.81073079400005],[124.6726366470001,6.800186429000065],[124.67097938400003,6.796782964000045],[124.66629667800011,6.783627502000056],[124.67268440000011,6.782873438000023],[124.68110970500004,6.781681605000072],[124.69818687100008,6.781432617000062],[124.70571070000005,6.781205266000029],[124.71920945900003,6.781278317000044],[124.7239830485938,6.781214319319728],[124.72394491049569,6.780490782679141],[124.7232780691497,6.776104450999462],[124.72218436199894,6.771804569896073],[124.7206743310386,6.767632544151467],[124.71876252588308,6.7636285466238295],[124.71646736337334,6.75983113159408],[124.71381095002113,6.756276863714047],[124.71081886900721,6.752999966119625],[124.70751993378805,6.750031991088171],[124.70394591068431,6.7474015164025625],[124.70013121311936,6.745133870337499],[124.69611257044573,6.743250887908929],[124.69192867453934,6.741770700727598],[124.68761980755271,6.7407075624756905],[124.68322745439798,6.740071711683958],[124.67879390367531,6.739869273129342],[124.67436184087322,6.740102198802869],[124.66997393774118,6.7407682490182825],[124.66567244177189,6.741861013846959],[124.66149876973037,6.743369974677776],[124.6574931091297,6.745280605315522],[124.65369403147862,6.747574511651767],[124.65013812101522,6.75022960857137],[124.6468596224946,6.7532203323998505],[124.64389011141836,6.7565178868546525],[124.64125818988038,6.76009052014062],[124.63898921096042,6.7639038305296495],[124.63710503432532,6.7679210974893875],[124.63562381539995,6.772103635178768],[124.63455983014998,6.776411164911561],[124.63392333717746,6.780802203004912],[124.6337204784731,6.785234460280001],[124.63395321979823,6.78966524936812],[124.63461933128839,6.7940518958983205],[124.63571240848293,6.798352149603805],[124.63722193359548,6.802524591383215],[124.63913337645113,6.806529032390399],[124.64142833413187,6.8103269013017895],[124.64408470799748,6.81388161602315],[124.64707691638469,6.817158936246726],[124.65037614094223,6.820127293453762],[124.6539506042303,6.822758095174569],[124.65776587590956,6.8250260005666545],[124.66178520456467,6.8269091646482485],[124.66596987195774,6.828389448827768],[124.67027956628846,6.829452595695421],[124.67467277085025,6.830088366389348],[124.67910716432385,6.830290639210714],[124.6833117526803,6.830069476955402],[124.68269962300008,6.828239505000056]]]}},{"type":"Feature","properties":{"fid":233,"objectid":9207,"lccode":"05","liqcode":null,"mappers":"DJLBuhay, BDBBrusas, CJMLegaspi, MITAbigania, JKAMarquez, HALVidal, MITAbigania","project":"LiquePhi Project","province":"Cotabato","otherinfo":null,"datemapped":2024,"publishdate":null,"globalid":"{0A4358E8-2438-4617-BE2C-2A3EAF7F303E}","st_area(shape)":0.07866121498552288,"st_perimeter(shape)":16.126339153406974,"liqcodepk":null,"creator":"DJLB-PC","createdate":"2024-07-12T08:00:00","editor":null,"modifydate":null,"codemove":null},"geometry":{"type":"Polygon","coordinates":[]}},{"type":"Feature","properties":{"fid":234,"objectid":9208,"lccode":"06","liqcode":null,"mappers":"DJLBuhay, BDBBrusas, CJMLegaspi, MITAbigania, JKAMarquez, HALVidal, MITAbigania","project":"LiquePhi Project","province":"Cotabato","otherinfo":null,"datemapped":2024,"publishdate":null,"globalid":"{41C6080A-D86D-4743-B903-545D896B189B}","st_area(shape)":0.0186217273403661,"st_perimeter(shape)":6.144015127627843,"liqcodepk":null,"creator":"DJLB-PC","createdate":"2024-07-12T08:00:00","editor":null,"modifydate":null,"codemove":null},"geometry":{"type":"Polygon","coordinates":[]}},{"type":"Feature","properties":{"fid":235,"objectid":9209,"lccode":"07","liqcode":null,"mappers":"DJLBuhay, BDBBrusas, CJMLegaspi, MITAbigania, JKAMarquez, HALVidal, MITAbigania","project":"LiquePhi Project","province":"Cotabato","otherinfo":null,"datemapped":2024,"publishdate":null,"globalid":"{1E0704EB-0749-42F3-8211-117FF35C5475}","st_area(shape)":0.050887876625285884,"st_perimeter(shape)":4.624012304996425,"liqcodepk":null,"creator":"DJLB-PC","createdate":"2024-07-12T08:00:00","editor":"","modifydate":null,"codemove":null},"geometry":{"type":"Polygon","coordinates":[]}},{"type":"Feature","properties":{"fid":236,"objectid":9211,"lccode":"01","liqcode":"2010600010000000","mappers":"DJLBuhay, MJVReyes, MITAbigania, KLPapiona, KMVitto","project":"MELP","province":"Maguindanao","otherinfo":"Boundaries with Cotabato revised using PSA data","datemapped":2018,"publishdate":null,"globalid":"{4B045317-8F59-4441-A1F1-C67178742A3F}","st_area(shape)":0.1595152742764989,"st_perimeter(shape)":10.614199563912065,"liqcodepk":"201060001000000001352","creator":"SDE","createdate":"2019-06-04T13:29:47","editor":"DJLB-PC","modifydate":"2024-07-12T08:00:00","codemove":"na"},"geometry":{"type":"Polygon","coordinates":[[[124.70775964300005,6.78122961400004],[124.68696874800003,6.781570891000056],[124.68086588100005,6.781621801000028],[124.66612378300012,6.783675877000064],[124.66899276200003,6.791531164000047],[124.67146339500005,6.798002567000026],[124.67244601500012,6.79977915400002],[124.67517481500009,6.808210208000046],[124.67714608200004,6.813485857000046],[124.67847679700004,6.816237319000038],[124.67906075400003,6.818991351000021],[124.68051155400008,6.8232352440000446],[124.68288608800003,6.828796531000024],[124.6832970712968,6.8300702492627385],[124.68354002883426,6.830057468537537],[124.6879286618227,6.829391103471281],[124.69223078774849,6.82829796604013],[124.69640496563773,6.826788589174134],[124.70041098853791,6.824877515056522],[124.70421027101732,6.822583154838426],[124.70776622096649,6.819927611077424],[124.71104459211293,6.816936464619864],[124.71401381384999,6.813638527989698],[124.71664529520305,6.810065567668854],[124.71891370000839,6.806251997953182],[124.72079719066208,6.8022345493407945],[124.72227763810118,6.798051914653544],[124.72334079600773,6.793744376305215],[124.723976437574,6.789353418309743],[124.72417845352832,6.784921326767822],[124.7239850732125,6.781252729152588],[124.70775964300005,6.78122961400004]]]}}]}