{"type":"FeatureCollection","features":[{"type":"Feature","properties":{"fid":32,"objectid":1878,"lccode":"07","liqcode":"2010600070000000","mappers":"PJDelosReyes, ACPidlaoan","project":"READY","province":"Iloilo","otherinfo":null,"datemapped":2010,"publishdate":null,"globalid":"{2F92972A-C07C-4633-B325-DF2A08960C6C}","st_area(shape)":0.031106077518548395,"st_perimeter(shape)":5.287074988133156,"liqcodepk":"201060007000000000071","creator":"SNOOPYPC","createdate":"2019-02-19T15:21:28","editor":"LENOVO","modifydate":"2019-03-10T17:50:55","codemove":"na"},"geometry":{"type":"MultiPolygon","coordinates":[[[[123.0812965570001,11.48721234200002],[123.08045985600008,11.48692378100003],[123.07711233300006,11.483623828000075],[123.07543896300001,11.483335473000066],[123.07347282900002,11.483294745000025],[123.07184160200005,11.483996517000033],[123.07121439100001,11.485358262000032],[123.0721348510001,11.485935711000025],[123.0744777540001,11.486801589000036],[123.07631846800007,11.48708990600005],[123.07870338100008,11.48886343600003],[123.07983152970525,11.489348109361682],[123.08115996724554,11.488375796435994],[123.08240549183347,11.48726173728446],[123.0812965570001,11.48721234200002]]],[[[123.09651384800009,11.458408213000043],[123.09592814500002,11.45791328100006],[123.0947986760001,11.45774854800004],[123.09007236000002,11.45869906100006],[123.08894303200009,11.45874063800005],[123.08810693100008,11.460143714000026],[123.08835832900002,11.461670334000075],[123.08710393000001,11.463155994000031],[123.08593282400011,11.463610235000033],[123.08530518200008,11.462909053000034],[123.08526311400011,11.462042597000048],[123.08660060700005,11.458576329000039],[123.08538732700003,11.457751448000066],[123.08304414100007,11.45494647400005],[123.08191473800002,11.454946793000035],[123.0812039000001,11.455607128000056],[123.07944723100003,11.456143966000068],[123.0774397690001,11.457176075000064],[123.07668708700008,11.458042742000032],[123.07401011400009,11.45808466300002],[123.072085764,11.457259905000058],[123.06848856500005,11.457260770000062],[123.0663554890001,11.458003949000043],[123.06706668900006,11.458705244000043],[123.06953481100004,11.459406035000029],[123.07099895600004,11.46014837000007],[123.07049739,11.461592636000036],[123.07024708200004,11.464398344000072],[123.06840681000007,11.46530657000005],[123.06748677700011,11.466214483000044],[123.06731987600006,11.46794745900007],[123.06798933300001,11.468813772000031],[123.0705411130001,11.469308292000049],[123.07204704000003,11.469431705000034],[123.07451520300005,11.470173773000056],[123.07564478800009,11.470916170000066],[123.07844765500012,11.471575566000066],[123.07957733700006,11.47260674000006],[123.0820874630001,11.473720075000072],[123.08434657400007,11.474503348000042],[123.08677322900007,11.475988010000037],[123.09013589557904,11.478615553303312],[123.0901920524991,11.478540819703515],[123.09250375114183,11.474733894339359],[123.0944259541507,11.470721792781815],[123.09594016288894,11.46654316136871],[123.0970318107507,11.462238248798291],[123.09738793461628,11.459864584015866],[123.09651384800009,11.458408213000043]]]]}},{"type":"Feature","properties":{"fid":59,"objectid":1908,"lccode":"05","liqcode":"2010600050000000","mappers":"PJDelosReyes, ACPidlaoan","project":"READY","province":"Iloilo","otherinfo":null,"datemapped":2010,"publishdate":null,"globalid":"{282D04BA-68E2-41E5-9B8A-0D8D85396F2D}","st_area(shape)":0.06128738608791496,"st_perimeter(shape)":10.692281506054618,"liqcodepk":"201060005000000000103","creator":"SNOOPYPC","createdate":"2019-02-19T15:21:28","editor":"LENOVO","modifydate":"2019-03-10T17:50:55","codemove":"na"},"geometry":{"type":"MultiPolygon","coordinates":[[[[123.07100384000012,11.412688261000028],[123.06960861100004,11.414885923000043],[123.06943060900005,11.41555975700004],[123.07002500500006,11.417522581000068],[123.06910506700001,11.420042374000047],[123.06833318500001,11.421243752000068],[123.06675959900008,11.422591787000044],[123.06578025300009,11.42566828400004],[123.06569147400012,11.426840205000078],[123.06631570600008,11.429359638000047],[123.06634607600004,11.432201543000076],[123.065960215,11.433402826000075],[123.06453519900003,11.435541787000034],[123.06248651800001,11.437798147000024],[123.06112058500004,11.438941040000032],[123.05987337400006,11.439585883000062],[123.05806163500006,11.439293296000073],[123.05782393100003,11.43841439500005],[123.05865505300005,11.436275495000073],[123.05642710000008,11.433668474000058],[123.05443673700005,11.43082693900004],[123.05304092100005,11.430622128000037],[123.05117013500002,11.43161859000003],[123.04918044500005,11.43229281300006],[123.04903224400003,11.433845577000056],[123.04944820600008,11.43492952200006],[123.04941878700004,11.436599447000047],[123.04995363000012,11.43832795700007],[123.05129035500009,11.439733989000048],[123.0527160160001,11.44043691200005],[123.05235989900007,11.441784648000064],[123.05250855100007,11.442751455000064],[123.05586548200004,11.447057504000043],[123.05645977000007,11.448610218000056],[123.0563115020001,11.449664966000055],[123.05533145600009,11.45019246700002],[123.05384639500005,11.449899792000053],[123.05191573800005,11.449109079000038],[123.05034128400008,11.446853440000039],[123.04977695400011,11.446941422000062],[123.04921285600005,11.44793764600007],[123.04802490900012,11.448494544000027],[123.04713385600007,11.447791512000034],[123.0458271770001,11.448582782000072],[123.0453009990001,11.449780737000026],[123.04702283000006,11.450984500000061],[123.04889615000002,11.452771628000049],[123.04986709500008,11.453910033000055],[123.05375078000009,11.457143504000042],[123.0552411540001,11.45868223900004],[123.05517814600013,11.459546074000059],[123.05583904300009,11.462070282000072],[123.05690307100008,11.463943020000043],[123.0575329730001,11.462418092000064],[123.05963268900007,11.460951736000027],[123.05901851800002,11.459613413000058],[123.05940591300009,11.458211143000028],[123.061957892,11.456649016000027],[123.06363772400005,11.456170619000032],[123.06622174900009,11.453779954000026],[123.0673519720001,11.451835723000043],[123.06748092400005,11.450465328000064],[123.06867610900008,11.449955186000066],[123.06980688400006,11.450082407000021],[123.0713250120001,11.449221539000064],[123.07378025600009,11.448934126000037],[123.07468421700004,11.44670312000005],[123.07555618800005,11.445619425000077],[123.07907711400003,11.443993153000065],[123.07843025800004,11.44138017400007],[123.07975447800004,11.440232510000042],[123.0807236500001,11.440295989000047],[123.08217756500005,11.440932936000026],[123.08456789200012,11.440231159000064],[123.08585982100011,11.439147312000044],[123.08728140600012,11.439847988000054],[123.08850905400006,11.43994319100005],[123.08931685600011,11.440580297000054],[123.08941445100004,11.442747300000065],[123.08967307000012,11.443225258000039],[123.09151473800011,11.444021445000029],[123.09309787500001,11.444371494000048],[123.09361524200006,11.445901010000057],[123.09461681200003,11.446251235000034],[123.09536013700006,11.447047661000054],[123.0951025480001,11.44969281300007],[123.09519987200008,11.45090383000007],[123.09565259300008,11.452114641000039],[123.09726859500006,11.45402625300005],[123.09787821915181,11.454051073053488],[123.0979096162567,11.453416248030605],[123.09768736038892,11.448984124048101],[123.09702579609805,11.44459482895787],[123.09593131420448,11.4402906310223],[123.09441447317379,11.43611297719122],[123.09248989674461,11.432102094133569],[123.09017613249426,11.428296601081332],[123.0874954727267,11.42473313820454],[123.08447373942634,11.421446014084713],[123.0811400353617,11.418466875668773],[123.07752646374415,11.415824403868056],[123.07366781914354,11.413544037719758],[123.07088254173085,11.412245225129357],[123.07100384000012,11.412688261000028]],[[123.07537210300008,11.42387878200003],[123.07370907900008,11.423937796000077],[123.07246148600007,11.422707615000034],[123.07281754500002,11.421594216000072],[123.07412389500007,11.420304806000047],[123.07447980600011,11.418371137000063],[123.07542986200008,11.417609127000045],[123.0767366230001,11.417960331000076],[123.0764998730001,11.421065964000038],[123.07715356300002,11.422354875000051],[123.07828243400002,11.423643658000062],[123.07952992400008,11.424405089000059],[123.07994617800011,11.426162782000063],[123.0807782180001,11.427979041000071],[123.08065969300003,11.428799431000071],[123.07905609600004,11.429268592000025],[123.07816503100003,11.428858698000058],[123.0775708650001,11.428038498000035],[123.07614440800013,11.424347398000062],[123.07537210300008,11.42387878200003]]],[[[123.0598967730001,11.40952657400004],[123.06105499000012,11.410082947000031],[123.06390578600008,11.409877273000063],[123.06399976850928,11.409816443875021],[123.0610025771206,11.409076434990014],[123.0598087240615,11.40890196980454],[123.0598967730001,11.40952657400004]]],[[[123.05978024600005,11.470883134000074],[123.05978024500006,11.472650380000061],[123.06012393200001,11.473509595000051],[123.06095982900001,11.47299766300006],[123.06144429000007,11.472200895000071],[123.0615086700001,11.470989833000033],[123.05986044000008,11.46866383100007],[123.0590071580001,11.468524476000026],[123.05978024600005,11.470883134000074]]]]}},{"type":"Feature","properties":{"fid":73,"objectid":1937,"lccode":"06","liqcode":"2010600060000000","mappers":"PJDelosReyes, ACPidlaoan","project":"READY","province":"Iloilo","otherinfo":null,"datemapped":2010,"publishdate":null,"globalid":"{DBB85F45-4FB4-4F72-8BD3-A1308397A487}","st_area(shape)":0.017575391436836466,"st_perimeter(shape)":7.287100410898002,"liqcodepk":"201060006000000000136","creator":"SNOOPYPC","createdate":"2019-02-19T15:21:28","editor":"LENOVO","modifydate":"2019-03-10T17:50:55","codemove":"na"},"geometry":{"type":"Polygon","coordinates":[[[123.08677322900007,11.475988010000037],[123.08434657400007,11.474503348000042],[123.0820874630001,11.473720075000072],[123.07957733700006,11.47260674000006],[123.07844765500012,11.471575566000066],[123.07564478800009,11.470916170000066],[123.07451520300005,11.470173773000056],[123.07204704000003,11.469431705000034],[123.0705411130001,11.469308292000049],[123.06798933300001,11.468813772000031],[123.06731987600006,11.46794745900007],[123.06748677700011,11.466214483000044],[123.06840681000007,11.46530657000005],[123.07024708200004,11.464398344000072],[123.07049739,11.461592636000036],[123.07099895600004,11.46014837000007],[123.06953481100004,11.459406035000029],[123.06706668900006,11.458705244000043],[123.0663554890001,11.458003949000043],[123.06848856500005,11.457260770000062],[123.072085764,11.457259905000058],[123.07401011400009,11.45808466300002],[123.07668708700008,11.458042742000032],[123.0774397690001,11.457176075000064],[123.07944723100003,11.456143966000068],[123.0812039000001,11.455607128000056],[123.08191473800002,11.454946793000035],[123.08304414100007,11.45494647400005],[123.08538732700003,11.457751448000066],[123.08660060700005,11.458576329000039],[123.08526311400011,11.462042597000048],[123.08530518200008,11.462909053000034],[123.08593282400011,11.463610235000033],[123.08710393000001,11.463155994000031],[123.08835832900002,11.461670334000075],[123.08810693100008,11.460143714000026],[123.08894303200009,11.45874063800005],[123.09007236000002,11.45869906100006],[123.0947986760001,11.45774854800004],[123.09592814500002,11.45791328100006],[123.09651384800009,11.458408213000043],[123.09738793461628,11.459864584015866],[123.09769040282387,11.457848518276254],[123.09787821915181,11.454051073053488],[123.09726859500006,11.45402625300005],[123.09565259300008,11.452114641000039],[123.09519987200008,11.45090383000007],[123.0951025480001,11.44969281300007],[123.09536013700006,11.447047661000054],[123.09461681200003,11.446251235000034],[123.09361524200006,11.445901010000057],[123.09309787500001,11.444371494000048],[123.09151473800011,11.444021445000029],[123.08967307000012,11.443225258000039],[123.08941445100004,11.442747300000065],[123.08931685600011,11.440580297000054],[123.08850905400006,11.43994319100005],[123.08728140600012,11.439847988000054],[123.08585982100011,11.439147312000044],[123.08456789200012,11.440231159000064],[123.08217756500005,11.440932936000026],[123.0807236500001,11.440295989000047],[123.07975447800004,11.440232510000042],[123.07843025800004,11.44138017400007],[123.07907711400003,11.443993153000065],[123.07555618800005,11.445619425000077],[123.07468421700004,11.44670312000005],[123.07378025600009,11.448934126000037],[123.0713250120001,11.449221539000064],[123.06980688400006,11.450082407000021],[123.06867610900008,11.449955186000066],[123.06748092400005,11.450465328000064],[123.0673519720001,11.451835723000043],[123.06622174900009,11.453779954000026],[123.06363772400005,11.456170619000032],[123.061957892,11.456649016000027],[123.05940591300009,11.458211143000028],[123.05901851800002,11.459613413000058],[123.05963268900007,11.460951736000027],[123.0575329730001,11.462418092000064],[123.05690307100008,11.463943020000043],[123.0590071580001,11.468524476000026],[123.05986044000008,11.46866383100007],[123.0615086700001,11.470989833000033],[123.06144429000007,11.472200895000071],[123.06095982900001,11.47299766300006],[123.06012393200001,11.473509595000051],[123.06122004400004,11.474094508000062],[123.06187475500008,11.473828539000067],[123.06281441700001,11.47455953100007],[123.06436198300004,11.47677394400006],[123.06560559700007,11.479457536000039],[123.0667183060001,11.480373884000075],[123.06868190700006,11.481290233000037],[123.06919190200006,11.482332101000054],[123.06907794800009,11.483736556000053],[123.07005642800004,11.486788323000042],[123.0723472960001,11.491304610000041],[123.07333939016829,11.49346550867563],[123.0736884654823,11.493302564173534],[123.07754694837949,11.491020215370312],[123.07983152970525,11.489348109361682],[123.07870338100008,11.48886343600003],[123.07631846800007,11.48708990600005],[123.0744777540001,11.486801589000036],[123.0721348510001,11.485935711000025],[123.07121439100001,11.485358262000032],[123.07184160200005,11.483996517000033],[123.07347282900002,11.483294745000025],[123.07543896300001,11.483335473000066],[123.07711233300006,11.483623828000075],[123.08045985600008,11.48692378100003],[123.0812965570001,11.48721234200002],[123.08240549183347,11.48726173728446],[123.08449272089906,11.485394784188292],[123.0875131112519,11.482105897373598],[123.09013589557904,11.478615553303312],[123.08677322900007,11.475988010000037]]]}}]}