{"type":"FeatureCollection","features":[{"type":"Feature","properties":{"fid":207,"objectid":7271,"lccode":"01","liqcode":null,"mappers":"DJLBuhay, MJVReyes, MITAbigania, KLPapiona, KMVitto","project":"MELP","province":"Zamboanga del Norte","otherinfo":null,"datemapped":2020,"publishdate":2021,"globalid":"{6B0290BE-0A77-4263-894C-1C10E652B59E}","st_area(shape)":0.033021563613966895,"st_perimeter(shape)":18.189103020785044,"liqcodepk":null,"creator":null,"createdate":null,"editor":null,"modifydate":null,"codemove":null},"geometry":{"type":"MultiPolygon","coordinates":[[[[122.4935582810001,8.067450522000055],[122.49876345700012,8.06583852800003],[122.50340851600004,8.064950415000055],[122.50778338500004,8.064967814000058],[122.5097323550001,8.065226675000076],[122.51276276500006,8.066179754000075],[122.5154128890001,8.067991774000063],[122.51642302500012,8.067827045000056],[122.51669635700011,8.068403596000053],[122.51865721000001,8.070027345000028],[122.51982183900009,8.071392231000058],[122.52073690400005,8.073545447000072],[122.52172327300002,8.07451027300004],[122.52152124500003,8.075286838000066],[122.52204414000006,8.075851611000076],[122.52367224300008,8.076157530000042],[122.5261797590001,8.076992922000047],[122.52780786200003,8.076898793000055],[122.5288298820001,8.076557577000072],[122.529851903,8.076957624000045],[122.53152754200005,8.076687004000066],[122.53281101000005,8.076816431000056],[122.53380926300008,8.076416384000025],[122.53447476500003,8.075510394000046],[122.53666141400005,8.074169054000036],[122.53786169400009,8.074063159000048],[122.53967994000006,8.074616168000034],[122.54001269100002,8.07563982100004],[122.5427341190001,8.074663232000033],[122.54467120500009,8.074627934000032],[122.54577641300011,8.07527507100002],[122.54725705200009,8.075729142000055],[122.5483908850001,8.076639940000062],[122.54978130900008,8.076922326000046],[122.55148071500003,8.078428381000036],[122.5520988166917,8.078800882968398],[122.5549577415509,8.076692560259888],[122.55676307858421,8.075065387867282],[122.55482113100004,8.074728239000022],[122.55320327600009,8.073819887000068],[122.55194357800008,8.073914052000017],[122.54998267200006,8.072137411000025],[122.54982813500011,8.07057250500003],[122.5492364270001,8.069453689000058],[122.55235935000007,8.068089742000039],[122.55279898300012,8.065501125000026],[122.55427255600013,8.064124410000034],[122.55319109299998,8.063347853000037],[122.55316728800005,8.062077072000019],[122.55143217900002,8.060359206000042],[122.55232347000005,8.060123849000032],[122.55218841800001,8.059245571000076],[122.55288198300002,8.058935407000032],[122.55373766100003,8.060053209000044],[122.55494983100004,8.060229673000034],[122.55557965400008,8.059253029000045],[122.55516368300005,8.058146978000025],[122.55362020200006,8.057181348000029],[122.55152905400007,8.057009778000065],[122.5505296350001,8.05640599800006],[122.55001783200011,8.054970121000055],[122.54865115600012,8.054275923000034],[122.548495805,8.053629304000026],[122.54953053300007,8.05299332000004],[122.548460943,8.051851971000078],[122.54771225900005,8.052075562000025],[122.54728445800004,8.052863949000027],[122.54533546200003,8.052005029000044],[122.54501461500001,8.052699279000024],[122.54579603500008,8.053822271000058],[122.54547817900003,8.05580568700003],[122.54663092200008,8.055735054000023],[122.54710629100009,8.056099808000056],[122.54737618500009,8.05798819300003],[122.5481194690001,8.058970226000044],[122.54758648900008,8.059967052000049],[122.54760265100005,8.061962187000065],[122.54670707600009,8.06208502900006],[122.54632678900009,8.06097897600006],[122.54576824300013,8.060708345000023],[122.54490071400005,8.062026197000025],[122.54321319100006,8.061767333000033],[122.54421144400011,8.063391110000051],[122.54367666500004,8.065956192000042],[122.54246450100004,8.065803229000037],[122.53918452800008,8.065850295000075],[122.53883989300004,8.065261974000066],[122.5389630950001,8.064207612000073],[122.53994510100006,8.06348524200007],[122.54017089700005,8.062296826000022],[122.54088393400002,8.061955598000052],[122.5407888630001,8.06054361400004],[122.54201052300004,8.059794441000063],[122.54356971000006,8.059802320000074],[122.54398564900009,8.059025725000023],[122.5431300030001,8.057766697000034],[122.542923705,8.056427193000047],[122.5420010270001,8.055095662000044],[122.54050364700005,8.054295525000043],[122.53883989300004,8.05241284300007],[122.53755642500006,8.051895104000039],[122.536082813,8.051824503000034],[122.53498948900004,8.051306763000069],[122.53397935200007,8.051294996000022],[122.53224429300008,8.051789202000062],[122.52962982200005,8.052024538000069],[122.52790664699998,8.053107083000041],[122.52681332300007,8.053471853000074],[122.52661976200011,8.055064873000049],[122.52574312000002,8.055720565000057],[122.52178640600005,8.056413532000024],[122.5202546920001,8.056834867000019],[122.51931454200007,8.057978497000022],[122.51740821800001,8.05783075200003],[122.51586819300009,8.056978332000027],[122.5142075330001,8.056562506000034],[122.51316430700001,8.055484332000049],[122.51104073300007,8.054261278000071],[122.50981652700013,8.053936736000026],[122.50873587300009,8.054043137000068],[122.5069314530001,8.051953938000052],[122.5068839170001,8.050541919000066],[122.50571928900001,8.05054191900007],[122.50533900200004,8.049600570000052],[122.50398423000001,8.049871208000072],[122.50349698800005,8.050553686000057],[122.50353264000013,8.051895104000039],[122.505041903,8.052565811000022],[122.5053746540001,8.053036482000037],[122.50501813500013,8.054354359000056],[122.50372896700004,8.054431987000044],[122.50146061400007,8.053818973000032],[122.49949209200008,8.052636412000027],[122.4957367600001,8.052671712000063],[122.49451271200009,8.053342418000055],[122.49340750400006,8.05328358400004],[122.490626656,8.053495386000067],[122.4898066630001,8.053954289000044],[122.4887147710001,8.054052227000055],[122.48646647700004,8.055102939000049],[122.48417366500007,8.054071957000076],[122.48303874600003,8.052812913000025],[122.48227353023444,8.052782300512515],[122.48277190059157,8.054775999313133],[122.48426679807044,8.058956695685461],[122.48616567944555,8.062971216625758],[122.48845026722411,8.066780895298573],[122.48996254618868,8.068818447724832],[122.4935582810001,8.067450522000055]]],[[[122.48302686200009,8.051259696000045],[122.48346656900004,8.050224214000023],[122.48260498200011,8.049818257000027],[122.48164965431444,8.050159505855532],[122.48169537208095,8.050469393605626],[122.48201196334703,8.051735911811438],[122.48302686200009,8.051259696000045]]]]}},{"type":"Feature","properties":{"fid":208,"objectid":7461,"lccode":"01","liqcode":null,"mappers":"DJLBuhay, MJVReyes, MITAbigania, KLPapiona, KMVitto","project":"MELP","province":"Zamboanga del Sur","otherinfo":null,"datemapped":2020,"publishdate":2021,"globalid":"{956CA67A-D8B3-4AFB-A15B-79E0A6393BB2}","st_area(shape)":0.059065434056611577,"st_perimeter(shape)":16.76855550220317,"liqcodepk":null,"creator":null,"createdate":null,"editor":null,"modifydate":null,"codemove":null},"geometry":{"type":"Polygon","coordinates":[]}}]}