{"type":"FeatureCollection","features":[{"type":"Feature","properties":{"fid":97,"objectid":1953,"lccode":"01","liqcode":"2010600010000000","mappers":"DJLBuhay, MJVReyes, MITAbigania, KLPapiona, KMVitto","project":"MELP","province":"Masbate","otherinfo":null,"datemapped":2018,"publishdate":null,"globalid":"{40D12474-2C0F-4764-AF7B-985F1E55E0D2}","st_area(shape)":0.02447278181245312,"st_perimeter(shape)":18.320280805301095,"liqcodepk":"201060001000000000948","creator":null,"createdate":"2019-06-04T13:29:47","editor":"SDE","modifydate":"2019-06-04T11:39:42","codemove":"na"},"geometry":{"type":"Polygon","coordinates":[]}},{"type":"Feature","properties":{"fid":215,"objectid":10024,"lccode":"04","liqcode":null,"mappers":"OPCHalasan, KSSochayseng, AATMagnaye, RPADizon, MJVReyes, HALVidal, MITAbigania, DJLBuhay","project":"ACER-DeLTA Liquefaction","province":"Sorsogon","otherinfo":null,"datemapped":2025,"publishdate":2025,"globalid":"{12D7C8C1-E314-4B86-BCC5-4F127142426F}","st_area(shape)":0.012657960679715018,"st_perimeter(shape)":7.598941249861992,"liqcodepk":null,"creator":null,"createdate":null,"editor":"DJLB","modifydate":null,"codemove":null},"geometry":{"type":"Polygon","coordinates":[[[124.0231435290001,12.72271043200004],[124.0231183371569,12.722433266983165],[124.02303808012135,12.722753140774325],[124.0231435290001,12.72271043200004]]]}},{"type":"Feature","properties":{"fid":219,"objectid":10025,"lccode":"03","liqcode":null,"mappers":"OPCHalasan, KSSochayseng, AATMagnaye, RPADizon, MJVReyes, HALVidal, MITAbigania, DJLBuhay","project":"ACER-DeLTA Liquefaction","province":"Sorsogon","otherinfo":null,"datemapped":2025,"publishdate":2025,"globalid":"{108A2BB0-5838-458D-851D-FF85658DDEEB}","st_area(shape)":0.007981285865231016,"st_perimeter(shape)":12.722540938965222,"liqcodepk":null,"creator":null,"createdate":null,"editor":"DJLB","modifydate":null,"codemove":null},"geometry":{"type":"MultiPolygon","coordinates":[[[[124.02296461400012,12.727239239000026],[124.02344827600008,12.726567414000044],[124.02489931300012,12.726176342000029],[124.0256181430001,12.725538030000052],[124.02574289100005,12.724750503000049],[124.0278436540001,12.723450497000046],[124.02822560600009,12.722763781000028],[124.02996306600005,12.720721025000042],[124.03047852000009,12.719598828000073],[124.03062272500007,12.718335481000052],[124.02960740700009,12.717635088000064],[124.0292332680001,12.71688722500005],[124.02821471700008,12.717422790000057],[124.02771861100008,12.716821196000069],[124.02805260500007,12.716051164000023],[124.02763148500003,12.71394346200003],[124.02653467042836,12.713566848085458],[124.02498232611413,12.716822176380155],[124.02347665118513,12.721005156032517],[124.0231183371569,12.722433266983165],[124.0231435290001,12.72271043200004],[124.02303808012135,12.722753140774325],[124.02239583120553,12.725312873661863],[124.02210936506354,12.727261450147086],[124.02296461400012,12.727239239000026]]],[[[124.02966171500009,12.70900622700003],[124.0306273220001,12.709112374000028],[124.03133355400008,12.708530117000064],[124.0329714200001,12.708968258000025],[124.03381733100002,12.709489391000032],[124.03414256300005,12.708335714000045],[124.03339297000002,12.706875512000066],[124.03477715800011,12.70632134300007],[124.03522379600008,12.704911138000053],[124.03693679200002,12.70310960300003],[124.03684497400002,12.702009775000018],[124.0375563980001,12.700846393000065],[124.03834135600005,12.700409798000067],[124.0404536750001,12.700542993000058],[124.04129157500007,12.700132484000049],[124.04354986900012,12.70013962900003],[124.04389457800006,12.699524662000044],[124.04302914900006,12.697476110000025],[124.04155415287622,12.696692180214601],[124.0382411333169,12.699124739039435],[124.03490506036795,12.702117133862604],[124.03444147751482,12.702623325946613],[124.03447555200013,12.703168915000049],[124.0338661310001,12.70422294900004],[124.03275351600007,12.704822713000054],[124.03251355150097,12.704728424485207],[124.03188372017364,12.70541612601971],[124.02920621409635,12.708989955202247],[124.02872371930133,12.70978739074414],[124.02966171500009,12.70900622700003]]]]}},{"type":"Feature","properties":{"fid":220,"objectid":10026,"lccode":"02","liqcode":null,"mappers":"OPCHalasan, KSSochayseng, AATMagnaye, RPADizon, MJVReyes, HALVidal, MITAbigania, DJLBuhay","project":"ACER-DeLTA Liquefaction","province":"Sorsogon","otherinfo":null,"datemapped":2025,"publishdate":2025,"globalid":"{0E469E1D-2896-4FCF-9EC0-42A4EBCBC73F}","st_area(shape)":0.004418214842083968,"st_perimeter(shape)":15.104630556323594,"liqcodepk":null,"creator":null,"createdate":null,"editor":"DJLB","modifydate":null,"codemove":null},"geometry":{"type":"MultiPolygon","coordinates":[[[[124.0338661310001,12.70422294900004],[124.03447555200013,12.703168915000049],[124.03444147751482,12.702623325946613],[124.03393207379958,12.703179547335786],[124.03311511000004,12.704245034000051],[124.03296186466402,12.704238916371713],[124.03251355150097,12.704728424485207],[124.03275351600007,12.704822713000054],[124.0338661310001,12.70422294900004]]],[[[124.022729152,12.730564856000056],[124.02453092300004,12.730199109000067],[124.02491058300006,12.728415492000062],[124.02377980500012,12.727870908000055],[124.02441801100007,12.726652480000043],[124.02572267700009,12.726635311000049],[124.02779012100007,12.727478614000065],[124.02880955400008,12.72742516200003],[124.02973454800009,12.726324203000049],[124.02874016300007,12.725434978000067],[124.02864752200003,12.724556042000074],[124.02906761800011,12.72371657000002],[124.03028346100007,12.722584302000028],[124.03316501400003,12.722411573000047],[124.03440993300002,12.722171174000037],[124.03513455100004,12.721022162000052],[124.03524979100007,12.719556695000051],[124.03418161800006,12.717245956000054],[124.0340548480001,12.716095513000026],[124.03240584600007,12.713447057000055],[124.0308887660001,12.713467971000057],[124.02978769600008,12.712942476000022],[124.02982656200004,12.711745213000027],[124.0303518930001,12.710767353000053],[124.03154835500004,12.709619191000057],[124.03283880000004,12.709688884000059],[124.0338532830001,12.710145636000052],[124.03454775400006,12.708943001000023],[124.0344993860001,12.707152852000036],[124.0359461800001,12.705448367000029],[124.03609177400006,12.704655098000046],[124.03693882400012,12.70390781700007],[124.04072993100012,12.702769649000063],[124.04139405700005,12.701502570000057],[124.04129479200004,12.700733671000023],[124.04386537300002,12.70034686400004],[124.0443779850001,12.699551442000029],[124.04392596600007,12.698688384000036],[124.04407810200007,12.698002855000029],[124.04324066000004,12.697057870000034],[124.04189239178207,12.696448401790184],[124.04185981109896,12.696467748799389],[124.04155415287622,12.696692180214601],[124.04302914900006,12.697476110000025],[124.04389457800006,12.699524662000044],[124.04354986900012,12.70013962900003],[124.04129157500007,12.700132484000049],[124.0404536750001,12.700542993000058],[124.03834135600005,12.700409798000067],[124.0375563980001,12.700846393000065],[124.03684497400002,12.702009775000018],[124.03693679200002,12.70310960300003],[124.03522379600008,12.704911138000053],[124.03477715800011,12.70632134300007],[124.03339297000002,12.706875512000066],[124.03414256300005,12.708335714000045],[124.03381733100002,12.709489391000032],[124.0329714200001,12.708968258000025],[124.03133355400008,12.708530117000064],[124.0306273220001,12.709112374000028],[124.02966171500009,12.70900622700003],[124.02872371930133,12.70978739074414],[124.02689833652016,12.712804213499162],[124.02653467042836,12.713566848085458],[124.02763148500003,12.71394346200003],[124.02805260500007,12.716051164000023],[124.02771861100008,12.716821196000069],[124.02821471700008,12.717422790000057],[124.0292332680001,12.71688722500005],[124.02960740700009,12.717635088000064],[124.03062272500007,12.718335481000052],[124.03047852000009,12.719598828000073],[124.02996306600005,12.720721025000042],[124.02822560600009,12.722763781000028],[124.0278436540001,12.723450497000046],[124.02574289100005,12.724750503000049],[124.0256181430001,12.725538030000052],[124.02489931300012,12.726176342000029],[124.02344827600008,12.726567414000044],[124.02296461400012,12.727239239000026],[124.02210936506354,12.727261450147086],[124.0217502962573,12.7297038471822],[124.02172403239219,12.730274407226],[124.022729152,12.730564856000056]]]]}}]}