{"type":"FeatureCollection","features":[{"type":"Feature","properties":{"fid":17,"objectid":1863,"lccode":"07","liqcode":"2010600070000000","mappers":"MITAbigania, DJVRivera, PJDelosReyes, ACPidlaoan","project":"GMMA-READY","province":"Bulacan","otherinfo":null,"datemapped":2013,"publishdate":null,"globalid":"{70EE0B92-1310-4863-994B-262A0419985C}","st_area(shape)":0.05460415768202689,"st_perimeter(shape)":2.604001747145809,"liqcodepk":"201060007000000000055","creator":"SNOOPYPC","createdate":"2019-02-19T15:21:28","editor":"LENOVO","modifydate":"2019-03-10T17:50:55","codemove":"na"},"geometry":{"type":"Polygon","coordinates":[[[120.88044217200003,15.002024541000022],[120.88083096800005,15.002842022000038],[120.88081872600004,15.004084063000048],[120.88028073800001,15.004978554000052],[120.878630358,15.00689063500005],[120.87844426000004,15.007874041000036],[120.8787457520001,15.00860498000003],[120.87979548500005,15.009471445000031],[120.88004987300008,15.01050177700006],[120.87832989700007,15.010528562000049],[120.87579073400002,15.008663048000074],[120.87516964400002,15.009042812000073],[120.87608205700009,15.010421945000077],[120.87682572000006,15.011028553000074],[120.87910961000011,15.01194935900003],[120.88002790100006,15.012728868000066],[120.88058741900011,15.013672157000027],[120.88603780500011,15.014601969000063],[120.88834793700005,15.01417697600004],[120.88980257600008,15.014233298000018],[120.89204291500006,15.015110760000029],[120.89283030100012,15.015760549000055],[120.89485727000009,15.015907784000044],[120.89696709900011,15.016612619000053],[120.89718211099999,15.017171459000055],[120.89632000499999,15.019647815000047],[120.8962662780001,15.02063246700004],[120.89687604900008,15.021409155000073],[120.89854660300013,15.021938544000017],[120.90100440200001,15.022056198000028],[120.90210115500008,15.022709179000056],[120.90351153000005,15.022320360000036],[120.90495524800008,15.024155280000057],[120.90600474400001,15.024004236000051],[120.9073123820001,15.022837616000057],[120.90951820600003,15.02288465400005],[120.91089368000007,15.023245560000072],[120.91230274700001,15.022990647000027],[120.91331735200005,15.02358925200002],[120.91371903200003,15.02482517800007],[120.91351915700012,15.025519865000035],[120.91234456900008,15.027196630000045],[120.91271239700006,15.029075197000056],[120.91178958300009,15.030379267000054],[120.91186213500009,15.031424716000062],[120.91251595700011,15.032261129000066],[120.91192504400011,15.03346110500007],[120.9122156200001,15.035036955000065],[120.91355367800007,15.03641537200002],[120.9147879420001,15.03712322900003],[120.91527835500007,15.03774385000003],[120.91643095300002,15.038343716000043],[120.9180944850001,15.040287736000037],[120.91886335700008,15.040643045000024],[120.92194962100008,15.040939170000057],[120.92279499800009,15.041938030000036],[120.92303278900012,15.043011733000071],[120.92279267900007,15.04501861700004],[120.92133790200012,15.047054761000021],[120.92048264200004,15.047073668000051],[120.91809671800003,15.048498323000043],[120.91780402700012,15.050236854000048],[120.91641795200007,15.050947394000046],[120.91445792200011,15.051116935000032],[120.91412258500009,15.05156925700004],[120.9143790720001,15.053553853000036],[120.91171356000008,15.05774603500003],[120.91116034300002,15.057901656000068],[120.9103992480001,15.059582191000066],[120.909622225,15.060057264000024],[120.90796655200006,15.060122310000052],[120.90724368000008,15.060705016000044],[120.90570393000009,15.063021289000062],[120.90451915000007,15.065590978000046],[120.90319181300003,15.065926965000072],[120.89838379100001,15.072391735000055],[120.90014283000005,15.079445182000029],[120.90097500100002,15.08178337100003],[120.90849972514859,15.086778651969128],[120.91026963367166,15.08654024214579],[120.9147063076362,15.08550382994582],[120.91901701774525,15.084049796992678],[120.92316022545015,15.082192151879322],[120.92709600861923,15.079948792563577],[120.9307864468099,15.077341333696735],[120.93409292844127,15.074483960792108],[120.93227447100004,15.068671676000067],[120.93131513500009,15.066080355000054],[120.93036044100008,15.063010811000028],[120.92999076,15.060520448000036],[120.93071393600007,15.056987950000062],[120.93240376500012,15.05528164300006],[120.93321048000008,15.053280355000023],[120.93385456000009,15.04773838500006],[120.9336054040001,15.042953558000022],[120.93284937900012,15.03969458300003],[120.93051137500004,15.037186296000069],[120.92865806700001,15.035447686000053],[120.9233054460001,15.029181487000074],[120.92234078100012,15.027164038000022],[120.92000951700005,15.023986219000056],[120.9179744590001,15.020715426000034],[120.91525254900012,15.017247075000059],[120.9130133330001,15.01473965100007],[120.91107316500006,15.011852278000045],[120.90980697200006,15.010501536000053],[120.90738042900011,15.007035832000048],[120.9050486540001,15.003953572000057],[120.90319777000003,15.002023583000039],[120.90089887800004,14.998104598000056],[120.90067236316543,14.99702741775853],[120.89751670262442,14.997148932214683],[120.8929987369851,14.997757727787878],[120.88856389009892,14.998793943132325],[120.88425484575136,15.000247601708647],[120.88038236690713,15.001983967783433],[120.88044217200003,15.002024541000022]]]}},{"type":"Feature","properties":{"fid":41,"objectid":1890,"lccode":"05","liqcode":"2010600050000000","mappers":"MITAbigania, DJVRivera, PJDelosReyes, ACPidlaoan","project":"GMMA-READY","province":"Bulacan","otherinfo":null,"datemapped":2013,"publishdate":null,"globalid":"{962B0335-0147-4964-AF91-92BBA0EB94A8}","st_area(shape)":0.006518104617901708,"st_perimeter(shape)":1.6741822690840518,"liqcodepk":"201060005000000000084","creator":"SNOOPYPC","createdate":"2019-02-19T15:21:28","editor":"LENOVO","modifydate":"2019-03-10T17:50:55","codemove":"na"},"geometry":{"type":"Polygon","coordinates":[[[120.92744644000004,15.005133165000075],[120.92805284900011,15.00858203200005],[120.92935124700011,15.011702486000047],[120.93182735700009,15.015168362000054],[120.93358433700008,15.016666922000066],[120.93558825900004,15.01807204200003],[120.93642238200005,15.018318657000066],[120.93851191500006,15.021063661000026],[120.94080203500005,15.023427783000043],[120.94309579300013,15.025409415000068],[120.944313995,15.026663808000023],[120.94561293429201,15.027676796777683],[120.94474682767633,15.025253431540206],[120.9428348461467,15.021228009885952],[120.9405261735474,15.01740409857169],[120.9378430602346,15.013818514163583],[120.93481135795507,15.01050577635817],[120.93146027042835,15.007497775977326],[120.92782207184341,15.004823468326212],[120.92742309746815,15.004586067271362],[120.92744644000004,15.005133165000075]]]}},{"type":"Feature","properties":{"fid":92,"objectid":1921,"lccode":"06","liqcode":"2010600060000000","mappers":"MITAbigania, DJVRivera, PJDelosReyes, ACPidlaoan","project":"GMMA-READY","province":"Bulacan","otherinfo":null,"datemapped":2013,"publishdate":null,"globalid":"{AD30FD4E-4565-4937-AC43-8F5ADC174AC4}","st_area(shape)":0.01360742625474969,"st_perimeter(shape)":2.0316826783369253,"liqcodepk":"201060006000000000119","creator":"SNOOPYPC","createdate":"2019-02-19T15:21:28","editor":"LENOVO","modifydate":"2019-03-10T17:50:55","codemove":"na"},"geometry":{"type":"Polygon","coordinates":[[[120.90089887800004,14.998104598000056],[120.90319777000003,15.002023583000039],[120.9050486540001,15.003953572000057],[120.90738042900011,15.007035832000048],[120.90980697200006,15.010501536000053],[120.91107316500006,15.011852278000045],[120.9130133330001,15.01473965100007],[120.91525254900012,15.017247075000059],[120.9179744590001,15.020715426000034],[120.92000951700005,15.023986219000056],[120.92234078100012,15.027164038000022],[120.9233054460001,15.029181487000074],[120.92865806700001,15.035447686000053],[120.93051137500004,15.037186296000069],[120.93284937900012,15.03969458300003],[120.9336054040001,15.042953558000022],[120.93385456000009,15.04773838500006],[120.93321048000008,15.053280355000023],[120.93240376500012,15.05528164300006],[120.93071393600007,15.056987950000062],[120.92999076,15.060520448000036],[120.93036044100008,15.063010811000028],[120.93131513500009,15.066080355000054],[120.93227447100004,15.068671676000067],[120.93409292844127,15.074483960792108],[120.93419598710497,15.074394898079166],[120.93729178696532,15.071137874266514],[120.94004403077957,15.067601642678383],[120.94242621705284,15.063820272866488],[120.94441541346677,15.05983019487797],[120.94599247736188,15.055669847899294],[120.94714223953312,15.051379309584224],[120.94785364959066,15.046999909654188],[120.94811988151424,15.042573831508545],[120.94793839841883,15.038143705695154],[120.94731097594428,15.033752199166821],[120.94624368408525,15.029441604286186],[120.94561293429201,15.027676796777683],[120.944313995,15.026663808000023],[120.94309579300013,15.025409415000068],[120.94080203500005,15.023427783000043],[120.93851191500006,15.021063661000026],[120.93642238200005,15.018318657000066],[120.93558825900004,15.01807204200003],[120.93358433700008,15.016666922000066],[120.93182735700009,15.015168362000054],[120.92935124700011,15.011702486000047],[120.92805284900011,15.00858203200005],[120.92744644000004,15.005133165000075],[120.92742309746815,15.004586067271362],[120.92393179599117,15.002508594849074],[120.91982689902784,15.000575435744008],[120.91554689911058,14.999042595899612],[120.91113299636224,14.997924826195817],[120.9066276768044,14.997232881872048],[120.90207430404553,14.996973419310466],[120.90067236316543,14.99702741775853],[120.90089887800004,14.998104598000056]]]}},{"type":"Feature","properties":{"fid":218,"objectid":8402,"lccode":"07","liqcode":null,"mappers":"PJDelosReyes, ACPidlaoan","project":"READY","province":"Pampanga","otherinfo":"as of October 2015, reupdate 2021","datemapped":2008,"publishdate":null,"globalid":"{523547B0-D8C4-4084-9EE8-AA20F7B2A472}","st_area(shape)":0.07539067039960894,"st_perimeter(shape)":2.422972172763333,"liqcodepk":null,"creator":null,"createdate":null,"editor":null,"modifydate":"1905-07-07T08:00:00","codemove":null},"geometry":{"type":"Polygon","coordinates":[[[120.90097500100002,15.08178337100003],[120.90014283000005,15.079445182000029],[120.89838379100001,15.072391735000055],[120.90319181300003,15.065926965000072],[120.90451915000007,15.065590978000046],[120.90570393000009,15.063021289000062],[120.90724368000008,15.060705016000044],[120.90796655200006,15.060122310000052],[120.909622225,15.060057264000024],[120.9103992480001,15.059582191000066],[120.91116034300002,15.057901656000068],[120.91171356000008,15.05774603500003],[120.9143790720001,15.053553853000036],[120.91412258500009,15.05156925700004],[120.91445792200011,15.051116935000032],[120.91641795200007,15.050947394000046],[120.91780402700012,15.050236854000048],[120.91809671800003,15.048498323000043],[120.92048264200004,15.047073668000051],[120.92133790200012,15.047054761000021],[120.92279267900007,15.04501861700004],[120.92303278900012,15.043011733000071],[120.92279499800009,15.041938030000036],[120.92194962100008,15.040939170000057],[120.91886335700008,15.040643045000024],[120.9180944850001,15.040287736000037],[120.91643095300002,15.038343716000043],[120.91527835500007,15.03774385000003],[120.9147879420001,15.03712322900003],[120.91355367800007,15.03641537200002],[120.9122156200001,15.035036955000065],[120.91192504400011,15.03346110500007],[120.91251595700011,15.032261129000066],[120.91186213500009,15.031424716000062],[120.91178958300009,15.030379267000054],[120.91271239700006,15.029075197000056],[120.91234456900008,15.027196630000045],[120.91351915700012,15.025519865000035],[120.91371903200003,15.02482517800007],[120.91331735200005,15.02358925200002],[120.91230274700001,15.022990647000027],[120.91089368000007,15.023245560000072],[120.90951820600003,15.02288465400005],[120.9073123820001,15.022837616000057],[120.90600474400001,15.024004236000051],[120.90495524800008,15.024155280000057],[120.90351153000005,15.022320360000036],[120.90210115500008,15.022709179000056],[120.90100440200001,15.022056198000028],[120.89854660300013,15.021938544000017],[120.89687604900008,15.021409155000073],[120.8962662780001,15.02063246700004],[120.89632000499999,15.019647815000047],[120.89718211099999,15.017171459000055],[120.89696709900011,15.016612619000053],[120.89485727000009,15.015907784000044],[120.89283030100012,15.015760549000055],[120.89204291500006,15.015110760000029],[120.88980257600008,15.014233298000018],[120.88834793700005,15.01417697600004],[120.88603780500011,15.014601969000063],[120.88058741900011,15.013672157000027],[120.88002790100006,15.012728868000066],[120.87910961000011,15.01194935900003],[120.87682572000006,15.011028553000074],[120.87608205700009,15.010421945000077],[120.87516964400002,15.009042812000073],[120.87579073400002,15.008663048000074],[120.87832989700007,15.010528562000049],[120.88004987300008,15.01050177700006],[120.87979548500005,15.009471445000031],[120.8787457520001,15.00860498000003],[120.87844426000004,15.007874041000036],[120.878630358,15.00689063500005],[120.88028073800001,15.004978554000052],[120.88081872600004,15.004084063000048],[120.88083096800005,15.002842022000038],[120.88044217200003,15.002024541000022],[120.88038236690713,15.001983967783433],[120.88011307847675,15.002104709311045],[120.87617845505187,15.004347388637942],[120.87248885135098,15.00695405116971],[120.86907978822242,15.009899604708732],[120.86598408986819,15.013155694597156],[120.86323156799891,15.016690976305563],[120.86084873479516,15.020471416785576],[120.85885854743651,15.024460621703714],[120.85728018666393,15.028620185425092],[120.85612887152075,15.032910060396016],[120.85541571207663,15.037288942386963],[120.85514760157959,15.041714667902644],[120.85532714910718,15.046144619946544],[120.85595265340216,15.050536138243734],[120.8570181181843,15.05484692997932],[120.85851330883249,15.059035477101325],[120.86042384993178,15.063061436265693],[120.86273136278602,15.06688602756798],[120.86541364160752,15.070472408310513],[120.86844486671849,15.073786028194103],[120.87179585273698,15.076794962499129],[120.87543432937495,15.079470220030245],[120.87932525215619,15.081786022839848],[120.88343114006348,15.083720055016057],[120.88771243685827,15.08525367811863],[120.8921278925794,15.086372111167393],[120.89663496152538,15.087064573430883],[120.9011902128597,15.0873243886228],[120.90574974985083,15.087149049488122],[120.90849972514859,15.086778651969128],[120.90097500100002,15.08178337100003]]]}}]}