{"type":"FeatureCollection","features":[{"type":"Feature","properties":{"fid":29,"objectid":1875,"lccode":"07","liqcode":"2010600070000000","mappers":"PJDelosReyes, ACPidlaoan","project":"READY","province":"Eastern Samar","otherinfo":null,"datemapped":2009,"publishdate":null,"globalid":"{D5672507-FBAD-4ABD-B8D4-BDE6B091D8D6}","st_area(shape)":0.012796244732220548,"st_perimeter(shape)":5.603456702340647,"liqcodepk":"201060007000000000068","creator":"SNOOPYPC","createdate":"2019-02-19T15:21:28","editor":"LENOVO","modifydate":"2019-03-10T17:50:55","codemove":"na"},"geometry":{"type":"MultiPolygon","coordinates":[[[[125.44694790400003,11.131950352000043],[125.44777511210691,11.13180726724533],[125.446663460047,11.131541885899058],[125.44694790400003,11.131950352000043]]],[[[125.44905464200008,11.133055139000021],[125.44980628100008,11.13235852100007],[125.4498026063815,11.132334727818952],[125.44939054796824,11.132192906769065],[125.44865020797623,11.132016172846702],[125.44905464200008,11.133055139000021]]]]}},{"type":"Feature","properties":{"fid":56,"objectid":1905,"lccode":"05","liqcode":"2010600050000000","mappers":"PJDelosReyes, ACPidlaoan","project":"READY","province":"Eastern Samar","otherinfo":null,"datemapped":2009,"publishdate":null,"globalid":"{5449C31E-E45E-490E-9AB6-5AACF96F6899}","st_area(shape)":0.008694706737108626,"st_perimeter(shape)":4.649223283492149,"liqcodepk":"201060005000000000100","creator":"SNOOPYPC","createdate":"2019-02-19T15:21:28","editor":"LENOVO","modifydate":"2019-03-10T17:50:55","codemove":"na"},"geometry":{"type":"Polygon","coordinates":[]}},{"type":"Feature","properties":{"fid":70,"objectid":1934,"lccode":"06","liqcode":"2010600060000000","mappers":"PJDelosReyes, ACPidlaoan","project":"READY","province":"Eastern Samar","otherinfo":null,"datemapped":2009,"publishdate":null,"globalid":"{1E082AF3-CE25-4665-9081-FF755916BF3C}","st_area(shape)":0.013613834755412488,"st_perimeter(shape)":9.457887959290924,"liqcodepk":"201060006000000000133","creator":"SNOOPYPC","createdate":"2019-02-19T15:21:28","editor":"LENOVO","modifydate":"2019-03-10T17:50:55","codemove":"na"},"geometry":{"type":"Polygon","coordinates":[]}}]}