{"type":"FeatureCollection","features":[{"type":"Feature","properties":{"fid":207,"objectid":7271,"lccode":"01","liqcode":null,"mappers":"DJLBuhay, MJVReyes, MITAbigania, KLPapiona, KMVitto","project":"MELP","province":"Zamboanga del Norte","otherinfo":null,"datemapped":2020,"publishdate":2021,"globalid":"{6B0290BE-0A77-4263-894C-1C10E652B59E}","st_area(shape)":0.033021563613966895,"st_perimeter(shape)":18.189103020785044,"liqcodepk":null,"creator":null,"createdate":null,"editor":null,"modifydate":null,"codemove":null},"geometry":{"type":"Polygon","coordinates":[]}},{"type":"Feature","properties":{"fid":208,"objectid":7461,"lccode":"01","liqcode":null,"mappers":"DJLBuhay, MJVReyes, MITAbigania, KLPapiona, KMVitto","project":"MELP","province":"Zamboanga del Sur","otherinfo":null,"datemapped":2020,"publishdate":2021,"globalid":"{956CA67A-D8B3-4AFB-A15B-79E0A6393BB2}","st_area(shape)":0.059065434056611577,"st_perimeter(shape)":16.76855550220317,"liqcodepk":null,"creator":null,"createdate":null,"editor":null,"modifydate":null,"codemove":null},"geometry":{"type":"Polygon","coordinates":[]}},{"type":"Feature","properties":{"fid":209,"objectid":7568,"lccode":"01","liqcode":null,"mappers":"DJLBuhay, MJVReyes, MITAbigania, KLPapiona, KMVitto","project":"MELP","province":"Zamboanga Sibugay","otherinfo":null,"datemapped":2021,"publishdate":2021,"globalid":"{08423ED1-E932-4EA1-95BF-6D5A5DF8C9A2}","st_area(shape)":0.03611593413386012,"st_perimeter(shape)":14.29973412419831,"liqcodepk":null,"creator":null,"createdate":null,"editor":null,"modifydate":null,"codemove":null},"geometry":{"type":"MultiPolygon","coordinates":[[[[122.81805429800012,7.569683979000048],[122.81930051145297,7.568961934214954],[122.81773835508034,7.5695189481313285],[122.81805429800012,7.569683979000048]]],[[[122.81420230900007,7.585254896000037],[122.81411626200008,7.584551224000051],[122.81464934400002,7.583144181000021],[122.81523938700002,7.583144432000038],[122.81598450900003,7.58402236000006],[122.81668228400008,7.583062149000057],[122.81591214700006,7.582826269000066],[122.81453479800005,7.581779941000035],[122.81436278600006,7.5801859180000415],[122.81322647600005,7.57880688100005],[122.81385147000003,7.577833547000069],[122.81511757600003,7.578566442000069],[122.81611045500006,7.578825341000023],[122.81799600400008,7.578093778000039],[122.81753586800005,7.577188911000064],[122.81734953400006,7.575408204000043],[122.81668788000002,7.57461813100002],[122.81557974800012,7.574675103000062],[122.8141552280001,7.574229340000043],[122.81325118500001,7.5749712110000464],[122.81365524000012,7.575630904000036],[122.81376219600008,7.576844267000069],[122.8128590140001,7.577527518000066],[122.81139728700009,7.580578575000062],[122.81064859700007,7.580884857000056],[122.81024454300007,7.581721243000059],[122.80824803700011,7.582557627000027],[122.80596004200004,7.582404487000074],[122.80604323600005,7.583398908000051],[122.80720878400005,7.583729703000072],[122.80787045900001,7.584462351000068],[122.8090651550001,7.583974640000063],[122.81072001300004,7.584305641000071],[122.81179903800013,7.585052824000059],[122.81299365100006,7.58475178200007],[122.81302193800003,7.585900586000033],[122.81187936000003,7.587329382000062],[122.81075660300007,7.587845851000053],[122.81038182100009,7.589224238000044],[122.80858254100008,7.589998884000067],[122.80781905100004,7.5916642940000525],[122.80563152600008,7.591677681000019],[122.80471004400012,7.592610661000038],[122.80596186200012,7.593171258000042],[122.80613400200004,7.59442064500007],[122.80705535000004,7.593789220000074],[122.80812025500008,7.593962010000039],[122.8084372400001,7.59312927600007],[122.81026568800009,7.591507411000064],[122.8114319680001,7.590215528000045],[122.81153316600012,7.589167299000054],[122.81259878300011,7.587674330000027],[122.81264224300004,7.5870137930000405],[122.81502225500003,7.586102480000022],[122.81420230900007,7.585254896000037]]],[[[122.80081745200005,7.587187558000037],[122.80250211300006,7.5852928200000616],[122.8044310350001,7.584231060000035],[122.80400546200008,7.583558930000038],[122.8023417070001,7.5846780300000205],[122.80159931700007,7.584379651000061],[122.79954897600008,7.586916222000071],[122.80010752300007,7.587493438000024],[122.79904652800008,7.588866850000045],[122.80075698600002,7.58958024700007],[122.80070340900009,7.591336915000055],[122.80179682500011,7.592084129000057],[122.80158528300001,7.593098798000026],[122.8021224470001,7.593367094000032],[122.80260217700004,7.593348166000058],[122.80324610200012,7.590931210000065],[122.80400908800004,7.590414599000041],[122.80428306600002,7.589222851000045],[122.80501718100004,7.588892904000033],[122.80448526000008,7.58764335400002],[122.80392407200009,7.58747078300007],[122.80293075000009,7.588159608000069],[122.80107571100007,7.588181878000056],[122.80081745200005,7.587187558000037]]],[[[122.8684658730001,7.623315992000071],[122.86902950500007,7.623579428000026],[122.86893313200007,7.624967524000056],[122.87038479100012,7.623663602000024],[122.8707090900001,7.622120008000025],[122.87207660700007,7.621390452000071],[122.87311993000003,7.62186942300002],[122.87370801800013,7.6205413030000395],[122.87334839700009,7.6198830350000435],[122.8747880840001,7.618399595000027],[122.8745245660001,7.617214825000076],[122.87394888800009,7.617142858000022],[122.87314564300006,7.616005797000071],[122.8730140890001,7.614725332000035],[122.87410547000002,7.614869250000028],[122.87481331100003,7.614127525000071],[122.87577292000003,7.613720937000039],[122.87606098700007,7.6129551570000435],[122.87469415700002,7.611435005000034],[122.87440612000012,7.612093085000027],[122.87336271000004,7.611985082000044],[122.87398669700009,7.6108843360000265],[122.87200777200007,7.610847857000066],[122.87145580500008,7.611733222000055],[122.86933274000012,7.6124027170000685],[122.86851318500011,7.612203385000042],[122.86850547400003,7.611445139000066],[122.86700633100008,7.611277149000044],[122.86574676100008,7.612066556000059],[122.86493120600005,7.612042370000037],[122.86441526700003,7.612724305000031],[122.86393505200012,7.614219979000042],[122.86399461600001,7.615500424000062],[122.86319109300007,7.615332638000041],[122.86237540600007,7.615703344000052],[122.86209931000009,7.616457152000066],[122.8607201850001,7.615990014000031],[122.8594486400001,7.616647766000028],[122.85913656900004,7.617365660000077],[122.86002372800009,7.618526707000057],[122.86088724400008,7.618634685000075],[122.8616666150001,7.619328997000025],[122.86069487200007,7.620094548000053],[122.86055065200003,7.621003962000034],[122.85968683200008,7.621817411000051],[122.85912258500001,7.623456651000027],[122.85797099000001,7.624006738000049],[122.85743049200006,7.626340045000064],[122.8584019330001,7.626555763000056],[122.859025427,7.627142329000038],[122.85912103900012,7.6281834530000765],[122.86026034300005,7.628578720000065],[122.86084834800009,7.627657483000064],[122.86157998700003,7.627645751000045],[122.86229987600007,7.626868152000043],[122.86420696200001,7.626737122000063],[122.86473454700003,7.627215951000042],[122.86555036700008,7.626486244000035],[122.86483096900008,7.625720157000046],[122.86504713700002,7.62483469700004],[122.86658228300007,7.625086472000022],[122.8684658730001,7.623315992000071]]],[[[122.86082536000004,7.647455933000063],[122.85994270400009,7.647015277000037],[122.85811960800004,7.646784924000032],[122.85710277000011,7.645884701000055],[122.85566360200004,7.645367266000051],[122.85514535600011,7.645615998000041],[122.85418602200002,7.644945546000033],[122.85347630100011,7.6439113940000425],[122.85232505700004,7.643260020000067],[122.85075145300006,7.643068013000061],[122.84929346000001,7.6415549320000755],[122.8482960340001,7.640118593000066],[122.84691430500003,7.640060666000069],[122.84591618300011,7.640596414000075],[122.84478394300004,7.640519422000069],[122.84305722300009,7.639235982000059],[122.8421553070001,7.639082481000055],[122.84157981200009,7.638450435000038],[122.84006387500007,7.6380669460000385],[122.83991084700006,7.636726633000021],[122.83837573400002,7.636323985000047],[122.83783425800003,7.635553507000053],[122.83684098000003,7.634983152000075],[122.83737911600008,7.63287723800005],[122.837129935,7.63209213700003],[122.83609405100003,7.631019541000057],[122.83615218400007,7.629545281000049],[122.83496272700006,7.62862579600005],[122.83396454400008,7.629352981000068],[122.83281294500011,7.6297929070000245],[122.83240966900006,7.630501172000039],[122.83131591400002,7.630232696000064],[122.83104743500007,7.629753928000072],[122.82887894100008,7.629676490000063],[122.828168634,7.63032718900007],[122.82889714200007,7.63216554300004],[122.82808910900008,7.632438061000073],[122.82739842100011,7.632006989000045],[122.82621901800009,7.629981773000052],[122.82642117800003,7.628344828000025],[122.82686748200001,7.62802908900005],[122.82833539900003,7.628403031000062],[122.8281343640001,7.62723980100003],[122.82963141100004,7.626737797000033],[122.82991955000011,7.626019916000075],[122.82966917500005,7.624658835000046],[122.8300915640001,7.62414204500004],[122.83041926700002,7.620408602000054],[122.83097650800006,7.618551607000029],[122.82896189400003,7.617778758000042],[122.82815622100009,7.616942189000042],[122.82626480600004,7.616966565000041],[122.82493363200001,7.616654898000036],[122.82410589200003,7.617085359000042],[122.8228708910001,7.61623522900004],[122.8220431400001,7.616689620000048],[122.82128766200003,7.616390144000037],[122.81882886900007,7.6166045210000535],[122.81749801600007,7.615550904000028],[122.81669547400008,7.6131213520000625],[122.81763161600007,7.611601992000033],[122.8167783120001,7.611044189000039],[122.81424767900012,7.611043112000063],[122.81327588800002,7.6117726550000375],[122.81238849100008,7.611485075000074],[122.81078136400004,7.611472410000033],[122.80977360600002,7.61215406300005],[122.80763891500011,7.611794124000028],[122.8052401650001,7.611888785000078],[122.80454471300006,7.611505542000032],[122.80408946999998,7.610380479000072],[122.80399432600008,7.608609385000022],[122.80361099900006,7.607592053000077],[122.8015484120001,7.606980819000057],[122.80078118700011,7.606214608000075],[122.8007101710001,7.60416829200005],[122.80193466900005,7.6015960410000485],[122.80204301400009,7.600710564000052],[122.80293115100005,7.599310880000075],[122.80385480600013,7.598916401000051],[122.80529502700006,7.596607501000049],[122.80485172500005,7.595626043000039],[122.80308870300009,7.595709013000029],[122.8013987170001,7.596711043000029],[122.79945560000009,7.597212746000026],[122.7989164930001,7.595956006000051],[122.79913284700001,7.59492698200006],[122.79847336200008,7.59463947900002],[122.79366395500007,7.595044084000049],[122.7911344833323,7.594297076397561],[122.79089261696676,7.594806694867329],[122.79065247954172,7.5954753334754],[122.79163425700006,7.5970939590000635],[122.79184816800013,7.598648870000034],[122.79275135000013,7.599873947000049],[122.79207396400012,7.601146139000035],[122.792323527,7.6025361220000605],[122.79341685200006,7.603254671000059],[122.79566292000004,7.60314865500004],[122.7973623270001,7.6038907620000495],[122.79711276400008,7.604656426000077],[122.79620958300006,7.604220587000043],[122.79266816200004,7.604479735000042],[122.7918006330001,7.605009809000023],[122.79041020900002,7.606800279000024],[122.79024383400008,7.607825084000067],[122.79069542400009,7.608708535000065],[122.79155106900009,7.609226825000063],[122.79328612800009,7.609403515000057],[122.794260613,7.610534327000037],[122.79400476100012,7.611758970000039],[122.79163425700006,7.612301215000057],[122.78893659800009,7.6120891890000735],[122.78787892500009,7.6129255140000405],[122.78750834755994,7.613644990674846],[122.78764977474502,7.6165463963221605],[122.78782874102254,7.617754246821747],[122.78838993500007,7.618190790000029],[122.78940007200003,7.618449930000055],[122.78963775100011,7.619227347000047],[122.78899601700006,7.619769182000027],[122.79113513100003,7.62212498100007],[122.79171744500002,7.624115621000042],[122.79268004600011,7.6257646640000285],[122.7929058410001,7.627284135000023],[122.79458148000005,7.628143988000031],[122.79448640800003,7.6295809980000495],[122.79336931600005,7.630417289000035],[122.79386844200008,7.631112234000056],[122.79402910100009,7.632885895000072],[122.79470032000006,7.63448093200003],[122.79473597100002,7.635717686000023],[122.79584118000002,7.637566920000039],[122.79582803750674,7.638276829712621],[122.79770970252966,7.640810585715813],[122.80069580930807,7.6441006795505615],[122.80399081896199,7.647082897221754],[122.80756299779888,7.649728511724676],[122.81137794021743,7.6520120379098495],[122.81539890018757,7.653911478169823],[122.8195871453671,7.655408534522617],[122.82390233043542,7.65648878503992],[122.82830288603685,7.657141822912706],[122.83274641957225,7.6573613568079315],[122.83719012396108,7.65714527154449],[122.841591190418,7.656495648500637],[122.84590722124818,7.655418745554815],[122.85009663866526,7.653924936753713],[122.85411908567505,7.65202861229122],[122.85793581514613,7.649748039766057],[122.86086998129277,7.64757847875858],[122.86082536000004,7.647455933000063]]]]}}]}