{"type":"FeatureCollection","features":[{"type":"Feature","properties":{"fid":171,"objectid":9613,"lccode":"01","liqcode":"2010600010000000","mappers":"DJLBuhay, MJVReyes, MITAbigania, KLPapiona, KMVitto","project":"MELP","province":"Nueva Ecija","otherinfo":"hazard boundary with Pangasinan updated on 2024","datemapped":2018,"publishdate":null,"globalid":"{142EC992-C228-490B-8C06-5B4A68BA1242}","st_area(shape)":0.21874224791512728,"st_perimeter(shape)":7.9099228422392365,"liqcodepk":"201060001000000000019","creator":"SNOOPYPC","createdate":"2019-02-19T15:21:28","editor":"LENOVO","modifydate":"2019-03-10T17:53:06","codemove":"na"},"geometry":{"type":"Polygon","coordinates":[[[120.75572014200009,15.319438281000034],[120.75575958500008,15.32290332000002],[120.7530612920001,15.324952410000039],[120.75056203700001,15.325269253000043],[120.74929598400001,15.325129193000068],[120.74799944800007,15.32604702800006],[120.74500705100002,15.326118729000026],[120.74426231777882,15.326714527084416],[120.74340344308288,15.328969726078105],[120.74224741711497,15.33325838669593],[120.74153006890322,15.33763635011142],[120.74125833254547,15.342061461956355],[120.7414348526195,15.346491111381214],[120.74205795765452,15.35088264120964],[120.74312167513193,15.355193758640084],[120.74461578791339,15.359382942543622],[120.7465259315943,15.363409843436372],[120.74883373188621,15.36723567227056],[120.75151698074163,15.370823574292567],[120.75454984955775,15.374138984356005],[120.75790313743215,15.377149960253378],[120.76154455209854,15.379827490838691],[120.76543902084892,15.382145775954127],[120.7695490284502,15.384082475444291],[120.77383497879592,15.38561892483847],[120.77825557679635,15.386740315603054],[120.78276822680733,15.387435838208336],[120.78732944373273,15.387698786614358],[120.79189527280667,15.387526623154464],[120.79642171397428,15.386921003179923],[120.8008651467423,15.38588775922046],[120.80518275136463,15.384436844809205],[120.80933292226442,15.382582238513466],[120.81327566967033,15.380341809099976],[120.81697300556236,15.377737143141728],[120.82038931017848,15.374793336738666],[120.8234916755271,15.371538753373489],[120.82625022257895,15.368004750252227],[120.82863838907369,15.364225375784835],[120.83063318516764,15.360237041139833],[120.83221541446748,15.356078169056989],[120.83336985833571,15.351788823320552],[120.83408542171539,15.347410322480316],[120.83435523909871,15.342984841557401],[120.83417673965295,15.338555005584782],[120.83355167091487,15.33416347890771],[120.83248608086693,15.329852554206667],[120.83099025860926,15.325663745204116],[120.82907863424063,15.321637386976754],[120.82676963895146,15.317812247718077],[120.82408552671241,15.314225155681752],[120.8210521593057,15.31091064488691],[120.81769875679441,15.30790062298268],[120.8140576158504,15.305224064453652],[120.8101637986628,15.302906732102025],[120.80605479542562,15.300970929468999],[120.80177016364813,15.299435286559508],[120.79735114774829,15.298314580914385],[120.79284028257096,15.29761959573451],[120.78828098462203,15.29735701640685],[120.78371713492207,15.29752936641457],[120.77919265745956,15.298134983237473],[120.77475109726358,15.299168034466957],[120.77043520211825,15.300618573976427],[120.76628651190617,15.302472637605899],[120.7623449594966,15.304712377443032],[120.75864848698666,15.307316233414932],[120.75523268095907,15.310259140549006],[120.75213043024513,15.31351276992098],[120.75164625816002,15.314132828015497],[120.75572014200009,15.319438281000034]]]}},{"type":"Feature","properties":{"fid":180,"objectid":9619,"lccode":"07","liqcode":null,"mappers":"DJLBuhay, MITAbigania","project":"EHM","province":"Tarlac","otherinfo":"merged into one feature in 2024","datemapped":2021,"publishdate":null,"globalid":"{86B5AD80-4B79-45B5-89D4-1FDEF062B016}","st_area(shape)":0.06253734240529021,"st_perimeter(shape)":3.2108098594058267,"liqcodepk":null,"creator":null,"createdate":null,"editor":null,"modifydate":null,"codemove":null},"geometry":{"type":"Polygon","coordinates":[[[120.74500705100002,15.326118729000026],[120.74799944800007,15.32604702800006],[120.74929598400001,15.325129193000068],[120.75056203700001,15.325269253000043],[120.7530612920001,15.324952410000039],[120.75575958500008,15.32290332000002],[120.75572014200009,15.319438281000034],[120.75164625816002,15.314132828015497],[120.74937160946888,15.317045800986254],[120.7469827914098,15.320824222690412],[120.74498699095096,15.324811660479075],[120.74426231777882,15.326714527084416],[120.74500705100002,15.326118729000026]]]}},{"type":"Feature","properties":{"fid":181,"objectid":9620,"lccode":"06","liqcode":null,"mappers":"DJLBuhay, MITAbigania","project":"EHM","province":"Tarlac","otherinfo":"merged into one feature in 2024","datemapped":2021,"publishdate":null,"globalid":"{BE285D85-973D-44E5-B8BA-72B267ABCE71}","st_area(shape)":0.021797029366581382,"st_perimeter(shape)":4.340907487629056,"liqcodepk":null,"creator":null,"createdate":null,"editor":null,"modifydate":null,"codemove":null},"geometry":{"type":"Polygon","coordinates":[]}}]}