{"type":"FeatureCollection","features":[{"type":"Feature","properties":{"fid":203,"objectid":3506,"lccode":"01","liqcode":null,"mappers":"DJLBuhay, MJVReyes, MITAbigania, KLPapiona, KMVitto","project":"MELP","province":"Camiguin","otherinfo":null,"datemapped":2021,"publishdate":2021,"globalid":"{51268649-0AF9-4816-8B41-6DF549AC1AAB}","st_area(shape)":0.0008641663352997107,"st_perimeter(shape)":0.9792766475105509,"liqcodepk":null,"creator":null,"createdate":null,"editor":null,"modifydate":null,"codemove":null},"geometry":{"type":"MultiPolygon","coordinates":[[[[124.72827235900002,9.10517652900006],[124.72961409000003,9.104911811000022],[124.7309245890001,9.104159248000029],[124.73236013600001,9.104034890000039],[124.73269079400006,9.104482752000024],[124.73304423800005,9.10629269900005],[124.73463504000006,9.106978622000042],[124.73528763800005,9.107549615000039],[124.73661079400006,9.107314908000033],[124.73945053600004,9.107362302000071],[124.74102416100004,9.107079576000045],[124.74140720900004,9.107568464000053],[124.74156769100013,9.108976887000036],[124.74276031700003,9.11237316900002],[124.74342184400007,9.11273682700005],[124.74378834100003,9.111127520000025],[124.74331368900005,9.109888006000062],[124.74395523900013,9.10817798000005],[124.74543884000002,9.106400726000057],[124.74829167300004,9.104011276000051],[124.74810268400007,9.103197420000072],[124.74700465100011,9.102375872000039],[124.74676247800006,9.10142238800006],[124.74726206300011,9.100220406000064],[124.74745948400005,9.098735806000036],[124.74561747000008,9.101528590000044],[124.74453603000006,9.10257294400003],[124.7432501410001,9.103205758000058],[124.73792612600006,9.103604723000046],[124.7362536290001,9.103239235000046],[124.73087580800008,9.103099411000073],[124.72964494100007,9.102911550000044],[124.72829016900005,9.10305236200003],[124.72786265241298,9.102793326106786],[124.72801327394254,9.10557005033871],[124.72827235900002,9.10517652900006]]],[[[124.78662308300011,9.097398079000072],[124.78625393000006,9.097079140000064],[124.78554758500003,9.094722608000039],[124.78618056500011,9.093690708000054],[124.78494239300005,9.093053994000057],[124.78390277200005,9.090556329000037],[124.78327180600002,9.087664200000063],[124.78263964400004,9.086243692000037],[124.78208935100008,9.083821035000026],[124.78112497200004,9.083632979000074],[124.77916321900011,9.08277819600005],[124.77727939300007,9.081554697000056],[124.77603536100003,9.081100648000074],[124.77562447600008,9.080429627000058],[124.7739369530001,9.079655114000047],[124.7715674860001,9.078893790000048],[124.7704211790001,9.078736690000028],[124.76805442900002,9.078776368000034],[124.76724680600012,9.078615720000071],[124.76396183300005,9.079486167000026],[124.76273777900009,9.080192358000033],[124.7609241010001,9.080870889000035],[124.76041545500004,9.08151554700004],[124.75882670200008,9.08259133200005],[124.75721316400006,9.08483569200007],[124.75438318400005,9.089334452000056],[124.75308264400009,9.092090442000027],[124.75231760400003,9.09425238700004],[124.75124963800012,9.095760285000038],[124.75165174200004,9.096786947000053],[124.75337187500008,9.096647111000038],[124.75411363200011,9.095758474000036],[124.75373401700004,9.094408777000064],[124.75371348100009,9.092662660000029],[124.75451219300011,9.091115929000068],[124.75476923400002,9.089535922000039],[124.755414652,9.088635788000033],[124.75641077500006,9.088092776000053],[124.7571745350001,9.086785418000034],[124.75739721500008,9.085564388000023],[124.7587957950001,9.08365595300006],[124.75982531300009,9.082562598000036],[124.76099126300004,9.082021395000027],[124.76263211400011,9.080731083000044],[124.76398176300007,9.080351215000064],[124.76505740800008,9.079630976000033],[124.76773898300007,9.079137082000045],[124.7699050760001,9.079495083000042],[124.77061947800007,9.079912621000062],[124.775217837,9.08124897700003],[124.77574877400002,9.081906549000054],[124.77679456300008,9.082246863000025],[124.77822063800012,9.083338214000037],[124.77989628600005,9.085803775000045],[124.781237131,9.086849731000026],[124.78226926900003,9.088734403000045],[124.78238002500007,9.090449514000055],[124.78377918300009,9.093043256000046],[124.78393682400008,9.09522550500003],[124.78331885900002,9.096023455000022],[124.7838996700001,9.097218174000036],[124.78353083200011,9.098391735000064],[124.78410126200004,9.098861113000055],[124.78508411000007,9.09887075200004],[124.78642867200006,9.10004034800005],[124.78671815500003,9.098952893000046],[124.78662308300011,9.097398079000072]]],[[[124.79350753800009,9.138043140000034],[124.79524328700006,9.135784925000051],[124.79475171400009,9.135317902000052],[124.79570243100012,9.134312827000032],[124.79621344100008,9.133209899000065],[124.79574996600002,9.132928300000058],[124.79532266100013,9.131670864000057],[124.79437907600006,9.130882984000037],[124.79317856300008,9.13050858300005],[124.79205999600003,9.130716565000057],[124.79133507400002,9.131713900000024],[124.79131130600001,9.132582167000065],[124.79183420100004,9.13392562900003],[124.79272950800011,9.134706029000027],[124.79398532200003,9.13492744800004],[124.7932261090001,9.136165483000072],[124.79134101600006,9.136999734000025],[124.79138550900008,9.13775330900006],[124.79209781600002,9.138018009000064],[124.79231450000007,9.138974083000052],[124.79318701500006,9.13989723200007],[124.79420903300002,9.140303282000044],[124.79453721900006,9.13939540700005],[124.79350753800009,9.138043140000034]]],[[[124.79918083500002,9.125503979000031],[124.7985698120001,9.12460760600004],[124.79614520300004,9.124428237000075],[124.79449069400005,9.125192290000028],[124.7939911400001,9.12591171300005],[124.79364266600011,9.127892279000035],[124.79692053700013,9.128938953000045],[124.79765140100005,9.12890375300003],[124.79804357100012,9.127730407000055],[124.79980239800011,9.126662659000033],[124.80052731900004,9.125993848000064],[124.79918083500002,9.125503979000031]]],[[[124.80594992800002,9.115837491000034],[124.80534313000008,9.115699041000026],[124.80433964100007,9.116298418000042],[124.803973616,9.115841583000076],[124.8027234320001,9.11627457700007],[124.80223618900004,9.117543913000075],[124.8026283600001,9.11798771600007],[124.80388806000008,9.11735409000005],[124.80492196500008,9.11740102500005],[124.80616978100011,9.118539204000056],[124.80649064800001,9.11796424800002],[124.80594992800002,9.115837491000034]]],[[[124.798365353,9.107868951000057],[124.7966611280001,9.10781995800005],[124.79620052500002,9.106980930000079],[124.79434989100002,9.107668700000033],[124.79440112800012,9.108290374000036],[124.79806050200011,9.108511518000057],[124.798365353,9.107868951000057]]],[[[124.79862940700004,9.13222932900004],[124.79774999300004,9.13077439300002],[124.79681534600003,9.132804167000074],[124.79788071700011,9.132921595000026],[124.79862940700004,9.13222932900004]]],[[[124.7996835580001,9.10509581100007],[124.80004007700006,9.10638020300007],[124.80080065100003,9.105330495000034],[124.80044413200007,9.104638176000035],[124.7996835580001,9.10509581100007]]]]}}]}