{"type":"FeatureCollection","features":[{"type":"Feature","properties":{"fid":207,"objectid":7271,"lccode":"01","liqcode":null,"mappers":"DJLBuhay, MJVReyes, MITAbigania, KLPapiona, KMVitto","project":"MELP","province":"Zamboanga del Norte","otherinfo":null,"datemapped":2020,"publishdate":2021,"globalid":"{6B0290BE-0A77-4263-894C-1C10E652B59E}","st_area(shape)":0.033021563613966895,"st_perimeter(shape)":18.189103020785044,"liqcodepk":null,"creator":null,"createdate":null,"editor":null,"modifydate":null,"codemove":null},"geometry":{"type":"Polygon","coordinates":[]}},{"type":"Feature","properties":{"fid":208,"objectid":7461,"lccode":"01","liqcode":null,"mappers":"DJLBuhay, MJVReyes, MITAbigania, KLPapiona, KMVitto","project":"MELP","province":"Zamboanga del Sur","otherinfo":null,"datemapped":2020,"publishdate":2021,"globalid":"{956CA67A-D8B3-4AFB-A15B-79E0A6393BB2}","st_area(shape)":0.059065434056611577,"st_perimeter(shape)":16.76855550220317,"liqcodepk":null,"creator":null,"createdate":null,"editor":null,"modifydate":null,"codemove":null},"geometry":{"type":"Polygon","coordinates":[]}},{"type":"Feature","properties":{"fid":209,"objectid":7568,"lccode":"01","liqcode":null,"mappers":"DJLBuhay, MJVReyes, MITAbigania, KLPapiona, KMVitto","project":"MELP","province":"Zamboanga Sibugay","otherinfo":null,"datemapped":2021,"publishdate":2021,"globalid":"{08423ED1-E932-4EA1-95BF-6D5A5DF8C9A2}","st_area(shape)":0.03611593413386012,"st_perimeter(shape)":14.29973412419831,"liqcodepk":null,"creator":null,"createdate":null,"editor":null,"modifydate":null,"codemove":null},"geometry":{"type":"MultiPolygon","coordinates":[[[[122.8684658730001,7.623315992000071],[122.86902950500007,7.623579428000026],[122.86893313200007,7.624967524000056],[122.87038479100012,7.623663602000024],[122.8707090900001,7.622120008000025],[122.87207660700007,7.621390452000071],[122.87311993000003,7.62186942300002],[122.87370801800013,7.6205413030000395],[122.87334839700009,7.6198830350000435],[122.8747880840001,7.618399595000027],[122.8745245660001,7.617214825000076],[122.87394888800009,7.617142858000022],[122.87314564300006,7.616005797000071],[122.8730140890001,7.614725332000035],[122.87410547000002,7.614869250000028],[122.87481331100003,7.614127525000071],[122.87577292000003,7.613720937000039],[122.87606098700007,7.6129551570000435],[122.87469415700002,7.611435005000034],[122.87440612000012,7.612093085000027],[122.87336271000004,7.611985082000044],[122.87398669700009,7.6108843360000265],[122.87200777200007,7.610847857000066],[122.87145580500008,7.611733222000055],[122.86933274000012,7.6124027170000685],[122.86851318500011,7.612203385000042],[122.86850547400003,7.611445139000066],[122.86700633100008,7.611277149000044],[122.86574676100008,7.612066556000059],[122.86493120600005,7.612042370000037],[122.86441526700003,7.612724305000031],[122.86393505200012,7.614219979000042],[122.86399461600001,7.615500424000062],[122.86319109300007,7.615332638000041],[122.86237540600007,7.615703344000052],[122.86209931000009,7.616457152000066],[122.8607201850001,7.615990014000031],[122.8594486400001,7.616647766000028],[122.85913656900004,7.617365660000077],[122.86002372800009,7.618526707000057],[122.86088724400008,7.618634685000075],[122.8616666150001,7.619328997000025],[122.86069487200007,7.620094548000053],[122.86055065200003,7.621003962000034],[122.85968683200008,7.621817411000051],[122.85912258500001,7.623456651000027],[122.85797099000001,7.624006738000049],[122.85743049200006,7.626340045000064],[122.8584019330001,7.626555763000056],[122.859025427,7.627142329000038],[122.85912103900012,7.6281834530000765],[122.86026034300005,7.628578720000065],[122.86084834800009,7.627657483000064],[122.86157998700003,7.627645751000045],[122.86229987600007,7.626868152000043],[122.86420696200001,7.626737122000063],[122.86473454700003,7.627215951000042],[122.86555036700008,7.626486244000035],[122.86483096900008,7.625720157000046],[122.86504713700002,7.62483469700004],[122.86658228300007,7.625086472000022],[122.8684658730001,7.623315992000071]]],[[[122.87580302800006,7.651834789000077],[122.87486748400012,7.65169091900003],[122.87485275900008,7.6528253470000305],[122.87390233000008,7.654347219000043],[122.87119376600003,7.654440456000029],[122.87029430000008,7.653973490000055],[122.8697907600001,7.653183544000058],[122.86869934200001,7.652848149000021],[122.86871170300005,7.651651495000064],[122.86812435700007,7.650370891000022],[122.86718897800007,7.649712442000065],[122.8658575820001,7.649688097000024],[122.86508950800008,7.6510161480000525],[122.8640292340001,7.650845890000029],[122.86333240200008,7.649296156000049],[122.86316641800012,7.648337422000055],[122.86222497900008,7.648452002000057],[122.86105545100007,7.64808784300004],[122.86082536000004,7.647455933000063],[122.85994270400009,7.647015277000037],[122.85811960800004,7.646784924000032],[122.85710277000011,7.645884701000055],[122.85566360200004,7.645367266000051],[122.85514535600011,7.645615998000041],[122.85418602200002,7.644945546000033],[122.85347630100011,7.6439113940000425],[122.85232505700004,7.643260020000067],[122.85075145300006,7.643068013000061],[122.84929346000001,7.6415549320000755],[122.8482960340001,7.640118593000066],[122.84691430500003,7.640060666000069],[122.84591618300011,7.640596414000075],[122.84478394300004,7.640519422000069],[122.84305722300009,7.639235982000059],[122.8421553070001,7.639082481000055],[122.84157981200009,7.638450435000038],[122.84006387500007,7.6380669460000385],[122.83991084700006,7.636726633000021],[122.83837573400002,7.636323985000047],[122.83783425800003,7.635553507000053],[122.83684098000003,7.634983152000075],[122.83737911600008,7.63287723800005],[122.837129935,7.63209213700003],[122.83609405100003,7.631019541000057],[122.83615218400007,7.629545281000049],[122.83496272700006,7.62862579600005],[122.83396454400008,7.629352981000068],[122.83281294500011,7.6297929070000245],[122.83240966900006,7.630501172000039],[122.83131591400002,7.630232696000064],[122.83104743500007,7.629753928000072],[122.82887894100008,7.629676490000063],[122.828168634,7.63032718900007],[122.82889714200007,7.63216554300004],[122.82808910900008,7.632438061000073],[122.82739842100011,7.632006989000045],[122.82621901800009,7.629981773000052],[122.82642117800003,7.628344828000025],[122.82686748200001,7.62802908900005],[122.82833539900003,7.628403031000062],[122.8281343640001,7.62723980100003],[122.82963141100004,7.626737797000033],[122.82991955000011,7.626019916000075],[122.82966917500005,7.624658835000046],[122.8300915640001,7.62414204500004],[122.83041926700002,7.620408602000054],[122.83097650800006,7.618551607000029],[122.82896189400003,7.617778758000042],[122.82815622100009,7.616942189000042],[122.82626480600004,7.616966565000041],[122.82493363200001,7.616654898000036],[122.82410589200003,7.617085359000042],[122.8228708910001,7.61623522900004],[122.8220431400001,7.616689620000048],[122.82128766200003,7.616390144000037],[122.81882886900007,7.6166045210000535],[122.81749801600007,7.615550904000028],[122.81669547400008,7.6131213520000625],[122.81763161600007,7.611601992000033],[122.8167783120001,7.611044189000039],[122.81424767900012,7.611043112000063],[122.81327588800002,7.6117726550000375],[122.81238849100008,7.611485075000074],[122.81078136400004,7.611472410000033],[122.80977360600002,7.61215406300005],[122.80763891500011,7.611794124000028],[122.8052401650001,7.611888785000078],[122.80454471300006,7.611505542000032],[122.80408946999998,7.610380479000072],[122.80399432600008,7.608609385000022],[122.80361099900006,7.607592053000077],[122.8015484120001,7.606980819000057],[122.80078118700011,7.606214608000075],[122.8007101710001,7.60416829200005],[122.80193466900005,7.6015960410000485],[122.80200528095652,7.6010189473347305],[122.80044307877324,7.602737150580732],[122.79779149689662,7.606300959104703],[122.79550273691568,7.6101069126179945],[122.79359884680706,7.614118363638966],[122.7920981702672,7.618296684987435],[122.79113509474676,7.622124941074768],[122.79113513100003,7.62212498100007],[122.79171744500002,7.624115621000042],[122.79268004600011,7.6257646640000285],[122.7929058410001,7.627284135000023],[122.79458148000005,7.628143988000031],[122.79448640800003,7.6295809980000495],[122.79336931600005,7.630417289000035],[122.79386844200008,7.631112234000056],[122.79402910100009,7.632885895000072],[122.79470032000006,7.63448093200003],[122.79473597100002,7.635717686000023],[122.79584118000002,7.637566920000039],[122.79581741200002,7.6388507780000605],[122.79515191000009,7.639427924000075],[122.79424872900005,7.639192355000034],[122.79323859200008,7.639781279000032],[122.79246613500004,7.64198384800005],[122.79246613500004,7.642867228000059],[122.7920825929352,7.644543272646637],[122.79208548758965,7.644554825531711],[122.7935822477054,7.648734576940309],[122.79548247824239,7.652747828224637],[122.79776788780693,7.6565559247038175],[122.80041647336479,7.660122186663164],[122.80340273187959,7.663412262817717],[122.80669790575097,7.666394461374697],[122.81027025969671,7.669040055497168],[122.81408538641423,7.671323560217196],[122.81810653807786,7.673222978121447],[122.82229498047319,7.674720011433254],[122.82661036635022,7.675800238439214],[122.8310111243862,7.676453252553014],[122.83545485999744,7.676672762670116],[122.83989876412193,7.676456653841531],[122.84430002601637,7.675807007678879],[122.84861624607164,7.674730082292723],[122.85280584465035,7.673236251958046],[122.8568284629897,7.671339907090505],[122.86064535228974,7.669059315501405],[122.86421974722447,7.666416446273896],[122.86751722026528,7.6634367579643135],[122.87050601339475,7.660148953177457],[122.8731573440099,7.656584701888988],[122.87544568206796,7.652778336189644],[122.87583536564826,7.65195696563847],[122.87580302800006,7.651834789000077]]]]}}]}