{"type":"FeatureCollection","features":[{"type":"Feature","properties":{"fid":11,"objectid":1842,"lccode":"01","liqcode":"2010600010000000","mappers":"DJLBuhay, MJVReyes, MITAbigania, KLPapiona, KMVitto","project":"MELP","province":"Guimaras","otherinfo":null,"datemapped":2017,"publishdate":null,"globalid":"{1FCD3FC1-726A-4724-83FA-C9E3DF1A3949}","st_area(shape)":0.004310194063054239,"st_perimeter(shape)":2.622135708013885,"liqcodepk":"201060001000000000014","creator":"SNOOPYPC","createdate":"2019-02-19T15:21:28","editor":"LENOVO","modifydate":"2019-03-10T17:53:06","codemove":"na"},"geometry":{"type":"Polygon","coordinates":[]}},{"type":"Feature","properties":{"fid":21,"objectid":1867,"lccode":"07","liqcode":"2010600070000000","mappers":"DJLBuhay","project":"Negros Occidental Multi-Hazard Mapping","province":"Negros Occidental","otherinfo":null,"datemapped":2018,"publishdate":null,"globalid":"{BDFFB75F-E1DC-47A8-B9CF-113E0CE8D2E7}","st_area(shape)":0.051419613090430895,"st_perimeter(shape)":11.901738684521376,"liqcodepk":"201060007000000000059","creator":"SNOOPYPC","createdate":"2019-02-19T15:21:28","editor":"LENOVO","modifydate":"2019-03-10T17:50:55","codemove":"na"},"geometry":{"type":"Polygon","coordinates":[]}},{"type":"Feature","properties":{"fid":32,"objectid":1878,"lccode":"07","liqcode":"2010600070000000","mappers":"PJDelosReyes, ACPidlaoan","project":"READY","province":"Iloilo","otherinfo":null,"datemapped":2010,"publishdate":null,"globalid":"{2F92972A-C07C-4633-B325-DF2A08960C6C}","st_area(shape)":0.031106077518548395,"st_perimeter(shape)":5.287074988133156,"liqcodepk":"201060007000000000071","creator":"SNOOPYPC","createdate":"2019-02-19T15:21:28","editor":"LENOVO","modifydate":"2019-03-10T17:50:55","codemove":"na"},"geometry":{"type":"Polygon","coordinates":[]}},{"type":"Feature","properties":{"fid":46,"objectid":1895,"lccode":"05","liqcode":"2010600050000000","mappers":"DJLBuhay","project":"Negros Occidental Multi-Hazard Mapping","province":"Negros Occidental","otherinfo":null,"datemapped":2018,"publishdate":null,"globalid":"{149718D2-4D93-4457-9604-37CB70EA27A9}","st_area(shape)":0.01745435689673941,"st_perimeter(shape)":6.697527242466418,"liqcodepk":"201060005000000000089","creator":"SNOOPYPC","createdate":"2019-02-19T15:21:28","editor":"LENOVO","modifydate":"2019-03-10T17:50:55","codemove":"na"},"geometry":{"type":"Polygon","coordinates":[]}},{"type":"Feature","properties":{"fid":59,"objectid":1908,"lccode":"05","liqcode":"2010600050000000","mappers":"PJDelosReyes, ACPidlaoan","project":"READY","province":"Iloilo","otherinfo":null,"datemapped":2010,"publishdate":null,"globalid":"{282D04BA-68E2-41E5-9B8A-0D8D85396F2D}","st_area(shape)":0.06128738608791496,"st_perimeter(shape)":10.692281506054618,"liqcodepk":"201060005000000000103","creator":"SNOOPYPC","createdate":"2019-02-19T15:21:28","editor":"LENOVO","modifydate":"2019-03-10T17:50:55","codemove":"na"},"geometry":{"type":"Polygon","coordinates":[[[122.52379150600005,10.808902931000032],[122.52331805000006,10.807688064000049],[122.522925471,10.805415788000062],[122.52225462400008,10.803769772000066],[122.5222562340001,10.802751483000065],[122.5227341320001,10.801146391000032],[122.52317063300008,10.800677070000065],[122.52673910300007,10.798685029000069],[122.52741353100011,10.798098612000047],[122.5284461440001,10.796416054000074],[122.52943638800004,10.79645671400004],[122.53020271728167,10.797618117580148],[122.53098760245749,10.795459776406286],[122.53208484277374,10.79115682255101],[122.53275018979573,10.786768251774404],[122.53297725408464,10.782336331928787],[122.53276386799403,10.777903746573429],[122.53211210581036,10.773513183845182],[122.53102826303686,10.769206925355377],[122.52952279504923,10.765026439071617],[122.52761021574011,10.761011980101935],[122.52530895715493,10.757202203220244],[122.52264119149216,10.753633790856629],[122.51963261720081,10.750341100125244],[122.51631221124937,10.747355832277572],[122.51271194996028,10.744706727751757],[122.50886650110209,10.742419289741717],[122.5048128902032,10.74051553893468],[122.50059014429272,10.739013801766284],[122.49623891648828,10.737928534220059],[122.49180109502824,10.737270182857502],[122.48731940049402,10.737045084407553],[122.48283697507668,10.737255404875384],[122.47839696781824,10.737899118751791],[122.47404211979372,10.738970028520788],[122.46981435320214,10.740457824277522],[122.46575436829609,10.742348182884767],[122.46190125200715,10.744622905717941],[122.45829210201319,10.74726009367939],[122.45496166984982,10.750234357805562],[122.45194202648742,10.75351706344984],[122.4492622535855,10.757076605701569],[122.44847468111905,10.75837062017956],[122.4489482550001,10.759311396000044],[122.44791997100005,10.763633970000056],[122.44740797400006,10.764569965000018],[122.44667924700003,10.764496604000042],[122.44584576097458,10.763172727175524],[122.44502204998743,10.764886778843135],[122.4435024742725,10.769062209986522],[122.44240408478584,10.77336480182472],[122.44173747608913,10.777753123318663],[122.44150908610658,10.782184916195806],[122.44172113343018,10.786617501776199],[122.4420426801893,10.788787991954822],[122.44221986300012,10.788674370000026],[122.44431941900007,10.788678147000038],[122.44610145800004,10.788955486000075],[122.44713240200008,10.788409038000054],[122.44784690300003,10.78758778600007],[122.44824668000003,10.785591087000055],[122.44833094900002,10.782849599000025],[122.44936215200005,10.782146449000036],[122.45213540400005,10.781916372000067],[122.45348147800009,10.782349500000064],[122.45435039100006,10.783761093000065],[122.4543091690001,10.784661760000063],[122.45212597600005,10.787125399000047],[122.45176773600008,10.78806474500004],[122.45192358100007,10.789514141000039],[122.45100945200011,10.791196727000054],[122.45077014700009,10.792097132000036],[122.45096487600006,10.793938196000054],[122.45128046700007,10.79464383100003],[122.452783081,10.796134763000053],[122.45290025400004,10.797074950000022],[122.45242263600005,10.798327381000036],[122.451668444,10.799148572000036],[122.45067742600008,10.799499261000049],[122.44996283100011,10.800359668000056],[122.44992187600009,10.801103730000024],[122.45059324200008,10.80224074700004],[122.45229403700012,10.803692975000047],[122.4526491040001,10.804516041000058],[122.4541517,10.80604621000003],[122.45490159300005,10.807614105000027],[122.45557362700004,10.80839866600007],[122.45604581800002,10.810161914000048],[122.45600148900009,10.812786021000022],[122.45667057600008,10.815215448000059],[122.45880668700012,10.816981706000036],[122.45948008900005,10.817061187000036],[122.4600332020001,10.817884682000056],[122.4597855060859,10.81836013649289],[122.46176761087276,10.819818796665773],[122.46561363196395,10.822106836913932],[122.46966804055907,10.824011129673499],[122.47304135281173,10.825210874268349],[122.47285652100003,10.825113395000075],[122.47254126100007,10.824172875000043],[122.47337768000011,10.821628507000069],[122.47480542000007,10.820769260000075],[122.4752444060001,10.818929194000079],[122.47599756100009,10.818656327000042],[122.47769701400011,10.821009162000053],[122.47848856500003,10.821480491000047],[122.48050577300013,10.82340300800007],[122.48137431900012,10.825166981000054],[122.48165092658796,10.827104405678035],[122.48268323908533,10.827257557891286],[122.48716625931459,10.827482783309868],[122.49165002350033,10.82727246261694],[122.49609133115236,10.826628621330352],[122.50044739122217,10.825557461862418],[122.50467623493249,10.824069303713797],[122.50492047049865,10.82395558556659],[122.503920912,10.822854092000053],[122.50400224400005,10.82156169700005],[122.50325193100002,10.820072211000024],[122.50218395000003,10.819052113000051],[122.49838377000003,10.817205142000034],[122.49870341000009,10.81559983900007],[122.49740056500004,10.812856158000043],[122.49767962500006,10.811838235000042],[122.4991888610001,10.80952987300003],[122.50006124300013,10.80902214200006],[122.50073612100006,10.808161549000033],[122.50136971300005,10.808319267000055],[122.50208103500007,10.809417094000024],[122.50417965000008,10.810047156000051],[122.50497102400003,10.810635872000034],[122.50563973700004,10.813535293000028],[122.50571708100004,10.814671158000067],[122.50666734000004,10.815025218000073],[122.50860981400001,10.814245023000067],[122.50980183600007,10.812092706000044],[122.51019972300004,10.811035897000068],[122.51261955900009,10.80900305500006],[122.51333326000008,10.808651639000061],[122.51685714800008,10.809871396000064],[122.5183613590001,10.810617886000044],[122.52046002100008,10.811247840000021],[122.52061719900006,10.812070528000048],[122.52114666738156,10.812533904761498],[122.52255073745762,10.811007167351738],[122.52380710563037,10.809337845385702],[122.52379150600005,10.808902931000032]],[[122.44840999000007,10.774734138000042],[122.45103578800001,10.773801893000043],[122.45271495300007,10.772363335000023],[122.45373606200009,10.772004822000042],[122.45592594900008,10.770278894000057],[122.45789554400005,10.769417408000038],[122.45891792400005,10.76833816000004],[122.4593536200001,10.769275828000046],[122.45833149600003,10.770211043000073],[122.457890775,10.772084179000045],[122.45708806000005,10.77258730400007],[122.45584848800002,10.772801319000052],[122.45460808100007,10.773519858000041],[122.45380249900006,10.775608623000037],[122.45285267500003,10.776832196000043],[122.45241334200013,10.777912452000063],[122.45117348400004,10.778270662000065],[122.44964609500005,10.77639405000002],[122.44738800300001,10.775525098000058],[122.4470975470001,10.774947987000075],[122.44840999000007,10.774734138000042]]]}},{"type":"Feature","properties":{"fid":61,"objectid":1925,"lccode":"06","liqcode":"2010600060000000","mappers":"DJLBuhay","project":"Negros Occidental Multi-Hazard Mapping","province":"Negros Occidental","otherinfo":null,"datemapped":2018,"publishdate":null,"globalid":"{E5539A65-5F4C-46A4-8778-850E85BFF908}","st_area(shape)":0.021565408471292534,"st_perimeter(shape)":8.733756823540528,"liqcodepk":"201060006000000000123","creator":"SNOOPYPC","createdate":"2019-02-19T15:21:28","editor":"LENOVO","modifydate":"2019-03-10T17:50:55","codemove":"na"},"geometry":{"type":"Polygon","coordinates":[]}},{"type":"Feature","properties":{"fid":73,"objectid":1937,"lccode":"06","liqcode":"2010600060000000","mappers":"PJDelosReyes, ACPidlaoan","project":"READY","province":"Iloilo","otherinfo":null,"datemapped":2010,"publishdate":null,"globalid":"{DBB85F45-4FB4-4F72-8BD3-A1308397A487}","st_area(shape)":0.017575391436836466,"st_perimeter(shape)":7.287100410898002,"liqcodepk":"201060006000000000136","creator":"SNOOPYPC","createdate":"2019-02-19T15:21:28","editor":"LENOVO","modifydate":"2019-03-10T17:50:55","codemove":"na"},"geometry":{"type":"Polygon","coordinates":[]}}]}