{"type":"FeatureCollection","features":[{"type":"Feature","properties":{"fid":33,"objectid":1879,"lccode":"07","liqcode":"2010600070000000","mappers":"PJDelosReyes, ACPidlaoan","project":"READY","province":"Isabela","otherinfo":null,"datemapped":2012,"publishdate":null,"globalid":"{91DB2F3C-1BB4-4146-BF15-299122E74073}","st_area(shape)":0.020995608528075003,"st_perimeter(shape)":7.369078683303569,"liqcodepk":"201060007000000000072","creator":"SNOOPYPC","createdate":"2019-02-19T15:21:28","editor":"LENOVO","modifydate":"2019-03-10T17:50:55","codemove":"na"},"geometry":{"type":"Polygon","coordinates":[[[121.79754836200006,17.383132770000028],[121.79920385400011,17.38544418900005],[121.80020883300006,17.38726349400002],[121.80026784000006,17.389356041000045],[121.7990761420001,17.39388203000004],[121.79889233970849,17.394256662019323],[121.80022405507812,17.397004454178404],[121.8021858564291,17.40019200134388],[121.80302764800003,17.398461606000073],[121.8052668900001,17.394189893000032],[121.80600185600008,17.392457106000048],[121.807180806,17.390456713000045],[121.80823319700006,17.389382069000078],[121.81018254000003,17.38638248600006],[121.81132120100006,17.38438182200002],[121.81080654100005,17.383143407000034],[121.8084749520001,17.383090926000023],[121.80675416300006,17.381845300000066],[121.80400418800004,17.378122802000068],[121.80124929700003,17.375172335000055],[121.7993301460001,17.37353937000006],[121.79588468300007,17.37170428500007],[121.79505025211242,17.37144499977854],[121.79480635750544,17.375670452815847],[121.795003976041,17.380100822456264],[121.79537286138502,17.382596589433227],[121.79754836200006,17.383132770000028]]]}},{"type":"Feature","properties":{"fid":60,"objectid":1909,"lccode":"05","liqcode":"2010600050000000","mappers":"PJDelosReyes, ACPidlaoan","project":"READY","province":"Isabela","otherinfo":null,"datemapped":2012,"publishdate":null,"globalid":"{CB433018-447B-4349-A32C-A82989A96D3F}","st_area(shape)":0.11608726533381088,"st_perimeter(shape)":15.125533415932647,"liqcodepk":"201060005000000000104","creator":"SNOOPYPC","createdate":"2019-02-19T15:21:28","editor":"LENOVO","modifydate":"2019-03-10T17:50:55","codemove":"na"},"geometry":{"type":"MultiPolygon","coordinates":[[[[121.83026718400004,17.33227069800006],[121.83138376500007,17.33366700400006],[121.83177518600009,17.33532933300006],[121.8323515410001,17.339540633000066],[121.83150251100007,17.340307779000057],[121.82969036500002,17.340837707000045],[121.83284125800002,17.341466653000055],[121.83457697400002,17.34298817600006],[121.83667865200005,17.345473486000056],[121.83701033500004,17.34731653500006],[121.83606578500007,17.347365978000028],[121.83501605300012,17.345958427000024],[121.83267366600012,17.34534028300004],[121.82979505700008,17.343564755000045],[121.82897509200006,17.342021176000056],[121.82915676000006,17.340962484000045],[121.82799822400011,17.34144548500006],[121.8273097760001,17.342252135000024],[121.82741269900009,17.345032302000046],[121.82630870100002,17.34795981100007],[121.82624910200002,17.351009281000074],[121.82719596600009,17.35383298000005],[121.82894844000009,17.356391227000078],[121.82974266300006,17.357940078000066],[121.82961888400008,17.358441197000044],[121.82715545300005,17.36020254600004],[121.82534203700004,17.360886833000052],[121.81864871000006,17.364013037000063],[121.81768163400011,17.36435474100006],[121.81481676900012,17.365997804000074],[121.81424727500007,17.367036688000045],[121.81403857700002,17.368232221000028],[121.81467034600007,17.370011837000046],[121.81539171200006,17.370363536000067],[121.81796286300005,17.37064901900004],[121.82012781700007,17.371588332000044],[121.81999658400004,17.373247499000055],[121.8172452560001,17.375972195000028],[121.8147717810001,17.379238918000052],[121.8150856970001,17.380437552000046],[121.81279944200003,17.385828638000074],[121.8115624290001,17.39060826400004],[121.81135143200004,17.392151195000054],[121.81073513600008,17.394193549000022],[121.8094837010001,17.39495818200004],[121.8085929330001,17.395918050000027],[121.80742371800011,17.39641290300005],[121.80633182600003,17.397371468000067],[121.80571996500008,17.398718990000074],[121.80570993800006,17.400263115000026],[121.80624526200006,17.40451286900003],[121.80623946264414,17.405406029285047],[121.80838239396083,17.407704568806082],[121.8117854901609,17.41070291824879],[121.81547842940334,17.413366534868448],[121.81695745299994,17.414229567833516],[121.81906686000004,17.412022532000037],[121.8225404950001,17.405105782000078],[121.82291891700004,17.40338347300008],[121.82453128200007,17.400218305000063],[121.8261418400001,17.39732743200005],[121.82607994500007,17.39423072900007],[121.8269882930001,17.392629076000045],[121.82924904800008,17.390173173000054],[121.82909472300004,17.388761257000056],[121.8251475600001,17.386817627000028],[121.82331301400006,17.38645407000007],[121.82266265600003,17.386019054000027],[121.82210322900006,17.38413444100007],[121.8235353450001,17.383594238000057],[121.82786306900005,17.383462830000042],[121.82664524700012,17.382397510000036],[121.8274223190001,17.38216687600004],[121.82819457200003,17.382680931000042],[121.82917543500004,17.382490701000055],[121.82971553400012,17.381004515000026],[121.82931335700005,17.380061544000053],[121.82891766400007,17.378099475000056],[121.82941568100013,17.376809027000032],[121.83235692700009,17.37643427300003],[121.83309438700007,17.376007399000056],[121.83319556700008,17.372911728000076],[121.83353578900007,17.370757978000025],[121.83419745500008,17.369390039000052],[121.83550926800001,17.368496287000028],[121.83687047,17.36623091900003],[121.83565426400003,17.364930466000033],[121.83337163200008,17.36444684700007],[121.83186202600008,17.36435959900007],[121.8304358030001,17.36399850600003],[121.82831448500009,17.363829312000064],[121.827545299,17.36284497100007],[121.82942965300002,17.361758540000043],[121.83335140100009,17.361193603000064],[121.83470149900006,17.36069195400006],[121.83687293000001,17.359372012000055],[121.83761772200013,17.357769341000047],[121.84145679900008,17.350854257000037],[121.84248985700002,17.348822135000034],[121.84351797800002,17.347573831000034],[121.84434576400008,17.34573649600003],[121.84292203200005,17.344983541000037],[121.84035357200004,17.344576789000033],[121.83994985100003,17.34386893900006],[121.83983980100002,17.341908538000038],[121.84013700400011,17.34006814500003],[121.83956132300011,17.33426403900006],[121.84018156800005,17.332974257000046],[121.8430094790001,17.331030855000055],[121.84300736044942,17.330807437890197],[121.84214818076856,17.330761917968136],[121.8375353976602,17.330952786212485],[121.83296428595914,17.331576884891053],[121.830219124772,17.332220322413978],[121.83026718400004,17.33227069800006]]],[[[121.87375490500006,17.40838026700004],[121.8735943030001,17.407948262000044],[121.87204275200008,17.407978709000073],[121.86995350000007,17.409142705000022],[121.86900828800003,17.410156400000055],[121.86798478400011,17.41062090400004],[121.86684119800009,17.41069283900003],[121.86635420900006,17.41021967000006],[121.86612252400006,17.40806269300003],[121.86493941200001,17.407938408000064],[121.863531555,17.411144315000058],[121.8635267080001,17.41192813800006],[121.86412908300008,17.413538578000043],[121.86240477800006,17.41509644700005],[121.86084247800012,17.416851302000058],[121.85990706740299,17.41766883200295],[121.86380176282914,17.41592757886776],[121.86777778844726,17.413670358474647],[121.87150410571606,17.411049791754085],[121.87339600625579,17.40942296959279],[121.87375490500006,17.40838026700004]]]]}},{"type":"Feature","properties":{"fid":74,"objectid":1938,"lccode":"06","liqcode":"2010600060000000","mappers":"PJDelosReyes, ACPidlaoan","project":"READY","province":"Isabela","otherinfo":null,"datemapped":2012,"publishdate":null,"globalid":"{57DA03B8-A8DC-43FC-92E3-BCA08FF4E128}","st_area(shape)":0.09517793329217689,"st_perimeter(shape)":18.374122243984093,"liqcodepk":"201060006000000000137","creator":"SNOOPYPC","createdate":"2019-02-19T15:21:28","editor":"LENOVO","modifydate":"2019-03-10T17:50:55","codemove":"na"},"geometry":{"type":"MultiPolygon","coordinates":[[[[121.79588468300007,17.37170428500007],[121.7993301460001,17.37353937000006],[121.80124929700003,17.375172335000055],[121.80400418800004,17.378122802000068],[121.80675416300006,17.381845300000066],[121.8084749520001,17.383090926000023],[121.81080654100005,17.383143407000034],[121.81132120100006,17.38438182200002],[121.81018254000003,17.38638248600006],[121.80823319700006,17.389382069000078],[121.807180806,17.390456713000045],[121.80600185600008,17.392457106000048],[121.8052668900001,17.394189893000032],[121.80302764800003,17.398461606000073],[121.8021858564291,17.40019200134388],[121.80257371483707,17.40082218159428],[121.80530191518868,17.404400377829457],[121.80623946264414,17.405406029285047],[121.80624526200006,17.40451286900003],[121.80570993800006,17.400263115000026],[121.80571996500008,17.398718990000074],[121.80633182600003,17.397371468000067],[121.80742371800011,17.39641290300005],[121.8085929330001,17.395918050000027],[121.8094837010001,17.39495818200004],[121.81073513600008,17.394193549000022],[121.81135143200004,17.392151195000054],[121.8115624290001,17.39060826400004],[121.81279944200003,17.385828638000074],[121.8150856970001,17.380437552000046],[121.8147717810001,17.379238918000052],[121.8172452560001,17.375972195000028],[121.81999658400004,17.373247499000055],[121.82012781700007,17.371588332000044],[121.81796286300005,17.37064901900004],[121.81539171200006,17.370363536000067],[121.81467034600007,17.370011837000046],[121.81403857700002,17.368232221000028],[121.81424727500007,17.367036688000045],[121.81481676900012,17.365997804000074],[121.81768163400011,17.36435474100006],[121.81864871000006,17.364013037000063],[121.82534203700004,17.360886833000052],[121.82715545300005,17.36020254600004],[121.82961888400008,17.358441197000044],[121.82974266300006,17.357940078000066],[121.82894844000009,17.356391227000078],[121.82719596600009,17.35383298000005],[121.82624910200002,17.351009281000074],[121.82630870100002,17.34795981100007],[121.82741269900009,17.345032302000046],[121.8273097760001,17.342252135000024],[121.82799822400011,17.34144548500006],[121.82915676000006,17.340962484000045],[121.82969036500002,17.340837707000045],[121.83150251100007,17.340307779000057],[121.8323515410001,17.339540633000066],[121.83177518600009,17.33532933300006],[121.83138376500007,17.33366700400006],[121.83026718400004,17.33227069800006],[121.830219124772,17.332220322413978],[121.82847883622128,17.33262820597668],[121.8241222160167,17.33409662997406],[121.81993635534145,17.33596802317497],[121.81596154382909,17.338224373468872],[121.81223604360214,17.340843963412617],[121.80879572145916,17.34380157890708],[121.80567370391333,17.34706875148923],[121.80290005838745,17.350614031926185],[121.80050150362672,17.354403292498276],[121.7985011521185,17.358400055082274],[121.79691828700948,17.362565841897702],[121.79576817568683,17.366860545559604],[121.79506192184638,17.371242814893783],[121.79505025211242,17.37144499977854],[121.79588468300007,17.37170428500007]]],[[[121.7990761420001,17.39388203000004],[121.80026784000006,17.389356041000045],[121.80020883300006,17.38726349400002],[121.79920385400011,17.38544418900005],[121.79754836200006,17.383132770000028],[121.79537286138502,17.382596589433227],[121.79565290694276,17.38449125763038],[121.79674693257114,17.388799473706253],[121.7982755468073,17.392983974915087],[121.79889233970849,17.394256662019323],[121.7990761420001,17.39388203000004]]]]}}]}