{"type":"FeatureCollection","features":[{"type":"Feature","properties":{"fid":17,"objectid":1863,"lccode":"07","liqcode":"2010600070000000","mappers":"MITAbigania, DJVRivera, PJDelosReyes, ACPidlaoan","project":"GMMA-READY","province":"Bulacan","otherinfo":null,"datemapped":2013,"publishdate":null,"globalid":"{70EE0B92-1310-4863-994B-262A0419985C}","st_area(shape)":0.05460415768202689,"st_perimeter(shape)":2.604001747145809,"liqcodepk":"201060007000000000055","creator":"SNOOPYPC","createdate":"2019-02-19T15:21:28","editor":"LENOVO","modifydate":"2019-03-10T17:50:55","codemove":"na"},"geometry":{"type":"Polygon","coordinates":[]}},{"type":"Feature","properties":{"fid":41,"objectid":1890,"lccode":"05","liqcode":"2010600050000000","mappers":"MITAbigania, DJVRivera, PJDelosReyes, ACPidlaoan","project":"GMMA-READY","province":"Bulacan","otherinfo":null,"datemapped":2013,"publishdate":null,"globalid":"{962B0335-0147-4964-AF91-92BBA0EB94A8}","st_area(shape)":0.006518104617901708,"st_perimeter(shape)":1.6741822690840518,"liqcodepk":"201060005000000000084","creator":"SNOOPYPC","createdate":"2019-02-19T15:21:28","editor":"LENOVO","modifydate":"2019-03-10T17:50:55","codemove":"na"},"geometry":{"type":"MultiPolygon","coordinates":[[[[120.94831717200009,15.029999897000037],[120.94967897200002,15.03168613300005],[120.95242119400005,15.033097703000063],[120.95539815700009,15.035707125000044],[120.95672176200003,15.036245098000052],[120.9586131000001,15.039179436000039],[120.96026793500005,15.041107303000045],[120.96094595800002,15.042261192000073],[120.96209877500007,15.045236669000076],[120.96311576600009,15.046967541000068],[120.9638362290001,15.048839124000038],[120.96470792700006,15.050329553000038],[120.9662139400001,15.052399521000037],[120.96639033300006,15.054553241000068],[120.96707160000007,15.055372429000045],[120.96684709400006,15.058287666000066],[120.96830531100011,15.06021373500004],[120.96785510000008,15.060974903000039],[120.96696427700009,15.061493074000053],[120.96581558700007,15.063252310000053],[120.96603392700001,15.066171515000061],[120.9663478023958,15.067026081244665],[120.96741594242253,15.067810788809963],[120.97130787849922,15.07012511262198],[120.9754146122438,15.072057555436794],[120.97969657914057,15.073589494231195],[120.98411252267152,15.074706164378755],[120.98861989236595,15.075396802275836],[120.99317525445419,15.075654749367306],[120.9977347111375,15.07547751655571],[121.00225432439781,15.074866808362655],[121.00669054022497,15.073828506602348],[121.00747854692682,15.073562334706942],[121.00706254500004,15.07362989300003],[121.00588572200003,15.07314125800008],[121.00392771200008,15.071976199000064],[121.00324802900002,15.07096585600004],[121.002464615,15.07052846400006],[120.9996153290001,15.069929381000067],[120.99842789000003,15.070588528000032],[120.99678761300004,15.072295811000057],[120.99633567300009,15.073248376000032],[120.9952976090001,15.073717476000072],[120.99382380700001,15.073417412000024],[120.99206226400007,15.072301788000065],[120.9914824440001,15.071148835000033],[120.99129907300004,15.069712373000076],[120.99016272900009,15.064919604000067],[120.98958068900005,15.06400576800007],[120.98852174000002,15.06146151900003],[120.98796397500007,15.057965247000027],[120.98764553100013,15.05518842500004],[120.98781064500008,15.053324657000076],[120.98684570800005,15.051259609000056],[120.98510288500006,15.048183215000053],[120.98275826900012,15.04629707000004],[120.98027143300011,15.043835871000054],[120.97939107700007,15.043254087000038],[120.97795989400004,15.043671740000036],[120.976787,15.042800411000032],[120.97660824000003,15.040885804000027],[120.97739232700008,15.036014441000079],[120.97731605600005,15.033670260000061],[120.97688488100006,15.032422937000039],[120.97684918800009,15.030987789000047],[120.9771561450001,15.029747039000034],[120.97780619700005,15.028652806000027],[120.9796390480001,15.027377832000068],[120.98131343200009,15.027249246000055],[120.98108001100002,15.025908013000047],[120.9821384510001,15.023239090000061],[120.98240206100003,15.021376198000043],[120.98222182000006,15.01960495000003],[120.98095553700011,15.01820675600004],[120.97953982400008,15.016998486000034],[120.97764383000005,15.014542544000049],[120.97660964200008,15.014628929000027],[120.97489298200004,15.014039790000028],[120.97384736900007,15.013378832000056],[120.972557262,15.014515145000077],[120.97175733400003,15.015847167000063],[120.97017424500007,15.01674171100007],[120.96835456300005,15.016629879000051],[120.96683515600012,15.015994560000028],[120.96589531700012,15.016512221000024],[120.96480193900005,15.017650242000059],[120.96208935200002,15.018295566000067],[120.96061372500003,15.018234454000039],[120.95914756400009,15.017169172000017],[120.95812609400002,15.015916530000029],[120.95660946100008,15.014994155000068],[120.95578115700006,15.014125839000032],[120.95486179000011,15.01249150500007],[120.95230829200011,15.011942469000076],[120.95127073177262,15.011892722948534],[120.95081613068879,15.012804959626727],[120.94923958208041,15.016965406226173],[120.94809013679526,15.021255995803301],[120.94737888696667,15.025635417096597],[120.9471784122787,15.028968985268008],[120.94831717200009,15.029999897000037]]],[[[121.0115560370001,15.072091044000047],[121.01071563538143,15.072468877928122],[121.01100060913436,15.072372613721036],[121.01163728790814,15.072086825448302],[121.0115560370001,15.072091044000047]]]]}},{"type":"Feature","properties":{"fid":92,"objectid":1921,"lccode":"06","liqcode":"2010600060000000","mappers":"MITAbigania, DJVRivera, PJDelosReyes, ACPidlaoan","project":"GMMA-READY","province":"Bulacan","otherinfo":null,"datemapped":2013,"publishdate":null,"globalid":"{AD30FD4E-4565-4937-AC43-8F5ADC174AC4}","st_area(shape)":0.01360742625474969,"st_perimeter(shape)":2.0316826783369253,"liqcodepk":"201060006000000000119","creator":"SNOOPYPC","createdate":"2019-02-19T15:21:28","editor":"LENOVO","modifydate":"2019-03-10T17:50:55","codemove":"na"},"geometry":{"type":"Polygon","coordinates":[[[120.96603392700001,15.066171515000061],[120.96581558700007,15.063252310000053],[120.96696427700009,15.061493074000053],[120.96785510000008,15.060974903000039],[120.96830531100011,15.06021373500004],[120.96684709400006,15.058287666000066],[120.96707160000007,15.055372429000045],[120.96639033300006,15.054553241000068],[120.9662139400001,15.052399521000037],[120.96470792700006,15.050329553000038],[120.9638362290001,15.048839124000038],[120.96311576600009,15.046967541000068],[120.96209877500007,15.045236669000076],[120.96094595800002,15.042261192000073],[120.96026793500005,15.041107303000045],[120.9586131000001,15.039179436000039],[120.95672176200003,15.036245098000052],[120.95539815700009,15.035707125000044],[120.95242119400005,15.033097703000063],[120.94967897200002,15.03168613300005],[120.94831717200009,15.029999897000037],[120.9471784122787,15.028968985268008],[120.94711270748886,15.030061501255638],[120.94729418884337,15.034491627663412],[120.94792161111387,15.038883134200354],[120.94898895947905,15.04319372800698],[120.95048598107577,15.047381892793222],[120.95239828272594,15.051407288772008],[120.95470746862499,15.055231141361546],[120.95739131670236,15.058816614905073],[120.96042399198627,15.062129167797615],[120.9637762949438,15.065136885584968],[120.9663478023958,15.067026081244665],[120.96603392700001,15.066171515000061]]]}},{"type":"Feature","properties":{"fid":218,"objectid":8402,"lccode":"07","liqcode":null,"mappers":"PJDelosReyes, ACPidlaoan","project":"READY","province":"Pampanga","otherinfo":"as of October 2015, reupdate 2021","datemapped":2008,"publishdate":null,"globalid":"{523547B0-D8C4-4084-9EE8-AA20F7B2A472}","st_area(shape)":0.07539067039960894,"st_perimeter(shape)":2.422972172763333,"liqcodepk":null,"creator":null,"createdate":null,"editor":null,"modifydate":"1905-07-07T08:00:00","codemove":null},"geometry":{"type":"Polygon","coordinates":[]}}]}