{"type":"FeatureCollection","features":[{"type":"Feature","properties":{"fid":34,"objectid":1880,"lccode":"07","liqcode":"2010600070000000","mappers":"PJDelosReyes, ACPidlaoan","project":"READY","province":"Northern Samar","otherinfo":null,"datemapped":2009,"publishdate":null,"globalid":"{0D9D6C7A-090D-4A5B-A004-F6233C7DF3DA}","st_area(shape)":0.03290017476223487,"st_perimeter(shape)":11.85341888630265,"liqcodepk":"201060007000000000074","creator":"SNOOPYPC","createdate":"2019-02-19T15:21:28","editor":"LENOVO","modifydate":"2019-03-10T17:50:55","codemove":"na"},"geometry":{"type":"MultiPolygon","coordinates":[[[[124.92252968100003,12.559718516000032],[124.92213865500001,12.558831162000045],[124.9204612740001,12.557588867000051],[124.91951130000007,12.555383757000072],[124.91842292400007,12.55487902900006],[124.9178758710001,12.555166175000068],[124.91695549800012,12.55695307700006],[124.91624132200003,12.557848343000048],[124.9147772120001,12.558519681000062],[124.91048539300004,12.558347987000046],[124.90781917200002,12.557989326000039],[124.90709908699999,12.559019488000045],[124.90833371400004,12.562598337000054],[124.90809394900009,12.563598108000065],[124.90751542600005,12.564276593000042],[124.90671703300008,12.563999040000054],[124.90703311700008,12.561245371000041],[124.90642974000004,12.559482819000037],[124.9064156280001,12.557567714000069],[124.90741307600001,12.556913227000049],[124.90958544000013,12.557329361000031],[124.91453453800011,12.557267094000052],[124.91603813100005,12.556366193000029],[124.91754634900009,12.55423790800006],[124.91954148300012,12.553899942000044],[124.92024575100004,12.554447878000074],[124.92042350700002,12.556199950000062],[124.92289800700007,12.558475048000048],[124.92345722987136,12.559230468918697],[124.92580796854175,12.557491531179402],[124.92913069818492,12.554489346445765],[124.9321377993324,12.55118165645808],[124.93463064704783,12.547828552634464],[124.93350217600006,12.547187337000025],[124.93077019100008,12.545484679000026],[124.93015642700004,12.544750914000074],[124.93070268600002,12.54123202100004],[124.93148589000009,12.540699206000056],[124.93384581900011,12.540506460000074],[124.93452114500006,12.539904021000043],[124.93662408000012,12.538834411000037],[124.93940729800009,12.537830086000042],[124.93969275696602,12.537789299760496],[124.94048212213049,12.535570647072225],[124.94154671157148,12.531260977388778],[124.94217618835,12.52686954476033],[124.94236451296526,12.522438640901333],[124.94210989458448,12.518010935430164],[124.94141480741138,12.513629065033761],[124.94028596601031,12.509335223031217],[124.93993652721853,12.50839741427276],[124.93832808600008,12.508312285000043],[124.93675934100008,12.509026608000056],[124.9356861970001,12.50903432900003],[124.93425133500011,12.50851737500005],[124.93257035300007,12.508564603000028],[124.93175117600003,12.509062606000043],[124.93053523400012,12.50910648300004],[124.92985866100004,12.509533154000053],[124.92954998500011,12.511327916000027],[124.92776008400007,12.511165079000024],[124.92595968100011,12.50959615000005],[124.92569652800012,12.50787569500005],[124.92582291100008,12.505625267000026],[124.9250958330001,12.499233141000046],[124.92659693700013,12.49794998900006],[124.92823680800005,12.497174768000036],[124.93175247600006,12.496633057000052],[124.93307992300247,12.495632271131104],[124.93171098236424,12.493846007623716],[124.92991036233333,12.491922288765009],[124.92904688700001,12.492385551000039],[124.92849877200001,12.492434385000022],[124.92721327700009,12.491680097000026],[124.92604840600005,12.491778248000061],[124.92491906700002,12.493582849000063],[124.9225984320001,12.495014253000024],[124.92233528600002,12.496520697000053],[124.9199200610001,12.497526057000073],[124.91924234500006,12.498608845000033],[124.91935355500006,12.501558902000054],[124.91914772300002,12.502755439000055],[124.91814793600008,12.503008626000053],[124.91801751700007,12.504731901000069],[124.9192758170001,12.505566575000046],[124.91981862000011,12.506406255000059],[124.92007757600004,12.507564415000045],[124.9193730500001,12.50904572300004],[124.91770079300012,12.510287866000056],[124.915342398,12.51065618200005],[124.91337355900009,12.510494431000042],[124.91212378500006,12.510819682000033],[124.91113482000002,12.512549060000026],[124.91103654000005,12.513779983000061],[124.91004419700006,12.515052409000079],[124.90918896200002,12.51551545600006],[124.9079697950001,12.515137435000042],[124.90552535500001,12.513537863000067],[124.90469991300004,12.513192279000066],[124.89979607900011,12.512840281000024],[124.89825346600004,12.512253584000064],[124.89764090300002,12.511660319000043],[124.89570759500009,12.511463125000034],[124.89446067800009,12.51217486100006],[124.89197084500007,12.51416081700006],[124.89029405300006,12.514805345000068],[124.8883009440001,12.516225346000052],[124.88645981700006,12.518874509000055],[124.88556896900003,12.519372890000056],[124.88256339800012,12.519323644000053],[124.88061281400007,12.521692415000077],[124.87858251700004,12.522936855000063],[124.87758335600007,12.523295360000075],[124.87450408600013,12.522965325000028],[124.87332096800003,12.522622046000036],[124.87156712700003,12.522528804000045],[124.86896112700003,12.523320292000049],[124.86743233000004,12.524666627000045],[124.86521699300009,12.52506868900002],[124.86398922800004,12.523495424000034],[124.86344402100008,12.522304010000026],[124.86247324700003,12.521642926000023],[124.86106268700009,12.51950846400007],[124.86151315100007,12.517466575000071],[124.86201043000005,12.516971084000032],[124.86443331500004,12.51558334200007],[124.86410348299998,12.514495984000062],[124.86191722,12.513948681000043],[124.86076534900006,12.512972462000048],[124.86078906500006,12.511285054000039],[124.86372228700007,12.511229600000036],[124.86581477800007,12.508684192000034],[124.86819906000007,12.506910107000065],[124.86830025200004,12.506065830000066],[124.86693153899999,12.504774767000072],[124.86631534600008,12.50365415300007],[124.8633662640001,12.501495198000043],[124.86107907700013,12.50182739200005],[124.85771185800002,12.501217984000046],[124.85650591986268,12.50032347680307],[124.85565131199259,12.50174699220828],[124.8545466623161,12.50408409552292],[124.8545929170001,12.505316954000023],[124.8552441180001,12.506331901000067],[124.85493373600004,12.507950985000036],[124.85398160000013,12.509890867000024],[124.85474617100012,12.511748613000066],[124.85440198800006,12.513649062000068],[124.85355616600008,12.51544760100006],[124.85296257200001,12.51749047100003],[124.85193334400005,12.518657607000023],[124.85072555117169,12.517519059637523],[124.85056210909423,12.518656435709943],[124.8503721994786,12.52308750117287],[124.85062528233904,12.527515516158768],[124.85122100493763,12.531279108395768],[124.85215290000009,12.531507715000034],[124.85568747100001,12.532668094000028],[124.85661812100011,12.532855613000034],[124.86075767900002,12.534592720000035],[124.86286547400005,12.534854791000042],[124.86396641700003,12.533893684000077],[124.86569952800005,12.533488710000029],[124.86659392600005,12.533607903000071],[124.86872998600008,12.534390917000053],[124.86970477400006,12.53410551400003],[124.8713546670001,12.53712787300003],[124.87262110100004,12.537954900000045],[124.87317886400001,12.538828142000055],[124.8751039130001,12.540672159000051],[124.87600303200009,12.542265351000024],[124.87848427700011,12.544755557000027],[124.87967552200007,12.54534572800003],[124.88036086900001,12.546424438000031],[124.87999419900008,12.54800583800005],[124.8815817310001,12.547637380000024],[124.88172517700002,12.548585735000074],[124.88038552600004,12.549096926000058],[124.8810023100001,12.550857178000056],[124.88042302100007,12.551366877000017],[124.87809884800002,12.54592432000004],[124.87631205700006,12.545049369000026],[124.87193132400013,12.54134440900003],[124.8713386590001,12.540729388000043],[124.86869502500008,12.53682649700005],[124.86675778600012,12.535467512000025],[124.86626037500002,12.534674301000049],[124.86549896900011,12.534664089000046],[124.864909828,12.536117592000036],[124.86546159400007,12.537144625000051],[124.86838592300012,12.539730543000076],[124.87277928900005,12.543396432000064],[124.87493281900004,12.545490711000069],[124.87879059300009,12.55073045700004],[124.88005813200003,12.552687868000021],[124.8812186670001,12.55536270600004],[124.882589089,12.559400393000034],[124.88284127300007,12.564880753000065],[124.88256604913846,12.565842599308523],[124.88333132551179,12.566105526707059],[124.88771852646737,12.567152277026427],[124.892189063363,12.567771495468216],[124.89669985971875,12.567957218695115],[124.8967141268936,12.567956428926754],[124.89709351600004,12.567530289000047],[124.89884281500008,12.566593330000044],[124.90298441000004,12.565237384000055],[124.90152718500009,12.564779606000055],[124.89947367700006,12.563144082000065],[124.89842599400002,12.561561639000047],[124.89901148900003,12.56114798100003],[124.90086356400002,12.562905385000024],[124.90202012600002,12.563451223000072],[124.90548687200008,12.563350221000066],[124.9062766510001,12.56371004700003],[124.90514039000003,12.565011850000074],[124.90544269600002,12.565674706000035],[124.90659124700004,12.565433634000044],[124.90724768500003,12.566255802000057],[124.90969173800009,12.565971949000073],[124.90976569495848,12.565986011142476],[124.91003973884246,12.565916501497648],[124.91427933639102,12.564392165349737],[124.91834635269544,12.562466909805387],[124.9222016086287,12.560159286768249],[124.922518352345,12.559924983751769],[124.92252968100003,12.559718516000032]],[[124.92414856000003,12.53048302400003],[124.92411232100007,12.529433073000062],[124.92478926600006,12.528476149000028],[124.92462766100005,12.527819186000045],[124.92304435400003,12.527634521000039],[124.92238329600002,12.526897181000036],[124.92589788600004,12.526143865000051],[124.92637947199998,12.525748415000065],[124.92712375200006,12.52425885200006],[124.92776056700006,12.523652192000043],[124.92884093200009,12.52328036600005],[124.9292505520001,12.524705626000069],[124.93070376700007,12.524639166000043],[124.93094990800012,12.525155543000041],[124.93054966700005,12.526908583000022],[124.93009882500007,12.52761195900007],[124.92866714100013,12.528658349000066],[124.92756809000002,12.530346461000022],[124.92610609000006,12.531155040000044],[124.92534962600007,12.531006482000064],[124.92414856000003,12.53048302400003]],[[124.86020757500012,12.53044879600003],[124.85975966500007,12.529993284000057],[124.86015309400011,12.529051286000021],[124.86289658400005,12.530299133000026],[124.86205556200002,12.530829182000048],[124.86020757500012,12.53044879600003]],[[124.90278840200006,12.525345542000025],[124.902463581,12.52652728600003],[124.90186691500003,12.52701198100004],[124.90117230300007,12.526274365000063],[124.90121131300009,12.525531469000043],[124.90278840200006,12.525345542000025]],[[124.92729868600009,12.545289325000056],[124.9279727490001,12.54523713300006],[124.92818569300006,12.546335962000057],[124.92701871700001,12.54650998100004],[124.92729868600009,12.545289325000056]]],[[[124.85175685800003,12.513983659000075],[124.85133368471986,12.513696947963753],[124.85119315944253,12.514264995598701],[124.85103720514647,12.515350278797257],[124.85175685800003,12.513983659000075]]]]}},{"type":"Feature","properties":{"fid":75,"objectid":1939,"lccode":"06","liqcode":"2010600060000000","mappers":"PJDelosReyes, ACPidlaoan","project":"READY","province":"Northern Samar","otherinfo":null,"datemapped":2009,"publishdate":null,"globalid":"{54FD4513-FD6A-47C1-904A-E307CDDE876E}","st_area(shape)":0.00865304678469956,"st_perimeter(shape)":4.666609657552388,"liqcodepk":"201060006000000000139","creator":"SNOOPYPC","createdate":"2019-02-19T15:21:28","editor":"LENOVO","modifydate":"2019-03-10T17:50:55","codemove":"na"},"geometry":{"type":"MultiPolygon","coordinates":[[[[124.92610609000006,12.531155040000044],[124.92756809000002,12.530346461000022],[124.92866714100013,12.528658349000066],[124.93009882500007,12.52761195900007],[124.93054966700005,12.526908583000022],[124.93094990800012,12.525155543000041],[124.93070376700007,12.524639166000043],[124.9292505520001,12.524705626000069],[124.92884093200009,12.52328036600005],[124.92776056700006,12.523652192000043],[124.92712375200006,12.52425885200006],[124.92637947199998,12.525748415000065],[124.92589788600004,12.526143865000051],[124.92238329600002,12.526897181000036],[124.92304435400003,12.527634521000039],[124.92462766100005,12.527819186000045],[124.92478926600006,12.528476149000028],[124.92411232100007,12.529433073000062],[124.92414856000003,12.53048302400003],[124.92534962600007,12.531006482000064],[124.92610609000006,12.531155040000044]]],[[[124.86289658400005,12.530299133000026],[124.86015309400011,12.529051286000021],[124.85975966500007,12.529993284000057],[124.86020757500012,12.53044879600003],[124.86205556200002,12.530829182000048],[124.86289658400005,12.530299133000026]]],[[[124.90117230300007,12.526274365000063],[124.90186691500003,12.52701198100004],[124.902463581,12.52652728600003],[124.90278840200006,12.525345542000025],[124.90121131300009,12.525531469000043],[124.90117230300007,12.526274365000063]]]]}}]}