{"type":"FeatureCollection","features":[{"type":"Feature","properties":{"fid":16,"objectid":1861,"lccode":"07","liqcode":"2010600070000000","mappers":"MITAbigania, DJLBuhay","project":"Cebu Multi-Hazard Mapping","province":"Cebu","otherinfo":null,"datemapped":2016,"publishdate":null,"globalid":"{C53CB127-C117-49E0-BEC2-5269D4100696}","st_area(shape)":0.02168908556211633,"st_perimeter(shape)":9.044842936189752,"liqcodepk":"201060007000000000053","creator":"SNOOPYPC","createdate":"2019-02-19T15:21:28","editor":"LENOVO","modifydate":"2019-03-10T17:50:55","codemove":"na"},"geometry":{"type":"Polygon","coordinates":[]}},{"type":"Feature","properties":{"fid":25,"objectid":1871,"lccode":"07","liqcode":"2010600070000000","mappers":"PJDelosReyes, ACPidlaoan","project":"READY","province":"Bohol","otherinfo":null,"datemapped":2008,"publishdate":null,"globalid":"{24D4EC03-5006-45F6-AD98-9C84307BF998}","st_area(shape)":0.043795715989879205,"st_perimeter(shape)":13.054531899785706,"liqcodepk":"201060007000000000063","creator":"SNOOPYPC","createdate":"2019-02-19T15:21:28","editor":"LENOVO","modifydate":"2019-03-10T17:50:55","codemove":"na"},"geometry":{"type":"MultiPolygon","coordinates":[[[[123.87038853600006,9.89145114400003],[123.86915610900007,9.89225144300002],[123.8699617210001,9.892904066000025],[123.87038853600006,9.89145114400003]]],[[[123.86909177100007,9.895069891000045],[123.86836168000004,9.895826123000065],[123.869597042,9.89616452300004],[123.86982406700008,9.895153351000033],[123.86909177100007,9.895069891000045]]],[[[123.86044707600001,9.907101899000054],[123.861963714,9.906988605000036],[123.86193404100004,9.906195637000053],[123.860720022,9.906007339000041],[123.86008387262927,9.90554506407858],[123.86022456065326,9.906469027606839],[123.86037865137835,9.90707236530325],[123.86044707600001,9.907101899000054]]],[[[123.87288911400005,9.922033591000059],[123.8709598700001,9.92081102600002],[123.87009477900004,9.92067683300007],[123.86798844500005,9.919376679000036],[123.86660800700007,9.917587563000039],[123.86580225000012,9.91758964300004],[123.86561083400011,9.919538792000024],[123.865887551,9.920142150000059],[123.8658464339354,9.920728358311644],[123.8670768075044,9.922751659216933],[123.86975231949584,9.926308962201059],[123.87128167458795,9.92797316880803],[123.87030453600006,9.925684267000063],[123.87226793500008,9.924938654000071],[123.87314678300005,9.922851368000067],[123.87288911400005,9.922033591000059]]],[[[123.89191802000005,9.925794902000064],[123.89238181600001,9.92463643600007],[123.89191363500004,9.924174753000043],[123.892011194,9.92323218000007],[123.89154091400007,9.921993559000041],[123.8900695430001,9.920476492000034],[123.88786760100005,9.920118586000058],[123.88521959700007,9.921282910000059],[123.88369908400013,9.921202924000054],[123.88331519600001,9.923898965000035],[123.88247565300003,9.924405246000049],[123.88265321200004,9.924986515000057],[123.88140325400002,9.925590799000078],[123.88050345300007,9.925476798000034],[123.879625411,9.92621590400006],[123.88062768000009,9.928055228000058],[123.88187918300004,9.928051937000022],[123.88255521200006,9.928778910000064],[123.883789663,9.929007031000022],[123.88465812000004,9.929517217000067],[123.88636008900005,9.929959102000055],[123.88766062300009,9.929922657000079],[123.88952546500003,9.928925760000025],[123.89093912000008,9.92758294600003],[123.89212201500006,9.927216056000075],[123.892536973,9.926520649000052],[123.89191802000005,9.925794902000064]]],[[[123.94327241600003,9.921882853000053],[123.94321556200008,9.920518476000039],[123.94234257500011,9.920652122000035],[123.9415253840001,9.92180901200004],[123.9409422670001,9.92149582500002],[123.94048710700008,9.919660238000061],[123.93982614100001,9.919898254000032],[123.93818516700003,9.919876628000054],[123.93702260000009,9.920562148000046],[123.93651622800009,9.919330215000056],[123.93495319100009,9.91878349700005],[123.93373685200004,9.919180552000059],[123.93299311600005,9.918237877000022],[123.93195920600012,9.917611011000078],[123.93110787800003,9.916038890000038],[123.92996741500006,9.915176059000032],[123.93059642900005,9.912996310000038],[123.93011952700012,9.912813999000036],[123.92882754800007,9.91454947600005],[123.92900577400007,9.912029841000045],[123.92982151100011,9.910374345000033],[123.93005482000001,9.908641890000066],[123.929226974,9.905993757000031],[123.92797903400003,9.904580223000037],[123.92660102500007,9.903927976000036],[123.92484982400003,9.902305872000055],[123.9239228990001,9.902072259000022],[123.92225678000011,9.902496725000047],[123.92061325500003,9.901504043000044],[123.91984173700007,9.900062857000023],[123.9189665250001,9.899382978000062],[123.918884552,9.898464764000037],[123.9180905710001,9.898028510000074],[123.91755639100008,9.899363324000035],[123.91766749300005,9.90064312000004],[123.91678077700011,9.900938848000065],[123.91368769500002,9.900894019000077],[123.91234547600004,9.901831025000035],[123.91059784400011,9.90204914700007],[123.9086869790001,9.901574214000048],[123.90701587000001,9.900272044000076],[123.90566734400011,9.898915560000034],[123.90509983000003,9.897930383000073],[123.90391862800004,9.898706887000058],[123.90225068000007,9.898578096000051],[123.90125211300006,9.89730067000005],[123.90092539600005,9.895861404000073],[123.90181073400005,9.895059032000061],[123.90178192100007,9.894339039000043],[123.9003560860001,9.894209497000077],[123.9003793060001,9.892849401000031],[123.89914251900005,9.892986074000019],[123.89731270200004,9.892644217000054],[123.89545228400006,9.890915723000033],[123.89622993500008,9.89006030600007],[123.8970894360001,9.889631252000074],[123.8959008690001,9.88771434800003],[123.89342768300004,9.888147598000046],[123.892860948,9.88740235700004],[123.89183876100005,9.887351814000057],[123.8919704970001,9.886338082000066],[123.89040829500004,9.885462110000049],[123.88763661000007,9.884909396000067],[123.8873764750001,9.888190287000043],[123.88665300800007,9.889178996000055],[123.88609192600006,9.890567186000053],[123.88549863100003,9.889982039000076],[123.88603365200004,9.888887228000044],[123.88653866900006,9.886672420000025],[123.88548485400008,9.884835137000039],[123.88368457700007,9.885453162000033],[123.88279515900001,9.884735512000075],[123.88298041200005,9.88358827700006],[123.88244041000007,9.88281627300006],[123.88115087000007,9.883326344000068],[123.88061719200003,9.884901255000043],[123.87991843000009,9.885089702000071],[123.8801831080001,9.883488913000063],[123.88001924100001,9.882529302000021],[123.87878268600002,9.882772497000074],[123.87797864800008,9.883814655000037],[123.87669022700005,9.88475147200006],[123.87577256000009,9.883527092000065],[123.8762807480001,9.882485709000038],[123.87738192000008,9.881896129000038],[123.87635854800011,9.881392102000063],[123.87461041900008,9.881396648000075],[123.8716269350001,9.882044445000073],[123.8709561480001,9.882632803000032],[123.86864217100003,9.882238780000025],[123.86764524300008,9.881547946000069],[123.8669426370001,9.880269729000078],[123.86734386800005,9.879441926000025],[123.86535150700003,9.878593700000067],[123.86483757500004,9.877448266000044],[123.86535995306603,9.875146024098342],[123.86465436786322,9.876320249459768],[123.86275152376196,9.880336597197395],[123.86125480457284,9.884518548046051],[123.86017863909778,9.888825831754815],[123.86001340855637,9.889950320075084],[123.86159921000001,9.890277113000023],[123.86389118000011,9.891899908000026],[123.86553223200009,9.891333478000035],[123.8666466730001,9.89131116800007],[123.86778237100009,9.891909329000043],[123.86854390100007,9.891500127000029],[123.87045958800002,9.891301321000071],[123.87089033300005,9.891513498000052],[123.87158054300006,9.893722030000049],[123.87211062300003,9.894554386000037],[123.8736949040001,9.894705336000072],[123.87350223400006,9.895791647000063],[123.87485710800001,9.897920864000069],[123.87458617200002,9.89898794000004],[123.87352896300001,9.898505967000062],[123.8715570810001,9.899655035000023],[123.87072002900004,9.901092023000047],[123.86982027300007,9.90099742700005],[123.86869040300009,9.902628931000038],[123.86923894800009,9.90301530800002],[123.86947692000001,9.904274916000075],[123.86807176800005,9.905306134000053],[123.86832914000001,9.906507645000033],[123.86764880200009,9.908060498000054],[123.86786604600002,9.908874227000068],[123.86737844800008,9.909360209000058],[123.8673231470001,9.910640016000059],[123.86763816700011,9.911453583000023],[123.8684025460001,9.912110741000047],[123.86924701500003,9.913504584000062],[123.86928990600008,9.914939291000051],[123.87076186900003,9.916951939000057],[123.87226693600007,9.916715297000053],[123.87353864500005,9.91694472000006],[123.8750046230001,9.916688819000061],[123.87594160400012,9.916085287000042],[123.87652887900003,9.916316394000035],[123.87819063700012,9.916176334000054],[123.8811670460001,9.917700268000031],[123.88279402800003,9.91915015200004],[123.88381418100005,9.920368895000022],[123.88473451200001,9.920851188000027],[123.8859075790001,9.920751165000068],[123.88760647900006,9.919874159000075],[123.88773950300003,9.918439088000069],[123.88736182000002,9.916132853000018],[123.88687054200012,9.915242199000032],[123.8877688020001,9.914793892000034],[123.88768870400007,9.914096183000025],[123.88917342400009,9.913549395000075],[123.89130065300004,9.911992577000033],[123.89057246500009,9.910268923000046],[123.89151130500011,9.91034400800004],[123.89255057000004,9.911427050000041],[123.89429389500003,9.912508123000062],[123.89531574900002,9.914347348000035],[123.89834876000009,9.915095388000056],[123.8993666570001,9.915499803000046],[123.90087154900003,9.915185550000048],[123.90202900800013,9.916539669000027],[123.90205036600003,9.917198832000052],[123.90283477900005,9.918030444000067],[123.90333518700004,9.922236403000056],[123.90418373100012,9.925026056000037],[123.90563425600008,9.92626300300003],[123.90657653400002,9.927598242000043],[123.90849743400008,9.929202253000026],[123.91010613400012,9.931078617000026],[123.91155631000004,9.932199169000059],[123.91235778300006,9.932080713000062],[123.912687978,9.931265443000026],[123.91366478400005,9.930933217000073],[123.91405902400003,9.932056636000025],[123.9159561680001,9.932129030000054],[123.91756078300011,9.932492990000073],[123.9217655440001,9.932617159000076],[123.92323191500009,9.932496847000039],[123.92391912600009,9.933503170000051],[123.92507374700007,9.933790757000054],[123.9272631250001,9.933493928000074],[123.93066798100006,9.934259973000053],[123.93115162935081,9.934478827720161],[123.93395666293524,9.9324041309757],[123.93726441202001,9.929414905062215],[123.94026065370244,9.926118603324964],[123.9429165360221,9.922546979354804],[123.94329714014522,9.921913318091066],[123.94327241600003,9.921882853000053]]]]}},{"type":"Feature","properties":{"fid":40,"objectid":1888,"lccode":"05","liqcode":"2010600050000000","mappers":"MITAbigania, DJLBuhay","project":"Cebu Multi-Hazard Mapping","province":"Cebu","otherinfo":null,"datemapped":2016,"publishdate":null,"globalid":"{6B113CA7-0A16-415A-8510-4591ABBD34CB}","st_area(shape)":0.011277825227989341,"st_perimeter(shape)":7.92725888477651,"liqcodepk":"201060005000000000082","creator":"SNOOPYPC","createdate":"2019-02-19T15:21:28","editor":"LENOVO","modifydate":"2019-03-10T17:50:55","codemove":"na"},"geometry":{"type":"Polygon","coordinates":[]}},{"type":"Feature","properties":{"fid":52,"objectid":1901,"lccode":"05","liqcode":"2010600050000000","mappers":"PJDelosReyes, ACPidlaoan","project":"READY","province":"Bohol","otherinfo":null,"datemapped":2008,"publishdate":null,"globalid":"{6E90D3A1-B401-4667-B32C-C40E7388D630}","st_area(shape)":0.010533775520257218,"st_perimeter(shape)":3.327242015595593,"liqcodepk":"201060005000000000095","creator":"SNOOPYPC","createdate":"2019-02-19T15:21:28","editor":"LENOVO","modifydate":"2019-03-10T17:50:55","codemove":"na"},"geometry":{"type":"Polygon","coordinates":[]}},{"type":"Feature","properties":{"fid":66,"objectid":1930,"lccode":"06","liqcode":"2010600060000000","mappers":"PJDelosReyes, ACPidlaoan","project":"READY","province":"Bohol","otherinfo":null,"datemapped":2008,"publishdate":null,"globalid":"{D63C31C2-E045-4C3D-A292-79031F3364A0}","st_area(shape)":0.006668240995906857,"st_perimeter(shape)":3.000289637999567,"liqcodepk":"201060006000000000128","creator":"SNOOPYPC","createdate":"2019-02-19T15:21:28","editor":"LENOVO","modifydate":"2019-03-10T17:50:55","codemove":"na"},"geometry":{"type":"MultiPolygon","coordinates":[[[[123.94405300900007,9.91945221100002],[123.94402544200013,9.91849271900003],[123.94444533,9.917802578000021],[123.94455324900002,9.916485838000028],[123.94507065000006,9.915180331000045],[123.94454863300007,9.91487421100004],[123.94376844200006,9.915417719000061],[123.94155977100003,9.915387125000052],[123.94016792000002,9.914652792000025],[123.93881495500011,9.914472044000032],[123.93691047600011,9.912361300000041],[123.93763732900003,9.910513904000029],[123.93928873900006,9.910915249000027],[123.94047928200007,9.910690490000038],[123.941194504,9.909150622000025],[123.94103083400012,9.90830217700005],[123.93939268700001,9.908196097000031],[123.93869632400003,9.907669028000042],[123.93794207600003,9.908606115000055],[123.93621566900003,9.90798354500003],[123.93288803400003,9.907168494000075],[123.93207757200003,9.905755932000032],[123.93054927700007,9.905022022000026],[123.9303350990001,9.903853821000041],[123.92878411500011,9.903845817000047],[123.92798722200007,9.902863761000049],[123.92701781900007,9.902288233000036],[123.92638226300006,9.901281135000037],[123.92575067000007,9.901713433000054],[123.92216101600002,9.900333171000057],[123.91988887300012,9.899785786000052],[123.918884552,9.898464764000037],[123.9189665250001,9.899382978000062],[123.91984173700007,9.900062857000023],[123.92061325500003,9.901504043000044],[123.92225678000011,9.902496725000047],[123.9239228990001,9.902072259000022],[123.92484982400003,9.902305872000055],[123.92660102500007,9.903927976000036],[123.92797903400003,9.904580223000037],[123.929226974,9.905993757000031],[123.93005482000001,9.908641890000066],[123.92982151100011,9.910374345000033],[123.92900577400007,9.912029841000045],[123.92882754800007,9.91454947600005],[123.93011952700012,9.912813999000036],[123.93059642900005,9.912996310000038],[123.92996741500006,9.915176059000032],[123.93110787800003,9.916038890000038],[123.93195920600012,9.917611011000078],[123.93299311600005,9.918237877000022],[123.93373685200004,9.919180552000059],[123.93495319100009,9.91878349700005],[123.93651622800009,9.919330215000056],[123.93702260000009,9.920562148000046],[123.93818516700003,9.919876628000054],[123.93982614100001,9.919898254000032],[123.94048710700008,9.919660238000061],[123.9409422670001,9.92149582500002],[123.9415253840001,9.92180901200004],[123.94234257500011,9.920652122000035],[123.94321556200008,9.920518476000039],[123.94327241600003,9.921882853000053],[123.94329714014522,9.921913318091066],[123.94428090488435,9.9202754528836],[123.94405300900007,9.91945221100002]]],[[[123.86483757500004,9.877448266000044],[123.86535150700003,9.878593700000067],[123.86734386800005,9.879441926000025],[123.8669426370001,9.880269729000078],[123.86764524300008,9.881547946000069],[123.86864217100003,9.882238780000025],[123.8709561480001,9.882632803000032],[123.8716269350001,9.882044445000073],[123.87461041900008,9.881396648000075],[123.87635854800011,9.881392102000063],[123.87738192000008,9.881896129000038],[123.87707771400005,9.87894347100007],[123.87681298000005,9.878142800000033],[123.87531805700009,9.878166762000031],[123.87416214700009,9.876507006000054],[123.87302785200005,9.875368169000069],[123.87137024400009,9.874951753000062],[123.87120225800003,9.872528211000029],[123.87004817800003,9.87154963100005],[123.86893544339412,9.869832314458003],[123.86848812943593,9.870433667843104],[123.86924155100006,9.871320066000063],[123.86800310074786,9.871085720665887],[123.8669449990908,9.872508178847653],[123.86535995306603,9.875146024098342],[123.86483757500004,9.877448266000044]]],[[[123.91589337600011,9.899685942000078],[123.91529586200011,9.898986308000074],[123.91250031300001,9.897603683000057],[123.9117183080001,9.897470543000056],[123.91053758200007,9.896747798000034],[123.91003918900005,9.89598640200006],[123.90549439700008,9.894645334000074],[123.90502164500003,9.89417915800004],[123.90542817300003,9.893120020000026],[123.90351888700003,9.893641882000056],[123.9020026500001,9.89271096400006],[123.90219796400004,9.89155393200002],[123.90083165400006,9.890991683000038],[123.89966545700008,9.891031694000048],[123.89934527300012,9.891906057000028],[123.89762077300009,9.891959851000024],[123.89622993500008,9.89006030600007],[123.89545228400006,9.890915723000033],[123.89731270200004,9.892644217000054],[123.89914251900005,9.892986074000019],[123.9003793060001,9.892849401000031],[123.9003560860001,9.894209497000077],[123.90178192100007,9.894339039000043],[123.90181073400005,9.895059032000061],[123.90092539600005,9.895861404000073],[123.90125211300006,9.89730067000005],[123.90225068000007,9.898578096000051],[123.90391862800004,9.898706887000058],[123.90509983000003,9.897930383000073],[123.90566734400011,9.898915560000034],[123.90701587000001,9.900272044000076],[123.9086869790001,9.901574214000048],[123.91059784400011,9.90204914700007],[123.91234547600004,9.901831025000035],[123.91368769500002,9.900894019000077],[123.91678077700011,9.900938848000065],[123.91766749300005,9.90064312000004],[123.91755639100008,9.899363324000035],[123.91589337600011,9.899685942000078]]]]}},{"type":"Feature","properties":{"fid":91,"objectid":1919,"lccode":"06","liqcode":"2010600060000000","mappers":"MITAbigania, DJLBuhay","project":"Cebu Multi-Hazard Mapping","province":"Cebu","otherinfo":null,"datemapped":2016,"publishdate":null,"globalid":"{EDC44F95-33EE-45BE-975C-40D829DF5178}","st_area(shape)":0.012637099910309046,"st_perimeter(shape)":9.940336299625505,"liqcodepk":"201060006000000000117","creator":"SNOOPYPC","createdate":"2019-02-19T15:21:28","editor":"LENOVO","modifydate":"2019-03-10T17:50:55","codemove":"na"},"geometry":{"type":"Polygon","coordinates":[]}}]}