{"type":"FeatureCollection","features":[{"type":"Feature","properties":{"fid":174,"objectid":9616,"lccode":"07","liqcode":null,"mappers":"DJLBuhay, MITAbigania","project":"LiquePhi","province":"Pangasinan","otherinfo":null,"datemapped":2024,"publishdate":null,"globalid":"{4C1C6B5C-6BC5-4098-AF34-1358D72BE295}","st_area(shape)":0.0990952810399136,"st_perimeter(shape)":16.14272038398808,"liqcodepk":null,"creator":null,"createdate":null,"editor":null,"modifydate":null,"codemove":null},"geometry":{"type":"MultiPolygon","coordinates":[[[[120.433964004,16.00002953900002],[120.4353187790001,16.00061214300007],[120.43984657700004,16.004107730000044],[120.44152222000004,16.00475886200007],[120.44505176300004,16.004998752000063],[120.4497221700001,16.00458751100007],[120.4518969400001,16.003970649000046],[120.45439257700002,16.002976811000057],[120.45597609100003,16.003140164000058],[120.45718499600004,16.002996056000026],[120.4601064960001,16.003379402000068],[120.46244526500004,16.003342847000052],[120.46390457200005,16.003859184000078],[120.46519185900002,16.004702309000038],[120.46634321300007,16.00504264600005],[120.46795810000003,16.004857001000058],[120.468986211,16.004421216000022],[120.47005101600008,16.003233182000027],[120.47030058700012,16.001804201000024],[120.47006763400009,16.000737247000078],[120.4701436910001,15.998854632000077],[120.47267260300008,15.99629571000003],[120.4749733430001,15.995473192000077],[120.47695083900011,15.994943123000036],[120.47830085900011,15.99426682700005],[120.48033539800007,15.993645363000038],[120.48164739000003,15.993608806000047],[120.48313051100003,15.99322496000008],[120.48387207200005,15.991122931000065],[120.48454504200004,15.990329472000038],[120.48613478300001,15.990355228000055],[120.48816932200009,15.991287439000072],[120.49092640700007,15.991141210000025],[120.49216234100005,15.990574572000073],[120.49302230900003,15.990654335000047],[120.49559122100004,15.99238536600007],[120.49763087000008,15.992252366000056],[120.50149868900009,15.992598636000023],[120.5032218670001,15.992141674000038],[120.50500446500007,15.99117062500005],[120.50785662200006,15.989856847000052],[120.5121348570001,15.989514120000026],[120.51819359500007,15.989925257000042],[120.51966540900003,15.989809443000066],[120.522117406,15.989285636000035],[120.52413041159724,15.989118415761503],[120.52408782931361,15.988011004686896],[120.52346955853406,15.983619467229767],[120.52240930306736,15.979307696813533],[120.52169114178672,15.977290664329166],[120.5197805240001,15.977948617000038],[120.51863966100007,15.978551849000041],[120.51592833100005,15.98115102400004],[120.51372919800008,15.982143789000078],[120.51161860200011,15.982271745000046],[120.50962209200009,15.981668523000057],[120.50848570500013,15.981011125000066],[120.5067437010001,15.978972432000027],[120.50317113000007,15.97602917400007],[120.50256053800001,15.97462493800004],[120.50314998400005,15.973610389000045],[120.50242421100006,15.972353187000063],[120.50257767500011,15.971349493000046],[120.5037964730001,15.970146260000032],[120.50503240800003,15.969396757000029],[120.50626699500002,15.967603024000026],[120.50843106900004,15.966896929000029],[120.51460697900008,15.966384304000032],[120.51582706355397,15.96609290167852],[120.51401467537158,15.96366884967306],[120.51097887157064,15.960349597441985],[120.50806701878136,15.957734320562922],[120.5073906900001,15.958067191000058],[120.50124795400005,15.961387955000076],[120.49917185100004,15.963688478000044],[120.49753587900011,15.964625619000053],[120.495952353,15.964894119000062],[120.4940132820001,15.965678376000028],[120.49251581300007,15.967461058000023],[120.49110874900009,15.968288261000058],[120.49072192300004,15.969061196000045],[120.4889819670001,15.969895734000032],[120.48803714300004,15.97099810900005],[120.48473842300008,15.970844841000023],[120.48329169500005,15.970995376000069],[120.48204496900009,15.970559670000057],[120.48102568600007,15.970610196000054],[120.47894753700007,15.971162416000027],[120.47833027000001,15.971017247000077],[120.47267153400003,15.971570723000069],[120.47028285300007,15.971570723000072],[120.4680855270001,15.972562638000054],[120.46683057800011,15.973604613000079],[120.46352207600012,15.974811103000036],[120.46158260900008,15.975359505000027],[120.46027061700012,15.97535950500003],[120.45519377800008,15.974646582000046],[120.45314022500008,15.974756263000074],[120.45045919800009,15.97541434500005],[120.44509714300013,15.977443419000055],[120.44156046900001,15.97952731200007],[120.4387653550001,15.980240218000064],[120.43511459500009,15.980185379000034],[120.43306104200008,15.981117637000066],[120.4320377169344,15.982029433673402],[120.43189719642797,15.982545001279135],[120.43116902348758,15.986920449401989],[120.4311648744658,15.986985685739093],[120.43204377300003,15.98661421300005],[120.43327970700011,15.985768806000069],[120.43598925600008,15.98341535900005],[120.43667852700003,15.983164018000029],[120.43867503700005,15.983118320000074],[120.44029125900012,15.983598152000074],[120.44271559200001,15.983026923000065],[120.44409413500011,15.98151887200004],[120.44544890900012,15.980901938000045],[120.44856251400006,15.980216454000068],[120.44977468000003,15.979530968000063],[120.45146220600009,15.97921107400003],[120.45374393200005,15.978502734000074],[120.45588304900002,15.977657294000032],[120.45704768000009,15.977702993000038],[120.45909172600011,15.978959728000063],[120.46175373900007,15.979051126000055],[120.46410676800008,15.98012505600008],[120.46572299000003,15.980513498000054],[120.46643602900008,15.981176131000039],[120.46626965300003,15.982638487000031],[120.46479603900003,15.984283624000055],[120.46153982700004,15.985243282000056],[120.46006621300012,15.98700264100006],[120.45875897400002,15.98736822100005],[120.45735666400005,15.987322523000044],[120.454884794,15.987779497000075],[120.45101061500009,15.988784834000057],[120.44746918700004,15.98853350000007],[120.44575789300006,15.987870891000059],[120.44335732800005,15.987870891000059],[120.44088545900001,15.988487803000059],[120.43934054000009,15.989264653000074],[120.43824721400006,15.990544163000042],[120.4365596880001,15.991229611000051],[120.4341828900001,15.991366701000054],[120.43097421400012,15.992166387000053],[120.43092015686925,15.992198813769074],[120.43105590788367,15.995772653808402],[120.43164085355802,15.999941390717932],[120.433964004,16.00002953900002]],[[120.48053093300007,15.972181301000033],[120.48300706600004,15.973050620000038],[120.48416581500011,15.973291747000076],[120.48559189300009,15.97436570800005],[120.48580580500003,15.975736714000053],[120.48445103000006,15.977153410000028],[120.48281104000012,15.978021702000033],[120.48188408900012,15.97825020000005],[120.47817628600001,15.97825020000005],[120.476773975,15.978501546000079],[120.47549050500004,15.978181650000073],[120.47482500100013,15.976970611000072],[120.47606093600007,15.97477701100007],[120.47644122400004,15.973565951000069],[120.47736817400005,15.97230918200006],[120.47821091100002,15.972059842000023],[120.48053093300007,15.972181301000033]]],[[[120.51517656600002,16.01681968000003],[120.51382179100005,16.016477],[120.51233867000008,16.016627780000025],[120.51095537400009,16.017134946000052],[120.50719052700005,16.01917730300005],[120.5048731490001,16.020289854000055],[120.50261043800003,16.022099164000057],[120.50199634300009,16.023419531000055],[120.50127379700007,16.023739355000032],[120.50012342700006,16.02304488000004],[120.49922975100004,16.02370280300005],[120.4975906420001,16.024182591000052],[120.496982182,16.02398155900005],[120.4943581980001,16.021605717000057],[120.49219055900006,16.02100261400005],[120.49084053800003,16.021240200000022],[120.48726866400013,16.022336023000033],[120.48614398700012,16.02224537000006],[120.48247352600002,16.02077726000004],[120.48085356000001,16.021126051000067],[120.47878574600009,16.023867411000023],[120.47693184400009,16.027248370000052],[120.4755533020001,16.027933692000033],[120.47386577600003,16.028390573000024],[120.47291505700004,16.029532769000074],[120.47289128900003,16.03053789600005],[120.47228995900001,16.031527028000024],[120.4704194200001,16.032593823000074],[120.46857740200007,16.032759438000024],[120.46765045100007,16.032234037000023],[120.4668661080001,16.030757196000025],[120.46719511900007,16.027847187000074],[120.4669790600001,16.02630822500004],[120.46636698000009,16.025083877000046],[120.4646537000001,16.02424171100006],[120.461851066,16.024421389000054],[120.46009657300009,16.023699985000064],[120.456798767,16.024042653000034],[120.45581833800009,16.023785652000065],[120.4543922590001,16.022986092000053],[120.45067851400005,16.02270053400002],[120.44764809700007,16.023100315000026],[120.44699447800008,16.023328761000073],[120.4446473910001,16.02327165000003],[120.44408526928783,16.023361697702963],[120.4441546686759,16.023437610525914],[120.4475118959367,16.026454043627893],[120.45115877160937,16.02913765786032],[120.45506017066202,16.031462593754604],[120.45917851109658,16.033406446321766],[120.46347411624427,16.034950481389245],[120.46790559744348,16.036079816555826],[120.47243025339247,16.03678356500116],[120.47700448230195,16.037054940746053],[120.48158420284228,16.03689132433349],[120.48612527979121,16.03629428828531],[120.49058395023957,16.035269582080236],[120.49491724620474,16.03382707679342],[120.49908340953766,16.031980669930352],[120.50304229508461,16.02974815137576],[120.50675575818185,16.02715103175688],[120.51018802271811,16.02421433488638],[120.51330602619242,16.020966356299255],[120.51603929905633,16.017489827541795],[120.51517656600002,16.01681968000003]]]]}},{"type":"Feature","properties":{"fid":175,"objectid":9617,"lccode":"06","liqcode":null,"mappers":"DJLBuhay, MITAbigania","project":"LiquePhi","province":"Pangasinan","otherinfo":null,"datemapped":2024,"publishdate":null,"globalid":"{66023685-1332-44EF-8443-E51FD3597412}","st_area(shape)":0.04411879143836554,"st_perimeter(shape)":22.502158641584156,"liqcodepk":null,"creator":null,"createdate":null,"editor":null,"modifydate":null,"codemove":null},"geometry":{"type":"MultiPolygon","coordinates":[[[[120.4776580370001,15.974373952000064],[120.47757297600003,15.973049896000077],[120.47821091100002,15.972059842000023],[120.47736817400005,15.97230918200006],[120.47644122400004,15.973565951000069],[120.47606093600007,15.97477701100007],[120.47482500100013,15.976970611000072],[120.47549050500004,15.978181650000073],[120.476773975,15.978501546000079],[120.47817628600001,15.97825020000005],[120.48188408900012,15.97825020000005],[120.48281104000012,15.978021702000033],[120.48445103000006,15.977153410000028],[120.48580580500003,15.975736714000053],[120.48559189300009,15.97436570800005],[120.48416581500011,15.973291747000076],[120.48300706600004,15.973050620000038],[120.48375563400009,15.974129741000066],[120.48182373900012,15.976557412000034],[120.48038438600008,15.977276896000037],[120.47924714600003,15.977224757000046],[120.47832563700003,15.976775780000025],[120.47704560100011,15.97729768900007],[120.47649173500008,15.976980852000056],[120.47679184100002,15.975449808000063],[120.4776580370001,15.974373952000064]]],[[[120.43097421400012,15.992166387000053],[120.4341828900001,15.991366701000054],[120.4365596880001,15.991229611000051],[120.43824721400006,15.990544163000042],[120.43934054000009,15.989264653000074],[120.44088545900001,15.988487803000059],[120.44335732800005,15.987870891000059],[120.44575789300006,15.987870891000059],[120.44746918700004,15.98853350000007],[120.45101061500009,15.988784834000057],[120.454884794,15.987779497000075],[120.45735666400005,15.987322523000044],[120.45875897400002,15.98736822100005],[120.46006621300012,15.98700264100006],[120.46153982700004,15.985243282000056],[120.46479603900003,15.984283624000055],[120.46626965300003,15.982638487000031],[120.46643602900008,15.981176131000039],[120.46572299000003,15.980513498000054],[120.46410676800008,15.98012505600008],[120.46175373900007,15.979051126000055],[120.45909172600011,15.978959728000063],[120.45704768000009,15.977702993000038],[120.45588304900002,15.977657294000032],[120.45374393200005,15.978502734000074],[120.45146220600009,15.97921107400003],[120.44977468000003,15.979530968000063],[120.44856251400006,15.980216454000068],[120.44544890900012,15.980901938000045],[120.44409413500011,15.98151887200004],[120.44271559200001,15.983026923000065],[120.44029125900012,15.983598152000074],[120.43867503700005,15.983118320000074],[120.43667852700003,15.983164018000029],[120.43598925600008,15.98341535900005],[120.43327970700011,15.985768806000069],[120.43204377300003,15.98661421300005],[120.4311648744658,15.986985685739093],[120.430887681194,15.991343864872539],[120.43092015686925,15.992198813769074],[120.43097421400012,15.992166387000053]]],[[[120.43306104200008,15.981117637000066],[120.43511459500009,15.980185379000034],[120.4387653550001,15.980240218000064],[120.44156046900001,15.97952731200007],[120.44509714300013,15.977443419000055],[120.45045919800009,15.97541434500005],[120.45314022500008,15.974756263000074],[120.45519377800008,15.974646582000046],[120.46027061700012,15.97535950500003],[120.46158260900008,15.975359505000027],[120.46352207600012,15.974811103000036],[120.46683057800011,15.973604613000079],[120.4680855270001,15.972562638000054],[120.47028285300007,15.971570723000072],[120.47267153400003,15.971570723000069],[120.47833027000001,15.971017247000077],[120.47776135900006,15.970143976000033],[120.47693307300007,15.969812878000024],[120.47560494400011,15.97025029200006],[120.47414003300003,15.969746697000064],[120.47071067600008,15.968472172000078],[120.46723104500008,15.968622988000046],[120.46647522300007,15.968389909000054],[120.46537714300008,15.967347908000018],[120.46470475000002,15.965259108000053],[120.46389663900005,15.96452786800006],[120.4631836000001,15.963065380000048],[120.46218534500008,15.960048964000071],[120.46075926700007,15.959409113000047],[120.46052158700003,15.958175107000043],[120.46142477,15.956575460000064],[120.46170998600007,15.954107407000032],[120.46123462600009,15.953650357000068],[120.45904797300011,15.952736253000074],[120.45866768500001,15.952233495000026],[120.45928565200006,15.951273679000057],[120.46028390700009,15.950770917000057],[120.46013713220863,15.950008848279715],[120.4560682803938,15.951812272554573],[120.45211067480997,15.954044084884655],[120.44839814696755,15.95664036760762],[120.44496643703657,15.959576129072293],[120.44184858620496,15.962823109690799],[120.43907461878639,15.966350053582172],[120.43667125316281,15.970123009035872],[120.43466164434017,15.974105654922454],[120.43306516060264,15.97825964992924],[120.4320377169344,15.982029433673402],[120.43306104200008,15.981117637000066]]],[[[120.5073906900001,15.958067191000058],[120.50806701878136,15.957734320562922],[120.50762149166479,15.957334162308529],[120.50421126562776,15.954825474691585],[120.50379518200009,15.954925487000025],[120.50183432400001,15.954719815000031],[120.50104998100004,15.955062601000062],[120.49862564800002,15.957050747000041],[120.49508754800003,15.962669726000058],[120.49397449300012,15.96426231700008],[120.49310458600007,15.964934145000027],[120.49170702900007,15.965509995000044],[120.49097564900002,15.968113376000073],[120.49009469000009,15.96899806900006],[120.4889819670001,15.969895734000032],[120.49072192300004,15.969061196000045],[120.49110874900009,15.968288261000058],[120.49251581300007,15.967461058000023],[120.4940132820001,15.965678376000028],[120.495952353,15.964894119000062],[120.49753587900011,15.964625619000053],[120.49917185100004,15.963688478000044],[120.50124795400005,15.961387955000076],[120.5073906900001,15.958067191000058]]],[[[120.51460697900008,15.966384304000032],[120.50843106900004,15.966896929000029],[120.50626699500002,15.967603024000026],[120.50503240800003,15.969396757000029],[120.5037964730001,15.970146260000032],[120.50257767500011,15.971349493000046],[120.50242421100006,15.972353187000063],[120.50314998400005,15.973610389000045],[120.50256053800001,15.97462493800004],[120.50317113000007,15.97602917400007],[120.5067437010001,15.978972432000027],[120.50848570500013,15.981011125000066],[120.50962209200009,15.981668523000057],[120.51161860200011,15.982271745000046],[120.51372919800008,15.982143789000078],[120.51592833100005,15.98115102400004],[120.51863966100007,15.978551849000041],[120.5197805240001,15.977948617000038],[120.52169114178672,15.977290664329166],[120.52091730212572,15.975117215539225],[120.51900795045971,15.971088374665118],[120.51669965873612,15.96725996621056],[120.51582706355397,15.96609290167852],[120.51460697900008,15.966384304000032]]],[[[120.522117406,15.989285636000035],[120.51966540900003,15.989809443000066],[120.51819359500007,15.989925257000042],[120.5121348570001,15.989514120000026],[120.50785662200006,15.989856847000052],[120.50500446500007,15.99117062500005],[120.5032218670001,15.992141674000038],[120.50149868900009,15.992598636000023],[120.49763087000008,15.992252366000056],[120.49559122100004,15.99238536600007],[120.49302230900003,15.990654335000047],[120.49216234100005,15.990574572000073],[120.49092640700007,15.991141210000025],[120.48816932200009,15.991287439000072],[120.48613478300001,15.990355228000055],[120.48454504200004,15.990329472000038],[120.48387207200005,15.991122931000065],[120.48313051100003,15.99322496000008],[120.48164739000003,15.993608806000047],[120.48033539800007,15.993645363000038],[120.47830085900011,15.99426682700005],[120.47695083900011,15.994943123000036],[120.4749733430001,15.995473192000077],[120.47267260300008,15.99629571000003],[120.4701436910001,15.998854632000077],[120.47006763400009,16.000737247000078],[120.47030058700012,16.001804201000024],[120.47005101600008,16.003233182000027],[120.468986211,16.004421216000022],[120.46795810000003,16.004857001000058],[120.46634321300007,16.00504264600005],[120.46519185900002,16.004702309000038],[120.46390457200005,16.003859184000078],[120.46244526500004,16.003342847000052],[120.4601064960001,16.003379402000068],[120.45718499600004,16.002996056000026],[120.45597609100003,16.003140164000058],[120.45439257700002,16.002976811000057],[120.4518969400001,16.003970649000046],[120.4497221700001,16.00458751100007],[120.44505176300004,16.004998752000063],[120.44152222000004,16.00475886200007],[120.43984657700004,16.004107730000044],[120.4353187790001,16.00061214300007],[120.433964004,16.00002953900002],[120.43164085355802,15.999941390717932],[120.43167211333785,16.000164167836896],[120.43273039294765,16.004476114691965],[120.43422058343188,16.008666965492157],[120.43612835961468,16.01269635477857],[120.43843537137427,16.01652546945675],[120.44111941948238,16.02011742288944],[120.44408526928783,16.023361697702963],[120.4446473910001,16.02327165000003],[120.44699447800008,16.023328761000073],[120.44764809700007,16.023100315000026],[120.45067851400005,16.02270053400002],[120.4543922590001,16.022986092000053],[120.45581833800009,16.023785652000065],[120.456798767,16.024042653000034],[120.46009657300009,16.023699985000064],[120.461851066,16.024421389000054],[120.4646537000001,16.02424171100006],[120.46636698000009,16.025083877000046],[120.4669790600001,16.02630822500004],[120.46719511900007,16.027847187000074],[120.4668661080001,16.030757196000025],[120.46765045100007,16.032234037000023],[120.46857740200007,16.032759438000024],[120.4704194200001,16.032593823000074],[120.47228995900001,16.031527028000024],[120.47289128900003,16.03053789600005],[120.47291505700004,16.029532769000074],[120.47386577600003,16.028390573000024],[120.4755533020001,16.027933692000033],[120.47693184400009,16.027248370000052],[120.47878574600009,16.023867411000023],[120.48085356000001,16.021126051000067],[120.48247352600002,16.02077726000004],[120.48614398700012,16.02224537000006],[120.48726866400013,16.022336023000033],[120.49084053800003,16.021240200000022],[120.49219055900006,16.02100261400005],[120.4943581980001,16.021605717000057],[120.496982182,16.02398155900005],[120.4975906420001,16.024182591000052],[120.49922975100004,16.02370280300005],[120.50012342700006,16.02304488000004],[120.50127379700007,16.023739355000032],[120.50199634300009,16.023419531000055],[120.50261043800003,16.022099164000057],[120.5048731490001,16.020289854000055],[120.50719052700005,16.01917730300005],[120.51095537400009,16.017134946000052],[120.51233867000008,16.016627780000025],[120.51382179100005,16.016477],[120.51517656600002,16.01681968000003],[120.51603929905633,16.017489827541795],[120.51607973842526,16.01743839022789],[120.5184824508415,16.01366442766458],[120.52049103353762,16.00968082844139],[120.52208615766301,16.00552597050718],[120.52325248098902,16.00123987980077],[120.52331049484319,16.000890357218292],[120.52250044800007,16.000996291000035],[120.52098880500012,16.001352706000034],[120.5193630760001,16.00131158100004],[120.5168817000001,15.999872209000046],[120.51424345500004,15.997966739000047],[120.51246085700006,15.99711681100007],[120.509498773,15.996754106000028],[120.50712257000008,15.996209761000047],[120.50654343300006,15.995685483000045],[120.5079370830001,15.994247074000045],[120.51006669300011,15.994137404000071],[120.51390837300005,15.995060304000049],[120.51679496600003,15.99549573200005],[120.51888654800007,15.99549573200005],[120.5222616000001,15.994650363000058],[120.52415946354617,15.99400265982864],[120.52425813142797,15.992440016018488],[120.52413041159724,15.989118415761503],[120.522117406,15.989285636000035]],[[120.47121368900002,16.009857259000054],[120.4710710810001,16.007869638000045],[120.47214064000002,16.00375725400005],[120.47192316300006,16.002598917000054],[120.47044004100007,16.000748306000045],[120.47042102700006,15.999441444000068],[120.47237000100006,15.99733948100004],[120.47315434400004,15.99681398700005],[120.47745634700004,15.995168953000077],[120.47990444800007,15.994552061000034],[120.48182965400007,15.994620605000016],[120.48363602000005,15.995374583000059],[120.48598904900007,15.997545109000045],[120.48817570300004,15.998253381000035],[120.48941163700012,15.999715612000047],[120.489982069,16.002571501000034],[120.48960178100005,16.003439683000067],[120.48838961400008,16.00481048900002],[120.48815193500003,16.00775769100005],[120.48841338200009,16.00855731100006],[120.489482941,16.009265544000073],[120.49010090800004,16.01006515900008],[120.49024351600006,16.010979001000067],[120.48950670900001,16.013537735000057],[120.48781918300004,16.015251154000055],[120.48644064100006,16.017238703000032],[120.48503833000007,16.018586569000032],[120.48273283700006,16.01961459600005],[120.48159197400003,16.019751666000044],[120.48071255900004,16.019774511000037],[120.47902503300008,16.019317611000076],[120.47750388300005,16.01856372400005],[120.47560244500006,16.01719301200006],[120.47386738300008,16.01541107300005],[120.47260768000001,16.01452009700006],[120.4716331940001,16.013240740000075],[120.47078586500005,16.01122802200007],[120.47121368900002,16.009857259000054]]]]}},{"type":"Feature","properties":{"fid":176,"objectid":9618,"lccode":"05","liqcode":null,"mappers":"DJLBuhay, MITAbigania","project":"LiquePhi","province":"Pangasinan","otherinfo":null,"datemapped":2024,"publishdate":null,"globalid":"{5ACB73C5-6107-4512-9787-F18573022798}","st_area(shape)":0.06533832536059311,"st_perimeter(shape)":23.271340040578984,"liqcodepk":null,"creator":null,"createdate":null,"editor":null,"modifydate":null,"codemove":null},"geometry":{"type":"MultiPolygon","coordinates":[[[[120.5222616000001,15.994650363000058],[120.51888654800007,15.99549573200005],[120.51679496600003,15.99549573200005],[120.51390837300005,15.995060304000049],[120.51006669300011,15.994137404000071],[120.5079370830001,15.994247074000045],[120.50654343300006,15.995685483000045],[120.50712257000008,15.996209761000047],[120.509498773,15.996754106000028],[120.51246085700006,15.99711681100007],[120.51424345500004,15.997966739000047],[120.5168817000001,15.999872209000046],[120.5193630760001,16.00131158100004],[120.52098880500012,16.001352706000034],[120.52250044800007,16.000996291000035],[120.52331049484319,16.000890357218292],[120.52397879490105,15.996863844305336],[120.52415946354617,15.99400265982864],[120.5222616000001,15.994650363000058]]],[[[120.46028390700009,15.950770917000057],[120.45928565200006,15.951273679000057],[120.45866768500001,15.952233495000026],[120.45904797300011,15.952736253000074],[120.46123462600009,15.953650357000068],[120.46170998600007,15.954107407000032],[120.46142477,15.956575460000064],[120.46052158700003,15.958175107000043],[120.46075926700007,15.959409113000047],[120.46218534500008,15.960048964000071],[120.4631836000001,15.963065380000048],[120.46389663900005,15.96452786800006],[120.46470475000002,15.965259108000053],[120.46537714300008,15.967347908000018],[120.46647522300007,15.968389909000054],[120.46723104500008,15.968622988000046],[120.47071067600008,15.968472172000078],[120.47414003300003,15.969746697000064],[120.47324400200013,15.96860696500005],[120.47222266100005,15.965038227000036],[120.47211206500005,15.963526974000045],[120.47270437300006,15.960230849000027],[120.47150207100003,15.959736830000052],[120.47100179700011,15.959137227000038],[120.4709386830001,15.958016135000038],[120.47041794700012,15.956991898000071],[120.47052022600008,15.955904130000023],[120.46971704000009,15.955930540000049],[120.46953369800008,15.954793161000055],[120.470394768,15.953238262000067],[120.47135275500011,15.952489511000069],[120.47108197800004,15.951625949000062],[120.46991046100004,15.95049369100008],[120.46884058800003,15.950710553000023],[120.4679405820001,15.949438194000043],[120.469599474,15.947465616000047],[120.46970394585978,15.947409927031588],[120.46902104834017,15.947499748579],[120.46456435375038,15.948524278344646],[120.46023286824355,15.949966414104745],[120.46013713220863,15.950008848279715],[120.46028390700009,15.950770917000057]]],[[[120.49445428000001,15.95059195500005],[120.49450445600007,15.951260814000026],[120.49379949600007,15.952134345000049],[120.49388030300008,15.952787751000074],[120.49478906000002,15.953608532000029],[120.49448876500004,15.955110729000069],[120.49357021500008,15.956351194000037],[120.49401219900005,15.960538813000028],[120.4934858470001,15.963131790000034],[120.49304227800008,15.964200123000062],[120.49201117100006,15.96472784500002],[120.49109796700009,15.963940456000046],[120.49008054100011,15.963809091000027],[120.489512482,15.964788330000033],[120.48961774000009,15.96625341900005],[120.49064935100012,15.966979072000067],[120.49078234700004,15.967990100000064],[120.49009469000009,15.96899806900006],[120.49097564900002,15.968113376000073],[120.49170702900007,15.965509995000044],[120.49310458600007,15.964934145000027],[120.49397449300012,15.96426231700008],[120.49508754800003,15.962669726000058],[120.49862564800002,15.957050747000041],[120.50104998100004,15.955062601000062],[120.50183432400001,15.954719815000031],[120.50379518200009,15.954925487000025],[120.50421126562776,15.954825474691585],[120.50397487117569,15.954651570256381],[120.50007412532874,15.952327641472314],[120.4959568110198,15.950384742242568],[120.49282385442078,15.949258899029907],[120.49445428000001,15.95059195500005]]],[[[120.48815193500003,16.00775769100005],[120.48838961400008,16.00481048900002],[120.48960178100005,16.003439683000067],[120.489982069,16.002571501000034],[120.48941163700012,15.999715612000047],[120.48817570300004,15.998253381000035],[120.48598904900007,15.997545109000045],[120.48363602000005,15.995374583000059],[120.48182965400007,15.994620605000016],[120.47990444800007,15.994552061000034],[120.47745634700004,15.995168953000077],[120.47315434400004,15.99681398700005],[120.47237000100006,15.99733948100004],[120.47042102700006,15.999441444000068],[120.47044004100007,16.000748306000045],[120.47192316300006,16.002598917000054],[120.47214064000002,16.00375725400005],[120.4710710810001,16.007869638000045],[120.47121368900002,16.009857259000054],[120.47078586500005,16.01122802200007],[120.4716331940001,16.013240740000075],[120.47260768000001,16.01452009700006],[120.47386738300008,16.01541107300005],[120.47560244500006,16.01719301200006],[120.47750388300005,16.01856372400005],[120.47902503300008,16.019317611000076],[120.48071255900004,16.019774511000037],[120.48159197400003,16.019751666000044],[120.48273283700006,16.01961459600005],[120.48503833000007,16.018586569000032],[120.48644064100006,16.017238703000032],[120.48781918300004,16.015251154000055],[120.48950670900001,16.013537735000057],[120.49024351600006,16.010979001000067],[120.49010090800004,16.01006515900008],[120.489482941,16.009265544000073],[120.48841338200009,16.00855731100006],[120.48815193500003,16.00775769100005]],[[120.47400527600009,16.003673056000025],[120.4739341840001,16.002041183000074],[120.47300656800009,16.00124227300006],[120.47131523700013,16.001072948000058],[120.47052028700011,16.000012055000067],[120.47210913700009,15.998983823000058],[120.47274331500012,15.997911178000036],[120.47357414700002,15.997278950000066],[120.47622059800005,15.996470300000054],[120.47808514600003,15.99556011900006],[120.47964123700001,15.99560228300004],[120.4821015240001,15.996443723000027],[120.48215572200002,15.997202808000052],[120.48103172500011,15.997221617000037],[120.48063583800001,15.998448353000068],[120.48198830700005,15.999267447000028],[120.48405044400012,15.999844295000058],[120.48757089500009,15.999889574000063],[120.48837311600006,16.000515522000057],[120.48799681000003,16.001170527000053],[120.48465782700009,16.002006444000074],[120.48508255800006,16.002763456000025],[120.48643508900012,16.003281186000038],[120.48679969500006,16.003763448000026],[120.4860704560001,16.00576248000004],[120.48482874500007,16.007501525000063],[120.4838714020001,16.00674050000003],[120.48296082300011,16.006879004000037],[120.48277085500001,16.007803079000038],[120.48370558800002,16.009166148000073],[120.48359004500003,16.011230096000077],[120.48428788400008,16.011365313000052],[120.48544793000009,16.009597850000038],[120.48671267100008,16.00923624500006],[120.48805839900001,16.00980766600003],[120.48870084400004,16.010681213000055],[120.48860280600002,16.011461848000067],[120.48691959200005,16.01343305500006],[120.48552416500003,16.014524219000066],[120.484376225,16.016655145000065],[120.48299283000006,16.017608632000076],[120.48117977000004,16.017434654000056],[120.4798367210001,16.01664812200005],[120.47914202000004,16.01588712600005],[120.47778506800012,16.015035974000057],[120.47667324500001,16.01316861700007],[120.47712284900003,16.012294846000035],[120.47525843300002,16.01249235100005],[120.47486392100006,16.010852986000035],[120.47506450200001,16.008954033000066],[120.47616053500008,16.00795728200006],[120.47374806900007,16.007627769000074],[120.47281122900007,16.006684945000075],[120.47287269800007,16.005323120000067],[120.47365217300012,16.004643990000037],[120.47400527600009,16.003673056000025]]]]}}]}