{"type":"FeatureCollection","features":[{"type":"Feature","properties":{"fid":32,"objectid":1878,"lccode":"07","liqcode":"2010600070000000","mappers":"PJDelosReyes, ACPidlaoan","project":"READY","province":"Iloilo","otherinfo":null,"datemapped":2010,"publishdate":null,"globalid":"{2F92972A-C07C-4633-B325-DF2A08960C6C}","st_area(shape)":0.031106077518548395,"st_perimeter(shape)":5.287074988133156,"liqcodepk":"201060007000000000071","creator":"SNOOPYPC","createdate":"2019-02-19T15:21:28","editor":"LENOVO","modifydate":"2019-03-10T17:50:55","codemove":"na"},"geometry":{"type":"Polygon","coordinates":[]}},{"type":"Feature","properties":{"fid":59,"objectid":1908,"lccode":"05","liqcode":"2010600050000000","mappers":"PJDelosReyes, ACPidlaoan","project":"READY","province":"Iloilo","otherinfo":null,"datemapped":2010,"publishdate":null,"globalid":"{282D04BA-68E2-41E5-9B8A-0D8D85396F2D}","st_area(shape)":0.06128738608791496,"st_perimeter(shape)":10.692281506054618,"liqcodepk":"201060005000000000103","creator":"SNOOPYPC","createdate":"2019-02-19T15:21:28","editor":"LENOVO","modifydate":"2019-03-10T17:50:55","codemove":"na"},"geometry":{"type":"MultiPolygon","coordinates":[[[[122.67031680800005,11.069396604000076],[122.67096363700011,11.069643157000032],[122.67394758300009,11.071908026000072],[122.67668226100012,11.074664204000046],[122.6798661690001,11.076290064000032],[122.68384692400004,11.077523497000072],[122.68489160900005,11.078114569000032],[122.68673310800013,11.078313146000028],[122.68748016100005,11.077920600000024],[122.6883275780001,11.076790613000075],[122.68912297800013,11.077725636000027],[122.69111361400007,11.078121],[122.6949482340001,11.076404055000067],[122.69609498500004,11.074536895000051],[122.69579719200011,11.07374995400005],[122.69410523400008,11.073305737000053],[122.69007271700004,11.073989981000066],[122.68823121800006,11.073742237000033],[122.68733593300009,11.073102144000076],[122.68673980100006,11.072019850000062],[122.6878353210001,11.07157847700006],[122.68957872300007,11.070400313000048],[122.68992855000012,11.06907314800003],[122.68963261900001,11.06646707400006],[122.69092792500011,11.065337538000053],[122.69127717400012,11.064551254000037],[122.69097935100001,11.063813496000023],[122.68938750500001,11.062926848000076],[122.68938973100002,11.060812684000041],[122.68869429400002,11.059484535000024],[122.68725160100007,11.05879469000007],[122.68660436400012,11.058941492000033],[122.68585652100012,11.060120768000045],[122.684113377,11.061102252000069],[122.68371415100012,11.062085136000064],[122.68132418600011,11.062869266000064],[122.67848759900005,11.062374657000019],[122.67624747200011,11.062618114000026],[122.67385889800003,11.062123850000033],[122.67253634460901,11.061574882294268],[122.67196158850828,11.062338636211901],[122.66964774624941,11.066142369489931],[122.66797971875202,11.06961600999155],[122.67031680800005,11.069396604000076]]],[[[122.66833700800011,11.103613925000044],[122.67012999600001,11.102829256000064],[122.67112547600006,11.102977817000067],[122.67197077900006,11.103863751000063],[122.67430905400012,11.10514462000003],[122.67535256500004,11.106866585000034],[122.6759991880001,11.107309697000062],[122.67813979100004,11.107311993000051],[122.67958382200004,11.106969402000058],[122.6798837140001,11.105888048000054],[122.67923755000005,11.104953251000039],[122.68177801800005,11.103431766000028],[122.68222682700002,11.102743886000042],[122.68411910600003,11.102205085000039],[122.6849153500001,11.102402579000056],[122.6862582330001,11.103485654000051],[122.68680589300006,11.10348622400005],[122.68829835200006,11.104372786000056],[122.69227911000007,11.105999345000042],[122.69377231700004,11.10619752700006],[122.697755636,11.105464009000057],[122.69830443600007,11.104284600000028],[122.6971109860001,11.103005068000073],[122.69566969100003,11.100741982000045],[122.6960199890001,11.098972396000018],[122.69761457700008,11.09740063100003],[122.69876164900006,11.095287708000058],[122.69866354300008,11.093910899000035],[122.6981170360001,11.092877865000048],[122.69697257900009,11.092385112000043],[122.69637480000004,11.092827018000033],[122.69308915500007,11.093069448000051],[122.691098753,11.092280775000065],[122.69005547900008,11.090362203000039],[122.68871183700003,11.089967499000066],[122.68597320200001,11.090751389000047],[122.68308488600007,11.091829951000024],[122.68223862600007,11.091829060000066],[122.68019959600007,11.090106154000066],[122.67905539700007,11.089416584000045],[122.67666595300011,11.089512317000072],[122.67517190100011,11.090100780000057],[122.67158790900011,11.090047711000068],[122.67039305700007,11.090243067000074],[122.66869982800006,11.090880377000074],[122.66760476400009,11.090829984000036],[122.66561447000005,11.090090333000033],[122.66436774067228,11.090534615561886],[122.66443336296103,11.091884991795961],[122.66508760854488,11.096275274355468],[122.66617442088109,11.10058107565352],[122.66733389344691,11.103792911409327],[122.66833700800011,11.103613925000044]]]]}},{"type":"Feature","properties":{"fid":73,"objectid":1937,"lccode":"06","liqcode":"2010600060000000","mappers":"PJDelosReyes, ACPidlaoan","project":"READY","province":"Iloilo","otherinfo":null,"datemapped":2010,"publishdate":null,"globalid":"{DBB85F45-4FB4-4F72-8BD3-A1308397A487}","st_area(shape)":0.017575391436836466,"st_perimeter(shape)":7.287100410898002,"liqcodepk":"201060006000000000136","creator":"SNOOPYPC","createdate":"2019-02-19T15:21:28","editor":"LENOVO","modifydate":"2019-03-10T17:50:55","codemove":"na"},"geometry":{"type":"Polygon","coordinates":[]}}]}