{"type":"FeatureCollection","features":[{"type":"Feature","properties":{"fid":5,"objectid":1834,"lccode":"01","liqcode":"2010600010000000","mappers":"DJLBuhay, MJVReyes, MITAbigania, KLPapiona, KMVitto","project":"MELP","province":"Apayao","otherinfo":null,"datemapped":2018,"publishdate":null,"globalid":"{1CF6B5C0-CFF1-4290-9A9E-3C6A72777FB9}","st_area(shape)":0.016612682616230664,"st_perimeter(shape)":4.8172609856160955,"liqcodepk":"201060001000000000006","creator":"SNOOPYPC","createdate":"2019-02-19T15:21:28","editor":"LENOVO","modifydate":"2019-03-10T17:53:06","codemove":"na"},"geometry":{"type":"Polygon","coordinates":[[[121.38278000600009,17.641423444000054],[121.38203575900002,17.642344454000067],[121.38174319000005,17.644203889000035],[121.38226270900009,17.645359071000033],[121.38249360700003,17.647394376000022],[121.38099277200001,17.648329508000074],[121.37856834700005,17.649099613000036],[121.37729093000007,17.64794416600006],[121.37664364800001,17.64827031900006],[121.37597074900009,17.65102486100005],[121.37441219000004,17.652565045000067],[121.374527639,17.65383018600005],[121.37522033200003,17.65454526200005],[121.37568212700012,17.65608541500006],[121.37498943400011,17.65647045200006],[121.37435446600011,17.657680561000067],[121.37412356800007,17.658835657000054],[121.37360404800008,17.659330696000048],[121.37169914300011,17.660320770000055],[121.37117962300009,17.660870809000073],[121.36999627300008,17.661242084000037],[121.37031375700008,17.661819622000053],[121.37236297400013,17.661104575000028],[121.37360404800008,17.661352091000026],[121.37576871400006,17.66225964900007],[121.37706751300004,17.662012134000065],[121.37903014300002,17.659949493000056],[121.38073301200006,17.65989448900007],[121.3796362490001,17.659041923000075],[121.37983828400003,17.657061756000072],[121.3793187650001,17.656016659000045],[121.37937648900004,17.655054064000065],[121.37897241800012,17.654146470000057],[121.37923217800005,17.65252379000003],[121.3802712170001,17.651148626000065],[121.3809639100001,17.650681068000043],[121.38420946000006,17.650108273000054],[121.38546641400002,17.64922337900003],[121.3855818630001,17.648068222000056],[121.38673635100008,17.644712720000033],[121.38797742500005,17.642952432000072],[121.38805043000004,17.641317688000075],[121.38278000600009,17.641423444000054]]]}},{"type":"Feature","properties":{"fid":13,"objectid":1844,"lccode":"01","liqcode":"2010600010000000","mappers":"DJLBuhay, MJVReyes, MITAbigania, KLPapiona, KMVitto","project":"MELP","province":"Kalinga","otherinfo":null,"datemapped":2018,"publishdate":null,"globalid":"{40A232C5-2457-4544-8DC2-C6ABDEDCF896}","st_area(shape)":0.01514121826809105,"st_perimeter(shape)":2.9651109694666844,"liqcodepk":"201060001000000000016","creator":"SNOOPYPC","createdate":"2019-02-19T15:21:28","editor":"LENOVO","modifydate":"2019-03-10T17:53:06","codemove":"na"},"geometry":{"type":"MultiPolygon","coordinates":[[[[121.41172036100012,17.628202615000074],[121.41013716800002,17.63098623400003],[121.41018272100008,17.632316913000068],[121.40994430200008,17.63668994400007],[121.40941175900002,17.637277712000074],[121.40829319900003,17.63975870000007],[121.40802243600002,17.64156715300004],[121.40724182900011,17.643109269000036],[121.40622026900006,17.64360645100004],[121.40518989200007,17.644676378000046],[121.40433144100007,17.64681991200007],[121.40445331500008,17.647994125000025],[121.40205673600009,17.648016072000075],[121.40137797000013,17.649882503000075],[121.40172251,17.651530256000054],[121.4024572310001,17.652281668000054],[121.40194690100009,17.652795222000066],[121.40211875900002,17.654149933000042],[121.40324235400011,17.654502549000025],[121.40413523600013,17.656183435000067],[121.4052351140001,17.657014822000065],[121.40452341200013,17.657410735000038],[121.40401845000008,17.658382705000072],[121.40428069200003,17.65890616600007],[121.40572467800008,17.659189750000053],[121.40612515300008,17.658628587000067],[121.40823038900011,17.657412545000057],[121.41006290700012,17.656688314000068],[121.41279818000011,17.654399977000026],[121.41376320400002,17.653833925000075],[121.414823253,17.65380659300007],[121.41682236600002,17.654210195000072],[121.42076206100013,17.654100091000036],[121.42245051700003,17.654756732000067],[121.42442761400002,17.656173179000067],[121.42478841900005,17.657300853000038],[121.42568318300005,17.658786063000033],[121.42566878000002,17.65999624100004],[121.42527915400001,17.66061508600006],[121.42422569300004,17.66112392900004],[121.42343200200003,17.661990313000047],[121.42311457200005,17.66437624400004],[121.42311460400003,17.665751402000065],[121.42395166200005,17.66804787500007],[121.4239392070001,17.668637313000033],[121.42548069600004,17.671281202000042],[121.42676746300003,17.673012973000027],[121.42695549100006,17.673760451000078],[121.42912672900002,17.67703426500003],[121.428144169,17.679478236000026],[121.42883689100006,17.680688259000025],[121.42851945300004,17.682695811000027],[121.4301646340001,17.684125795000053],[121.43137686100009,17.68464827300005],[121.43345514700002,17.686353687000064],[121.43610437200006,17.687684355000044],[121.4368997360001,17.687553139000045],[121.43936231100008,17.689173100000062],[121.4395180470001,17.688069124000037],[121.44005033800012,17.687658947000045],[121.44020949800007,17.687221604000058],[121.43749273500009,17.68706537400004],[121.43674701600004,17.686856576000018],[121.4361049600001,17.685160089000078],[121.43530279200003,17.684193168000036],[121.43320895800004,17.682458769000046],[121.4319008540001,17.679955789000072],[121.43126947600001,17.677597292000026],[121.43111688500004,17.675352981000056],[121.4316940760001,17.67301531800007],[121.43178063000005,17.671612712000066],[121.43160741000008,17.669577544000045],[121.43111669500001,17.667129817000045],[121.43011463800008,17.66371536700007],[121.42971187200008,17.66095589300005],[121.42997879300003,17.657782837000067],[121.42927566800006,17.655538582000077],[121.42868542600003,17.65509465700006],[121.426006991,17.65377575900004],[121.42559645600011,17.652745370000044],[121.42428318400005,17.651026324000036],[121.42227726300007,17.651287667000073],[121.42038677300003,17.650723849000027],[121.41877048400012,17.650572604000043],[121.41773142900003,17.649981259000075],[121.41519155300011,17.650077582000055],[121.41454216500006,17.65060019900005],[121.41247849200012,17.64966505800004],[121.41081886400003,17.647560909000052],[121.41031459600005,17.646430886000072],[121.41057474600008,17.643390517000057],[121.41196016300012,17.641294126000044],[121.41405848000012,17.64017537000006],[121.41418832600003,17.63870373900005],[121.41544377500009,17.636131771000063],[121.4158478390001,17.635815425000036],[121.41671365700006,17.633669799000074],[121.41772381500004,17.63281702800003],[121.41775263700004,17.63105650100005],[121.41821808235787,17.63057766095223],[121.41548002400654,17.629308924226308],[121.41174628359242,17.6279939396129],[121.41172036100012,17.628202615000074]]],[[[121.38518139300004,17.627355304000048],[121.38759488100004,17.62735592000007],[121.38845554400007,17.630121894000073],[121.38821668600008,17.63145425600004],[121.38893987600011,17.633124245000037],[121.38795846900007,17.633575281000045],[121.3868449260001,17.633183628000037],[121.38598523000006,17.633406121000064],[121.38511497099998,17.634814418000072],[121.38468145900003,17.636455816000023],[121.38463174700009,17.638376737000044],[121.38531377400011,17.639368347000072],[121.38506385500013,17.640552193000072],[121.38411696400009,17.640721886000044],[121.38278000600009,17.641423444000054],[121.38805043000004,17.641317688000075],[121.38939965000009,17.640222653000023],[121.38895057700005,17.639128725000035],[121.38923883000007,17.63811733100005],[121.39057792900007,17.637822230000044],[121.39076913800011,17.63650614100004],[121.389823824,17.635644604000053],[121.38987220300011,17.634182270000053],[121.39085360900003,17.633731225000073],[121.39126553200003,17.631480903000067],[121.39100055200004,17.62987204200004],[121.39186150600005,17.628483174000053],[121.39263735400004,17.62803970400006],[121.39316943913698,17.62589229036933],[121.39286030404776,17.625904329688108],[121.38828102388793,17.62651754159845],[121.38487221420623,17.62730672933405],[121.38518139300004,17.627355304000048]]]]}},{"type":"Feature","properties":{"fid":26,"objectid":1872,"lccode":"07","liqcode":"2010600070000000","mappers":"PJDelosReyes, ACPidlaoan","project":"READY","province":"Cagayan","otherinfo":null,"datemapped":2012,"publishdate":null,"globalid":"{DED92A0E-07A3-4F4C-B4F3-8B0691B82188}","st_area(shape)":0.05559407556334115,"st_perimeter(shape)":12.110269661988962,"liqcodepk":"201060007000000000065","creator":"SNOOPYPC","createdate":"2019-02-19T15:21:28","editor":"LENOVO","modifydate":"2019-03-10T17:50:55","codemove":"na"},"geometry":{"type":"Polygon","coordinates":[]}},{"type":"Feature","properties":{"fid":53,"objectid":1902,"lccode":"05","liqcode":"2010600050000000","mappers":"PJDelosReyes, ACPidlaoan","project":"READY","province":"Cagayan","otherinfo":null,"datemapped":2012,"publishdate":null,"globalid":"{C3D84E80-F2D4-4567-B477-D6223763EFE3}","st_area(shape)":0.07022270502489089,"st_perimeter(shape)":22.490008235492827,"liqcodepk":"201060005000000000097","creator":"SNOOPYPC","createdate":"2019-02-19T15:21:28","editor":"LENOVO","modifydate":"2019-03-10T17:50:55","codemove":"na"},"geometry":{"type":"MultiPolygon","coordinates":[[[[121.44005033800012,17.687658947000045],[121.4395180470001,17.688069124000037],[121.43936231100008,17.689173100000062],[121.43940414888013,17.690655498813232],[121.44047044403126,17.688539943061734],[121.44068834268096,17.687971076976343],[121.44005033800012,17.687658947000045]]],[[[121.44119269500004,17.684519948000055],[121.44187004522303,17.68488594151454],[121.44206463024472,17.684377915604905],[121.44229840749941,17.683513641382934],[121.44119269500004,17.684519948000055]]]]}},{"type":"Feature","properties":{"fid":67,"objectid":1931,"lccode":"06","liqcode":"2010600060000000","mappers":"PJDelosReyes, ACPidlaoan","project":"READY","province":"Cagayan","otherinfo":null,"datemapped":2012,"publishdate":null,"globalid":"{5942F6C7-E5B3-4D1E-B486-921A1828B34C}","st_area(shape)":0.07051556894172502,"st_perimeter(shape)":22.109814549125648,"liqcodepk":"201060006000000000130","creator":"SNOOPYPC","createdate":"2019-02-19T15:21:28","editor":"LENOVO","modifydate":"2019-03-10T17:50:55","codemove":"na"},"geometry":{"type":"Polygon","coordinates":[[[121.44119269500004,17.684519948000055],[121.44020949800007,17.687221604000058],[121.44005033800012,17.687658947000045],[121.44068834268096,17.687971076976343],[121.44187004522303,17.68488594151454],[121.44119269500004,17.684519948000055]]]}}]}