{"type":"FeatureCollection","features":[{"type":"Feature","properties":{"fid":38,"objectid":1885,"lccode":"07","liqcode":"2010600070000000","mappers":"JSPerez ","project":"READY","province":"Surigao del Sur","otherinfo":null,"datemapped":2007,"publishdate":null,"globalid":"{FDA7F772-DEDF-47F9-B8FA-912035EE9393}","st_area(shape)":0.04086090170713132,"st_perimeter(shape)":12.6212836285462,"liqcodepk":"201060007000000000079","creator":"SNOOPYPC","createdate":"2019-02-19T15:21:28","editor":"LENOVO","modifydate":"2019-03-10T17:50:55","codemove":"na"},"geometry":{"type":"MultiPolygon","coordinates":[[[[126.02392675800002,8.908345429000065],[126.02224334000003,8.907667340000048],[126.02171501500004,8.908119307000048],[126.02356484200004,8.909121614000071],[126.02488401000004,8.910291058000041],[126.02559207000002,8.911791042000061],[126.02653183600012,8.91162055700005],[126.02801039100005,8.91225964800003],[126.02871211792768,8.912752063882266],[126.02754308863572,8.911490364826376],[126.02421629155148,8.908540895691411],[126.02394487150266,8.908344119063978],[126.02392675800002,8.908345429000065]]],[[[126.03883537700005,8.934594197000022],[126.03684431500007,8.936319717000059],[126.03431452300003,8.937235683000038],[126.03145427800007,8.937788133000025],[126.02873293800008,8.94029283900005],[126.02490420000005,8.942521654000075],[126.02401096900009,8.94338355900004],[126.02296575200012,8.945670993000023],[126.02149981200012,8.946578303000024],[126.02076318000002,8.946584316000042],[126.01925364200007,8.947166314000071],[126.01823090000005,8.947215387000028],[126.0177746690001,8.94648659400002],[126.01812251600006,8.94400128800004],[126.01770089200011,8.942499058000067],[126.01536012400005,8.941541410000069],[126.01438499200002,8.94240396500004],[126.01329672200006,8.944447539000068],[126.01211324900008,8.944864204000055],[126.01133370700006,8.944626344000024],[126.01095969900007,8.943937508000031],[126.01036766400013,8.941622667000047],[126.00871628400012,8.939886206000038],[126.00724804200001,8.940508548000023],[126.00656400700007,8.941938502000026],[126.00682525900004,8.943849098000044],[126.00594125200008,8.945850365000071],[126.00370004100012,8.947048758000053],[126.00267895200012,8.947301158000073],[126.00079402600011,8.947031600000058],[125.99885919700012,8.945663603000071],[125.99840333200005,8.944975411000028],[125.99623063500009,8.944545412000025],[125.99537913400002,8.945528946000023],[125.99415571600002,8.946067897000033],[125.99511233600003,8.947932253000033],[125.99463022700002,8.949034901000061],[125.99361104200013,8.949531561000072],[125.99275926700011,8.950474455000062],[125.99169917300004,8.950971352000069],[125.99117415500007,8.951830231000029],[125.9920854820001,8.953165907000027],[125.99388990500005,8.953598896000072],[125.99560752800005,8.953422245000072],[125.99694406800006,8.951702159000035],[125.99718261800002,8.950845597000066],[125.99815656300007,8.949820334000037],[125.99905489000004,8.949568849000057],[126.00033029300006,8.950372405000053],[126.00095051400002,8.951140629000065],[126.00121009100008,8.952847775000066],[126.001099338,8.954313721000062],[126.00124516700009,8.95712062000007],[126.00209725800005,8.95621834600007],[126.00293998500001,8.954176678000065],[126.00304972800005,8.952588640000045],[126.0040588720001,8.950871198000073],[126.00511592900013,8.95000808000003],[126.00687240500008,8.949586774000068],[126.00896057400008,8.949691900000062],[126.00994920500011,8.950457108000021],[126.00885955800004,8.952337953000042],[126.00763950300006,8.953283868000028],[126.0072768660001,8.953978696000034],[126.00729125900013,8.955728462000025],[126.00811347700004,8.956169449000074],[126.00868009700002,8.955391680000048],[126.00973815100006,8.954650461000027],[126.01099541600003,8.953256563000025],[126.01437485300005,8.951112951000026],[126.01551106600006,8.949923504000022],[126.01685821900004,8.949505580000046],[126.01820906000012,8.949535204000028],[126.01927748600009,8.950055528000064],[126.02010641400011,8.951310316000047],[126.0204619660001,8.949761020000038],[126.02123857000004,8.949632579000022],[126.02226972200002,8.950600868000038],[126.023078144,8.949373354000045],[126.02459171600005,8.949279615000023],[126.02591006400007,8.950326913000024],[126.02612211700011,8.951220516000035],[126.02541435800003,8.954726105000077],[126.02436510300004,8.956525275000049],[126.02339165500007,8.957591315000059],[126.02319306400011,8.958325448000037],[126.02316360900011,8.959709338000037],[126.02083583300009,8.960338781000077],[126.02071743000012,8.960868790000063],[126.02186642500008,8.96122569600004],[126.02248771500003,8.96211586500004],[126.02326670000002,8.962272322000047],[126.02413321300003,8.963119839000056],[126.02389709200007,8.964261220000026],[126.0228393950001,8.965043116000063],[126.02325637800004,8.96597568200002],[126.0213395610001,8.966805247000023],[126.0204486350001,8.96795198500007],[126.02124642100011,8.970387190000052],[126.02206565200004,8.970461855000051],[126.02127014400003,8.968311565000022],[126.02167002700001,8.967168843000023],[126.0233865690001,8.966869865000032],[126.02362201700008,8.965647119000039],[126.02431441300007,8.965234512000054],[126.02487358200007,8.96356135700006],[126.02465713500011,8.962138843000048],[126.02395134400001,8.960923712000067],[126.02521428000011,8.960221597000043],[126.02577647700001,8.958914719000063],[126.02572648000012,8.957816412000057],[126.02715146600006,8.956909410000039],[126.02730974800012,8.956256977000066],[126.02832651200004,8.955475414000032],[126.02926881600001,8.955589795000039],[126.0303710830001,8.955255196000055],[126.03003523000007,8.954240605000052],[126.02656198400007,8.954920184000061],[126.02643179900008,8.954025912000075],[126.02764336400003,8.952062675000038],[126.02977147700005,8.952045250000026],[126.0315383520001,8.952885377000028],[126.03199799200003,8.95402105000005],[126.03353660100004,8.952014392000024],[126.03373415800002,8.951158171000031],[126.0344238140001,8.950420012000052],[126.03696550900007,8.950928190000068],[126.03815164900003,8.950837082000017],[126.04012309200004,8.95167548400002],[126.04045668153528,8.951091480792638],[126.0404902471546,8.950852918281402],[126.0383458140001,8.94957386500005],[126.03747181500012,8.947831205000055],[126.03661242200008,8.947838257000058],[126.03386307000004,8.946965476000058],[126.03254135200007,8.945511300000023],[126.03139282400002,8.945195140000065],[126.029951309,8.944108229000049],[126.02994330000001,8.943131591000054],[126.03047258300013,8.942801692000046],[126.03239296200003,8.942419672000028],[126.03422412000009,8.941143135000061],[126.0369280630001,8.941487267000072],[126.03844867100008,8.942248023000044],[126.04052431900006,8.940847357000052],[126.04094554613312,8.940474694028842],[126.04085411534597,8.93889097300239],[126.04016374464747,8.934512365197005],[126.03977248020006,8.933011766906853],[126.03883537700005,8.934594197000022]]]]}},{"type":"Feature","properties":{"fid":81,"objectid":1916,"lccode":"05","liqcode":"2010600050000000","mappers":"JSPerez","project":"READY","province":"Surigao del Sur","otherinfo":null,"datemapped":2007,"publishdate":null,"globalid":"{436AF97F-3789-427C-9D93-46719D182001}","st_area(shape)":0.0045057935314115815,"st_perimeter(shape)":1.4887365100085943,"liqcodepk":"201060005000000000114","creator":"SNOOPYPC","createdate":"2019-02-19T15:21:28","editor":"LENOVO","modifydate":"2019-03-10T17:50:55","codemove":"na"},"geometry":{"type":"MultiPolygon","coordinates":[[[[125.97008348800011,8.978961566000066],[125.97082832900003,8.978148606000044],[125.97143384200001,8.97868173300003],[125.97198731300011,8.98020142300004],[125.97363872100006,8.979978852000045],[125.97602247400005,8.981095326000059],[125.97656303400005,8.981031176000043],[125.9776820080001,8.981858992000069],[125.97935588100006,8.980709773000056],[125.97956241400006,8.980229982000026],[125.9800474530001,8.977058121000027],[125.98058268300008,8.975089219000042],[125.97962597900005,8.976804943000047],[125.978580296,8.975536978000035],[125.97679432700009,8.974892549000058],[125.97339676600008,8.974672931000043],[125.97359074500002,8.973065577000057],[125.97473812500006,8.971574091000038],[125.97506201500005,8.970665628000061],[125.97488832500007,8.969678898000039],[125.97421672300003,8.96857262800006],[125.97578250300013,8.967612978000034],[125.97651682100003,8.966248372000052],[125.97630170600007,8.965261887000054],[125.97708509000006,8.964843831000053],[125.97860143700007,8.962896447000048],[125.97862936000001,8.96124925400005],[125.97948753000003,8.959842468000033],[125.97956057200008,8.958647837000058],[125.97867731200006,8.956966804000043],[125.97743043200013,8.95640046200003],[125.97513394400005,8.95407203800005],[125.97499392400003,8.952137997000023],[125.97435911000002,8.95045494300007],[125.97522197400008,8.949624518000064],[125.9754156340001,8.947976078000067],[125.97502923200011,8.94629102700003],[125.97555682200004,8.944969189000066],[125.97637958900009,8.944303822000052],[125.9770660250001,8.94215722100006],[125.97751678300004,8.941577212000025],[125.97928883400004,8.940533650000077],[125.97961237400013,8.939584013000056],[125.9799205070001,8.936740524000072],[125.98057427900004,8.935664773000042],[125.97984634800004,8.932706157000041],[125.98200400100005,8.933265190000043],[125.98391099500009,8.93353812500004],[125.98461079300013,8.93303838400004],[125.98614982100003,8.933890652000057],[125.98991324000009,8.933325025000045],[125.99314710500006,8.933834211000033],[125.994467255,8.933247080000054],[125.99571076200004,8.93340176300006],[125.99748977100012,8.933222650000062],[125.998567922,8.933419842000035],[125.99984940300011,8.933162378000077],[126.0046356360001,8.931106219000071],[126.00574717300005,8.93031492600005],[126.00812860000009,8.927866403000051],[126.00955640300005,8.92526097500007],[126.01015749400004,8.922826893000035],[126.0102431900001,8.918132515000025],[126.00964976500008,8.916449217000038],[126.0099735540001,8.91554076500006],[126.01012195200009,8.913439813000025],[126.00965239000004,8.911714327000027],[126.00864494200005,8.910034467000061],[126.00854659800008,8.908141241000065],[126.00570482500007,8.904911640000025],[126.00627227800008,8.903424850000018],[126.00780276000012,8.903247744000051],[126.00907604300004,8.90200224700004],[126.01031845013976,8.900984283193196],[126.00852052424652,8.900360899017722],[126.00418850383407,8.899318921050943],[125.9997746429157,8.898704162390699],[125.99532143281502,8.898522546398889],[125.99087174426924,8.89877582669025],[125.9864684151744,8.899461570068663],[125.9821538386057,8.900573179729028],[125.97796955505915,8.902099958510119],[125.97715027398006,8.902493355908032],[125.97662802400008,8.903985384000066],[125.97596150900006,8.907039014000075],[125.9747543650001,8.91012696000007],[125.97409828100002,8.910759808000023],[125.97291462200009,8.913040605000052],[125.97123266500013,8.913173548000032],[125.97075790400004,8.913924521000071],[125.96923158600009,8.914713795000068],[125.96824034300003,8.91478141600004],[125.96694327600007,8.91419407400002],[125.9656425920001,8.913158519000033],[125.96347354700004,8.912518333000037],[125.96290232477882,8.912467493738877],[125.96224934801066,8.913195572734555],[125.96333751300006,8.914282647000048],[125.96394794800005,8.915443297000024],[125.96395446000007,8.916250213000069],[125.96305869900006,8.916974647000073],[125.96164726200006,8.917105395000023],[125.9622877370001,8.918265898000074],[125.9621473640001,8.919492330000027],[125.96346339000003,8.918704752000053],[125.96508378900012,8.918392961000052],[125.96574738700008,8.918686514000056],[125.96650665000004,8.91966669000004],[125.9670303040001,8.92124645200005],[125.968597884,8.921831713000076],[125.97029843500002,8.923999754000018],[125.9697958050001,8.92501991000006],[125.9683881430001,8.925628881000023],[125.96791288300005,8.92632007100002],[125.9683117410001,8.927333014000055],[125.96850808100011,8.929303833000064],[125.9695911680001,8.92944463200007],[125.97065027000009,8.930332705000069],[125.97173125400002,8.930204557000021],[125.97302589100003,8.930493030000036],[125.9754902410001,8.93047326200002],[125.97668918400007,8.930075106000059],[125.97728035800004,8.928845065000075],[125.97866930200009,8.929640779000067],[125.97910437600001,8.931400578000023],[125.97708814600004,8.931088030000069],[125.97430293200011,8.932305787000075],[125.97344617800002,8.934135661000024],[125.97418298500007,8.936042521000047],[125.97392340899998,8.937389388000042],[125.9729355080001,8.937875533000067],[125.97080659500011,8.938490313000045],[125.97018026300009,8.939093039000058],[125.96956078900007,8.940532568000037],[125.96956902900001,8.941548635000059],[125.96825586400007,8.942694783000036],[125.96675657000003,8.943125228000042],[125.96354077000001,8.943150980000043],[125.96246481700007,8.943906679000067],[125.9630750880001,8.945037512000054],[125.96314201500002,8.945873748000052],[125.9640479940001,8.946404503000052],[125.96501993900007,8.947651920000055],[125.9653585120001,8.948635449000053],[125.96632845500007,8.949643811000044],[125.96636850500012,8.950868795000076],[125.96679259900009,8.951283734000071],[125.96731957200008,8.953251988000034],[125.96633719700004,8.95442547400006],[125.9682696860001,8.95551569500003],[125.96903027700012,8.956645299000058],[125.96907155900011,8.958019740000053],[125.9679035270001,8.958537141000022],[125.9690861260001,8.959812735000071],[125.96951582300004,8.960915098000044],[125.96921940100003,8.961425500000075],[125.96995556000002,8.96324258900006],[125.96960100100011,8.963992613000073],[125.96782116100007,8.963200042000041],[125.96653627400008,8.964136812000051],[125.96684605400004,8.965269946000037],[125.9686806410001,8.965404677000036],[125.97121438800004,8.966490028000068],[125.97224650900012,8.967736916000035],[125.97298190000004,8.969464403000073],[125.97302029200011,8.970480223000038],[125.97248753300003,8.971500642000024],[125.97029658100007,8.971906812000043],[125.9682209980001,8.971714248000067],[125.9673561620001,8.97255806000004],[125.96594663500004,8.972957834000054],[125.96525215500004,8.972574969000048],[125.96494455100004,8.97171068500006],[125.96325875100001,8.971395474000076],[125.96165798300001,8.970451971000047],[125.96129030800012,8.969588253000039],[125.96020507900003,8.969208418000049],[125.95905637700004,8.968410746000075],[125.95757829000001,8.96776508800002],[125.95703007489992,8.967295794300982],[125.95812654548536,8.969081882701282],[125.96081094274493,8.972620626635978],[125.96240000142436,8.974335790686215],[125.96364366900002,8.974381006000042],[125.96445717900008,8.974613536000048],[125.96425863900005,8.976079592000076],[125.9641534213018,8.976166252434783],[125.96715861208857,8.978830644098082],[125.97031563855289,8.981119412481233],[125.97008348800011,8.978961566000066]]],[[[125.97115763200007,8.981672469000046],[125.97114958703278,8.981669579980515],[125.97115764688584,8.981674295175994],[125.97115763200007,8.981672469000046]]]]}},{"type":"Feature","properties":{"fid":86,"objectid":1945,"lccode":"06","liqcode":"2010600060000000","mappers":"JSPerez","project":"READY","province":"Surigao del Sur","otherinfo":null,"datemapped":2007,"publishdate":null,"globalid":"{E4D44F91-040C-4614-A92C-CD665C28A96D}","st_area(shape)":0.00901660285265909,"st_perimeter(shape)":4.024381446086732,"liqcodepk":"201060006000000000145","creator":"SNOOPYPC","createdate":"2019-02-19T15:21:28","editor":"LENOVO","modifydate":"2019-03-10T17:50:55","codemove":"na"},"geometry":{"type":"Polygon","coordinates":[[[126.00907604300004,8.90200224700004],[126.00780276000012,8.903247744000051],[126.00627227800008,8.903424850000018],[126.00570482500007,8.904911640000025],[126.00854659800008,8.908141241000065],[126.00864494200005,8.910034467000061],[126.00965239000004,8.911714327000027],[126.01012195200009,8.913439813000025],[126.0099735540001,8.91554076500006],[126.00964976500008,8.916449217000038],[126.0102431900001,8.918132515000025],[126.01015749400004,8.922826893000035],[126.00955640300005,8.92526097500007],[126.00812860000009,8.927866403000051],[126.00574717300005,8.93031492600005],[126.0046356360001,8.931106219000071],[125.99984940300011,8.933162378000077],[125.998567922,8.933419842000035],[125.99748977100012,8.933222650000062],[125.99571076200004,8.93340176300006],[125.994467255,8.933247080000054],[125.99314710500006,8.933834211000033],[125.98991324000009,8.933325025000045],[125.98614982100003,8.933890652000057],[125.98461079300013,8.93303838400004],[125.98391099500009,8.93353812500004],[125.98200400100005,8.933265190000043],[125.97984634800004,8.932706157000041],[125.98057427900004,8.935664773000042],[125.9799205070001,8.936740524000072],[125.97961237400013,8.939584013000056],[125.97928883400004,8.940533650000077],[125.97751678300004,8.941577212000025],[125.9770660250001,8.94215722100006],[125.97637958900009,8.944303822000052],[125.97555682200004,8.944969189000066],[125.97502923200011,8.94629102700003],[125.9754156340001,8.947976078000067],[125.97522197400008,8.949624518000064],[125.97435911000002,8.95045494300007],[125.97499392400003,8.952137997000023],[125.97513394400005,8.95407203800005],[125.97743043200013,8.95640046200003],[125.97867731200006,8.956966804000043],[125.97956057200008,8.958647837000058],[125.97948753000003,8.959842468000033],[125.97862936000001,8.96124925400005],[125.97860143700007,8.962896447000048],[125.97708509000006,8.964843831000053],[125.97630170600007,8.965261887000054],[125.97651682100003,8.966248372000052],[125.97578250300013,8.967612978000034],[125.97421672300003,8.96857262800006],[125.97488832500007,8.969678898000039],[125.97506201500005,8.970665628000061],[125.97473812500006,8.971574091000038],[125.97359074500002,8.973065577000057],[125.97339676600008,8.974672931000043],[125.97679432700009,8.974892549000058],[125.978580296,8.975536978000035],[125.97962597900005,8.976804943000047],[125.98058268300008,8.975089219000042],[125.98244380000006,8.971964838000078],[125.98276665900006,8.97093292300002],[125.98522727900001,8.967989674000023],[125.98699535700007,8.966451970000037],[125.98889267900005,8.96553077800007],[125.98921989900008,8.965034117000073],[125.99066207700002,8.964157785000056],[125.9910711340001,8.963536822000037],[125.99198139100008,8.963447176000043],[125.99462303800011,8.962396388000059],[125.99587569000003,8.963662624000047],[125.99604638700009,8.964278889000068],[125.99443218300007,8.96437425200003],[125.9927725020001,8.963975964000042],[125.99227864600005,8.964350519000048],[125.99253893900006,8.965789535000056],[125.99373498400007,8.965203375000044],[125.99514078400011,8.964944974000048],[125.99630763100004,8.965841347000037],[125.9976954010001,8.968423955000048],[125.99758802600002,8.970483502000036],[125.99717803900012,8.970980841000026],[125.99772752600008,8.972335132000067],[125.99757001000013,8.973324521000054],[125.99583689800012,8.974079700000061],[125.99464556500004,8.975242212000069],[125.992622589,8.975999733000037],[125.99341482400008,8.976652139000068],[125.99394936800002,8.976194883000064],[125.99642511200011,8.975104308000029],[125.99713983000002,8.97641598400003],[125.99797443800004,8.97719149000005],[125.99880431100009,8.977390658000049],[125.99887937900009,8.976443031000029],[125.99974044300006,8.975406740000041],[126.00098003100004,8.97506729200006],[126.00076348700009,8.97391621600002],[126.00121184900001,8.973047920000054],[126.001078161,8.971896171000024],[126.00023679500009,8.97029725600004],[126.00029697600007,8.967538175000072],[125.99995691800007,8.966470465000041],[125.99916680900002,8.966065147000053],[125.9988697990001,8.965202907000048],[125.99985546400002,8.96420679500005],[126.00101250200011,8.963909121000029],[126.00151209800003,8.964234521000035],[126.00279198300007,8.963771205000057],[126.003829214,8.964009776000069],[126.00439397800005,8.962193614000055],[126.00513968100006,8.962228732000028],[126.00585743300009,8.963910915000042],[126.00492744700011,8.966635879000023],[126.0050577500001,8.967375919000062],[126.00663052200002,8.967280844000074],[126.00790301700012,8.965911741000067],[126.00735826100004,8.965133896000054],[126.00755717900007,8.964144175000058],[126.00738036400003,8.962786873000022],[126.00844198900006,8.960966666000045],[126.00964076800007,8.960709903000065],[126.00948328000004,8.961699286000057],[126.01019324500011,8.962434600000051],[126.01122741600011,8.962302627000042],[126.01146835300004,8.96139493000004],[126.00984367500007,8.960214156000061],[126.009958116,8.959019213000033],[126.01094840300004,8.958599417000073],[126.01085748700007,8.957611969000025],[126.0112562500001,8.95575597900006],[126.01381327600008,8.954499958000044],[126.01443536300008,8.954618434000054],[126.01518809900006,8.955518119000029],[126.01601044200005,8.954811501000052],[126.017625586,8.954839506000042],[126.01802574700004,8.953148147000038],[126.0190991930001,8.952768841000022],[126.01956449200009,8.953959043000054],[126.01966154700007,8.955687433000035],[126.01999721500012,8.956219964000068],[126.02101740700003,8.954400086000023],[126.02113412100006,8.953493315000062],[126.0217504200001,8.952911827000037],[126.02271266700006,8.95409796200005],[126.0244139780001,8.954536960000043],[126.02462613300008,8.955152858000073],[126.0226611380001,8.957886283000049],[126.02319306400011,8.958325448000037],[126.02339165500007,8.957591315000059],[126.02436510300004,8.956525275000049],[126.02541435800003,8.954726105000077],[126.02612211700011,8.951220516000035],[126.02591006400007,8.950326913000024],[126.02459171600005,8.949279615000023],[126.023078144,8.949373354000045],[126.02226972200002,8.950600868000038],[126.02123857000004,8.949632579000022],[126.0204619660001,8.949761020000038],[126.02010641400011,8.951310316000047],[126.01927748600009,8.950055528000064],[126.01820906000012,8.949535204000028],[126.01685821900004,8.949505580000046],[126.01551106600006,8.949923504000022],[126.01437485300005,8.951112951000026],[126.01099541600003,8.953256563000025],[126.00973815100006,8.954650461000027],[126.00868009700002,8.955391680000048],[126.00811347700004,8.956169449000074],[126.00729125900013,8.955728462000025],[126.0072768660001,8.953978696000034],[126.00763950300006,8.953283868000028],[126.00885955800004,8.952337953000042],[126.00994920500011,8.950457108000021],[126.00896057400008,8.949691900000062],[126.00687240500008,8.949586774000068],[126.00511592900013,8.95000808000003],[126.0040588720001,8.950871198000073],[126.00304972800005,8.952588640000045],[126.00293998500001,8.954176678000065],[126.00209725800005,8.95621834600007],[126.00124516700009,8.95712062000007],[126.001099338,8.954313721000062],[126.00121009100008,8.952847775000066],[126.00095051400002,8.951140629000065],[126.00033029300006,8.950372405000053],[125.99905489000004,8.949568849000057],[125.99815656300007,8.949820334000037],[125.99718261800002,8.950845597000066],[125.99694406800006,8.951702159000035],[125.99560752800005,8.953422245000072],[125.99388990500005,8.953598896000072],[125.9920854820001,8.953165907000027],[125.99117415500007,8.951830231000029],[125.99169917300004,8.950971352000069],[125.99275926700011,8.950474455000062],[125.99361104200013,8.949531561000072],[125.99463022700002,8.949034901000061],[125.99511233600003,8.947932253000033],[125.99415571600002,8.946067897000033],[125.99537913400002,8.945528946000023],[125.99623063500009,8.944545412000025],[125.99840333200005,8.944975411000028],[125.99885919700012,8.945663603000071],[126.00079402600011,8.947031600000058],[126.00267895200012,8.947301158000073],[126.00370004100012,8.947048758000053],[126.00594125200008,8.945850365000071],[126.00682525900004,8.943849098000044],[126.00656400700007,8.941938502000026],[126.00724804200001,8.940508548000023],[126.00871628400012,8.939886206000038],[126.01036766400013,8.941622667000047],[126.01095969900007,8.943937508000031],[126.01133370700006,8.944626344000024],[126.01211324900008,8.944864204000055],[126.01329672200006,8.944447539000068],[126.01438499200002,8.94240396500004],[126.01536012400005,8.941541410000069],[126.01770089200011,8.942499058000067],[126.01812251600006,8.94400128800004],[126.0177746690001,8.94648659400002],[126.01823090000005,8.947215387000028],[126.01925364200007,8.947166314000071],[126.02076318000002,8.946584316000042],[126.02149981200012,8.946578303000024],[126.02296575200012,8.945670993000023],[126.02401096900009,8.94338355900004],[126.02490420000005,8.942521654000075],[126.02873293800008,8.94029283900005],[126.03145427800007,8.937788133000025],[126.03431452300003,8.937235683000038],[126.03684431500007,8.936319717000059],[126.03883537700005,8.934594197000022],[126.03977248020006,8.933011766906853],[126.03904512437548,8.930222116394459],[126.03750903869106,8.926061535676391],[126.03557028954638,8.922070682699452],[126.03324755380743,8.918287982246996],[126.03056320317359,8.914749854536101],[126.02871211792768,8.912752063882266],[126.02801039100005,8.91225964800003],[126.02653183600012,8.91162055700005],[126.02559207000002,8.911791042000061],[126.02488401000004,8.910291058000041],[126.02356484200004,8.909121614000071],[126.02171501500004,8.908119307000048],[126.02224334000003,8.907667340000048],[126.02392675800002,8.908345429000065],[126.02394487150266,8.908344119063978],[126.02061484373355,8.905929845096122],[126.01677341924035,8.903682353176096],[126.01272900082574,8.901820060340157],[126.01031845013976,8.900984283193196],[126.00907604300004,8.90200224700004]]]}}]}