{"type":"FeatureCollection","features":[{"type":"Feature","properties":{"fid":34,"objectid":1880,"lccode":"07","liqcode":"2010600070000000","mappers":"PJDelosReyes, ACPidlaoan","project":"READY","province":"Northern Samar","otherinfo":null,"datemapped":2009,"publishdate":null,"globalid":"{0D9D6C7A-090D-4A5B-A004-F6233C7DF3DA}","st_area(shape)":0.03290017476223487,"st_perimeter(shape)":11.85341888630265,"liqcodepk":"201060007000000000074","creator":"SNOOPYPC","createdate":"2019-02-19T15:21:28","editor":"LENOVO","modifydate":"2019-03-10T17:50:55","codemove":"na"},"geometry":{"type":"Polygon","coordinates":[]}},{"type":"Feature","properties":{"fid":75,"objectid":1939,"lccode":"06","liqcode":"2010600060000000","mappers":"PJDelosReyes, ACPidlaoan","project":"READY","province":"Northern Samar","otherinfo":null,"datemapped":2009,"publishdate":null,"globalid":"{54FD4513-FD6A-47C1-904A-E307CDDE876E}","st_area(shape)":0.00865304678469956,"st_perimeter(shape)":4.666609657552388,"liqcodepk":"201060006000000000139","creator":"SNOOPYPC","createdate":"2019-02-19T15:21:28","editor":"LENOVO","modifydate":"2019-03-10T17:50:55","codemove":"na"},"geometry":{"type":"Polygon","coordinates":[]}}]}