{"type":"FeatureCollection","features":[{"type":"Feature","properties":{"fid":36,"objectid":1883,"lccode":"07","liqcode":"2010600070000000","mappers":" ","project":"READY","province":"Southern Leyte","otherinfo":null,"datemapped":2008,"publishdate":null,"globalid":"{7CC31FC5-78B8-47A1-A953-92709FF20FEB}","st_area(shape)":0.007628224894819505,"st_perimeter(shape)":2.8421557028980575,"liqcodepk":"201060007000000000077","creator":"SNOOPYPC","createdate":"2019-02-19T15:21:28","editor":"LENOVO","modifydate":"2019-03-10T17:50:55","codemove":"na"},"geometry":{"type":"Polygon","coordinates":[[[125.11201360700011,10.302095838000069],[125.11144994600009,10.304082336000022],[125.1114562140001,10.305023279000064],[125.11069001000011,10.307179091000021],[125.1088955260001,10.30779571800002],[125.10832535600002,10.30880756600004],[125.10799673500003,10.310422841000046],[125.10759284600012,10.310929540000076],[125.10810922200005,10.31203523700003],[125.10896369400005,10.31293702800002],[125.10741229200006,10.314392204000058],[125.10725107100005,10.315670314000045],[125.10576463100006,10.31668822900002],[125.10560117000013,10.317630191000033],[125.10624818900008,10.317962044000069],[125.10639760400011,10.320011122000041],[125.10475751500007,10.323449604000073],[125.10379234299998,10.326312475000066],[125.1032627840001,10.328332278000062],[125.10164853600008,10.33056085000004],[125.10060337700007,10.331609498000034],[125.0996633950001,10.333161523000056],[125.10031736700012,10.334535085000029],[125.101709291,10.334593246000054],[125.10215445900006,10.335195257000064],[125.102812695,10.337207313000022],[125.10356338500003,10.337807327000064],[125.1053269570001,10.342702346000067],[125.10536695200007,10.343609453000056],[125.10620005200008,10.346393344000033],[125.10723528400001,10.348940684000068],[125.10646406900004,10.350357162000021],[125.10620310800003,10.351938382000071],[125.1059846170001,10.35479629100007],[125.10691377900004,10.356705792000072],[125.10766789700004,10.357809826000048],[125.108649021,10.357332949000067],[125.10908570100003,10.356657943000073],[125.11037160000001,10.356078216000071],[125.11170359200003,10.357312912000054],[125.11347384100007,10.358107802000061],[125.11507691300005,10.359273556000062],[125.11555707200012,10.360009680000072],[125.11684590000006,10.35986682600003],[125.11706857000001,10.357647335000022],[125.11841106200006,10.355386856000052],[125.11924756200004,10.353600242000027],[125.12013930300009,10.35245178600007],[125.12047034400007,10.35120617600006],[125.12102595500005,10.350547184000048],[125.12203039600001,10.348507431000028],[125.1215307120001,10.347384861000021],[125.1219449580001,10.345886673000054],[125.12345358200002,10.345641507000042],[125.124534218,10.344827870000074],[125.12466642200002,10.344306041000037],[125.12333679000005,10.343407450000027],[125.12315723200004,10.341946793000034],[125.122279036,10.340053820000039],[125.12278104000006,10.336471499000027],[125.12283562300001,10.331967957000074],[125.12123888000008,10.329189151000039],[125.12134942100012,10.327961802000058],[125.12133920100007,10.323912405000044],[125.12071957200011,10.322605815000031],[125.12140528800013,10.321105847000066],[125.12087161400007,10.31996668200003],[125.12176170200007,10.318583028000036],[125.12187359700012,10.31755727500007],[125.1215666510001,10.314803592000036],[125.12130592400001,10.31388113500003],[125.12171520800007,10.311643704000062],[125.12138851200007,10.311007326000036],[125.12183391200006,10.30910563800006],[125.1216252690001,10.30835091800003],[125.12293960900001,10.306981199000063],[125.12333213400008,10.304794214000022],[125.12478030700004,10.303138057000071],[125.12475958300001,10.30258371100007],[125.12543334922181,10.300874386345756],[125.12314374674112,10.300553404732709],[125.11866943607339,10.300365130623259],[125.11419801915758,10.300612008185503],[125.11220374811789,10.300918292020334],[125.11201360700011,10.302095838000069]]]}},{"type":"Feature","properties":{"fid":79,"objectid":1914,"lccode":"05","liqcode":"2010600050000000","mappers":" ","project":"READY","province":"Southern Leyte","otherinfo":null,"datemapped":2008,"publishdate":null,"globalid":"{177A2F3C-711A-4FFF-9FE4-BFA07517E179}","st_area(shape)":0.0012070138997434547,"st_perimeter(shape)":1.0655847476350546,"liqcodepk":"201060005000000000112","creator":"SNOOPYPC","createdate":"2019-02-19T15:21:28","editor":"LENOVO","modifydate":"2019-03-10T17:50:55","codemove":"na"},"geometry":{"type":"Polygon","coordinates":[]}},{"type":"Feature","properties":{"fid":84,"objectid":1943,"lccode":"06","liqcode":"2010600060000000","mappers":" ","project":"READY","province":"Southern Leyte","otherinfo":null,"datemapped":2008,"publishdate":null,"globalid":"{119DCA31-D744-48FD-9894-B5A52C9675C6}","st_area(shape)":0.0027393288830517767,"st_perimeter(shape)":1.3301022984600077,"liqcodepk":"201060006000000000143","creator":"SNOOPYPC","createdate":"2019-02-19T15:21:28","editor":"LENOVO","modifydate":"2019-03-10T17:50:55","codemove":"na"},"geometry":{"type":"Polygon","coordinates":[]}}]}