{"type":"FeatureCollection","features":[{"type":"Feature","properties":{"fid":17,"objectid":1863,"lccode":"07","liqcode":"2010600070000000","mappers":"MITAbigania, DJVRivera, PJDelosReyes, ACPidlaoan","project":"GMMA-READY","province":"Bulacan","otherinfo":null,"datemapped":2013,"publishdate":null,"globalid":"{70EE0B92-1310-4863-994B-262A0419985C}","st_area(shape)":0.05460415768202689,"st_perimeter(shape)":2.604001747145809,"liqcodepk":"201060007000000000055","creator":"SNOOPYPC","createdate":"2019-02-19T15:21:28","editor":"LENOVO","modifydate":"2019-03-10T17:50:55","codemove":"na"},"geometry":{"type":"MultiPolygon","coordinates":[[[[120.92566874100008,15.181612917000052],[120.92616843500004,15.181322832000031],[120.92901041400012,15.181402561000029],[120.92956564400004,15.183898877000047],[120.92965019700011,15.186675977000046],[120.93083486800003,15.186901246000044],[120.93038433100003,15.190647290000072],[120.93142839400002,15.191139123000033],[120.93144027200002,15.192746468000049],[120.93259657700001,15.193051784000033],[120.93245615900003,15.19613108200002],[120.93099259200007,15.19619793900006],[120.93038690100003,15.198871121000025],[120.92927024500011,15.199068264000061],[120.93016994700602,15.213655589750639],[120.93031829530435,15.213901170455514],[120.93300334070878,15.21748708602113],[120.93603752764355,15.220800158379467],[120.9393916421093,15.223808467934548],[120.9428330376689,15.226335894791726],[120.94279195200012,15.224764699000048],[120.94126132200005,15.21844737300006],[120.94197312300004,15.216158351000049],[120.94337903500004,15.213397326000067],[120.94410841900003,15.209290986000045],[120.94266994000009,15.205260483000073],[120.94172121700001,15.201521472000023],[120.94057092800006,15.198258783000027],[120.9383306950001,15.19565570800006],[120.9357133760001,15.191327458000051],[120.93397225000001,15.188059331000034],[120.93182891600009,15.185648440000023],[120.93065732500008,15.184585485000065],[120.92988629400008,15.182856700000057],[120.9312038180001,15.179042826000057],[120.9317567050001,15.172830619000022],[120.93023324400008,15.167460193000064],[120.93205233700007,15.162694382000042],[120.93323692871263,15.160585257022015],[120.93080764917202,15.163704582997449],[120.92842392053458,15.167485632717064],[120.9264331701481,15.171475370337538],[120.92485458446589,15.175635385124371],[120.92370338501273,15.179925625174729],[120.92344772459931,15.18149654195875],[120.92566874100008,15.181612917000052]]],[[[120.93802839700004,15.15576662900003],[120.9420943660001,15.15283861000006],[120.94391834605408,15.151268378882413],[120.94376121919584,15.151357918423152],[120.94006950926375,15.153965432127617],[120.93665861890217,15.156911787167196],[120.9355698729605,15.158056655761051],[120.93802839700004,15.15576662900003]]]]}},{"type":"Feature","properties":{"fid":41,"objectid":1890,"lccode":"05","liqcode":"2010600050000000","mappers":"MITAbigania, DJVRivera, PJDelosReyes, ACPidlaoan","project":"GMMA-READY","province":"Bulacan","otherinfo":null,"datemapped":2013,"publishdate":null,"globalid":"{962B0335-0147-4964-AF91-92BBA0EB94A8}","st_area(shape)":0.006518104617901708,"st_perimeter(shape)":1.6741822690840518,"liqcodepk":"201060005000000000084","creator":"SNOOPYPC","createdate":"2019-02-19T15:21:28","editor":"LENOVO","modifydate":"2019-03-10T17:50:55","codemove":"na"},"geometry":{"type":"Polygon","coordinates":[[[120.98701701500009,15.14799689800003],[120.98744658900011,15.149435466000059],[120.98880974300005,15.15107370400005],[120.98908661900009,15.153037065000037],[120.99100003500006,15.153771440000074],[120.99630659500008,15.154966456000066],[120.99713285400004,15.156121607000042],[120.99711619400013,15.157891012000047],[120.99636365200003,15.15936694900006],[120.9947664250001,15.161648369000035],[120.993673768,15.162642991000043],[120.9909530750001,15.163957822000045],[120.9887748540001,15.165181875000027],[120.98694898500003,15.16559596800005],[120.98246292700004,15.166129801000066],[120.97975667700008,15.165914213000061],[120.97768325400013,15.166469562000032],[120.97624309300012,15.167747896000037],[120.97613503100001,15.168751259000029],[120.97878627300008,15.174753185000043],[120.97938637000006,15.178967163000037],[120.98056131700002,15.179695111000054],[120.983810284,15.17981989500004],[120.98523552900008,15.180119579000063],[120.98699920800006,15.181091809000064],[120.9878773910001,15.181960533000053],[120.98875059800002,15.183355276000043],[120.98874017900005,15.184455195000053],[120.98763459800011,15.186788712000068],[120.98570193500005,15.188062692000075],[120.9841704070001,15.188575044000062],[120.98302867400004,15.189521361000054],[120.98336020900001,15.190911268000036],[120.98414088400013,15.191683462000071],[120.98553942100013,15.19480458000004],[120.9868622450001,15.195533830000045],[120.98802234100003,15.197839811000053],[120.99022699900001,15.199055114000027],[120.99257357400008,15.20089349300002],[120.99281254900008,15.201660829000046],[120.99246064800002,15.202422891000028],[120.99141693000003,15.203417821000071],[120.98918675000006,15.20488050100005],[120.98798486300008,15.206974098000043],[120.98746199900006,15.210173683000047],[120.98636539800009,15.211550799000065],[120.98501110800008,15.214121187000046],[120.98386748200006,15.215258728000034],[120.98423647300002,15.217892442000048],[120.9839710460001,15.219898729000024],[120.98332676300004,15.220323337000025],[120.98188204600002,15.222032012000053],[120.98127964400011,15.223222276000058],[120.98038629300004,15.223931561000024],[120.97934978400009,15.224161373000072],[120.97864792000007,15.22544640500007],[120.97832912500006,15.227882585000037],[120.97872173000009,15.229225905000018],[120.979864689,15.229852662000038],[120.98226927700013,15.230264114000018],[120.98473498800003,15.230286256000056],[120.98585544735627,15.23132112023612],[120.98664899573087,15.231053440717956],[120.99079481112877,15.229194856862192],[120.99473296163751,15.226950592341423],[120.99842550398107,15.224342270703094],[120.9992805971865,15.223603526009368],[120.99898478300008,15.22347186200005],[120.99683444400011,15.221683060000034],[120.99537314100007,15.219948272000066],[120.99539305400002,15.217844096000022],[120.99654078900006,15.216276044000042],[120.9973599430001,15.212983302000053],[120.99876876300004,15.209839358000062],[121.0004073120001,15.208376288000068],[120.99973562600007,15.206547913000065],[121.0000925510001,15.205259724000026],[121.00022579700008,15.201578345000032],[121.00065176900011,15.200070059000035],[121.00149533400008,15.198706237000065],[120.99973235800007,15.196456472000024],[120.99915757800012,15.19472960200005],[120.99684116400009,15.189687184000036],[120.99523461700004,15.187711985000023],[120.9948478770001,15.185740871000064],[120.99556529000004,15.184537296000027],[120.99432482800012,15.18396160500004],[120.99350842800006,15.182770477000078],[120.99338687400008,15.179995415000063],[120.99355180100008,15.178179546000026],[120.99531645200011,15.175702425000054],[120.99466007,15.174849616000078],[120.99463103100005,15.173406489000058],[120.99589089500012,15.170356786000074],[120.99630106100004,15.168638675000066],[120.99735763400008,15.16625668200004],[120.99894407500005,15.165122962000053],[121.00051296100004,15.165854302000072],[121.00145298900009,15.165384362000053],[121.00157576200002,15.162802803000034],[121.00210674500012,15.158694442000062],[121.00290086300005,15.15803185100004],[121.00292193891752,15.15803203765683],[121.002438188447,15.157504038901013],[120.99908398314672,15.154496671995771],[120.9954425342095,15.151823067183075],[120.99154890652105,15.149508959041336],[120.9874405882636,15.147576620333044],[120.98692971928297,15.147393914027692],[120.98701701500009,15.14799689800003]]]}},{"type":"Feature","properties":{"fid":92,"objectid":1921,"lccode":"06","liqcode":"2010600060000000","mappers":"MITAbigania, DJVRivera, PJDelosReyes, ACPidlaoan","project":"GMMA-READY","province":"Bulacan","otherinfo":null,"datemapped":2013,"publishdate":null,"globalid":"{AD30FD4E-4565-4937-AC43-8F5ADC174AC4}","st_area(shape)":0.01360742625474969,"st_perimeter(shape)":2.0316826783369253,"liqcodepk":"201060006000000000119","creator":"SNOOPYPC","createdate":"2019-02-19T15:21:28","editor":"LENOVO","modifydate":"2019-03-10T17:50:55","codemove":"na"},"geometry":{"type":"Polygon","coordinates":[[[120.95570190900004,15.231937737000065],[120.96074284100007,15.232512532000046],[120.96821648100001,15.233554630000071],[120.96927871100003,15.233425026000077],[120.97008886200001,15.232532824000025],[120.97420955800011,15.230992717000051],[120.9760242760001,15.229073662000078],[120.97709635500007,15.228253701000028],[120.97872173000009,15.229225905000018],[120.97832912500006,15.227882585000037],[120.97864792000007,15.22544640500007],[120.97934978400009,15.224161373000072],[120.98038629300004,15.223931561000024],[120.98127964400011,15.223222276000058],[120.98188204600002,15.222032012000053],[120.98332676300004,15.220323337000025],[120.9839710460001,15.219898729000024],[120.98423647300002,15.217892442000048],[120.98386748200006,15.215258728000034],[120.98501110800008,15.214121187000046],[120.98636539800009,15.211550799000065],[120.98746199900006,15.210173683000047],[120.98798486300008,15.206974098000043],[120.98918675000006,15.20488050100005],[120.99141693000003,15.203417821000071],[120.99246064800002,15.202422891000028],[120.99281254900008,15.201660829000046],[120.99257357400008,15.20089349300002],[120.99022699900001,15.199055114000027],[120.98802234100003,15.197839811000053],[120.9868622450001,15.195533830000045],[120.98553942100013,15.19480458000004],[120.98414088400013,15.191683462000071],[120.98336020900001,15.190911268000036],[120.98302867400004,15.189521361000054],[120.9841704070001,15.188575044000062],[120.98570193500005,15.188062692000075],[120.98763459800011,15.186788712000068],[120.98874017900005,15.184455195000053],[120.98875059800002,15.183355276000043],[120.9878773910001,15.181960533000053],[120.98699920800006,15.181091809000064],[120.98523552900008,15.180119579000063],[120.983810284,15.17981989500004],[120.98056131700002,15.179695111000054],[120.97938637000006,15.178967163000037],[120.97878627300008,15.174753185000043],[120.97613503100001,15.168751259000029],[120.97624309300012,15.167747896000037],[120.97768325400013,15.166469562000032],[120.97975667700008,15.165914213000061],[120.98246292700004,15.166129801000066],[120.98694898500003,15.16559596800005],[120.9887748540001,15.165181875000027],[120.9909530750001,15.163957822000045],[120.993673768,15.162642991000043],[120.9947664250001,15.161648369000035],[120.99636365200003,15.15936694900006],[120.99711619400013,15.157891012000047],[120.99713285400004,15.156121607000042],[120.99630659500008,15.154966456000066],[120.99100003500006,15.153771440000074],[120.98908661900009,15.153037065000037],[120.98880974300005,15.15107370400005],[120.98744658900011,15.149435466000059],[120.98701701500009,15.14799689800003],[120.98692971928297,15.147393914027692],[120.98315713025295,15.146044648015513],[120.97873976559985,15.144927784619272],[120.97423101333743,15.144236776696435],[120.96967426980403,15.143978271685972],[120.96511339168403,15.144154754175766],[120.96059227468554,15.144764522164364],[120.95615443187219,15.145801703544114],[120.95184257567044,15.147256312643087],[120.94769820753629,15.149114346281756],[120.94391834605408,15.151268378882413],[120.9420943660001,15.15283861000006],[120.93802839700004,15.15576662900003],[120.9355698729605,15.158056655761051],[120.93356139000363,15.160168621314284],[120.93323692871263,15.160585257022015],[120.93205233700007,15.162694382000042],[120.93023324400008,15.167460193000064],[120.9317567050001,15.172830619000022],[120.9312038180001,15.179042826000057],[120.92988629400008,15.182856700000057],[120.93065732500008,15.184585485000065],[120.93182891600009,15.185648440000023],[120.93397225000001,15.188059331000034],[120.9357133760001,15.191327458000051],[120.9383306950001,15.19565570800006],[120.94057092800006,15.198258783000027],[120.94172121700001,15.201521472000023],[120.94266994000009,15.205260483000073],[120.94410841900003,15.209290986000045],[120.94337903500004,15.213397326000067],[120.94197312300004,15.216158351000049],[120.94126132200005,15.21844737300006],[120.94279195200012,15.224764699000048],[120.9428330376689,15.226335894791726],[120.94303338353585,15.226483029381928],[120.94692767579745,15.228798071380247],[120.9510370051728,15.230731285279397],[120.953230772483,15.231516054682011],[120.95570190900004,15.231937737000065]]]}},{"type":"Feature","properties":{"fid":171,"objectid":9613,"lccode":"01","liqcode":"2010600010000000","mappers":"DJLBuhay, MJVReyes, MITAbigania, KLPapiona, KMVitto","project":"MELP","province":"Nueva Ecija","otherinfo":"hazard boundary with Pangasinan updated on 2024","datemapped":2018,"publishdate":null,"globalid":"{142EC992-C228-490B-8C06-5B4A68BA1242}","st_area(shape)":0.21874224791512728,"st_perimeter(shape)":7.9099228422392365,"liqcodepk":"201060001000000000019","creator":"SNOOPYPC","createdate":"2019-02-19T15:21:28","editor":"LENOVO","modifydate":"2019-03-10T17:53:06","codemove":"na"},"geometry":{"type":"Polygon","coordinates":[[[120.98473498800003,15.230286256000056],[120.98226927700013,15.230264114000018],[120.979864689,15.229852662000038],[120.97872173000009,15.229225905000018],[120.97709635500007,15.228253701000028],[120.9760242760001,15.229073662000078],[120.97420955800011,15.230992717000051],[120.97008886200001,15.232532824000025],[120.96927871100003,15.233425026000077],[120.96821648100001,15.233554630000071],[120.96074284100007,15.232512532000046],[120.95570190900004,15.231937737000065],[120.953230772483,15.231516054682011],[120.95532178198937,15.232264040488925],[120.95974072245546,15.23338156439214],[120.96425124698033,15.234073085053991],[120.96880989111845,15.23433193533118],[120.97337272514615,15.234155617367408],[120.9778957781908,15.233545826841473],[120.98233546278743,15.232508436727153],[120.98585544735627,15.23132112023612],[120.98473498800003,15.230286256000056]]]}},{"type":"Feature","properties":{"fid":218,"objectid":8402,"lccode":"07","liqcode":null,"mappers":"PJDelosReyes, ACPidlaoan","project":"READY","province":"Pampanga","otherinfo":"as of October 2015, reupdate 2021","datemapped":2008,"publishdate":null,"globalid":"{523547B0-D8C4-4084-9EE8-AA20F7B2A472}","st_area(shape)":0.07539067039960894,"st_perimeter(shape)":2.422972172763333,"liqcodepk":null,"creator":null,"createdate":null,"editor":null,"modifydate":"1905-07-07T08:00:00","codemove":null},"geometry":{"type":"Polygon","coordinates":[[[120.92927024500011,15.199068264000061],[120.93038690100003,15.198871121000025],[120.93099259200007,15.19619793900006],[120.93245615900003,15.19613108200002],[120.93259657700001,15.193051784000033],[120.93144027200002,15.192746468000049],[120.93142839400002,15.191139123000033],[120.93038433100003,15.190647290000072],[120.93083486800003,15.186901246000044],[120.92965019700011,15.186675977000046],[120.92956564400004,15.183898877000047],[120.92901041400012,15.181402561000029],[120.92616843500004,15.181322832000031],[120.92566874100008,15.181612917000052],[120.92344772459931,15.18149654195875],[120.92299068107279,15.184304782702442],[120.92272336183663,15.188730691483904],[120.92290402907884,15.193160732651776],[120.92353097105163,15.19755224493982],[120.92459817788682,15.201862935436049],[120.92609539839837,15.206051286892512],[120.92800823778121,15.21007695766903],[120.93016994700602,15.213655589750639],[120.92927024500011,15.199068264000061]]]}}]}