{"type":"FeatureCollection","features":[{"type":"Feature","properties":{"fid":31,"objectid":1877,"lccode":"07","liqcode":"2010600070000000","mappers":"PJDelosReyes, ACPidlaoan","project":"READY","province":"Ilocos Sur","otherinfo":null,"datemapped":2012,"publishdate":null,"globalid":"{9BD19C39-D43F-480F-8D4D-C2FF10071B57}","st_area(shape)":0.01783800115070572,"st_perimeter(shape)":3.398456363100086,"liqcodepk":"201060007000000000070","creator":"SNOOPYPC","createdate":"2019-02-19T15:21:28","editor":"LENOVO","modifydate":"2019-03-10T17:50:55","codemove":"na"},"geometry":{"type":"Polygon","coordinates":[[[120.40501984200012,16.837979693000023],[120.40514960500002,16.83604007300005],[120.40474506100009,16.835387872000066],[120.40324309300001,16.835617830000043],[120.39832981500001,16.83963704400003],[120.39685700000001,16.841509771000062],[120.39424589100008,16.84346762900003],[120.39091264100013,16.84531666400005],[120.38894821400004,16.845341516000072],[120.3875190010001,16.84402916300007],[120.38663915400002,16.844117465000064],[120.38247900200008,16.84595590700007],[120.38193005000004,16.84828825500006],[120.382097014,16.85117721700004],[120.38177322900005,16.85216862000004],[120.37929835300008,16.85547180000003],[120.3782055790001,16.856005306000036],[120.37620511999998,16.854884765000065],[120.37397863600007,16.851421884000043],[120.37107067800004,16.84868587400007],[120.36897817500005,16.846728881000047],[120.36645224100005,16.846248503000027],[120.36469383500003,16.846325428000053],[120.36355211500008,16.846659215000038],[120.36081392300002,16.846574159000056],[120.35833069600005,16.846741300000073],[120.35636975600005,16.846516933000032],[120.35296949200006,16.845726514000038],[120.35166588300001,16.846555855000076],[120.35035664200008,16.84778323000006],[120.35179666900001,16.848299540000028],[120.35774664000009,16.849720159000068],[120.35866856300002,16.850329346000024],[120.36170541200012,16.85123943800005],[120.366140114,16.85385979700004],[120.36965425300002,16.855771350000055],[120.37142688200004,16.856540752000058],[120.37324637300004,16.857659019000042],[120.37638843581645,16.860457363639984],[120.37893019481224,16.85987873061284],[120.38328326050417,16.858441348947583],[120.38746898605093,16.856599933010674],[120.39144703656538,16.854372225066395],[120.39517908172523,16.851779689976713],[120.39862916566531,16.8488473080633],[120.4017640537974,16.845603334037854],[120.40455355319655,16.842079024342112],[120.40667072253414,16.838776445331256],[120.40501984200012,16.837979693000023]]]}},{"type":"Feature","properties":{"fid":58,"objectid":1907,"lccode":"05","liqcode":"2010600050000000","mappers":"PJDelosReyes, ACPidlaoan","project":"READY","province":"Ilocos Sur","otherinfo":null,"datemapped":2012,"publishdate":null,"globalid":"{7D41ABB3-20BB-4A8A-A22A-9DDDC45B8904}","st_area(shape)":0.029120699274048492,"st_perimeter(shape)":9.226907297832456,"liqcodepk":"201060005000000000102","creator":"SNOOPYPC","createdate":"2019-02-19T15:21:28","editor":"LENOVO","modifydate":"2019-03-10T17:50:55","codemove":"na"},"geometry":{"type":"Polygon","coordinates":[[[120.40986460500007,16.802072484000064],[120.40898503600012,16.80336963100007],[120.40759719200001,16.805620810000047],[120.40777389900005,16.80735986700006],[120.40910712000003,16.81245858000005],[120.408765764,16.81792211900006],[120.40881149900007,16.819466554000027],[120.41206793300012,16.82066543200005],[120.41256353814016,16.82069159575136],[120.41279605509243,16.817093619403806],[120.41263038330447,16.812665085285982],[120.41201484048162,16.808273516508155],[120.41095538607591,16.80396120653005],[120.41012597366641,16.801632898085167],[120.40986460500007,16.802072484000064]]]}},{"type":"Feature","properties":{"fid":72,"objectid":1936,"lccode":"06","liqcode":"2010600060000000","mappers":"PJDelosReyes, ACPidlaoan","project":"READY","province":"Ilocos Sur","otherinfo":null,"datemapped":2012,"publishdate":null,"globalid":"{33CDE2C7-9AFF-4DEC-86B5-45B4892EBDFF}","st_area(shape)":0.017363484289297154,"st_perimeter(shape)":5.7193106480781575,"liqcodepk":"201060006000000000135","creator":"SNOOPYPC","createdate":"2019-02-19T15:21:28","editor":"LENOVO","modifydate":"2019-03-10T17:50:55","codemove":"na"},"geometry":{"type":"Polygon","coordinates":[[[120.40844489300004,16.83506131900003],[120.40549871700013,16.83507394600002],[120.40474506100009,16.835387872000066],[120.40514960500002,16.83604007300005],[120.40501984200012,16.837979693000023],[120.40667072253414,16.838776445331256],[120.40697080345706,16.8383083355445],[120.4085892518105,16.83512166900068],[120.40844489300004,16.83506131900003]]]}},{"type":"Feature","properties":{"fid":170,"objectid":9612,"lccode":"01","liqcode":"2010600010000000","mappers":"DJLBuhay, MJVReyes, MITAbigania, KLPapiona, KMVitto","project":"MELP","province":"La Union","otherinfo":"hazard boundary with Pangasinan updated on 2024","datemapped":2017,"publishdate":null,"globalid":"{556DE1FA-9488-4F33-9543-8B7DFFAA63AD}","st_area(shape)":0.022191914159391556,"st_perimeter(shape)":5.763901795210022,"liqcodepk":"201060001000000000017","creator":"SNOOPYPC","createdate":"2019-02-19T15:21:28","editor":"LENOVO","modifydate":"2019-03-10T17:53:06","codemove":"na"},"geometry":{"type":"MultiPolygon","coordinates":[[[[120.34771167800011,16.775012453000045],[120.3484881920001,16.775632010000034],[120.34896272800007,16.776788511000063],[120.34873704700011,16.77759879500007],[120.34919995500002,16.77813467700003],[120.35047261600003,16.77773848900006],[120.3504869960001,16.779101492000052],[120.3513498420001,16.780101863000027],[120.35119891800004,16.78094257700008],[120.35210446500004,16.78228245800005],[120.35274932400013,16.78229559400006],[120.35279048500001,16.780561629000037],[120.35239681500002,16.77997858500003],[120.35296885100003,16.779313690000038],[120.35482110600003,16.77924800900007],[120.35598734100007,16.778170833000047],[120.35593245900009,16.776555058000042],[120.35685172700005,16.77487358700006],[120.35827864900013,16.774137938000024],[120.35871770200004,16.773389150000067],[120.35739287017158,16.772096747741312],[120.35738472245903,16.77209780544226],[120.35290835869587,16.7731171167267],[120.34855721001036,16.774554107424837],[120.3475819060271,16.77498321799093],[120.34771167800011,16.775012453000045]]],[[[120.41206793300012,16.82066543200005],[120.40881149900007,16.819466554000027],[120.408765764,16.81792211900006],[120.40910712000003,16.81245858000005],[120.40777389900005,16.80735986700006],[120.40759719200001,16.805620810000047],[120.40898503600012,16.80336963100007],[120.4068417420001,16.804664440000064],[120.40634058100011,16.805683012000035],[120.40512821500012,16.806135108000035],[120.40574707500002,16.80767838300005],[120.40382304100001,16.809307960000066],[120.40262473000008,16.80989003800005],[120.40158135900003,16.81144448400004],[120.400375208,16.812198708000036],[120.39784419000011,16.81295049000004],[120.396705643,16.813112906000075],[120.39538359300002,16.81399467200003],[120.39570346400001,16.815279592000024],[120.39473652000005,16.81631879000002],[120.39452734500004,16.817826411000055],[120.39327008200006,16.81832185200005],[120.39134711500003,16.819834236000077],[120.39079228100002,16.821702841000047],[120.38979704600001,16.822629335000045],[120.38752916700003,16.82374350600003],[120.38543851800011,16.82692501600007],[120.38527441800011,16.828034117000072],[120.38223297200012,16.828908668000047],[120.38102880800011,16.829505063000052],[120.3803677640001,16.830286408000063],[120.3791428090001,16.830724808000067],[120.379171572,16.831564538000066],[120.37834143300005,16.831935983000047],[120.37721201600003,16.83114300100004],[120.37664136300009,16.831541194000067],[120.37501259700002,16.83092141200007],[120.37426357200002,16.83125833100007],[120.37335654100002,16.83045814800005],[120.37134130900004,16.830850541000075],[120.36894451600006,16.831022957000066],[120.36865870300004,16.830159028000026],[120.37048862700011,16.82791232200003],[120.371083052,16.82476501900004],[120.37217477000002,16.823326093000052],[120.37307560500007,16.822773662000028],[120.37414227000012,16.823150527000053],[120.37421945800008,16.82187066700004],[120.3748304190001,16.821010547000075],[120.37395864300004,16.820496113000047],[120.37546453300003,16.819382236000024],[120.37610269100003,16.818444089000025],[120.37680942000007,16.816036335000035],[120.37832738600002,16.815868502000058],[120.37923007400003,16.814936086000046],[120.3780204750001,16.814281444000077],[120.37617988800002,16.814616396000073],[120.37515490200008,16.81417993400004],[120.37323156000004,16.814293723000052],[120.37193459800007,16.815348285000027],[120.37048941900004,16.815554760000055],[120.36939247700003,16.816259717000033],[120.36821868900007,16.816207494000025],[120.36744111000007,16.816810614000076],[120.365960329,16.816242021000047],[120.36361662500008,16.815945851000034],[120.36038193900005,16.814163149000017],[120.36027726500005,16.812763877000066],[120.35754186100009,16.81321859200005],[120.35603487300011,16.811861024000045],[120.35586507399998,16.809690772000067],[120.35730438600002,16.807742827000027],[120.35728612100003,16.80694161800005],[120.35621019100006,16.805478500000046],[120.35469609000006,16.804639119000058],[120.35426988800009,16.803124899000064],[120.35313443600012,16.803651227000046],[120.35152072100004,16.80392125700007],[120.35031176400003,16.80328417100003],[120.34891843300012,16.803188283000054],[120.34767632200011,16.80402296100004],[120.34790314700003,16.804838351000058],[120.34733264300007,16.805901531000075],[120.34761359700009,16.806392635000062],[120.3458437380001,16.807354304000057],[120.34537283200007,16.808390087000078],[120.34426831100006,16.80909478800004],[120.34463685300011,16.809798506000053],[120.34387568800003,16.810565288000074],[120.34500490200003,16.810869243000067],[120.34569858000008,16.809495667000018],[120.34699393200003,16.80983695200007],[120.34635879900009,16.81200220900007],[120.3463953390001,16.812892657000074],[120.3472673120001,16.813941145000058],[120.34698595400006,16.81525315300007],[120.3456023650001,16.816350728000035],[120.34403174500005,16.816992919000025],[120.34272287100009,16.816867359000074],[120.34181747000004,16.815965525000024],[120.33958604100009,16.816124667000057],[120.33813861899999,16.815915250000046],[120.33624218700005,16.816249108000022],[120.335100698,16.817019806000076],[120.33496920300003,16.817907023000032],[120.33397452300007,16.819173305000053],[120.3351747690001,16.820615434000047],[120.33503754500009,16.82221029300006],[120.33552648800003,16.822730396000054],[120.33647481000003,16.82233646800006],[120.338009531,16.820815085000053],[120.33835576200012,16.82000711300003],[120.33815104000007,16.818808865000047],[120.33921597300002,16.81811298300005],[120.34014823800008,16.819198955000044],[120.3428665020001,16.819090758000073],[120.34322710100002,16.819919831000046],[120.34406701600007,16.82018159900002],[120.34534012300003,16.81962455400003],[120.34640080200005,16.820068385000067],[120.34706451300008,16.821403184000072],[120.348270221,16.82212368500007],[120.34940467100013,16.82219932500004],[120.35105393500008,16.82302225200004],[120.35185163500012,16.82453798900008],[120.35296595700004,16.824695731000077],[120.35417869800006,16.825270527000043],[120.35452517000012,16.826049223000044],[120.35420330000012,16.826714587000023],[120.35457191600005,16.828042758000038],[120.35574897500011,16.828819196000037],[120.35787793500005,16.82962568900007],[120.35832409400008,16.83042643400006],[120.35787072300002,16.833236333000055],[120.35898669800008,16.83401480900005],[120.35980791200005,16.833676161000025],[120.36070123000002,16.83259798400007],[120.36176953100006,16.831977297000034],[120.3635017910001,16.83149382400006],[120.36498322500007,16.83021135300004],[120.36691849300007,16.830433838000033],[120.36698991600008,16.833533654000057],[120.36643652000011,16.83483528600004],[120.36700946500002,16.836483277000067],[120.36744941500001,16.83696684500006],[120.3688705400001,16.836434702000076],[120.37065405900012,16.836697274000066],[120.37136790900001,16.837112656000045],[120.3740858860001,16.840194236000062],[120.37397240500003,16.841225107000074],[120.37305994000009,16.841175193000023],[120.37183704200004,16.840605138000058],[120.36987530400008,16.840350598000047],[120.36993329600011,16.84189982200007],[120.3703707740001,16.843281856000033],[120.36969039900009,16.84367459200007],[120.36720651000007,16.84385301900005],[120.36581093300003,16.84456312100002],[120.36639834100004,16.845505071000044],[120.36772129100005,16.84630331400007],[120.37036719000002,16.847129079000066],[120.37094238600004,16.84773463800007],[120.37107067800004,16.84868587400007],[120.37397863600007,16.851421884000043],[120.37620511999998,16.854884765000065],[120.3782055790001,16.856005306000036],[120.37929835300008,16.85547180000003],[120.38177322900005,16.85216862000004],[120.382097014,16.85117721700004],[120.38193005000004,16.84828825500006],[120.38247900200008,16.84595590700007],[120.38663915400002,16.844117465000064],[120.3875190010001,16.84402916300007],[120.38894821400004,16.845341516000072],[120.39091264100013,16.84531666400005],[120.39424589100008,16.84346762900003],[120.39685700000001,16.841509771000062],[120.39832981500001,16.83963704400003],[120.40324309300001,16.835617830000043],[120.40474506100009,16.835387872000066],[120.40549871700013,16.83507394600002],[120.40844489300004,16.83506131900003],[120.4085892518105,16.83512166900068],[120.40899253521341,16.8343275967212],[120.41059929384379,16.83017515899955],[120.41177562621701,16.825891025661804],[120.4125102287087,16.821516466392538],[120.41256353814016,16.82069159575136],[120.41206793300012,16.82066543200005]],[[120.35907474900011,16.829951419000054],[120.35850074700011,16.828223115000068],[120.35858061300006,16.827473804000018],[120.35970344900012,16.827377366000064],[120.36015681600009,16.826174050000073],[120.36095707400013,16.82572075000007],[120.3630435350001,16.82806548500002],[120.36312773400006,16.829152410000063],[120.36249404000012,16.829760792000055],[120.36080299500009,16.830393816000026],[120.35907474900011,16.829951419000054]]],[[[120.40986460500007,16.802072484000064],[120.41012597366641,16.801632898085167],[120.41007660160979,16.801494300429486],[120.40986460500007,16.802072484000064]]],[[[120.40673518800007,16.795424363000052],[120.40658371600013,16.796073646000025],[120.40788543400005,16.797497587000066],[120.40760040600004,16.79875575400007],[120.4080567520001,16.79967915000003],[120.4090883020001,16.800461284000054],[120.4096502168142,16.800297342434057],[120.40946225325625,16.79976968248701],[120.40754984920633,16.795739305370343],[120.40719498649531,16.795151707546808],[120.40673518800007,16.795424363000052]]]]}}]}