{"type":"FeatureCollection","features":[{"type":"Feature","properties":{"fid":30,"objectid":1876,"lccode":"07","liqcode":"2010600070000000","mappers":"PJDelosReyes, ACPidlaoan","project":"READY","province":"Ilocos Norte","otherinfo":null,"datemapped":2012,"publishdate":null,"globalid":"{DDD7C418-83F8-494F-BE1F-501E5EB1EB53}","st_area(shape)":0.0068069229463748535,"st_perimeter(shape)":2.382699422788448,"liqcodepk":"201060007000000000069","creator":"SNOOPYPC","createdate":"2019-02-19T15:21:28","editor":"LENOVO","modifydate":"2019-03-10T17:50:55","codemove":"na"},"geometry":{"type":"Polygon","coordinates":[[[120.60218200800011,18.18979528800003],[120.60440257700007,18.188420016000066],[120.6074629520001,18.18561090800005],[120.61013366400005,18.18287951400004],[120.61120948300005,18.179963076000032],[120.61279376200002,18.174577154000076],[120.6135829970001,18.170501717000036],[120.6132265660001,18.168144842000057],[120.612447985,18.168258970000064],[120.61204778900003,18.169120529000047],[120.61015031800004,18.17215056400005],[120.60852747100013,18.17402849800004],[120.60670783400008,18.17767837900004],[120.60397258700006,18.181976999999993],[120.60182262800005,18.184508559000054],[120.59891539525826,18.186257804063384],[120.60002339549065,18.188574936911735],[120.60096441745955,18.190121065064613],[120.60218200800011,18.18979528800003]]]}},{"type":"Feature","properties":{"fid":57,"objectid":1906,"lccode":"05","liqcode":"2010600050000000","mappers":"PJDelosReyes, ACPidlaoan","project":"READY","province":"Ilocos Norte","otherinfo":null,"datemapped":2012,"publishdate":null,"globalid":"{F206138B-2823-4B11-8CEA-F1A1A521E220}","st_area(shape)":0.04191862089529889,"st_perimeter(shape)":8.367222149982817,"liqcodepk":"201060005000000000101","creator":"SNOOPYPC","createdate":"2019-02-19T15:21:28","editor":"LENOVO","modifydate":"2019-03-10T17:50:55","codemove":"na"},"geometry":{"type":"MultiPolygon","coordinates":[[[[120.67835236800009,18.140304429000018],[120.67707438900004,18.141858685000035],[120.67640545400002,18.14225128900005],[120.67494123900008,18.142033297000065],[120.67181479400006,18.14072633400008],[120.6698745120001,18.13953402400006],[120.66884089300004,18.13845283400007],[120.66779284000006,18.135835201000077],[120.66641112100001,18.134639177000054],[120.66706867100002,18.140667835000045],[120.66777717000002,18.142901986000027],[120.66979708100007,18.14471784500006],[120.6713787330001,18.14533409800004],[120.67347561100007,18.145630934000053],[120.6778087030001,18.144271928000027],[120.6793550970001,18.143259217000033],[120.68108288355236,18.142540791697055],[120.67886466622062,18.139604549346604],[120.67839390317641,18.139095178307983],[120.67835236800009,18.140304429000018]]],[[[120.68829751100009,18.175061291000077],[120.68790487,18.175706222000034],[120.687616638,18.17739760300003],[120.68691478000005,18.179083911000077],[120.68576632500005,18.18101904200006],[120.68570765300001,18.18322160400004],[120.68591323175951,18.18425971439588],[120.68700178169136,18.181463399366177],[120.68818488116244,18.177178429633578],[120.68858547864774,18.174803399791166],[120.68829751100009,18.175061291000077]]],[[[120.62558739800012,18.129500406000034],[120.62524691000012,18.130320035000068],[120.62390415400012,18.13216910900007],[120.62207700800003,18.13423026600003],[120.61905362900005,18.14041993200004],[120.61860412700004,18.141795448000043],[120.61863744100005,18.14308004700007],[120.61933259600005,18.147886133000043],[120.6194487030001,18.154284209000025],[120.619434,18.159105703000016],[120.6192580500001,18.160872269000038],[120.61884426900008,18.162337438000062],[120.62165571100003,18.161064322000072],[120.62325189700005,18.16059553600007],[120.62519613700009,18.159588231000047],[120.6281790610001,18.157345293000045],[120.63126889700004,18.15559206500006],[120.63504205700008,18.153684372000043],[120.63894402700008,18.150638283000035],[120.63982909200003,18.14815217700004],[120.63990628200007,18.146633232000053],[120.63970254900003,18.144893659000047],[120.63882706400011,18.142440211000068],[120.63676680300013,18.139429398000065],[120.63594159100002,18.13746510000004],[120.63532824600009,18.13240935100003],[120.6359571370001,18.12785731300005],[120.63598265600001,18.12595782900007],[120.636635468,18.123848777000035],[120.63795683997779,18.12281226881848],[120.63794597606119,18.122812645618318],[120.63335310985651,18.12340654118866],[120.62884320523195,18.124427915580736],[120.62557007589757,18.12550242398147],[120.62558739800012,18.129500406000034]]],[[[120.62382234900008,18.207425740000073],[120.62737758300011,18.20558434900005],[120.62900478900008,18.204264843000036],[120.6296400760001,18.203354775000037],[120.63026014800005,18.20165066900006],[120.63180295600012,18.198891212000035],[120.63341349900008,18.196876846000062],[120.63471760700008,18.19448645700004],[120.6347540060001,18.193717889000023],[120.63409728400006,18.192370154000056],[120.63338357600003,18.189483592000045],[120.63327788500011,18.187696106000033],[120.63371791500003,18.185865680000063],[120.6336192460001,18.18355732400005],[120.6323381730001,18.18232596400003],[120.63216620400011,18.18160440300005],[120.63019794800005,18.179372133000065],[120.63048927900002,18.177018925000027],[120.63154428300003,18.175766802000055],[120.63277124100011,18.175236142000074],[120.63425200600012,18.175130315000043],[120.63655613600008,18.175555657000064],[120.63784187400006,18.176439739000042],[120.63888705400007,18.177841814000033],[120.64058364400013,18.180988597000066],[120.64109332200006,18.181689470000034],[120.64198849600007,18.18460298700006],[120.6446565980001,18.190788278000067],[120.64403471300011,18.19264124800003],[120.64575916600008,18.193729165000033],[120.64846319600008,18.19621559400002],[120.649604425,18.198116738000067],[120.65040720900004,18.19849112700006],[120.65187452700003,18.19836885300003],[120.654218871,18.19581747300003],[120.65462240600006,18.194755650000047],[120.65483131600001,18.192723934000067],[120.65436409200004,18.190783108000065],[120.65311307200012,18.18922967200006],[120.65268480900012,18.188256922000047],[120.6526758000001,18.18699156800005],[120.65340640200009,18.184767746000038],[120.65369869400003,18.182315331000037],[120.65452706200007,18.180539156000073],[120.65633021300006,18.17961849600004],[120.65895747200011,18.179179162000022],[120.66002766500002,18.17872082100007],[120.66023084700011,18.177110739000053],[120.65979647100005,18.174649447000032],[120.659946439,18.17313795900003],[120.66052437200005,18.17066407600004],[120.66138680600012,18.16826815400003],[120.66085559600005,18.165284629000038],[120.65988811000011,18.163883609000038],[120.65707043800013,18.163055410000027],[120.65597917400008,18.161206222000033],[120.65428253800007,18.15999468200005],[120.6518012680001,18.159244929000064],[120.650704775,18.157792630000074],[120.65007470300007,18.15639569600006],[120.64871751700002,18.155039444000067],[120.6478206580001,18.152249922000067],[120.64711040800013,18.151025563000076],[120.6465647760001,18.148913361000037],[120.64631762800003,18.151217236000033],[120.64572076700004,18.153381184000068],[120.64443767000012,18.15591671700003],[120.64441001300008,18.157979087000058],[120.64381462900008,18.16003458700004],[120.6417932710001,18.162561038000035],[120.64101733700011,18.165374209000053],[120.64013581900008,18.167588901000045],[120.63664325600008,18.169717298000023],[120.63383268500002,18.171799662000065],[120.63137525300009,18.17296353300003],[120.62890964500002,18.174724437000066],[120.62736638000003,18.17546527000008],[120.62536010500004,18.176851804000023],[120.62415013600004,18.178139625000025],[120.62122864800006,18.180003316000068],[120.61995675700007,18.181670238000034],[120.61982843800003,18.182754346000024],[120.62020235400007,18.184495938000055],[120.61845175400003,18.192127930000023],[120.61843184400004,18.193593279000027],[120.61903655500008,18.195066382000046],[120.62108074300012,18.195091740000066],[120.62598988100001,18.19325268400007],[120.62695153700008,18.19353593800003],[120.62795375600001,18.195013936000063],[120.62794420600007,18.19571952900003],[120.62730708500011,18.196634448000058],[120.62627545900013,18.19732730600003],[120.62517885700005,18.198616521000073],[120.62368553200008,18.199846451000038],[120.62211328500008,18.20270389200005],[120.62090235500011,18.204045929000074],[120.61963910800011,18.205061588000035],[120.61807616722916,18.206710754256978],[120.61916483679455,18.207352898796728],[120.62187284062172,18.208618332434455],[120.62382234900008,18.207425740000073]]],[[[120.66246026200008,18.136574105000022],[120.66109421300007,18.130572758000028],[120.65957119200004,18.12809164200007],[120.6559650820001,18.12603930200003],[120.65159657700008,18.12582323500004],[120.6476232010001,18.125774717000073],[120.64625586500007,18.126137999999997],[120.64476480000008,18.12725966300008],[120.64217481300011,18.12988775000002],[120.64125059000003,18.13107068700003],[120.64072008800007,18.132529807000022],[120.64069606600003,18.134320770000045],[120.64113493600007,18.135466140000062],[120.64247179800007,18.137382419000062],[120.64337277800006,18.137936272000044],[120.64597890300001,18.138348178000054],[120.64663178900004,18.140473153000073],[120.64792220800007,18.141628840000074],[120.64818861500011,18.142934909000076],[120.64797687600004,18.146026393000053],[120.64705404400003,18.147100733000062],[120.64765526500001,18.146755453000022],[120.64914787000009,18.146730903000048],[120.65057691900007,18.146990834000064],[120.65226652900003,18.146740468000072],[120.654028862,18.14550648100004],[120.65573303100008,18.145284796000055],[120.65655994800011,18.14593684700003],[120.65698439800006,18.147682539000076],[120.65705304300003,18.154845210000072],[120.65776432400004,18.156337574000077],[120.65932124200002,18.158211207000022],[120.66000361400006,18.158519054000063],[120.66093557400005,18.158016839000027],[120.66154216100006,18.156169552000048],[120.6624460170001,18.15441148600007],[120.66280672100004,18.151976300000058],[120.66202677500009,18.145546810000045],[120.6621378200001,18.14280895800004],[120.66183278800007,18.13881063500003],[120.66264731500009,18.138096655000027],[120.66246026200008,18.136574105000022]],[[120.65573394700006,18.137381125000047],[120.65690843200002,18.13882205800007],[120.65718782200008,18.14025208600003],[120.656109075,18.14058137700005],[120.65518085000008,18.138572719000027],[120.65573394700006,18.137381125000047]]],[[[120.61683322400006,18.166998991000067],[120.61791305800011,18.166783649000024],[120.61964470700002,18.167033848000074],[120.621667752,18.167859613000076],[120.62340089100006,18.16799547500005],[120.62688125500007,18.167237792000037],[120.62903326900003,18.167378777000067],[120.6308223870001,18.167801161000057],[120.63237621500004,18.16793473200005],[120.63394153100013,18.16721046600003],[120.63485189000006,18.166249386000064],[120.63613968000004,18.16392034200004],[120.6376052940001,18.16170788500006],[120.6390840160001,18.158523190000043],[120.6392313350001,18.156466090000038],[120.63875435500006,18.15634581700004],[120.63604410500012,18.157685106000034],[120.63375336100012,18.158972357000035],[120.62929606400009,18.161205149000068],[120.62196817400003,18.163345157000037],[120.61787883600006,18.164895825000027],[120.61661262500003,18.165623667000037],[120.61654193000003,18.166423496000046],[120.61683322400006,18.166998991000067]]],[[[120.61144761900003,18.202219630000055],[120.61113324249435,18.201985782959127],[120.6114916286992,18.202304454809124],[120.61144761900003,18.202219630000055]]],[[[120.6658838300001,18.14950990100004],[120.66804288700008,18.151569760000026],[120.66968592500005,18.15243710200002],[120.67124594800008,18.152879715000036],[120.67319532600006,18.152931585000033],[120.67645495400008,18.152208294000047],[120.67919477500006,18.15057489700007],[120.68019305400004,18.14880738900007],[120.67973907900013,18.14858364300005],[120.6784254370001,18.149164885000065],[120.67660230600006,18.149631414000055],[120.67404477700005,18.14981758500005],[120.67024826900001,18.149228797000035],[120.66769651200002,18.148980769000048],[120.66589066700011,18.148144579000075],[120.66467164400001,18.147348463000068],[120.6658838300001,18.14950990100004]]]]}},{"type":"Feature","properties":{"fid":71,"objectid":1935,"lccode":"06","liqcode":"2010600060000000","mappers":"PJDelosReyes, ACPidlaoan","project":"READY","province":"Ilocos Norte","otherinfo":null,"datemapped":2012,"publishdate":null,"globalid":"{E589EE25-8FDC-4504-BE01-5A3AF4CD900F}","st_area(shape)":0.013905399003380454,"st_perimeter(shape)":4.825147044260804,"liqcodepk":"201060006000000000134","creator":"SNOOPYPC","createdate":"2019-02-19T15:21:28","editor":"LENOVO","modifydate":"2019-03-10T17:50:55","codemove":"na"},"geometry":{"type":"Polygon","coordinates":[[[120.61963910800011,18.205061588000035],[120.62090235500011,18.204045929000074],[120.62211328500008,18.20270389200005],[120.62368553200008,18.199846451000038],[120.62517885700005,18.198616521000073],[120.62627545900013,18.19732730600003],[120.62730708500011,18.196634448000058],[120.62794420600007,18.19571952900003],[120.62795375600001,18.195013936000063],[120.62695153700008,18.19353593800003],[120.62598988100001,18.19325268400007],[120.62108074300012,18.195091740000066],[120.61903655500008,18.195066382000046],[120.61843184400004,18.193593279000027],[120.61845175400003,18.192127930000023],[120.62020235400007,18.184495938000055],[120.61982843800003,18.182754346000024],[120.61995675700007,18.181670238000034],[120.62122864800006,18.180003316000068],[120.62415013600004,18.178139625000025],[120.62536010500004,18.176851804000023],[120.62736638000003,18.17546527000008],[120.62890964500002,18.174724437000066],[120.63137525300009,18.17296353300003],[120.63383268500002,18.171799662000065],[120.63664325600008,18.169717298000023],[120.64013581900008,18.167588901000045],[120.64101733700011,18.165374209000053],[120.6417932710001,18.162561038000035],[120.64381462900008,18.16003458700004],[120.64441001300008,18.157979087000058],[120.64443767000012,18.15591671700003],[120.64572076700004,18.153381184000068],[120.64631762800003,18.151217236000033],[120.6465647760001,18.148913361000037],[120.64705404400003,18.147100733000062],[120.64797687600004,18.146026393000053],[120.64818861500011,18.142934909000076],[120.64792220800007,18.141628840000074],[120.64663178900004,18.140473153000073],[120.64597890300001,18.138348178000054],[120.64337277800006,18.137936272000044],[120.64247179800007,18.137382419000062],[120.64113493600007,18.135466140000062],[120.64069606600003,18.134320770000045],[120.64072008800007,18.132529807000022],[120.64125059000003,18.13107068700003],[120.64217481300011,18.12988775000002],[120.64476480000008,18.12725966300008],[120.64625586500007,18.126137999999997],[120.6476232010001,18.125774717000073],[120.65159657700008,18.12582323500004],[120.6559650820001,18.12603930200003],[120.65957119200004,18.12809164200007],[120.66109421300007,18.130572758000028],[120.66246026200008,18.136574105000022],[120.66264731500009,18.138096655000027],[120.66321857900006,18.139861098000036],[120.66356188100006,18.143936465000028],[120.66392425800008,18.145785788000065],[120.66467164400001,18.147348463000068],[120.66589066700011,18.148144579000075],[120.66769651200002,18.148980769000048],[120.67024826900001,18.149228797000035],[120.67404477700005,18.14981758500005],[120.67660230600006,18.149631414000055],[120.6784254370001,18.149164885000065],[120.67973907900013,18.14858364300005],[120.68035051200003,18.14807492600005],[120.6811095290001,18.146530468000034],[120.68221251900003,18.14578113600004],[120.68300145286362,18.145532751829066],[120.68157872867027,18.143197123844285],[120.68108288355236,18.142540791697055],[120.6793550970001,18.143259217000033],[120.6778087030001,18.144271928000027],[120.67347561100007,18.145630934000053],[120.6713787330001,18.14533409800004],[120.66979708100007,18.14471784500006],[120.66777717000002,18.142901986000027],[120.66706867100002,18.140667835000045],[120.66641112100001,18.134639177000054],[120.666212437,18.132460676000047],[120.66579068300007,18.13001281900006],[120.66474214452094,18.12824294026047],[120.66060373449999,18.126309578103104],[120.65626007422802,18.124763652370422],[120.65177892976926,18.123632164005656],[120.64720342926353,18.12292599853367],[120.64257760610339,18.122651947944604],[120.63795683997779,18.12281226881848],[120.636635468,18.123848777000035],[120.63598265600001,18.12595782900007],[120.6359571370001,18.12785731300005],[120.63532824600009,18.13240935100003],[120.63594159100002,18.13746510000004],[120.63676680300013,18.139429398000065],[120.63882706400011,18.142440211000068],[120.63970254900003,18.144893659000047],[120.63990628200007,18.146633232000053],[120.63982909200003,18.14815217700004],[120.63894402700008,18.150638283000035],[120.63504205700008,18.153684372000043],[120.63126889700004,18.15559206500006],[120.6281790610001,18.157345293000045],[120.62519613700009,18.159588231000047],[120.62325189700005,18.16059553600007],[120.62165571100003,18.161064322000072],[120.61884426900008,18.162337438000062],[120.61496394800008,18.164618285000074],[120.61381448400005,18.165635348000027],[120.61140858400006,18.167179587000078],[120.61190106800007,18.168542761000026],[120.61091815800013,18.16983322800008],[120.61038873400003,18.171183693000046],[120.60969780000006,18.171880801000047],[120.60627578200001,18.17297805400005],[120.60468604000003,18.17295823200004],[120.60372824900004,18.17240348500007],[120.60281984100004,18.17239214800003],[120.6014468850001,18.173134889000035],[120.59852462500011,18.175052479000044],[120.59561338100004,18.176156005000053],[120.59556189970827,18.17619325572943],[120.5965915796862,18.180352951863178],[120.5980961608202,18.184544522300488],[120.59891539525826,18.186257804063384],[120.60182262800005,18.184508559000054],[120.60397258700006,18.181976999999993],[120.60670783400008,18.17767837900004],[120.60852747100013,18.17402849800004],[120.61015031800004,18.17215056400005],[120.61204778900003,18.169120529000047],[120.612447985,18.168258970000064],[120.6132265660001,18.168144842000057],[120.6135829970001,18.170501717000036],[120.61279376200002,18.174577154000076],[120.61120948300005,18.179963076000032],[120.61013366400005,18.18287951400004],[120.6074629520001,18.18561090800005],[120.60440257700007,18.188420016000066],[120.60218200800011,18.18979528800003],[120.60096441745955,18.190121065064613],[120.60235474906584,18.192405370989142],[120.60506779000069,18.195998923268036],[120.60535408650519,18.19630887147923],[120.60553285900005,18.196324262000072],[120.60685370500005,18.19717946000003],[120.60681485300006,18.197644929000035],[120.60664539031937,18.197706835898057],[120.60813640506426,18.199320971770835],[120.61113324249435,18.201985782959127],[120.61144761900003,18.202219630000055],[120.6114916286992,18.202304454809124],[120.61153105024826,18.202339507778838],[120.61521903496265,18.205025444694567],[120.61807616722916,18.206710754256978],[120.61963910800011,18.205061588000035]],[[120.61661262500003,18.165623667000037],[120.61787883600006,18.164895825000027],[120.62196817400003,18.163345157000037],[120.62929606400009,18.161205149000068],[120.63375336100012,18.158972357000035],[120.63604410500012,18.157685106000034],[120.63875435500006,18.15634581700004],[120.6392313350001,18.156466090000038],[120.6390840160001,18.158523190000043],[120.6376052940001,18.16170788500006],[120.63613968000004,18.16392034200004],[120.63485189000006,18.166249386000064],[120.63394153100013,18.16721046600003],[120.63237621500004,18.16793473200005],[120.6308223870001,18.167801161000057],[120.62903326900003,18.167378777000067],[120.62688125500007,18.167237792000037],[120.62340089100006,18.16799547500005],[120.621667752,18.167859613000076],[120.61964470700002,18.167033848000074],[120.61791305800011,18.166783649000024],[120.61683322400006,18.166998991000067],[120.61654193000003,18.166423496000046],[120.61661262500003,18.165623667000037]]]}}]}