{"type":"FeatureCollection","features":[{"type":"Feature","properties":{"fid":207,"objectid":7271,"lccode":"01","liqcode":null,"mappers":"DJLBuhay, MJVReyes, MITAbigania, KLPapiona, KMVitto","project":"MELP","province":"Zamboanga del Norte","otherinfo":null,"datemapped":2020,"publishdate":2021,"globalid":"{6B0290BE-0A77-4263-894C-1C10E652B59E}","st_area(shape)":0.033021563613966895,"st_perimeter(shape)":18.189103020785044,"liqcodepk":null,"creator":null,"createdate":null,"editor":null,"modifydate":null,"codemove":null},"geometry":{"type":"Polygon","coordinates":[]}},{"type":"Feature","properties":{"fid":208,"objectid":7461,"lccode":"01","liqcode":null,"mappers":"DJLBuhay, MJVReyes, MITAbigania, KLPapiona, KMVitto","project":"MELP","province":"Zamboanga del Sur","otherinfo":null,"datemapped":2020,"publishdate":2021,"globalid":"{956CA67A-D8B3-4AFB-A15B-79E0A6393BB2}","st_area(shape)":0.059065434056611577,"st_perimeter(shape)":16.76855550220317,"liqcodepk":null,"creator":null,"createdate":null,"editor":null,"modifydate":null,"codemove":null},"geometry":{"type":"Polygon","coordinates":[[[123.37048446500012,8.009292496000056],[123.36981144600007,8.008455468000024],[123.3700028080001,8.007665529000068],[123.36990506500003,8.00577496200003],[123.37148854400006,8.00452905800006],[123.37086225100008,8.002256049000037],[123.36877340500007,8.002186123000056],[123.36774050400004,8.001612668000066],[123.36744760300009,7.999835553000025],[123.36857992700006,7.998838958000024],[123.36742654500007,7.997767816000021],[123.36654326300004,7.998036643000034],[123.3661773220001,7.996907361000067],[123.36431377300005,7.996372923000026],[123.36404637000008,7.998057998000037],[123.36489198900006,7.998631628000053],[123.36481565400004,7.99918692600005],[123.3634527170001,8.000049693000049],[123.3641836060001,8.001197802000036],[123.36374306400012,8.002576695000073],[123.36303256600003,8.002768779000066],[123.36085164100008,8.001741600000058],[123.36038989900008,8.00086607800006],[123.35913001100005,8.000278439000056],[123.3585023830001,8.00039386000003],[123.35850344900007,8.001614410000059],[123.36059343000012,8.003559543000055],[123.35916827200005,8.004098013000032],[123.35847804000002,8.005505836000053],[123.35886803200003,8.006697460000053],[123.35834980800007,8.007128562000048],[123.35718240800009,8.006776093000042],[123.3564327570001,8.00613056700007],[123.35516571500013,8.006878350000019],[123.35442926800009,8.00483994500007],[123.3530460180001,8.004467785000031],[123.35257994400001,8.002727102000051],[123.35373138800001,8.001577363000024],[123.35310591900009,8.00014195500006],[123.35319756700007,7.999144386000069],[123.3537817150001,7.998686287000059],[123.35411163700007,7.997063389000061],[123.35298770800011,7.99669100500006],[123.35262657800003,7.995528199000034],[123.35250963500005,7.993546697000056],[123.3538265090001,7.991830576000041],[123.35602796400006,7.990635895000027],[123.35689050500002,7.988610471000072],[123.3559106460001,7.988237970000056],[123.35593822500005,7.986816362000073],[123.35544772700007,7.985969577000049],[123.3532144080001,7.985310956000035],[123.35333122700001,7.987148865000051],[123.35367787100006,7.988225526000064],[123.35318867100011,7.988886479000032],[123.3536805660001,7.991355882000052],[123.3517448120001,7.991967810000061],[123.35115529700012,7.993246301000056],[123.34954248700001,7.993908203000046],[123.3486196450001,7.992832024000053],[123.34824309100009,7.99044867300006],[123.34714815300003,7.990262922000054],[123.3460095060001,7.990827356000069],[123.34514566400003,7.990034847000059],[123.34429625000007,7.990609933000028],[123.34305740600009,7.990596604000074],[123.34216491700012,7.991344035000055],[123.34138712700009,7.991445194000051],[123.33957705200011,7.990187839000042],[123.33983547500009,7.989139386000032],[123.3413465540001,7.9874006470000705],[123.341964759,7.985949831000028],[123.34265590500002,7.985604632000048],[123.34219410100003,7.984585493000051],[123.34144563500001,7.98528972500003],[123.33991833000005,7.984817120000058],[123.33647352000004,7.982307029000024],[123.33593909000001,7.980526889000034],[123.3350479410001,7.982911284000067],[123.33454101000008,7.983722543000057],[123.33563929900005,7.9838441700000535],[123.33725342500009,7.984804942000039],[123.33804690700005,7.986283319000051],[123.33804750900005,7.987015651000037],[123.33689545800007,7.987433016000066],[123.33621967200008,7.988955669000063],[123.3377626570001,7.9909647360000235],[123.33812355200007,7.991897806000053],[123.33886689400003,7.992237038000042],[123.3406265530001,7.994935170000076],[123.34211059800009,7.995307289000037],[123.34513541000003,7.994974506000062],[123.34651867000004,7.9954041320000355],[123.34709569100006,7.996365731000025],[123.34800330500003,7.996465483000067],[123.34816363800009,7.9986767020000675],[123.3499217330001,7.999436267000022],[123.35020067700009,7.999952970000037],[123.34996167000008,8.001221590000057],[123.34909751000009,8.001413780000066],[123.34871731400006,8.006056986000031],[123.34797233600011,8.005243914000062],[123.34718033600006,8.005603567000039],[123.3471575430001,8.007039530000041],[123.34787899999999,8.00842700100003],[123.34921829000007,8.009324531000061],[123.3495507350001,8.010630957000048],[123.34827021300008,8.012498767000068],[123.34866085600004,8.014480038000043],[123.34975291800004,8.015437605000043],[123.34917742900008,8.016314018000058],[123.34884734100002,8.017778959000053],[123.34903567200003,8.019013710000026],[123.3478265670001,8.020192206000045],[123.34776969900008,8.021082539000076],[123.3486342970001,8.02135463700006],[123.34879379200005,8.022560693000061],[123.34970131800003,8.022488127000027],[123.35011844400003,8.021726723000027],[123.3501175350001,8.020664126000042],[123.35086612100008,8.020046034000075],[123.35067778500002,8.018811284000039],[123.35083504500004,8.017403926000041],[123.35197320100009,8.017503472000042],[123.35280815300007,8.016813506000064],[123.35332586200002,8.015764824000028],[123.35309773400003,8.014332667000076],[123.35393327300005,8.01433195100003],[123.35500040000011,8.015594662000069],[123.35469889700005,8.016772394000041],[123.35379142300008,8.01688805000003],[123.35323042100003,8.017850612000073],[123.35166131800008,8.019187380000062],[123.35133105200009,8.02043693200005],[123.35166358900005,8.021829512000068],[123.35270058100002,8.021541437000053],[123.35408374800011,8.021750855000048],[123.35413798700007,8.023387782000043],[123.35534828700008,8.023597344000052],[123.35575121100008,8.023080057000074],[123.35669995429984,8.022821266341715],[123.35687050756943,8.022719171312225],[123.3575953530001,8.021883039000047],[123.35848692977947,8.02175155758191],[123.35853067556666,8.021725370571335],[123.36210484482508,8.019078320343189],[123.36540145634633,8.016094795100447],[123.36838876124642,8.01280353479193],[123.37103799221687,8.009236242890845],[123.37120561567248,8.008956906324867],[123.37048446500012,8.009292496000056]]]}}]}