{"type":"FeatureCollection","features":[{"type":"Feature","properties":{"fid":207,"objectid":7271,"lccode":"01","liqcode":null,"mappers":"DJLBuhay, MJVReyes, MITAbigania, KLPapiona, KMVitto","project":"MELP","province":"Zamboanga del Norte","otherinfo":null,"datemapped":2020,"publishdate":2021,"globalid":"{6B0290BE-0A77-4263-894C-1C10E652B59E}","st_area(shape)":0.033021563613966895,"st_perimeter(shape)":18.189103020785044,"liqcodepk":null,"creator":null,"createdate":null,"editor":null,"modifydate":null,"codemove":null},"geometry":{"type":"Polygon","coordinates":[]}},{"type":"Feature","properties":{"fid":208,"objectid":7461,"lccode":"01","liqcode":null,"mappers":"DJLBuhay, MJVReyes, MITAbigania, KLPapiona, KMVitto","project":"MELP","province":"Zamboanga del Sur","otherinfo":null,"datemapped":2020,"publishdate":2021,"globalid":"{956CA67A-D8B3-4AFB-A15B-79E0A6393BB2}","st_area(shape)":0.059065434056611577,"st_perimeter(shape)":16.76855550220317,"liqcodepk":null,"creator":null,"createdate":null,"editor":null,"modifydate":null,"codemove":null},"geometry":{"type":"Polygon","coordinates":[]}},{"type":"Feature","properties":{"fid":209,"objectid":7568,"lccode":"01","liqcode":null,"mappers":"DJLBuhay, MJVReyes, MITAbigania, KLPapiona, KMVitto","project":"MELP","province":"Zamboanga Sibugay","otherinfo":null,"datemapped":2021,"publishdate":2021,"globalid":"{08423ED1-E932-4EA1-95BF-6D5A5DF8C9A2}","st_area(shape)":0.03611593413386012,"st_perimeter(shape)":14.29973412419831,"liqcodepk":null,"creator":null,"createdate":null,"editor":null,"modifydate":null,"codemove":null},"geometry":{"type":"MultiPolygon","coordinates":[[[[122.82627550900008,7.559606666000036],[122.8266786390001,7.559118589000034],[122.82716866400007,7.557237632000069],[122.82702537100012,7.555701063000072],[122.82755825400012,7.554595559000062],[122.82862325400004,7.554308780000043],[122.8301484630001,7.554740174000075],[122.83114095700012,7.555874993000032],[122.83203324000009,7.555674298000042],[122.8325943000001,7.556105312000057],[122.83240686500005,7.557038636000074],[122.83406165100007,7.557340827000074],[122.83404700200002,7.558015738000051],[122.83480946800013,7.558619145000023],[122.83596082200006,7.55831802000006],[122.83716950500002,7.558634391000057],[122.83816208000009,7.559625596000046],[122.84049331000004,7.559726974000057],[122.83968794800012,7.558348125000067],[122.83911247800006,7.557945835000053],[122.83889732800003,7.55603588400004],[122.83712694700012,7.556997343000036],[122.834955551,7.556587971000057],[122.83511285100008,7.555503153000073],[122.8348048150001,7.5545299400000685],[122.83576106400007,7.553794565000031],[122.83547401200009,7.551798425000072],[122.83436582500009,7.552157005000027],[122.83358885400003,7.551883871000029],[122.83229359100007,7.552242374000056],[122.83210675600003,7.551624825000032],[122.83109964300003,7.551093119000027],[122.83114302600008,7.550547458000039],[122.83232300800013,7.550590992000028],[122.832798195,7.549787018000075],[122.83446763300005,7.549328135000054],[122.8324248240001,7.547776483000065],[122.83140301800005,7.5480489290000605],[122.83022316600011,7.547689474000038],[122.8296624180001,7.546497380000062],[122.828828154,7.545578018000074],[122.82859127800009,7.544378258000051],[122.83018167600005,7.543381475000047],[122.83167835200004,7.543080495000027],[122.83344014500004,7.543643535000056],[122.83408147900003,7.5430814130000385],[122.83469993800007,7.543900165000025],[122.83406619100003,7.545436439000074],[122.83565140900009,7.545423022000024],[122.83529489000013,7.542807619000028],[122.83559965600011,7.541356637000037],[122.8350690940001,7.5404631670000395],[122.83480764700005,7.538260078000063],[122.83306070500011,7.538648860000023],[122.8326566500001,7.539014078000038],[122.830992895,7.538837359000069],[122.82998264300012,7.5371635420000285],[122.83024224600001,7.535655849000022],[122.83124510100005,7.5347013000000524],[122.83225158100002,7.534731478000023],[122.83336804400005,7.533493484000073],[122.83460338900011,7.532883654000045],[122.83491601300011,7.531528433000061],[122.83666154500007,7.531309082000064],[122.83804312200003,7.532319703000039],[122.838856888,7.533969975000047],[122.83881805900013,7.535204917000043],[122.83713871400005,7.536659437000024],[122.839192829,7.538248297000053],[122.84004528000003,7.537120028000058],[122.84109084700003,7.537369314000047],[122.84102327500011,7.5385180860000665],[122.84180025700005,7.538709834000032],[122.84276002200012,7.537484797000047],[122.84309616700011,7.536422281000058],[122.84372945100006,7.536049149000061],[122.84494771900007,7.536231475000025],[122.84511108200002,7.535446521000039],[122.84641253600013,7.535284572000026],[122.84665114800009,7.534413147000067],[122.8473709110001,7.533618814000022],[122.84857005100002,7.533619230000057],[122.8492562780001,7.533188804000075],[122.84878163700013,7.532068427000069],[122.84910900300008,7.5304800210000735],[122.84891704000006,7.528894922000063],[122.84696016500003,7.5286070440000685],[122.84594821000006,7.528173800000048],[122.845751832,7.527515263000056],[122.84485989900008,7.526911830000072],[122.84473063900009,7.526222506000066],[122.84375240900012,7.525356302000036],[122.84405539400007,7.524632895000024],[122.84490906100008,7.525229936000072],[122.84686367600011,7.525075057000036],[122.84781051000004,7.526415650000046],[122.84881883900005,7.526867455000057],[122.84922289400005,7.5278453240000545],[122.84990866200008,7.527313872000037],[122.85009669700003,7.52624400600007],[122.85076059200001,7.525698667000027],[122.85041321700011,7.5246215510000525],[122.85092924500009,7.523425062000056],[122.85230817500008,7.523569129000064],[122.85266860000002,7.521522954000035],[122.85429939300002,7.521499566000045],[122.85509194200007,7.522110127000077],[122.8564027430001,7.5211484400000455],[122.85726607600009,7.5212205220000214],[122.85710153740484,7.520518295140707],[122.8558104682155,7.520056806355324],[122.85436432318626,7.519694794742939],[122.85443901100008,7.519934375000047],[122.85408389400003,7.520482329000062],[122.85289503800003,7.520246165000058],[122.85218200100009,7.520470018000026],[122.84969530400006,7.520097915000063],[122.84893938100004,7.521509719000049],[122.8479321310001,7.521509371000035],[122.84791147300005,7.520228933000056],[122.84730027700006,7.519235489000039],[122.84501027100008,7.518456855000067],[122.84501470078672,7.518221275473104],[122.84265523454464,7.518104755798249],[122.8382129599951,7.518320928549343],[122.83381329794038,7.5189705511571026],[122.82949860679868,7.520047368990852],[122.82531042760203,7.521541014477771],[122.8212890843832,7.523437106844325],[122.82074634099904,7.523761449359927],[122.82068253800003,7.524031562000064],[122.82015686870959,7.524113715662266],[122.81898020559441,7.524816880741073],[122.81879232400003,7.525026407000039],[122.81876963684118,7.524942714472551],[122.81747329623104,7.525717390466301],[122.81631413965584,7.526574568622663],[122.81793346600013,7.528542734000042],[122.81914563100008,7.5289315240000265],[122.82083839300002,7.528567317000065],[122.82190271000002,7.526763720000076],[122.82260386400003,7.5260214810000425],[122.82370907200006,7.525632689000076],[122.8243091910001,7.525938086000053],[122.82500442400011,7.527812279000044],[122.82638296400013,7.528224632000047],[122.82769020000002,7.527576648000037],[122.82835570200007,7.529237843000032],[122.82840323700009,7.530227488000038],[122.82752382400008,7.531240693000028],[122.82807048700012,7.533549850000042],[122.8275951280001,7.535246366000024],[122.82771396800003,7.5372963140000575],[122.82835570200007,7.539157753000039],[122.8275951280001,7.540112031000034],[122.8266919470001,7.544836269000026],[122.8261334010001,7.545248606000031],[122.825147032,7.548028929000057],[122.82301980200009,7.550267311000027],[122.8219383620001,7.551834171000049],[122.82189082600006,7.552529243000039],[122.82080938500008,7.5550032180000235],[122.82073808200005,7.556063489000053],[122.81994185600003,7.556699650000041],[122.81985866800007,7.557406494000079],[122.82115402000012,7.557971969000049],[122.82244937200005,7.559232504000021],[122.82287719500006,7.560304545000064],[122.82265140000004,7.561494389000073],[122.82197401400002,7.562177665000037],[122.82048851800006,7.562483961000053],[122.81989432000012,7.564415974000042],[122.81902916800004,7.565224118000059],[122.81870592400003,7.567090149000025],[122.81783839500008,7.568044366000038],[122.81595357500008,7.568878942000026],[122.81648604100009,7.568864806000022],[122.81805429800012,7.569683979000048],[122.81973843300011,7.568708205000064],[122.82008425900007,7.567631354000071],[122.82028674100002,7.565190251000046],[122.8224171290001,7.563812571000027],[122.8268931120001,7.562593777000073],[122.82605891500009,7.561444651000044],[122.82627550900008,7.559606666000036]]],[[[122.80388662300004,7.540017782000065],[122.8068932650001,7.539122409000072],[122.80834310900003,7.537932503000033],[122.80791528600002,7.536754375000044],[122.80918854100003,7.535701864000032],[122.80988802400009,7.534457016000032],[122.80992367600005,7.5332435340000625],[122.8107674370001,7.531841546000064],[122.81056707311248,7.531378769669912],[122.8086289390868,7.533510892859669],[122.80866330900005,7.533855407000032],[122.80674858100008,7.535893676000057],[122.80657641335561,7.53602241568515],[122.80584486156876,7.537005843037938],[122.80552421100003,7.538678960000027],[122.80500592700002,7.53923876600004],[122.80436116295898,7.539192518287556],[122.80386765451189,7.540013340025909],[122.80388662300004,7.540017782000065]]],[[[122.86241198700009,7.52973424100003],[122.863419517,7.528901678000066],[122.86369314700006,7.52816940400004],[122.86472942800003,7.527408647000075],[122.86474416000009,7.526302933000064],[122.864068039,7.525713965000024],[122.8611759280001,7.525196099000025],[122.8606862900001,7.52644526200004],[122.86177975600003,7.5268620470000664],[122.86321893700006,7.5261157800000555],[122.86401016800005,7.526719145000072],[122.8617072940001,7.528484701000021],[122.8618220830001,7.52951865600005],[122.86241198700009,7.52973424100003]]],[[[122.86581012200008,7.531361313000047],[122.86600225900008,7.530463873000029],[122.86414408100006,7.528931570000052],[122.86353230800012,7.529625445000022],[122.86347210100007,7.5304271920000465],[122.86417910500006,7.531983075000029],[122.86395084700007,7.533335235000038],[122.86306303200001,7.534770955000054],[122.86342267700003,7.536527749000073],[122.86271452300002,7.53717614100003],[122.86265409400005,7.538671952000071],[122.86321741100004,7.539581593000033],[122.86416475300008,7.53955795400003],[122.86427244600009,7.540299919000065],[122.8654598390001,7.53957032100004],[122.86522037400005,7.538385550000046],[122.86452476800004,7.538696468000067],[122.86370965700009,7.537691017000043],[122.86501697400001,7.536913591000031],[122.86631187600005,7.537500354000029],[122.86571282000011,7.535812874000042],[122.86586918400006,7.534269225000061],[122.86552161300006,7.533682753000053],[122.8661575220001,7.53249825000006],[122.86581012200008,7.531361313000047]]],[[[122.79895917200007,7.554227542000035],[122.79922329300008,7.55358146700007],[122.79861553458551,7.5527941937931296],[122.79818867032449,7.554491400989039],[122.7981096061521,7.555021589075788],[122.79895917200007,7.554227542000035]]],[[[122.88051050000001,7.53854310400004],[122.87910665800007,7.538606359000028],[122.87776665600008,7.539174185000036],[122.876596274,7.539193003000035],[122.87615482100011,7.539767277000065],[122.87680696300004,7.54047588700007],[122.87688336200006,7.541701293000072],[122.87638963200004,7.543049132000018],[122.87581920200013,7.543567501000042],[122.87577166600009,7.544486427000036],[122.8762232570001,7.545428913000024],[122.87780295500012,7.546564794000065],[122.87741893800012,7.547560311000039],[122.87782165900002,7.548287996000057],[122.87941422000004,7.5481161180000536],[122.88022027000011,7.547388768000076],[122.88140964200012,7.548174104000057],[122.88110233800012,7.549322818000063],[122.88158185000009,7.549916494000057],[122.88298232000011,7.5505870030000315],[122.88399920700009,7.55068300700003],[122.8852081350001,7.55012807500003],[122.88602621365007,7.550258438347582],[122.88601598489983,7.5502176435776915],[122.88451864563781,7.546038180282636],[122.88261802869945,7.542025291425487],[122.88052333706182,7.5385356359682385],[122.88051050000001,7.53854310400004]]],[[[122.81420230900007,7.585254896000037],[122.81411626200008,7.584551224000051],[122.81464934400002,7.583144181000021],[122.81523938700002,7.583144432000038],[122.81598450900003,7.58402236000006],[122.81668228400008,7.583062149000057],[122.81591214700006,7.582826269000066],[122.81453479800005,7.581779941000035],[122.81436278600006,7.5801859180000415],[122.81322647600005,7.57880688100005],[122.81385147000003,7.577833547000069],[122.81511757600003,7.578566442000069],[122.81611045500006,7.578825341000023],[122.81799600400008,7.578093778000039],[122.81753586800005,7.577188911000064],[122.81734953400006,7.575408204000043],[122.81668788000002,7.57461813100002],[122.81557974800012,7.574675103000062],[122.8141552280001,7.574229340000043],[122.81325118500001,7.5749712110000464],[122.81365524000012,7.575630904000036],[122.81376219600008,7.576844267000069],[122.8128590140001,7.577527518000066],[122.81139728700009,7.580578575000062],[122.81064859700007,7.580884857000056],[122.81024454300007,7.581721243000059],[122.80824803700011,7.582557627000027],[122.80596004200004,7.582404487000074],[122.80604323600005,7.583398908000051],[122.80720878400005,7.583729703000072],[122.80787045900001,7.584462351000068],[122.8090651550001,7.583974640000063],[122.81072001300004,7.584305641000071],[122.81179903800013,7.585052824000059],[122.81299365100006,7.58475178200007],[122.81302193800003,7.585900586000033],[122.81187936000003,7.587329382000062],[122.81075660300007,7.587845851000053],[122.81038182100009,7.589224238000044],[122.80858254100008,7.589998884000067],[122.80781905100004,7.5916642940000525],[122.80733336088988,7.591667267229615],[122.8075892737237,7.592011885648027],[122.80852926840598,7.5930476456969975],[122.81026568800009,7.591507411000064],[122.8114319680001,7.590215528000045],[122.81153316600012,7.589167299000054],[122.81259878300011,7.587674330000027],[122.81264224300004,7.5870137930000405],[122.81502225500003,7.586102480000022],[122.81420230900007,7.585254896000037]]],[[[122.8044310350001,7.584231060000035],[122.80400546200008,7.583558930000038],[122.80259453084244,7.5845079726078035],[122.80265590330451,7.5846376027468745],[122.80291327292761,7.585066501411164],[122.8044310350001,7.584231060000035]]],[[[122.80448526000008,7.58764335400002],[122.80445376860992,7.587633670100942],[122.8045479455337,7.587790610680721],[122.80448526000008,7.58764335400002]]],[[[122.88017846800005,7.58673088300003],[122.88094610400003,7.586396029000066],[122.88094631500006,7.5856301650000555],[122.88219378900011,7.584828741000023],[122.88184617000002,7.58419441600006],[122.88075496300007,7.583691520000058],[122.87973552500013,7.583870739000076],[122.87884783300001,7.584672256000031],[122.87799590500005,7.586227679000044],[122.87771962900001,7.587783261000029],[122.87869065900009,7.589195594000047],[122.87747899900013,7.590511583000025],[122.87786242600009,7.591744252000066],[122.87788384828478,7.591746707335537],[122.88010618315225,7.588758564669664],[122.88017846800005,7.58673088300003]]]]}}]}