{"type":"FeatureCollection","features":[{"type":"Feature","properties":{"fid":4,"objectid":1833,"lccode":"01","liqcode":"2010600010000000","mappers":"DJLBuhay, MITAbigania, KLPapiona, KMVitto","project":"MELP","province":"Aklan","otherinfo":null,"datemapped":2017,"publishdate":null,"globalid":"{2610B680-7BB1-4235-9EBC-A203F48D9AEE}","st_area(shape)":0.031193944395976114,"st_perimeter(shape)":7.591260939778177,"liqcodepk":"201060001000000000004","creator":"SNOOPYPC","createdate":"2019-02-19T15:21:28","editor":"LENOVO","modifydate":"2019-03-10T17:53:06","codemove":"na"},"geometry":{"type":"Polygon","coordinates":[]}},{"type":"Feature","properties":{"fid":23,"objectid":1869,"lccode":"07","liqcode":"2010600070000000","mappers":" ","project":"READY","province":"Antique","otherinfo":null,"datemapped":2010,"publishdate":null,"globalid":"{D10F3743-B08E-4BB0-8330-C339D6ABD38B}","st_area(shape)":0.008955404678814158,"st_perimeter(shape)":4.103226410979217,"liqcodepk":"201060007000000000061","creator":"SNOOPYPC","createdate":"2019-02-19T15:21:28","editor":"LENOVO","modifydate":"2019-03-10T17:50:55","codemove":"na"},"geometry":{"type":"Polygon","coordinates":[[[122.06109478800009,11.380866965000052],[122.06011946400008,11.38466390800005],[122.0591678310001,11.386578206000024],[122.05759536200001,11.390943237000045],[122.05556624500002,11.395755927000037],[122.05419119900013,11.398618920000043],[122.05332539000005,11.401017051000053],[122.05251048800005,11.403899015000036],[122.05178595200005,11.405917707000071],[122.05113020400007,11.408316505000073],[122.05066391800005,11.411648723000042],[122.05119037200005,11.416573220000032],[122.05156829900011,11.418750879000072],[122.05224220800005,11.421430435000046],[122.05388881100009,11.426479420000017],[122.05547100600008,11.42983551700007],[122.05625220500009,11.43185897300003],[122.05661489400006,11.433380230000067],[122.05763866300005,11.436181777000057],[122.05895944400004,11.439208845000051],[122.05991371600011,11.441871931000039],[122.06025929600003,11.44327216700003],[122.06054630500012,11.446503120000045],[122.06012423700007,11.45235736900002],[122.05955224100002,11.455879289000052],[122.05900179641411,11.457365552712155],[122.05952183094094,11.45712497964265],[122.06338743736029,11.454856314795421],[122.0652051942976,11.453535463540732],[122.06440446500005,11.450021977000063],[122.0645129400001,11.448985907000065],[122.06442875500011,11.442629174000045],[122.0648531050001,11.441386811000028],[122.06657587900008,11.439319563000028],[122.07143534600004,11.436484951000065],[122.07236455400006,11.436107827000058],[122.07227921800008,11.435433937000026],[122.07292953600007,11.43467594900005],[122.07198757800008,11.43358474300004],[122.07139637400006,11.43232197000003],[122.07134907500006,11.430715387000019],[122.07160487899999,11.427434350000054],[122.0712436880001,11.425429526000073],[122.07026738800005,11.424148173000045],[122.06897315700007,11.423712194000073],[122.06301168400013,11.42628424700007],[122.0604721620001,11.426483329000064],[122.05924789000005,11.426082157000051],[122.05776313900003,11.425023703000024],[122.05660926700013,11.424501784000029],[122.05617488200005,11.423498595000067],[122.05501641100011,11.419072916000061],[122.05500619500002,11.416861909000033],[122.05669370800001,11.414846400000044],[122.0618354170001,11.411252779000053],[122.06252371700009,11.409596744000053],[122.06244037200008,11.408301044000039],[122.06111707800005,11.40608583500005],[122.06026033,11.405737651000038],[122.05952946800005,11.404387985000028],[122.05915107200009,11.402314025000067],[122.05950394700007,11.401486039000075],[122.0611370480001,11.400005705000066],[122.06210194800008,11.399404239000033],[122.06436146300007,11.399083269000073],[122.06562434800003,11.398344598000048],[122.0656635910001,11.397066465000023],[122.06375960500009,11.395747611000047],[122.06367542500003,11.394728280000036],[122.06761694400005,11.393980763000059],[122.06774310900005,11.392858403000048],[122.067206434,11.391008517000047],[122.06572390800012,11.389311036000038],[122.06580230800012,11.386754766000022],[122.06544332900012,11.384093591000065],[122.06502658800002,11.383038577000036],[122.06412599238844,11.380032788939577],[122.06363403833666,11.37967035545975],[122.0615131267656,11.378406845088708],[122.06109478800009,11.380866965000052]]]}},{"type":"Feature","properties":{"fid":49,"objectid":1898,"lccode":"05","liqcode":"2010600050000000","mappers":" ","project":"READY","province":"Antique","otherinfo":null,"datemapped":2010,"publishdate":null,"globalid":"{F799DDD2-325B-4E56-934A-EE54555B99CC}","st_area(shape)":0.01053919356163067,"st_perimeter(shape)":4.296469707330003,"liqcodepk":"201060005000000000092","creator":"SNOOPYPC","createdate":"2019-02-19T15:21:28","editor":"LENOVO","modifydate":"2019-03-10T17:50:55","codemove":"na"},"geometry":{"type":"MultiPolygon","coordinates":[[[[122.06857532200002,11.383854003000065],[122.06853060000005,11.384545563000074],[122.06740402700007,11.384709698000053],[122.06646585500005,11.385754806000023],[122.06628010300007,11.386934475000032],[122.06646677000003,11.388324799000028],[122.06736766800007,11.390116987000058],[122.06836495100004,11.391138218000037],[122.0685157900001,11.39283553900003],[122.06788307300008,11.395085653000024],[122.06734809000012,11.39535834000003],[122.06768385900013,11.396638026000062],[122.06880692400011,11.397543032000046],[122.07137614500004,11.398033213000074],[122.07199088700008,11.398475436000068],[122.07177517700006,11.399480891000053],[122.0707120510001,11.399708157000077],[122.06727173300011,11.399236089000055],[122.06608091100009,11.399546740000064],[122.06488638400005,11.40098926300004],[122.0644531920001,11.40352432900005],[122.06461850100004,11.404950295000049],[122.06693010800008,11.406257244000074],[122.06918096100001,11.406662721000034],[122.07221627900003,11.407573683000068],[122.0729791010001,11.408225936000065],[122.07601234800005,11.409786698000064],[122.07730770300009,11.410000336000051],[122.07629204600003,11.408718519000045],[122.0764026390001,11.40735625600007],[122.07802292800011,11.40566341900006],[122.07855706500004,11.404742765000035],[122.07875685600004,11.402081182000073],[122.07818990800003,11.39998323000003],[122.0765199650001,11.397357723000026],[122.07524650700007,11.396934502000022],[122.07562109500009,11.392785103000051],[122.07441619700012,11.390915676000077],[122.07223494000006,11.38872873100007],[122.07215488800011,11.38721922800005],[122.07218643727623,11.387097601080548],[122.07055960760616,11.385315171361215],[122.06861776525692,11.38356742112941],[122.06857532200002,11.383854003000065]]],[[[122.07803221200004,11.435359256000025],[122.07703787000003,11.43416198400007],[122.07756336400008,11.436078049000061],[122.07717818300011,11.43691535700003],[122.07632903000001,11.43666107900003],[122.07581735000008,11.437183551000032],[122.07594037800004,11.438567431000022],[122.07561911300002,11.43934201500002],[122.07393604900007,11.440699213000071],[122.07399704300008,11.441537927000068],[122.0749931270001,11.44235862200003],[122.07549970405044,11.443180774002295],[122.0760737130878,11.442422369966089],[122.07839836850432,11.4386239381934],[122.0788614333455,11.437666018051797],[122.07803221200004,11.435359256000025]]]]}},{"type":"Feature","properties":{"fid":59,"objectid":1908,"lccode":"05","liqcode":"2010600050000000","mappers":"PJDelosReyes, ACPidlaoan","project":"READY","province":"Iloilo","otherinfo":null,"datemapped":2010,"publishdate":null,"globalid":"{282D04BA-68E2-41E5-9B8A-0D8D85396F2D}","st_area(shape)":0.06128738608791496,"st_perimeter(shape)":10.692281506054618,"liqcodepk":"201060005000000000103","creator":"SNOOPYPC","createdate":"2019-02-19T15:21:28","editor":"LENOVO","modifydate":"2019-03-10T17:50:55","codemove":"na"},"geometry":{"type":"Polygon","coordinates":[]}},{"type":"Feature","properties":{"fid":64,"objectid":1928,"lccode":"06","liqcode":"2010600060000000","mappers":" ","project":"READY","province":"Antique","otherinfo":null,"datemapped":2010,"publishdate":null,"globalid":"{59F7BC3E-69F7-4D6A-8910-A1F9D73ECE42}","st_area(shape)":0.010710328066056169,"st_perimeter(shape)":5.351824083433743,"liqcodepk":"201060006000000000126","creator":"SNOOPYPC","createdate":"2019-02-19T15:21:28","editor":"LENOVO","modifydate":"2019-03-10T17:50:55","codemove":"na"},"geometry":{"type":"Polygon","coordinates":[[[122.06502658800002,11.383038577000036],[122.06544332900012,11.384093591000065],[122.06580230800012,11.386754766000022],[122.06572390800012,11.389311036000038],[122.067206434,11.391008517000047],[122.06774310900005,11.392858403000048],[122.06761694400005,11.393980763000059],[122.06367542500003,11.394728280000036],[122.06375960500009,11.395747611000047],[122.0656635910001,11.397066465000023],[122.06562434800003,11.398344598000048],[122.06436146300007,11.399083269000073],[122.06210194800008,11.399404239000033],[122.0611370480001,11.400005705000066],[122.05950394700007,11.401486039000075],[122.05915107200009,11.402314025000067],[122.05952946800005,11.404387985000028],[122.06026033,11.405737651000038],[122.06111707800005,11.40608583500005],[122.06244037200008,11.408301044000039],[122.06252371700009,11.409596744000053],[122.0618354170001,11.411252779000053],[122.05669370800001,11.414846400000044],[122.05500619500002,11.416861909000033],[122.05501641100011,11.419072916000061],[122.05617488200005,11.423498595000067],[122.05660926700013,11.424501784000029],[122.05776313900003,11.425023703000024],[122.05924789000005,11.426082157000051],[122.0604721620001,11.426483329000064],[122.06301168400013,11.42628424700007],[122.06897315700007,11.423712194000073],[122.07026738800005,11.424148173000045],[122.0712436880001,11.425429526000073],[122.07160487899999,11.427434350000054],[122.07134907500006,11.430715387000019],[122.07139637400006,11.43232197000003],[122.07198757800008,11.43358474300004],[122.07292953600007,11.43467594900005],[122.07227921800008,11.435433937000026],[122.07236455400006,11.436107827000058],[122.07143534600004,11.436484951000065],[122.06657587900008,11.439319563000028],[122.0648531050001,11.441386811000028],[122.06442875500011,11.442629174000045],[122.0645129400001,11.448985907000065],[122.06440446500005,11.450021977000063],[122.0652051942976,11.453535463540732],[122.06700893706463,11.452224771100246],[122.07035144538686,11.449255700813241],[122.07338276839695,11.445977707455178],[122.07549970405044,11.443180774002295],[122.0749931270001,11.44235862200003],[122.07399704300008,11.441537927000068],[122.07393604900007,11.440699213000071],[122.07561911300002,11.43934201500002],[122.07594037800004,11.438567431000022],[122.07581735000008,11.437183551000032],[122.07632903000001,11.43666107900003],[122.07717818300011,11.43691535700003],[122.07756336400008,11.436078049000061],[122.07703787000003,11.43416198400007],[122.07611284500001,11.431252183000026],[122.07611678400009,11.430036407000046],[122.07533960100011,11.42726697100005],[122.07483351200005,11.426070560000024],[122.07556368200005,11.423683145000041],[122.07654280700001,11.423141259000033],[122.0782098000001,11.420169864000059],[122.07846994900001,11.418556559000024],[122.0796034120001,11.416296242000046],[122.08128892900004,11.414121455000043],[122.08188901900007,11.412530184000044],[122.0833194516501,11.410497051224763],[122.08302637300555,11.408504335187898],[122.08284550863452,11.40778227430918],[122.08047883000006,11.40837528000003],[122.07730770300009,11.410000336000051],[122.07601234800005,11.409786698000064],[122.0729791010001,11.408225936000065],[122.07221627900003,11.407573683000068],[122.06918096100001,11.406662721000034],[122.06693010800008,11.406257244000074],[122.06461850100004,11.404950295000049],[122.0644531920001,11.40352432900005],[122.06488638400005,11.40098926300004],[122.06608091100009,11.399546740000064],[122.06727173300011,11.399236089000055],[122.0707120510001,11.399708157000077],[122.07177517700006,11.399480891000053],[122.07199088700008,11.398475436000068],[122.07137614500004,11.398033213000074],[122.06880692400011,11.397543032000046],[122.06768385900013,11.396638026000062],[122.06734809000012,11.39535834000003],[122.06788307300008,11.395085653000024],[122.0685157900001,11.39283553900003],[122.06836495100004,11.391138218000037],[122.06736766800007,11.390116987000058],[122.06646677000003,11.388324799000028],[122.06628010300007,11.386934475000032],[122.06646585500005,11.385754806000023],[122.06740402700007,11.384709698000053],[122.06853060000005,11.384545563000074],[122.06857532200002,11.383854003000065],[122.06855699272313,11.383512722439061],[122.06723731591845,11.382324931380493],[122.06412599238844,11.380032788939577],[122.06502658800002,11.383038577000036]]]}}]}