{"type":"FeatureCollection","features":[{"type":"Feature","properties":{"fid":123,"objectid":1980,"lccode":"07","liqcode":"2010600070000000","mappers":"PJDelosReyes, ACPidlaoan","project":"READY","province":"Leyte","otherinfo":null,"datemapped":2008,"publishdate":null,"globalid":"{F4996C99-8530-4B53-9B90-D369351B8342}","st_area(shape)":0.012411412055377262,"st_perimeter(shape)":1.7278832596915366,"liqcodepk":"201060007000000000073","creator":null,"createdate":null,"editor":null,"modifydate":null,"codemove":"yes"},"geometry":{"type":"Polygon","coordinates":[]}},{"type":"Feature","properties":{"fid":124,"objectid":1981,"lccode":"05","liqcode":"2010600050000000","mappers":"PJDelosReyes, ACPidlaoan","project":"READY","province":"Leyte","otherinfo":null,"datemapped":2008,"publishdate":null,"globalid":"{34CC2319-827E-40BB-A85C-1A2DFB0EAE1C}","st_area(shape)":0.027287218578602754,"st_perimeter(shape)":2.1932318342561916,"liqcodepk":"201060005000000000106","creator":"SNOOPYPC","createdate":"2019-02-19T15:21:28","editor":"LENOVO","modifydate":"2019-03-10T17:50:55","codemove":"yes"},"geometry":{"type":"Polygon","coordinates":[[[124.88381136400005,10.974556697000025],[124.88433417500005,10.976074676000055],[124.88310764900005,10.979196987000023],[124.88348703500003,10.981222865000063],[124.88451891800003,10.982085719000054],[124.88519383700007,10.984471900000074],[124.88251166200007,10.989269219000047],[124.88284858800012,10.99614855900006],[124.88675071000013,10.998978270000066],[124.88736491000007,11.002670653000052],[124.89054994900003,11.008097987000042],[124.89283661500008,11.011585444000048],[124.89439873500011,11.012933959000064],[124.89483860700012,11.014105915000071],[124.8945225440001,11.015389412000046],[124.89454166100006,11.01837954700005],[124.89540982000005,11.01890806600005],[124.89564168600008,11.021362841000041],[124.89651259200002,11.022318542000052],[124.89673360600011,11.023064746000045],[124.89665832800006,11.028191306000052],[124.89525784200009,11.028947556000048],[124.89396956500003,11.030343951000079],[124.89377254400006,11.033335344000024],[124.89313143200002,11.034514139000068],[124.89260260900004,11.036332904000062],[124.89131155900007,11.037302108000063],[124.89131975500004,11.038583582000058],[124.89284542800011,11.04049634200004],[124.89306850600008,11.04156291400005],[124.89167410000005,11.043280264000032],[124.89222625200011,11.045092278000027],[124.89147426000011,11.045844561000024],[124.89169665700001,11.046804315000028],[124.89105483300011,11.047876291000023],[124.8901947830001,11.048629158000038],[124.88901658000009,11.050345243000036],[124.88902136100012,11.051092800000047],[124.8883884710001,11.053552977000034],[124.88741686100002,11.053772596000044],[124.88742641800002,11.055267711000058],[124.88506575600003,11.058059040000044],[124.88484294039303,11.058779332338522],[124.88635752755374,11.059304015628745],[124.89071989446364,11.06035447721077],[124.89516550176276,11.060977442614798],[124.89965151585125,11.061166912797074],[124.90413471391398,11.060921065493181],[124.90614500984297,11.060613542324045],[124.90614111300009,11.060524893000032],[124.90638509000007,11.059278353000026],[124.90737722200005,11.056782277000023],[124.90812456700009,11.055408118000058],[124.9101442000001,11.05589333900002],[124.91128163700012,11.056384120000075],[124.91293205400008,11.058241095000028],[124.9154491877095,11.058225167773593],[124.91571354694288,11.058129838114771],[124.91582260400004,11.056977898000072],[124.91418428600002,11.056988268000055],[124.91317123600004,11.056247641000025],[124.91201928800002,11.05351603500003],[124.91237554200008,11.050152487000048],[124.91223906200001,11.048534924000021],[124.91413183700003,11.048896390000039],[124.9157652670001,11.048139115000026],[124.91777838700011,11.047628408000037],[124.9194069460001,11.046124114000065],[124.92066638400003,11.04599168400006],[124.92040378800003,11.04437493000006],[124.91723957400006,11.042278593000049],[124.91659738900013,11.040415162000043],[124.9174771170001,11.040036169000075],[124.92075194000007,11.039766446000046],[124.92352599400012,11.039997828000024],[124.92604554200011,11.039857286000029],[124.9274276230001,11.039226003000065],[124.92980491100002,11.036596542000039],[124.93067323000004,11.03447464200002],[124.93230002400003,11.032721332000051],[124.93443329400009,11.031338299000023],[124.9353072660001,11.030087828000035],[124.93516906300012,11.02822132400007],[124.9342715030001,11.025861613000073],[124.93551619100003,11.023488330000019],[124.9350040170001,11.022246702000075],[124.93386011900009,11.02076002900003],[124.93334308300007,11.018771400000048],[124.9333341470001,11.017402026000068],[124.93446177100009,11.016398926000022],[124.93598524400011,11.018132157000027],[124.93611936800006,11.019376196000051],[124.9370079570001,11.020366441000023],[124.93814283100005,11.020483730000025],[124.94016467600011,11.021342281000043],[124.94155976900002,11.022702783000053],[124.94320277100007,11.023439198000059],[124.94438667608898,11.023800208460594],[124.94467379939098,11.021798513437155],[124.9429352730001,11.021075577000035],[124.94154344800006,11.020213016000072],[124.94141256300009,11.019466919000024],[124.94342705600003,11.01920504900005],[124.94380012100011,11.018455636000057],[124.94202871100003,11.017346528000076],[124.94164496100007,11.01647760500003],[124.94402603900004,11.014470454000048],[124.94427392900002,11.013846378000038],[124.94496810640801,11.013221062574052],[124.94485733213848,11.011253812949551],[124.94416985302036,11.006870926074773],[124.94305089568768,11.002575708675916],[124.94151125190737,10.998409518502111],[124.93956576214215,10.994412469536405],[124.93723317213932,10.990623046012635],[124.934535952035,10.987077732158399],[124.93150007972832,10.983810661215735],[124.92815479062075,10.98085328710489],[124.92453229613315,10.978234081878519],[124.92066747370828,10.975978261865954],[124.91659753127553,10.974107545131814],[124.91236164939575,10.972639942573384],[124.90800060451409,10.971589584659174],[124.90355637692677,10.970966585470137],[124.89907174721205,10.970776945348348],[124.89458988498424,10.97102249308891],[124.89015393390318,10.971700868232755],[124.88580659690678,10.972805543634578],[124.88370685466015,10.97356259032459],[124.88381136400005,10.974556697000025]]]}},{"type":"Feature","properties":{"fid":128,"objectid":1984,"lccode":"06","liqcode":"2010600060000000","mappers":"PJDelosReyes, ACPidlaoan","project":"READY","province":"Leyte","otherinfo":null,"datemapped":2008,"publishdate":null,"globalid":"{4075F53E-E095-408E-B11D-52B08CD034B0}","st_area(shape)":0.013097719328856713,"st_perimeter(shape)":2.201365288189895,"liqcodepk":"201060006000000000138","creator":"SNOOPYPC","createdate":"2019-02-19T15:21:28","editor":"LENOVO","modifydate":"2019-03-10T17:50:55","codemove":"yes"},"geometry":{"type":"MultiPolygon","coordinates":[[[[124.91293205400008,11.058241095000028],[124.91128163700012,11.056384120000075],[124.9101442000001,11.05589333900002],[124.90812456700009,11.055408118000058],[124.90737722200005,11.056782277000023],[124.90638509000007,11.059278353000026],[124.90614111300009,11.060524893000032],[124.90614500984297,11.060613542324045],[124.90857190095561,11.06024227267425],[124.91292032654094,11.059137077536642],[124.9154491877095,11.058225167773593],[124.91293205400008,11.058241095000028]]],[[[124.94320277100007,11.023439198000059],[124.94155976900002,11.022702783000053],[124.94016467600011,11.021342281000043],[124.93814283100005,11.020483730000025],[124.9370079570001,11.020366441000023],[124.93611936800006,11.019376196000051],[124.93598524400011,11.018132157000027],[124.93446177100009,11.016398926000022],[124.9333341470001,11.017402026000068],[124.93334308300007,11.018771400000048],[124.93386011900009,11.02076002900003],[124.9350040170001,11.022246702000075],[124.93551619100003,11.023488330000019],[124.9342715030001,11.025861613000073],[124.93516906300012,11.02822132400007],[124.9353072660001,11.030087828000035],[124.93443329400009,11.031338299000023],[124.93230002400003,11.032721332000051],[124.93067323000004,11.03447464200002],[124.92980491100002,11.036596542000039],[124.9274276230001,11.039226003000065],[124.92604554200011,11.039857286000029],[124.92352599400012,11.039997828000024],[124.92075194000007,11.039766446000046],[124.9174771170001,11.040036169000075],[124.91659738900013,11.040415162000043],[124.91723957400006,11.042278593000049],[124.92040378800003,11.04437493000006],[124.92066638400003,11.04599168400006],[124.9194069460001,11.046124114000065],[124.91777838700011,11.047628408000037],[124.9157652670001,11.048139115000026],[124.91413183700003,11.048896390000039],[124.91223906200001,11.048534924000021],[124.91237554200008,11.050152487000048],[124.91201928800002,11.05351603500003],[124.91317123600004,11.056247641000025],[124.91418428600002,11.056988268000055],[124.91582260400004,11.056977898000072],[124.91571354694288,11.058129838114771],[124.91713809719755,11.057616131253154],[124.92118458048229,11.055694090104005],[124.92502079679639,11.053389473989784],[124.92860979515629,11.050724487702237],[124.9319170092866,11.047724806688848],[124.93491059059714,11.044419329389696],[124.93756171483393,11.040839898547269],[124.939844859454,11.037020994188103],[124.94173804906147,11.032999401246808],[124.94322306655546,11.02881385504574],[124.94428562797567,11.024504668054423],[124.94438667608898,11.023800208460594],[124.94320277100007,11.023439198000059]]],[[[124.94427392900002,11.013846378000038],[124.94402603900004,11.014470454000048],[124.94164496100007,11.01647760500003],[124.94202871100003,11.017346528000076],[124.94380012100011,11.018455636000057],[124.94342705600003,11.01920504900005],[124.94141256300009,11.019466919000024],[124.94154344800006,11.020213016000072],[124.9429352730001,11.021075577000035],[124.94467379939098,11.021798513437155],[124.94491551938489,11.020113341530974],[124.94510669449699,11.015682165790144],[124.94496810640801,11.013221062574052],[124.94427392900002,11.013846378000038]]]]}},{"type":"Feature","properties":{"fid":139,"objectid":1996,"lccode":"07","liqcode":"2010600070000000","mappers":"PJDelosReyes, ACPidlaoan","project":"READY","province":"Leyte","otherinfo":null,"datemapped":2008,"publishdate":null,"globalid":"{5B869017-7A18-4720-97CE-FF1E44E68E39}","st_area(shape)":0.015187487280980618,"st_perimeter(shape)":1.6867586645565789,"liqcodepk":"201060007000000001450","creator":null,"createdate":null,"editor":null,"modifydate":null,"codemove":"yes"},"geometry":{"type":"Polygon","coordinates":[]}}]}