{"type":"FeatureCollection","features":[{"type":"Feature","properties":{"fid":34,"objectid":1880,"lccode":"07","liqcode":"2010600070000000","mappers":"PJDelosReyes, ACPidlaoan","project":"READY","province":"Northern Samar","otherinfo":null,"datemapped":2009,"publishdate":null,"globalid":"{0D9D6C7A-090D-4A5B-A004-F6233C7DF3DA}","st_area(shape)":0.03290017476223487,"st_perimeter(shape)":11.85341888630265,"liqcodepk":"201060007000000000074","creator":"SNOOPYPC","createdate":"2019-02-19T15:21:28","editor":"LENOVO","modifydate":"2019-03-10T17:50:55","codemove":"na"},"geometry":{"type":"MultiPolygon","coordinates":[[[[124.35472923900011,12.535252367000053],[124.35444360400004,12.534538481000025],[124.35445206200008,12.53165408500007],[124.35381287200003,12.530688172000053],[124.35324964200005,12.53078329500005],[124.35231943600002,12.53256472500004],[124.35080205100009,12.534349197000042],[124.35061768584848,12.535127633271511],[124.35377534255893,12.53557156776144],[124.35527231314002,12.535636253111697],[124.35472923900011,12.535252367000053]]],[[[124.36317646600003,12.53366365200003],[124.3627718470001,12.532650386000055],[124.35906648500008,12.533730572000024],[124.35621796780617,12.535677111303205],[124.35828633202068,12.535766465858014],[124.36279503219045,12.535525964593598],[124.36338109145775,12.5354375169606],[124.36317646600003,12.53366365200003]]],[[[124.34077314100013,12.531407778000071],[124.34053553500006,12.530861122000033],[124.33950566200006,12.530347250000034],[124.34069272600004,12.52721282400006],[124.3406098160001,12.525367787000048],[124.3410597190001,12.524385195000036],[124.34310077200008,12.521808713000041],[124.3433749950001,12.520927869000046],[124.34260898900006,12.520355020000066],[124.34118530900002,12.520304456000074],[124.33963429000005,12.521162829000048],[124.3372279670001,12.524058276000062],[124.3372038760001,12.525082040000028],[124.33594809600004,12.526284842000052],[124.33472567300008,12.528280538000047],[124.33377253100002,12.52841497600002],[124.33212486236204,12.527872723076028],[124.33268480725269,12.528276435960349],[124.3365693737782,12.530537763555065],[124.340114871552,12.532163668796501],[124.34077314100013,12.531407778000071]]]]}},{"type":"Feature","properties":{"fid":75,"objectid":1939,"lccode":"06","liqcode":"2010600060000000","mappers":"PJDelosReyes, ACPidlaoan","project":"READY","province":"Northern Samar","otherinfo":null,"datemapped":2009,"publishdate":null,"globalid":"{54FD4513-FD6A-47C1-904A-E307CDDE876E}","st_area(shape)":0.00865304678469956,"st_perimeter(shape)":4.666609657552388,"liqcodepk":"201060006000000000139","creator":"SNOOPYPC","createdate":"2019-02-19T15:21:28","editor":"LENOVO","modifydate":"2019-03-10T17:50:55","codemove":"na"},"geometry":{"type":"Polygon","coordinates":[[[124.37626159700007,12.53175829400004],[124.37484299900008,12.531273310000076],[124.3746590620001,12.529455036000057],[124.37491785600004,12.528961466000055],[124.37441195300005,12.528043736000026],[124.37367118900009,12.528026101000023],[124.37379516600004,12.52676276400007],[124.37348466000005,12.52571559200004],[124.37215418900007,12.525401333000048],[124.37172540100006,12.526709069000049],[124.37102887300011,12.526819641000031],[124.37047864300007,12.525752356000053],[124.36756063100006,12.52595983100002],[124.36710564200008,12.526432972000064],[124.36695932900012,12.527610917000063],[124.36598164500003,12.528108135000025],[124.36703075100002,12.528766242000072],[124.3684008020001,12.528309866000031],[124.37027503900003,12.528450088000053],[124.37189308200004,12.529576189000066],[124.37050442100008,12.530631943000058],[124.37042368100003,12.531852307000063],[124.3712748910001,12.532147596000069],[124.37173938900004,12.533472195000057],[124.37203840825921,12.533607092076952],[124.37587558555454,12.532236062601568],[124.37651094732234,12.531936842950934],[124.37626159700007,12.53175829400004]]]}}]}