{"type":"FeatureCollection","features":[{"type":"Feature","properties":{"fid":187,"objectid":10016,"lccode":"01","liqcode":null,"mappers":"DJLBuhay, MJVReyes, MITAbigania, KLPapiona, KMVitto","project":"MELP","province":"Sultan Kudarat","otherinfo":null,"datemapped":2020,"publishdate":2021,"globalid":"{1B7E7CC9-093D-4716-9F84-3DA25042BFE2}","st_area(shape)":0.08978084284158963,"st_perimeter(shape)":9.534125484685708,"liqcodepk":null,"creator":null,"createdate":null,"editor":null,"modifydate":null,"codemove":null},"geometry":{"type":"Polygon","coordinates":[[[124.97531528400009,6.67970037500004],[124.97649724100008,6.679456997000044],[124.9781151210001,6.679861361000064],[124.97979252700007,6.679337943000065],[124.97993318700003,6.678619770000068],[124.98130468300008,6.678231548000041],[124.98225850300003,6.678581712000038],[124.98344028800012,6.678390376000037],[124.9837548590001,6.679046927000059],[124.98546615800001,6.679294747000027],[124.98774193500003,6.679188451000071],[124.98929499300006,6.678274835000025],[124.9896661780001,6.677771014000029],[124.98956160900002,6.675862587000039],[124.99016382700006,6.675537167000071],[124.98985715200001,6.674691307000046],[124.98995813500007,6.673640798000064],[124.99116799700005,6.673001561000035],[124.99141386200006,6.671551542000033],[124.99188920300003,6.670949549000056],[124.99290781700006,6.670530214000053],[124.99545437600011,6.670323860000052],[124.99747463300002,6.669674607000047],[124.99920787900011,6.669613936000075],[124.99981184100011,6.669176693000052],[125.00052078100009,6.666620608000072],[125.00232631900009,6.665484208000068],[125.00215185800006,6.66493954200007],[125.00094484600004,6.664628695000033],[124.99935342000003,6.665094408000071],[124.99633805300006,6.665055380000069],[124.99529657600009,6.664764786000035],[124.99291353400007,6.664951360000031],[124.99097842500011,6.665803088000075],[124.989949431,6.6659979660000195],[124.9886726640001,6.665691369000059],[124.98745947400003,6.664437610000052],[124.98643819000004,6.6623556540000655],[124.98538554800007,6.66121473100003],[124.98484819700002,6.6590932660000695],[124.98505395500001,6.657899146000035],[124.9848443100001,6.656886239000072],[124.98641583500012,6.654601719000026],[124.98733440700003,6.65387139300003],[124.987929086,6.652793458000076],[124.98839383600011,6.6508053550000445],[124.98986649600012,6.65032428400002],[124.99089548000006,6.647826301000068],[124.98940883600005,6.647213759000066],[124.98863850200007,6.647437676000039],[124.9878870880001,6.648530195000036],[124.98678405700004,6.64830726400004],[124.98681493400012,6.64641125600002],[124.98534322400008,6.644788891000076],[124.98582079700009,6.643926686000043],[124.98403996900004,6.6436850570000265],[124.98358602530446,6.642880343725315],[124.98179424773257,6.645316339133881],[124.9795286324211,6.649130387005193],[124.97764778811191,6.6531481130839305],[124.97616983847121,6.657330826644325],[124.97510902819917,6.66163824677462],[124.97447558541813,6.666028890267467],[124.97427562271491,6.670460471138305],[124.9745110778069,6.674890307923959],[124.97517969442143,6.679275734836805],[124.97529832362629,6.679741309843623],[124.97531528400009,6.67970037500004]]]}},{"type":"Feature","properties":{"fid":189,"objectid":10018,"lccode":"02","liqcode":null,"mappers":"OPCHalasan, KSSochayseng, AATMagnaye, RPADizon, MJVReyes, HALVidal, MITAbigania, DJLBuhay","project":"ACER-DeLTA Liquefaction","province":"South Cotabato","otherinfo":"General Santos merged with the rest of South Cotabato","datemapped":2025,"publishdate":2025,"globalid":"{5C1DBB9D-146F-4CBC-A9A0-7B9670F2F55D}","st_area(shape)":0.0277513408469407,"st_perimeter(shape)":12.12541707282386,"liqcodepk":null,"creator":null,"createdate":null,"editor":"DJLB","modifydate":"2025-07-07T08:00:00","codemove":null},"geometry":{"type":"Polygon","coordinates":[]}},{"type":"Feature","properties":{"fid":210,"objectid":10019,"lccode":"03","liqcode":null,"mappers":"OPCHalasan, KSSochayseng, AATMagnaye, RPADizon, MJVReyes, HALVidal, MITAbigania, DJLBuhay","project":"ACER-DeLTA Liquefaction","province":"South Cotabato","otherinfo":"General Santos merged with the rest of South Cotabato","datemapped":2025,"publishdate":2025,"globalid":"{A08B4111-30CD-46F1-8E61-734C7ABFBD03}","st_area(shape)":0.027808614318137116,"st_perimeter(shape)":9.22104192901392,"liqcodepk":null,"creator":null,"createdate":null,"editor":"DJLB","modifydate":"2025-07-07T08:00:00","codemove":null},"geometry":{"type":"Polygon","coordinates":[]}},{"type":"Feature","properties":{"fid":211,"objectid":10020,"lccode":"04","liqcode":null,"mappers":"OPCHalasan, KSSochayseng, AATMagnaye, RPADizon, MJVReyes, HALVidal, MITAbigania, DJLBuhay","project":"ACER-DeLTA Liquefaction","province":"South Cotabato","otherinfo":"General Santos merged with the rest of South Cotabato","datemapped":2025,"publishdate":2025,"globalid":"{10411778-8217-49CD-9A6B-AC131A16B836}","st_area(shape)":0.0318710172763168,"st_perimeter(shape)":5.428132055188376,"liqcodepk":null,"creator":null,"createdate":null,"editor":"DJLB","modifydate":"2025-07-07T08:00:00","codemove":null},"geometry":{"type":"Polygon","coordinates":[]}}]}