{"type":"FeatureCollection","features":[{"type":"Feature","properties":{"fid":10,"objectid":1841,"lccode":"01","liqcode":"2010600010000000","mappers":"DJLBuhay, MJVReyes, MITAbigania, KLPapiona, KMVitto","project":"MELP","province":"Capiz","otherinfo":null,"datemapped":2017,"publishdate":null,"globalid":"{FE12B36A-531F-4D3F-AE5B-76F7E9CFE484}","st_area(shape)":0.04128187917080134,"st_perimeter(shape)":8.871881460062728,"liqcodepk":"201060001000000000013","creator":"SNOOPYPC","createdate":"2019-02-19T15:21:28","editor":"LENOVO","modifydate":"2019-03-10T17:53:06","codemove":"na"},"geometry":{"type":"MultiPolygon","coordinates":[[[[122.69900635700003,11.518279531000074],[122.69878878500005,11.517537550000041],[122.6990938450001,11.515862932000061],[122.69727379400001,11.514488370000036],[122.69735217000004,11.513799336000032],[122.69844895500012,11.513666480000039],[122.69924568400006,11.512786767000025],[122.700651235,11.51433872700005],[122.70275593500003,11.515527696000051],[122.703832884,11.515806354000066],[122.70393872700005,11.516677428000037],[122.70582594300004,11.51650389800005],[122.7068200010001,11.517174875000023],[122.70766919400012,11.517163766000069],[122.70885906900004,11.516171962000044],[122.70866612900011,11.515047169000066],[122.70729965300006,11.51375208500002],[122.7064358660001,11.513808641000026],[122.7056000970001,11.514918039000065],[122.70469732700008,11.515127688000064],[122.70409636700005,11.51441881900007],[122.704747569,11.51348151700006],[122.70420876900006,11.51288277900005],[122.70435546500003,11.511806184000022],[122.70322797900009,11.51114702600006],[122.70247523500005,11.51174444900005],[122.7015532480001,11.511779396000064],[122.70017085600013,11.511275495000062],[122.69824083200001,11.51241006400005],[122.69676111400008,11.512169249000069],[122.69602054900008,11.51270684900004],[122.6951722460001,11.511904386000024],[122.69560996200005,11.510971666000044],[122.69348724100007,11.510801945000022],[122.69365882000011,11.509187011000048],[122.69460502200002,11.509188005000054],[122.69523713700005,11.507968358000028],[122.69412256800001,11.506615278000025],[122.6931639070001,11.506925329000069],[122.69335671600005,11.50810995000006],[122.69236104600009,11.508982258000058],[122.69170396400011,11.51083595400007],[122.69026007700008,11.511121552000077],[122.69030205700004,11.506013049000044],[122.68971989000009,11.505916719000027],[122.68924038900003,11.507549692000056],[122.68825669400009,11.508553601000072],[122.68731061300004,11.508444912000073],[122.68594125700007,11.507163311000058],[122.68414616700012,11.50693405700002],[122.68254476900007,11.507063917000039],[122.68205998400003,11.50666858200003],[122.68179456100007,11.505376202000035],[122.68077522500006,11.505698109000035],[122.68064016900009,11.50713361700002],[122.678994826,11.507292895000035],[122.67861710500006,11.50876402600005],[122.68093391900003,11.508910140000067],[122.68113482000001,11.509538883000062],[122.6834871650001,11.510462663000055],[122.68429981200006,11.51057122000003],[122.68495403900012,11.511325648000021],[122.68602275,11.51025006100002],[122.6869932830001,11.510191287000055],[122.68788967200008,11.511364702000037],[122.68773488900001,11.512901462000059],[122.68644824000013,11.513593979000063],[122.68644682200011,11.514874104000056],[122.68599334751215,11.515081149029234],[122.68631738457142,11.51527316686062],[122.69038281097528,11.517174783249102],[122.69461770753847,11.518674197543316],[122.69854554773971,11.51964884590919],[122.69900635700003,11.518279531000074]]],[[[122.74009453400004,11.507310481000047],[122.7404712780001,11.506557094000073],[122.74145466500012,11.505684607000031],[122.7423568004733,11.505251761685939],[122.74338369453059,11.504136345834123],[122.74606714652288,11.500574469250981],[122.74769348080311,11.49790368854819],[122.74687646700012,11.498127055000056],[122.74586765700008,11.497638051000024],[122.74550930300008,11.49685290800005],[122.74613159300009,11.49549435500006],[122.74683937900011,11.492274364000025],[122.74574712300011,11.491368875000033],[122.74592365700003,11.489292099000068],[122.74481813300008,11.488477590000059],[122.74391556000012,11.488591652000022],[122.74278065500005,11.48808338500004],[122.74265389600009,11.488753250000059],[122.74311871600001,11.489825624000046],[122.74281606900001,11.49183528800006],[122.74188402400013,11.492332162000025],[122.74108881200004,11.49175719000004],[122.7410412270001,11.490733041000052],[122.7403332780001,11.490244285000072],[122.73935239700008,11.49108566600006],[122.73941926200007,11.492243829000072],[122.7410745850001,11.492881852000039],[122.7413651500001,11.493494660000067],[122.74225775600009,11.493686873000058],[122.7423730580001,11.494950360000074],[122.74134385500008,11.495561998000028],[122.74148250000007,11.496342096000033],[122.74278210300008,11.497185502000034],[122.74327621500002,11.498076050000066],[122.74259569700007,11.499415403000055],[122.74168310500009,11.499835724000036],[122.74095227600003,11.499294378000057],[122.74009782000007,11.499810456000034],[122.73928616600007,11.502536178000073],[122.74007405900012,11.50318293100003],[122.74027939100007,11.504152187000042],[122.73941374500009,11.504997376000064],[122.73935463700003,11.505954432000065],[122.73875193000003,11.507064138000032],[122.73770310600003,11.50784802500004],[122.73749781672018,11.50997458494308],[122.74011841268566,11.507636387306242],[122.74009453400004,11.507310481000047]]],[[[122.68492886500009,11.437842289000056],[122.6852768010001,11.439058192000061],[122.6860729430001,11.438551778000033],[122.68694584000002,11.439326446000049],[122.68768306400011,11.439461229000074],[122.68816893100006,11.43877262800004],[122.68792013100004,11.435613902000055],[122.68894964200003,11.434619603000042],[122.68898662004918,11.434314942273982],[122.68640544617519,11.435515896139487],[122.6840769978916,11.436889263776548],[122.68492886500009,11.437842289000056]]],[[[122.67731785800005,11.442283030000052],[122.67741377500012,11.443259386000022],[122.67867480300004,11.443509621000032],[122.67949165500009,11.44186429000007],[122.67914923253463,11.4402714967736],[122.67892861481158,11.44043253093035],[122.67755493003348,11.44165798037642],[122.67731785800005,11.442283030000052]]],[[[122.67492756600005,11.445362273000057],[122.67601552400005,11.444234092000043],[122.6768114030001,11.44398612400005],[122.67685151600006,11.442837638000073],[122.676675543269,11.442442462746376],[122.67559219252956,11.443408887280224],[122.67426530043446,11.444849807402859],[122.67492756600005,11.445362273000057]]]]}},{"type":"Feature","properties":{"fid":32,"objectid":1878,"lccode":"07","liqcode":"2010600070000000","mappers":"PJDelosReyes, ACPidlaoan","project":"READY","province":"Iloilo","otherinfo":null,"datemapped":2010,"publishdate":null,"globalid":"{2F92972A-C07C-4633-B325-DF2A08960C6C}","st_area(shape)":0.031106077518548395,"st_perimeter(shape)":5.287074988133156,"liqcodepk":"201060007000000000071","creator":"SNOOPYPC","createdate":"2019-02-19T15:21:28","editor":"LENOVO","modifydate":"2019-03-10T17:50:55","codemove":"na"},"geometry":{"type":"Polygon","coordinates":[]}},{"type":"Feature","properties":{"fid":59,"objectid":1908,"lccode":"05","liqcode":"2010600050000000","mappers":"PJDelosReyes, ACPidlaoan","project":"READY","province":"Iloilo","otherinfo":null,"datemapped":2010,"publishdate":null,"globalid":"{282D04BA-68E2-41E5-9B8A-0D8D85396F2D}","st_area(shape)":0.06128738608791496,"st_perimeter(shape)":10.692281506054618,"liqcodepk":"201060005000000000103","creator":"SNOOPYPC","createdate":"2019-02-19T15:21:28","editor":"LENOVO","modifydate":"2019-03-10T17:50:55","codemove":"na"},"geometry":{"type":"Polygon","coordinates":[]}},{"type":"Feature","properties":{"fid":73,"objectid":1937,"lccode":"06","liqcode":"2010600060000000","mappers":"PJDelosReyes, ACPidlaoan","project":"READY","province":"Iloilo","otherinfo":null,"datemapped":2010,"publishdate":null,"globalid":"{DBB85F45-4FB4-4F72-8BD3-A1308397A487}","st_area(shape)":0.017575391436836466,"st_perimeter(shape)":7.287100410898002,"liqcodepk":"201060006000000000136","creator":"SNOOPYPC","createdate":"2019-02-19T15:21:28","editor":"LENOVO","modifydate":"2019-03-10T17:50:55","codemove":"na"},"geometry":{"type":"Polygon","coordinates":[]}}]}