{"type":"FeatureCollection","features":[{"type":"Feature","properties":{"fid":171,"objectid":9613,"lccode":"01","liqcode":"2010600010000000","mappers":"DJLBuhay, MJVReyes, MITAbigania, KLPapiona, KMVitto","project":"MELP","province":"Nueva Ecija","otherinfo":"hazard boundary with Pangasinan updated on 2024","datemapped":2018,"publishdate":null,"globalid":"{142EC992-C228-490B-8C06-5B4A68BA1242}","st_area(shape)":0.21874224791512728,"st_perimeter(shape)":7.9099228422392365,"liqcodepk":"201060001000000000019","creator":"SNOOPYPC","createdate":"2019-02-19T15:21:28","editor":"LENOVO","modifydate":"2019-03-10T17:53:06","codemove":"na"},"geometry":{"type":"Polygon","coordinates":[]}},{"type":"Feature","properties":{"fid":174,"objectid":9616,"lccode":"07","liqcode":null,"mappers":"DJLBuhay, MITAbigania","project":"LiquePhi","province":"Pangasinan","otherinfo":null,"datemapped":2024,"publishdate":null,"globalid":"{4C1C6B5C-6BC5-4098-AF34-1358D72BE295}","st_area(shape)":0.0990952810399136,"st_perimeter(shape)":16.14272038398808,"liqcodepk":null,"creator":null,"createdate":null,"editor":null,"modifydate":null,"codemove":null},"geometry":{"type":"MultiPolygon","coordinates":[[[[120.75261890200011,16.03560772000003],[120.74702154500005,16.035036640000044],[120.74571636600001,16.034407413000054],[120.744979230167,16.03353760509051],[120.74139780440787,16.033329641039145],[120.74309606600002,16.033876296000074],[120.74595895200004,16.036442057000045],[120.74825447400009,16.03717029500006],[120.7500900870001,16.03722443600003],[120.75368707400003,16.037914962000055],[120.75558851200002,16.038737305000037],[120.75713834500003,16.03902241000003],[120.75948040600007,16.040064651000016],[120.76055443400004,16.041182517000035],[120.76100602600002,16.042233271000043],[120.76223007600005,16.043615231000043],[120.76312137500008,16.043992128000074],[120.76343035900004,16.04474591900004],[120.76504144400006,16.04594626200003],[120.76852300500002,16.047848036000055],[120.7675475970001,16.048346245000058],[120.76583630300001,16.048140670000063],[120.76329313000006,16.047341207000045],[120.76048850900008,16.045993535000036],[120.75742244000003,16.045011328000044],[120.756923313,16.045399643000056],[120.75996561300006,16.046176271000032],[120.76170067500003,16.046930054000033],[120.76219980300004,16.047683834000058],[120.7642676170001,16.048688870000028],[120.76702470100008,16.049100020000026],[120.7681180280001,16.049100020000026],[120.76966294600004,16.048551820000057],[120.77107568500003,16.04850587800007],[120.77471869500005,16.049347887000067],[120.77620079000008,16.050698316000027],[120.77708433378234,16.050922322973687],[120.77652359212553,16.050174558534685],[120.77348181042734,16.04685829263784],[120.77340288571513,16.046787609962184],[120.77234632000012,16.046663506000073],[120.76878112400004,16.045509987000063],[120.76753330500004,16.045224461000032],[120.76521592800009,16.04393388000005],[120.76337562700007,16.04214602600007],[120.76185276000002,16.038942795000025],[120.76104288031222,16.038134096544965],[120.75843822474113,16.036909276872432],[120.75646398686027,16.03620275701689],[120.75261890200011,16.03560772000003]]],[[[120.72637502400005,16.03719281700006],[120.72699879700009,16.037692357000026],[120.72859119600002,16.037833250000062],[120.72974156600003,16.038354068000043],[120.7319567410001,16.039843416000057],[120.73294548900004,16.039057626000044],[120.73451417500009,16.040026157000057],[120.73403881600007,16.038737827000034],[120.73336380500008,16.03833579300004],[120.73112961600009,16.03830838200002],[120.72985565200008,16.03750431200007],[120.72766147200002,16.036862881000047],[120.72696368800008,16.035603740000052],[120.72693815539098,16.035113863744336],[120.72599981866063,16.0354273697235],[120.72637502400005,16.03719281700006]]],[[[120.78254342900006,16.096424512000056],[120.78243390400007,16.094215980000055],[120.7820789430001,16.09303594100004],[120.78072261000011,16.09220636400005],[120.77976416100012,16.09090881000003],[120.77825537000002,16.087971997000068],[120.77625261400011,16.08634376500004],[120.77458459900005,16.08395738300004],[120.77348784100002,16.083322356000053],[120.77136753600008,16.082925324000033],[120.76961821300006,16.08201181300006],[120.76689915700001,16.08155505600007],[120.76589850200003,16.081032460000074],[120.76393596800007,16.07899325300002],[120.76286640900003,16.076663744000026],[120.76161859000003,16.075019368000024],[120.75908730100004,16.07255277900003],[120.7569125320001,16.069469500000025],[120.75505863,16.06511856900005],[120.75373950700008,16.063131499000068],[120.75206386500007,16.06141849100004],[120.74878388500007,16.058437821000037],[120.74692998300009,16.05689607800002],[120.74569808000001,16.054960142000027],[120.74483278400011,16.05403048800002],[120.74215262100005,16.05302453800004],[120.73958568000013,16.051003084000058],[120.73829634500008,16.050581729000044],[120.73384337700008,16.047487502000024],[120.73314086200003,16.046333211000043],[120.73078189000012,16.04647026200007],[120.7293099210001,16.045727811000063],[120.72740089600006,16.043591018000026],[120.7262172510001,16.042590524000047],[120.72536848800006,16.04149124600008],[120.72539012600011,16.040288001000015],[120.72581332100003,16.037479176000033],[120.72530902161984,16.03565816727144],[120.72269203237325,16.036532485808273],[120.7185272015545,16.03838350895011],[120.71456995813652,16.040620311939858],[120.71451326071835,16.04066004637221],[120.71512397900005,16.043242567000046],[120.71515134700007,16.044522361000073],[120.71465329700004,16.048095963000037],[120.71502839700007,16.049927189000073],[120.71580136600005,16.051362836000063],[120.71647875400004,16.05331576300006],[120.71647875400004,16.054480657000052],[120.71590687600006,16.057055570000045],[120.71602087900011,16.059083445000052],[120.71522290700011,16.06113302800003],[120.71508717900008,16.063622922000032],[120.71393343700005,16.065765384000027],[120.71288572200001,16.06857446100003],[120.71146355000008,16.070362807000038],[120.71059309200007,16.073095034000065],[120.709526621,16.074728175000075],[120.70906314600006,16.077160480000035],[120.70810054300011,16.07969552600002],[120.70714503200007,16.08076194800003],[120.70546229800006,16.08202499900005],[120.70480173600005,16.083558072000073],[120.70468503900008,16.085339214000044],[120.7048033860001,16.08869479000003],[120.70414080300009,16.091227374000024],[120.70366544400008,16.09234637300005],[120.7022393650001,16.09431031500003],[120.7013361820001,16.096867979000017],[120.70090594900013,16.098986426000064],[120.70081196600005,16.100463189000042],[120.70009521520004,16.101690717154497],[120.7009642113734,16.10312840539528],[120.70365439562947,16.106717841458263],[120.70409648383794,16.107200051275754],[120.70430014300008,16.10701525500001],[120.70590534500002,16.10581818800006],[120.70752645900005,16.104208659000047],[120.70858272900011,16.10268768700007],[120.70993315300007,16.101877321000075],[120.71055783300005,16.100599054000043],[120.71100271200011,16.098771661000058],[120.71235225600003,16.09715980800007],[120.71258939300003,16.095533707000076],[120.71492442700003,16.09262870500003],[120.71678938900006,16.090616243000056],[120.71784788800007,16.089956803000064],[120.71872730300005,16.08897481300005],[120.72023373600007,16.086141937000036],[120.71984439700009,16.083151282000074],[120.72075729200002,16.081700837000025],[120.72448638199998,16.07994598600004],[120.72474060000002,16.081118715000063],[120.72566572100004,16.08111754100003],[120.72497828000007,16.078035569000065],[120.72567178300005,16.07544153800006],[120.72577006900009,16.073687916000036],[120.72516016800013,16.070330895000037],[120.72566044700011,16.06878776400003],[120.7278696950001,16.066070145000026],[120.72805237500008,16.06389892900006],[120.72779442000001,16.062486360000037],[120.72713103800005,16.06141257900003],[120.72776927300004,16.060521157000032],[120.72940475700011,16.06043542600003],[120.7299010790001,16.06117945100005],[120.73017441100001,16.062595541000064],[120.73086604000001,16.063786963000044],[120.73070250600007,16.065449185000034],[120.73082134600008,16.06837265000007],[120.73067873800007,16.07040534700008],[120.73120032200008,16.073223679000026],[120.73182990000008,16.07404631400004],[120.73361519900004,16.075256900000053],[120.73600451700008,16.075356535000022],[120.73806725000009,16.076252547000024],[120.739105085,16.077764243000043],[120.73987174300008,16.08389276700007],[120.74146939800006,16.087168594000048],[120.74189722100004,16.08936095800004],[120.74173084600011,16.093631430000073],[120.74009085500006,16.096463137000057],[120.73947288800002,16.098975101000068],[120.73795093100011,16.10197712100006],[120.73792797000011,16.103108354000028],[120.7383557930001,16.105665904000038],[120.73947288800002,16.105917090000045],[120.74058998300008,16.104318627000055],[120.74113664600007,16.102080758000053],[120.74196852500006,16.100573607000054],[120.74294301200005,16.09783330300007],[120.7440363390001,16.096508809000053],[120.74446416200009,16.094339361000035],[120.74441662600009,16.092854988000056],[120.74391749900009,16.087351292000047],[120.74289547600004,16.08369730200008],[120.74132679000002,16.081436362000034],[120.74125548600013,16.078901338000037],[120.74082766300012,16.07611505900007],[120.74087519800003,16.07369416100005],[120.74044737500003,16.07303183500005],[120.73944912000002,16.07252937900006],[120.73771405800005,16.072300990000024],[120.73588392400006,16.071798532000056],[120.73462422200011,16.071181877000075],[120.73429815400003,16.07022397800006],[120.73458337000011,16.06944744400004],[120.73431003800012,16.067665972000043],[120.73287207500006,16.065964423000025],[120.73264929900006,16.06443094300005],[120.73291292800002,16.06220591500005],[120.73344791800002,16.060697811000068],[120.73463750400005,16.05928840400002],[120.73711985900002,16.058208854000046],[120.73840664000012,16.05824817300004],[120.73972828700003,16.058780429000027],[120.74129697400006,16.059739728000068],[120.74432155500006,16.062617036000063],[120.74453546600013,16.06309667700003],[120.74543344900007,16.067188952000038],[120.74632812700008,16.068433500000026],[120.74810066200008,16.069765849000078],[120.75091574400005,16.071361753000076],[120.75374299200007,16.073886234000042],[120.75470211000003,16.076115620000056],[120.75498672500011,16.077483041000047],[120.75622031900002,16.079972466000076],[120.7579464380001,16.081322734000025],[120.763472492,16.083480906000034],[120.76582552100002,16.083960496000028],[120.76753681500008,16.085056699000063],[120.76998908200004,16.087874301000056],[120.77478706500004,16.09133879700005],[120.77747854300004,16.091995278000066],[120.77919938100003,16.09333564600007],[120.78019020700005,16.09467270800008],[120.78168532200006,16.09740242600003],[120.78166699715474,16.098959382638895],[120.78272258988454,16.09686030853741],[120.78254342900006,16.096424512000056]]]]}},{"type":"Feature","properties":{"fid":175,"objectid":9617,"lccode":"06","liqcode":null,"mappers":"DJLBuhay, MITAbigania","project":"LiquePhi","province":"Pangasinan","otherinfo":null,"datemapped":2024,"publishdate":null,"globalid":"{66023685-1332-44EF-8443-E51FD3597412}","st_area(shape)":0.04411879143836554,"st_perimeter(shape)":22.502158641584156,"liqcodepk":null,"creator":null,"createdate":null,"editor":null,"modifydate":null,"codemove":null},"geometry":{"type":"MultiPolygon","coordinates":[[[[120.70081196600005,16.100463189000042],[120.70090594900013,16.098986426000064],[120.7013361820001,16.096867979000017],[120.7022393650001,16.09431031500003],[120.70366544400008,16.09234637300005],[120.70414080300009,16.091227374000024],[120.7048033860001,16.08869479000003],[120.70468503900008,16.085339214000044],[120.70480173600005,16.083558072000073],[120.70546229800006,16.08202499900005],[120.70714503200007,16.08076194800003],[120.70810054300011,16.07969552600002],[120.70906314600006,16.077160480000035],[120.709526621,16.074728175000075],[120.71059309200007,16.073095034000065],[120.71146355000008,16.070362807000038],[120.71288572200001,16.06857446100003],[120.71393343700005,16.065765384000027],[120.71508717900008,16.063622922000032],[120.71522290700011,16.06113302800003],[120.71602087900011,16.059083445000052],[120.71590687600006,16.057055570000045],[120.71647875400004,16.054480657000052],[120.71647875400004,16.05331576300006],[120.71580136600005,16.051362836000063],[120.71502839700007,16.049927189000073],[120.71465329700004,16.048095963000037],[120.71515134700007,16.044522361000073],[120.71512397900005,16.043242567000046],[120.71451326071835,16.04066004637221],[120.71288297915763,16.041802558863548],[120.71317891100011,16.04358010400006],[120.7131551440001,16.04810281800007],[120.71366175100002,16.050073110000028],[120.71474759800005,16.053013731000018],[120.71493774100009,16.05545772100004],[120.71467660500004,16.056826676000075],[120.714676294,16.058975187000048],[120.71367803900013,16.060802417000044],[120.71365427100012,16.063132112000066],[120.71167796400006,16.067672654000027],[120.71038135500011,16.06902331000003],[120.70954315300003,16.070907323000025],[120.70954835400005,16.07203951600008],[120.70892242200013,16.073747839000077],[120.70814129000007,16.074889801000037],[120.70778029500003,16.076777902000064],[120.70707674000005,16.078424888000033],[120.70586945700006,16.079780347000053],[120.70374896800001,16.081412415000045],[120.70315170400012,16.082795802000074],[120.7031811500001,16.085197312000048],[120.70257007700002,16.086729010000056],[120.7005069490001,16.088914259000035],[120.70059858099998,16.090974879000047],[120.70019328000001,16.092867581000064],[120.69875238800012,16.095352048000056],[120.69793056900005,16.097087738000024],[120.69780467875191,16.097520311789214],[120.69865099957993,16.099301324972423],[120.70009521520004,16.101690717154497],[120.70081196600005,16.100463189000042]]],[[[120.76878669200005,16.043398702000044],[120.76663840900005,16.043095309000027],[120.76554443200007,16.04191673400004],[120.76378011700001,16.04072496800006],[120.76282928800002,16.039614313000076],[120.76247348368894,16.038806808168857],[120.76104288031222,16.038134096544965],[120.76185276000002,16.038942795000025],[120.76337562700007,16.04214602600007],[120.76521592800009,16.04393388000005],[120.76753330500004,16.045224461000032],[120.76878112400004,16.045509987000063],[120.77234632000012,16.046663506000073],[120.77340288571513,16.046787609962184],[120.77011863723153,16.043846267942392],[120.76995101751356,16.04372332524665],[120.76878669200005,16.043398702000044]]],[[[120.74571636600001,16.034407413000054],[120.74702154500005,16.035036640000044],[120.75261890200011,16.03560772000003],[120.75646398686027,16.03620275701689],[120.75413945115514,16.03537084771282],[120.74970551558671,16.034247221439404],[120.74517909529361,16.033549208974105],[120.744979230167,16.03353760509051],[120.74571636600001,16.034407413000054]]],[[[120.77620079000008,16.050698316000027],[120.77471869500005,16.049347887000067],[120.77107568500003,16.04850587800007],[120.77033624800004,16.04808906400007],[120.76852300500002,16.047848036000055],[120.76504144400006,16.04594626200003],[120.76343035900004,16.04474591900004],[120.76312137500008,16.043992128000074],[120.76223007600005,16.043615231000043],[120.76100602600002,16.042233271000043],[120.76055443400004,16.041182517000035],[120.75948040600007,16.040064651000016],[120.75713834500003,16.03902241000003],[120.75558851200002,16.038737305000037],[120.75368707400003,16.037914962000055],[120.7500900870001,16.03722443600003],[120.74825447400009,16.03717029500006],[120.74595895200004,16.036442057000045],[120.74309606600002,16.033876296000074],[120.74139780440787,16.033329641039145],[120.7406037551719,16.033283524566784],[120.73713796581976,16.033411562430544],[120.73920605600006,16.034664270000068],[120.74115502900008,16.035303880000072],[120.74472022500002,16.03822778900007],[120.74576601600008,16.038753174000018],[120.74866570900008,16.039278558000035],[120.7510662740001,16.039255715000024],[120.75284887200007,16.039735412000027],[120.75391774700007,16.040350241000056],[120.75460306800005,16.04182452700007],[120.75493582000001,16.043903179000036],[120.75529234000011,16.044611287000066],[120.75671841800012,16.045936126000072],[120.75997463000009,16.047238115000024],[120.7617809960001,16.048448728000032],[120.76396765000004,16.049408077000063],[120.76610676700011,16.05002479900003],[120.76779429300008,16.050001957000063],[120.7698383390001,16.04936239400007],[120.77112181000008,16.049339552000045],[120.77356991100011,16.05105266400005],[120.77523366900006,16.051692222000046],[120.77646960300001,16.052902809000045],[120.77801452200003,16.05349667900003],[120.7791452354222,16.053670537580032],[120.77708433378234,16.050922322973687],[120.77620079000008,16.050698316000027]]],[[[120.72696368800008,16.035603740000052],[120.72766147200002,16.036862881000047],[120.72985565200008,16.03750431200007],[120.73112961600009,16.03830838200002],[120.73336380500008,16.03833579300004],[120.73403881600007,16.038737827000034],[120.73451417500009,16.040026157000057],[120.73294548900004,16.039057626000044],[120.7319567410001,16.039843416000057],[120.72974156600003,16.038354068000043],[120.72859119600002,16.037833250000062],[120.72699879700009,16.037692357000026],[120.72637502400005,16.03719281700006],[120.72599981866063,16.0354273697235],[120.72530902161984,16.03565816727144],[120.72581332100003,16.037479176000033],[120.72539012600011,16.040288001000015],[120.72536848800006,16.04149124600008],[120.7262172510001,16.042590524000047],[120.72740089600006,16.043591018000026],[120.7293099210001,16.045727811000063],[120.73078189000012,16.04647026200007],[120.73314086200003,16.046333211000043],[120.73384337700008,16.047487502000024],[120.73829634500008,16.050581729000044],[120.73958568000013,16.051003084000058],[120.74215262100005,16.05302453800004],[120.74483278400011,16.05403048800002],[120.74569808000001,16.054960142000027],[120.74692998300009,16.05689607800002],[120.74878388500007,16.058437821000037],[120.75206386500007,16.06141849100004],[120.75373950700008,16.063131499000068],[120.75505863,16.06511856900005],[120.7569125320001,16.069469500000025],[120.75908730100004,16.07255277900003],[120.76161859000003,16.075019368000024],[120.76286640900003,16.076663744000026],[120.76393596800007,16.07899325300002],[120.76589850200003,16.081032460000074],[120.76689915700001,16.08155505600007],[120.76961821300006,16.08201181300006],[120.77136753600008,16.082925324000033],[120.77348784100002,16.083322356000053],[120.77458459900005,16.08395738300004],[120.77625261400011,16.08634376500004],[120.77825537000002,16.087971997000068],[120.77976416100012,16.09090881000003],[120.78072261000011,16.09220636400005],[120.7820789430001,16.09303594100004],[120.78243390400007,16.094215980000055],[120.78254342900006,16.096424512000056],[120.78272258988454,16.09686030853741],[120.78306135931109,16.096186644467814],[120.78353237003198,16.09495579364182],[120.7835235780001,16.094603084000028],[120.78305324900008,16.09324014100002],[120.78127834500005,16.09149061300008],[120.78010335000012,16.08883232800002],[120.77891880200004,16.087123700000067],[120.77712845700012,16.085838437000064],[120.77583608700002,16.083941819000078],[120.77386796100006,16.082519224000063],[120.77229927500002,16.081605710000076],[120.77125348400011,16.08009840400007],[120.76954219000004,16.07934474600006],[120.76813988000004,16.079207718000077],[120.76714162500002,16.078728116000036],[120.76640481800007,16.07786026100007],[120.76611960200012,16.076626988000044],[120.766618729,16.072630218000025],[120.76590569000008,16.06993520700007],[120.76497873900009,16.06819941800006],[120.7637190370001,16.06657781200004],[120.76269701400008,16.06491051300003],[120.76141354300013,16.06228391800005],[120.75925065800006,16.059154799000055],[120.75758690000009,16.057281872000036],[120.75506749500006,16.05536324600007],[120.75169244300001,16.053764376000053],[120.74926810900003,16.050635123000063],[120.74800840700004,16.049789988000043],[120.74624957700007,16.04899053300005],[120.7435637960001,16.047163194000063],[120.74273191700003,16.046386569000052],[120.74201887800007,16.045221628000032],[120.74094931900005,16.044216574000075],[120.73882018300004,16.042916346000027],[120.73737509000013,16.041381336000025],[120.73568281000007,16.04061382600002],[120.73493158000008,16.039916322000064],[120.73476520400004,16.03893408500005],[120.73352551000005,16.037382601000044],[120.7332640620001,16.036126234000047],[120.73331159800011,16.034664270000064],[120.73409263069037,16.033708900780386],[120.73148249765057,16.0340551674025],[120.72702436336891,16.035085060687056],[120.72693815539098,16.035113863744336],[120.72696368800008,16.035603740000052]]],[[[120.78168532200006,16.09740242600003],[120.78019020700005,16.09467270800008],[120.77919938100003,16.09333564600007],[120.77747854300004,16.091995278000066],[120.77478706500004,16.09133879700005],[120.76998908200004,16.087874301000056],[120.76753681500008,16.085056699000063],[120.76582552100002,16.083960496000028],[120.763472492,16.083480906000034],[120.7579464380001,16.081322734000025],[120.75622031900002,16.079972466000076],[120.75498672500011,16.077483041000047],[120.75470211000003,16.076115620000056],[120.75374299200007,16.073886234000042],[120.75091574400005,16.071361753000076],[120.74810066200008,16.069765849000078],[120.74632812700008,16.068433500000026],[120.74543344900007,16.067188952000038],[120.74453546600013,16.06309667700003],[120.74432155500006,16.062617036000063],[120.74129697400006,16.059739728000068],[120.73972828700003,16.058780429000027],[120.73840664000012,16.05824817300004],[120.73711985900002,16.058208854000046],[120.73463750400005,16.05928840400002],[120.73344791800002,16.060697811000068],[120.73291292800002,16.06220591500005],[120.73264929900006,16.06443094300005],[120.73287207500006,16.065964423000025],[120.73431003800012,16.067665972000043],[120.73458337000011,16.06944744400004],[120.73429815400003,16.07022397800006],[120.73462422200011,16.071181877000075],[120.73588392400006,16.071798532000056],[120.73771405800005,16.072300990000024],[120.73944912000002,16.07252937900006],[120.74044737500003,16.07303183500005],[120.74087519800003,16.07369416100005],[120.74082766300012,16.07611505900007],[120.74125548600013,16.078901338000037],[120.74132679000002,16.081436362000034],[120.74289547600004,16.08369730200008],[120.74391749900009,16.087351292000047],[120.74441662600009,16.092854988000056],[120.74446416200009,16.094339361000035],[120.7440363390001,16.096508809000053],[120.74294301200005,16.09783330300007],[120.74196852500006,16.100573607000054],[120.74113664600007,16.102080758000053],[120.74058998300008,16.104318627000055],[120.73947288800002,16.105917090000045],[120.7383557930001,16.105665904000038],[120.73792797000011,16.103108354000028],[120.73795093100011,16.10197712100006],[120.73947288800002,16.098975101000068],[120.74009085500006,16.096463137000057],[120.74173084600011,16.093631430000073],[120.74189722100004,16.08936095800004],[120.74146939800006,16.087168594000048],[120.73987174300008,16.08389276700007],[120.739105085,16.077764243000043],[120.73806725000009,16.076252547000024],[120.73600451700008,16.075356535000022],[120.73361519900004,16.075256900000053],[120.73182990000008,16.07404631400004],[120.73120032200008,16.073223679000026],[120.73067873800007,16.07040534700008],[120.73082134600008,16.06837265000007],[120.73070250600007,16.065449185000034],[120.73086604000001,16.063786963000044],[120.73017441100001,16.062595541000064],[120.7299010790001,16.06117945100005],[120.72940475700011,16.06043542600003],[120.72776927300004,16.060521157000032],[120.72713103800005,16.06141257900003],[120.72779442000001,16.062486360000037],[120.72805237500008,16.06389892900006],[120.7278696950001,16.066070145000026],[120.72566044700011,16.06878776400003],[120.72516016800013,16.070330895000037],[120.72577006900009,16.073687916000036],[120.72567178300005,16.07544153800006],[120.72497828000007,16.078035569000065],[120.72566572100004,16.08111754100003],[120.72474060000002,16.081118715000063],[120.72448638199998,16.07994598600004],[120.72075729200002,16.081700837000025],[120.71984439700009,16.083151282000074],[120.72023373600007,16.086141937000036],[120.71872730300005,16.08897481300005],[120.71784788800007,16.089956803000064],[120.71678938900006,16.090616243000056],[120.71492442700003,16.09262870500003],[120.71258939300003,16.095533707000076],[120.71235225600003,16.09715980800007],[120.71100271200011,16.098771661000058],[120.71055783300005,16.100599054000043],[120.70993315300007,16.101877321000075],[120.70858272900011,16.10268768700007],[120.70752645900005,16.104208659000047],[120.70590534500002,16.10581818800006],[120.70430014300008,16.10701525500001],[120.70409648383794,16.107200051275754],[120.704799299951,16.107966645214624],[120.70726282900011,16.10647112600003],[120.70931638099998,16.105005112000068],[120.71092785000008,16.10312804900007],[120.71176923600001,16.101648309000037],[120.71233966700004,16.099236857000054],[120.71310975000006,16.098359958000056],[120.71376574600004,16.096030676000048],[120.71433617700008,16.095098956000076],[120.71626138300007,16.09352324200006],[120.71837197900004,16.09142683900006],[120.71929893000004,16.090166246000024],[120.7206394440001,16.088782325000068],[120.72115283200003,16.087453203000056],[120.72109578900007,16.084150914000077],[120.72140952600013,16.082903978000047],[120.72297821200004,16.081739250000055],[120.72440429000005,16.081876277000045],[120.72585889000004,16.08358910900006],[120.72631523500002,16.08297249100008],[120.72610132400008,16.078094292000056],[120.72678584100004,16.07666917700004],[120.72745609800005,16.076641771000023],[120.73039382000002,16.078477975000055],[120.7320052880001,16.078820548000063],[120.73343136700008,16.078820548000067],[120.73458649000008,16.079245338000074],[120.7354849190001,16.080944490000032],[120.73470057600004,16.08321913800006],[120.73288945700006,16.08427423700004],[120.73211937400004,16.08624739500004],[120.7321764180001,16.08804240300003],[120.73116390200006,16.09009773500003],[120.73059347100002,16.092934059000076],[120.7304793840001,16.094454970000076],[120.73114964100012,16.09686648000007],[120.73221920000005,16.098921722000057],[120.73334580200003,16.100456288000032],[120.73444388200006,16.102360778000044],[120.73602682900004,16.104498169000067],[120.73614091500009,16.10566276400004],[120.73559900600003,16.107512400000076],[120.73500005300002,16.108307054000022],[120.73254719800003,16.10933461800005],[120.72883939400003,16.11054028600006],[120.72767001000011,16.11134862800003],[120.72709957900008,16.113047505000058],[120.72736356100005,16.11423428300003],[120.726842884,16.11667812100006],[120.72631523500002,16.117705641000043],[120.72647210400011,16.11925376300007],[120.72710544438554,16.121797032209596],[120.72870680519813,16.122202948870246],[120.7288536550001,16.121432072000058],[120.72868252600006,16.118938659000037],[120.72888217700006,16.116143808000064],[120.72959521600002,16.11504777700003],[120.7308073820001,16.11340371900008],[120.73150616100008,16.11166374300006],[120.73298928200008,16.11137602900004],[120.73574161300009,16.110225169000042],[120.73765255800005,16.10860847300006],[120.73882194300005,16.108252250000078],[120.73940663500002,16.107567204000077],[120.74091827800011,16.104607779000048],[120.7423443560001,16.10277181700007],[120.74391304300003,16.101524997000066],[120.74531059900005,16.09914094600003],[120.74576694400002,16.097277530000042],[120.74653702700004,16.095181167000074],[120.7467794600001,16.092742232000038],[120.7462518110001,16.09098837300007],[120.74729284800003,16.088179425000025],[120.7462518110001,16.086247395000044],[120.74518225200006,16.085987049000035],[120.74471164600004,16.084630503000028],[120.74401286800003,16.083917971000062],[120.74361356600002,16.082835465000073],[120.7428434840001,16.08205441200005],[120.74228731300002,16.08067043400007],[120.74252974600006,16.079670128000032],[120.7435707840001,16.078820548000063],[120.74518225200006,16.078573895000034],[120.7477777150001,16.079313853000034],[120.74968866000006,16.080478595000045],[120.75177073400006,16.083136923000037],[120.75389559100006,16.085178604000077],[120.75576375400011,16.086439228000074],[120.76008477100004,16.088234235000073],[120.764120573,16.08900156000004],[120.76556091200008,16.089124880000043],[120.76712959800012,16.089549649000052],[120.76936854100008,16.090782841000077],[120.77053792600007,16.091235010000048],[120.77254869600006,16.09159126400004],[120.77357547300007,16.09161866800002],[120.77477337800008,16.092248961000053],[120.77570032900007,16.092111941000045],[120.77729753700008,16.09239968300005],[120.77813892300003,16.093345118000055],[120.77842413900011,16.094290548000064],[120.77932256800011,16.095441501000035],[120.78072012500002,16.096249904000047],[120.78168532200006,16.09740242600003]]]]}},{"type":"Feature","properties":{"fid":176,"objectid":9618,"lccode":"05","liqcode":null,"mappers":"DJLBuhay, MITAbigania","project":"LiquePhi","province":"Pangasinan","otherinfo":null,"datemapped":2024,"publishdate":null,"globalid":"{5ACB73C5-6107-4512-9787-F18573022798}","st_area(shape)":0.06533832536059311,"st_perimeter(shape)":23.271340040578984,"liqcodepk":null,"creator":null,"createdate":null,"editor":null,"modifydate":null,"codemove":null},"geometry":{"type":"MultiPolygon","coordinates":[[[[120.69793056900005,16.097087738000024],[120.69875238800012,16.095352048000056],[120.70019328000001,16.092867581000064],[120.70059858099998,16.090974879000047],[120.7005069490001,16.088914259000035],[120.70257007700002,16.086729010000056],[120.7031811500001,16.085197312000048],[120.70315170400012,16.082795802000074],[120.70374896800001,16.081412415000045],[120.70586945700006,16.079780347000053],[120.70707674000005,16.078424888000033],[120.70778029500003,16.076777902000064],[120.70814129000007,16.074889801000037],[120.70892242200013,16.073747839000077],[120.70954835400005,16.07203951600008],[120.70954315300003,16.070907323000025],[120.71038135500011,16.06902331000003],[120.71167796400006,16.067672654000027],[120.71365427100012,16.063132112000066],[120.71367803900013,16.060802417000044],[120.714676294,16.058975187000048],[120.71467660500004,16.056826676000075],[120.71493774100009,16.05545772100004],[120.71474759800005,16.053013731000018],[120.71366175100002,16.050073110000028],[120.7131551440001,16.04810281800007],[120.71317891100011,16.04358010400006],[120.71288297915763,16.041802558863548],[120.7108583944722,16.04322136353595],[120.70742824188753,16.046161626390134],[120.70431252707297,16.049412797705784],[120.70154125431208,16.052943581292222],[120.69914111659571,16.05671998841453],[120.69713523840132,16.060705664562512],[120.69554295261929,16.06486223901322],[120.69437961378898,16.069149693841673],[120.69365644946444,16.07352674884622],[120.69338045117019,16.07795125869949],[120.69355430603214,16.08238061851591],[120.69417636978154,16.08677217394235],[120.69524068143487,16.091083631831122],[120.6967370195526,16.095273467545056],[120.69780467875191,16.097520311789214],[120.69793056900005,16.097087738000024]]],[[[120.76282928800002,16.039614313000076],[120.76378011700001,16.04072496800006],[120.76554443200007,16.04191673400004],[120.76663840900005,16.043095309000027],[120.76878669200005,16.043398702000044],[120.76995101751356,16.04372332524665],[120.7664664633111,16.0411674775392],[120.76256045681393,16.03884770504966],[120.76247348368894,16.038806808168857],[120.76282928800002,16.039614313000076]]],[[[120.77801452200003,16.05349667900003],[120.77646960300001,16.052902809000045],[120.77523366900006,16.051692222000046],[120.77356991100011,16.05105266400005],[120.77112181000008,16.049339552000045],[120.7698383390001,16.04936239400007],[120.76779429300008,16.050001957000063],[120.76610676700011,16.05002479900003],[120.76396765000004,16.049408077000063],[120.7617809960001,16.048448728000032],[120.75997463000009,16.047238115000024],[120.75671841800012,16.045936126000072],[120.75529234000011,16.044611287000066],[120.75493582000001,16.043903179000036],[120.75460306800005,16.04182452700007],[120.75391774700007,16.040350241000056],[120.75284887200007,16.039735412000027],[120.7510662740001,16.039255715000024],[120.74866570900008,16.039278558000035],[120.74576601600008,16.038753174000018],[120.74472022500002,16.03822778900007],[120.74115502900008,16.035303880000072],[120.73920605600006,16.034664270000068],[120.73713796581976,16.033411562430544],[120.73602352923493,16.033452721438636],[120.73409263069037,16.033708900780386],[120.73331159800011,16.034664270000064],[120.7332640620001,16.036126234000047],[120.73352551000005,16.037382601000044],[120.73476520400004,16.03893408500005],[120.73493158000008,16.039916322000064],[120.73568281000007,16.04061382600002],[120.73737509000013,16.041381336000025],[120.73882018300004,16.042916346000027],[120.74094931900005,16.044216574000075],[120.74201887800007,16.045221628000032],[120.74273191700003,16.046386569000052],[120.7435637960001,16.047163194000063],[120.74624957700007,16.04899053300005],[120.74800840700004,16.049789988000043],[120.74926810900003,16.050635123000063],[120.75169244300001,16.053764376000053],[120.75506749500006,16.05536324600007],[120.75758690000009,16.057281872000036],[120.75925065800006,16.059154799000055],[120.76141354300013,16.06228391800005],[120.76269701400008,16.06491051300003],[120.7637190370001,16.06657781200004],[120.76497873900009,16.06819941800006],[120.76590569000008,16.06993520700007],[120.766618729,16.072630218000025],[120.76611960200012,16.076626988000044],[120.76640481800007,16.07786026100007],[120.76714162500002,16.078728116000036],[120.76813988000004,16.079207718000077],[120.76954219000004,16.07934474600006],[120.77125348400011,16.08009840400007],[120.77229927500002,16.081605710000076],[120.77386796100006,16.082519224000063],[120.77583608700002,16.083941819000078],[120.77712845700012,16.085838437000064],[120.77891880200004,16.087123700000067],[120.78010335000012,16.08883232800002],[120.78127834500005,16.09149061300008],[120.78305324900008,16.09324014100002],[120.7835235780001,16.094603084000028],[120.78353237003198,16.09495579364182],[120.78465225144244,16.09202922839629],[120.7858139197743,16.087741060200266],[120.78653520094898,16.083363447495678],[120.78680917581019,16.078938557041962],[120.78663323499133,16.074509008350915],[120.78600910292315,16.070117463034023],[120.7849428200734,16.065806213850486],[120.78344468363343,16.061616777417075],[120.78152914726664,16.05758949450145],[120.77921468092558,16.053763141743428],[120.7791452354222,16.053670537580032],[120.77801452200003,16.05349667900003]]],[[[120.73334580200003,16.100456288000032],[120.73221920000005,16.098921722000057],[120.73114964100012,16.09686648000007],[120.7304793840001,16.094454970000076],[120.73059347100002,16.092934059000076],[120.73116390200006,16.09009773500003],[120.7321764180001,16.08804240300003],[120.73211937400004,16.08624739500004],[120.73288945700006,16.08427423700004],[120.73470057600004,16.08321913800006],[120.7354849190001,16.080944490000032],[120.73458649000008,16.079245338000074],[120.73343136700008,16.078820548000067],[120.7320052880001,16.078820548000063],[120.73039382000002,16.078477975000055],[120.72745609800005,16.076641771000023],[120.72678584100004,16.07666917700004],[120.72610132400008,16.078094292000056],[120.72631523500002,16.08297249100008],[120.72585889000004,16.08358910900006],[120.72440429000005,16.081876277000045],[120.72297821200004,16.081739250000055],[120.72140952600013,16.082903978000047],[120.72109578900007,16.084150914000077],[120.72115283200003,16.087453203000056],[120.7206394440001,16.088782325000068],[120.71929893000004,16.090166246000024],[120.71837197900004,16.09142683900006],[120.71626138300007,16.09352324200006],[120.71433617700008,16.095098956000076],[120.71376574600004,16.096030676000048],[120.71310975000006,16.098359958000056],[120.71233966700004,16.099236857000054],[120.71176923600001,16.101648309000037],[120.71092785000008,16.10312804900007],[120.70931638099998,16.105005112000068],[120.70726282900011,16.10647112600003],[120.704799299951,16.107966645214624],[120.70669565754844,16.11003505262408],[120.70926186368833,16.11233417620265],[120.71037910700011,16.11055983800003],[120.71195373500007,16.11055983800003],[120.71302329400008,16.111045072000028],[120.71403343300007,16.112985995000027],[120.71507328100006,16.11230096600008],[120.71492473200011,16.111187787000063],[120.7137957530001,16.110302949000072],[120.71335010300004,16.109503737000065],[120.71454325600007,16.10910983800005],[120.71545594600003,16.107972666000027],[120.71692480700005,16.107315021000034],[120.71746671600012,16.106191539000065],[120.7187929690001,16.106218941000062],[120.7191209670001,16.10495844200005],[120.71892131600009,16.10254703000004],[120.71996235300001,16.100642542000056],[120.72067539300006,16.100231499000074],[120.72133138900004,16.100875466000048],[120.72117452000009,16.102766251000045],[120.72160234400009,16.104095270000073],[120.72287155300012,16.105122855000044],[120.72345624500008,16.106643673000068],[120.724397457,16.10715060900003],[120.725324408,16.10950716200006],[120.72653657500008,16.110740231000023],[120.72679326900003,16.11167187800004],[120.72663640000007,16.113151543000072],[120.72736356100005,16.11423428300003],[120.72709957900008,16.113047505000058],[120.72767001000011,16.11134862800003],[120.72883939400003,16.11054028600006],[120.73254719800003,16.10933461800005],[120.73500005300002,16.108307054000022],[120.73559900600003,16.107512400000076],[120.73614091500009,16.10566276400004],[120.73602682900004,16.104498169000067],[120.73444388200006,16.102360778000044],[120.73334580200003,16.100456288000032]]],[[[120.74968866000006,16.080478595000045],[120.7477777150001,16.079313853000034],[120.74518225200006,16.078573895000034],[120.7435707840001,16.078820548000063],[120.74252974600006,16.079670128000032],[120.74228731300002,16.08067043400007],[120.7428434840001,16.08205441200005],[120.74361356600002,16.082835465000073],[120.74401286800003,16.083917971000062],[120.74471164600004,16.084630503000028],[120.74518225200006,16.085987049000035],[120.7462518110001,16.086247395000044],[120.74729284800003,16.088179425000025],[120.7462518110001,16.09098837300007],[120.7467794600001,16.092742232000038],[120.74653702700004,16.095181167000074],[120.74576694400002,16.097277530000042],[120.74531059900005,16.09914094600003],[120.74391304300003,16.101524997000066],[120.7423443560001,16.10277181700007],[120.74091827800011,16.104607779000048],[120.73940663500002,16.107567204000077],[120.73882194300005,16.108252250000078],[120.73765255800005,16.10860847300006],[120.73574161300009,16.110225169000042],[120.73298928200008,16.11137602900004],[120.73150616100008,16.11166374300006],[120.7308073820001,16.11340371900008],[120.72959521600002,16.11504777700003],[120.731097352,16.113947173000042],[120.73203856300007,16.11438558900005],[120.73302255700001,16.112933333000058],[120.7343060280001,16.113947173000042],[120.73553245500011,16.114166381000075],[120.73714392400007,16.11344025400007],[120.73765731200001,16.112947034000054],[120.73728653200011,16.111645476000035],[120.73869834900006,16.111439966000034],[120.73992477700007,16.112097597000055],[120.74085172800007,16.111892087000058],[120.74300510600004,16.112426412000044],[120.74428857600003,16.112262004000055],[120.74541517800003,16.112714124000036],[120.74634212900003,16.112371609000032],[120.7464989980001,16.11076863200003],[120.74688403900008,16.10943965700005],[120.74741168800007,16.108754615000066],[120.74860959400007,16.109014932000036],[120.74937967600012,16.107727048000072],[120.75010697600011,16.107781852000073],[120.75080575500009,16.107014599000024],[120.75290209000002,16.106850187000074],[120.75411425600011,16.106493961000066],[120.75481303500008,16.105069050000054],[120.75606798400007,16.104425097000043],[120.75632467800006,16.103712635000022],[120.75770797400003,16.102575432000037],[120.7604745660001,16.102274003000048],[120.76143003800007,16.103205690000035],[120.76178655800004,16.104534706000038],[120.76264220500002,16.105247164000048],[120.76322689700011,16.104630614000026],[120.7625994230001,16.10287686000004],[120.76281333400004,16.10220549700005],[120.7645246280001,16.10168484600007],[120.7646529760001,16.101068285000053],[120.76374028500004,16.10013658800005],[120.76289889900012,16.098259480000017],[120.76520914600009,16.096697493000022],[120.76640705200009,16.096094618000055],[120.76791869500006,16.095779478000054],[120.7690880790001,16.096012407000046],[120.76965851100009,16.095231407000025],[120.77104180700006,16.094957371000078],[120.7732950100001,16.093641992000073],[120.77342335700008,16.093039108000024],[120.77209710500004,16.092052565000078],[120.77254869600006,16.09159126400004],[120.77053792600007,16.091235010000048],[120.76936854100008,16.090782841000077],[120.76712959800012,16.089549649000052],[120.76556091200008,16.089124880000043],[120.764120573,16.08900156000004],[120.76008477100004,16.088234235000073],[120.75576375400011,16.086439228000074],[120.75389559100006,16.085178604000077],[120.75177073400006,16.083136923000037],[120.74968866000006,16.080478595000045]]]]}}]}