{"type":"FeatureCollection","features":[{"type":"Feature","properties":{"fid":16,"objectid":1861,"lccode":"07","liqcode":"2010600070000000","mappers":"MITAbigania, DJLBuhay","project":"Cebu Multi-Hazard Mapping","province":"Cebu","otherinfo":null,"datemapped":2016,"publishdate":null,"globalid":"{C53CB127-C117-49E0-BEC2-5269D4100696}","st_area(shape)":0.02168908556211633,"st_perimeter(shape)":9.044842936189752,"liqcodepk":"201060007000000000053","creator":"SNOOPYPC","createdate":"2019-02-19T15:21:28","editor":"LENOVO","modifydate":"2019-03-10T17:50:55","codemove":"na"},"geometry":{"type":"Polygon","coordinates":[]}},{"type":"Feature","properties":{"fid":25,"objectid":1871,"lccode":"07","liqcode":"2010600070000000","mappers":"PJDelosReyes, ACPidlaoan","project":"READY","province":"Bohol","otherinfo":null,"datemapped":2008,"publishdate":null,"globalid":"{24D4EC03-5006-45F6-AD98-9C84307BF998}","st_area(shape)":0.043795715989879205,"st_perimeter(shape)":13.054531899785706,"liqcodepk":"201060007000000000063","creator":"SNOOPYPC","createdate":"2019-02-19T15:21:28","editor":"LENOVO","modifydate":"2019-03-10T17:50:55","codemove":"na"},"geometry":{"type":"MultiPolygon","coordinates":[[[[124.35599416200012,10.048048490000046],[124.35814097600007,10.045688532000042],[124.36025172400002,10.045038656000031],[124.36218888700012,10.04413292100003],[124.36339618400007,10.044042437000028],[124.36425632900013,10.043440440000039],[124.36339063400011,10.042717266000068],[124.36123251300012,10.042341389000057],[124.36109793700007,10.04110226800003],[124.36040689700009,10.040891395000074],[124.35881232200005,10.041197165000028],[124.35850186800009,10.039146504000028],[124.35763887000007,10.03906452000007],[124.35677986500002,10.039922964000025],[124.3568315220001,10.041974778000053],[124.35480575000008,10.04232505400006],[124.35407683500011,10.04335400100007],[124.35347119200001,10.042928966000034],[124.35372287100004,10.041217990000066],[124.35337530800007,10.040620950000061],[124.3505272340001,10.040290577000063],[124.35001338200004,10.041190360000028],[124.35066478500006,10.042256436000057],[124.35054106600012,10.043624900000056],[124.34989728300003,10.044397023000043],[124.35292276900009,10.045880832000023],[124.35344426200002,10.046819150000031],[124.35184992800009,10.04721041000005],[124.35146671100007,10.048408982000069],[124.35082168000008,10.048881793000023],[124.34970064600007,10.048971883000036],[124.3493599950001,10.050042001000064],[124.34914361917463,10.050224995968211],[124.35240645396482,10.049400824414917],[124.35565929264313,10.048232285561019],[124.35599416200012,10.048048490000046]]],[[[124.34512414900006,10.047921769000027],[124.34460426600003,10.047368179000042],[124.3432142050001,10.044979883000053],[124.34273831800012,10.044639821000032],[124.33924604300013,10.044995946000029],[124.33946823800011,10.046576723000044],[124.34003579700004,10.04824162400007],[124.3399556690001,10.04973819400004],[124.33857547700006,10.049743775000026],[124.33602571200005,10.048557145000071],[124.3352512560001,10.049030450000034],[124.33412933400007,10.048906781000028],[124.33334576500012,10.047157215000027],[124.33243508500006,10.045963861000072],[124.32923890900008,10.044907962000027],[124.328116926,10.044784270000036],[124.326005914,10.04539119000003],[124.32453491900002,10.044285573000025],[124.32384545000004,10.044459370000027],[124.32142610700008,10.043485806000033],[124.32013127700009,10.043277164000072],[124.32151978400009,10.045323593000035],[124.32133810333805,10.047861337398402],[124.3217017831241,10.048030041711124],[124.32592280642548,10.049507896021666],[124.3302696852531,10.050568525986316],[124.33470053983551,10.051201715137372],[124.33917268076557,10.05140136526023],[124.34364302081389,10.051165555133995],[124.3459762660081,10.0508128471365],[124.34512414900006,10.047921769000027]]]]}},{"type":"Feature","properties":{"fid":40,"objectid":1888,"lccode":"05","liqcode":"2010600050000000","mappers":"MITAbigania, DJLBuhay","project":"Cebu Multi-Hazard Mapping","province":"Cebu","otherinfo":null,"datemapped":2016,"publishdate":null,"globalid":"{6B113CA7-0A16-415A-8510-4591ABBD34CB}","st_area(shape)":0.011277825227989341,"st_perimeter(shape)":7.92725888477651,"liqcodepk":"201060005000000000082","creator":"SNOOPYPC","createdate":"2019-02-19T15:21:28","editor":"LENOVO","modifydate":"2019-03-10T17:50:55","codemove":"na"},"geometry":{"type":"Polygon","coordinates":[]}},{"type":"Feature","properties":{"fid":66,"objectid":1930,"lccode":"06","liqcode":"2010600060000000","mappers":"PJDelosReyes, ACPidlaoan","project":"READY","province":"Bohol","otherinfo":null,"datemapped":2008,"publishdate":null,"globalid":"{D63C31C2-E045-4C3D-A292-79031F3364A0}","st_area(shape)":0.006668240995906857,"st_perimeter(shape)":3.000289637999567,"liqcodepk":"201060006000000000128","creator":"SNOOPYPC","createdate":"2019-02-19T15:21:28","editor":"LENOVO","modifydate":"2019-03-10T17:50:55","codemove":"na"},"geometry":{"type":"MultiPolygon","coordinates":[[[[124.3842797850001,10.00732496100005],[124.38409740000009,10.008822667000059],[124.38446905913983,10.00883179736195],[124.38455338450422,10.006970936227084],[124.3842797850001,10.00732496100005]]],[[[124.38227753300009,9.996418291000055],[124.38100198500001,9.997116598000044],[124.380366879,9.998089506000044],[124.38049427600004,9.99883216400002],[124.38162729900013,9.999506463000047],[124.38149448600005,10.000491571000055],[124.3828411070001,10.00190463800004],[124.3813637720001,10.002222567000047],[124.38073896900005,10.003285564000066],[124.38266404800004,10.004680860000063],[124.38401700300005,10.004706421000035],[124.38454118738015,10.004963499910502],[124.3843587990657,10.001573860179738],[124.38368348352626,9.99718795179491],[124.38344084585873,9.996244558033423],[124.38227753300009,9.996418291000055]]],[[[124.38038230200003,9.987535309000066],[124.38049122356712,9.987554359161555],[124.38032052629157,9.98720043045461],[124.38038230200003,9.987535309000066]]]]}},{"type":"Feature","properties":{"fid":91,"objectid":1919,"lccode":"06","liqcode":"2010600060000000","mappers":"MITAbigania, DJLBuhay","project":"Cebu Multi-Hazard Mapping","province":"Cebu","otherinfo":null,"datemapped":2016,"publishdate":null,"globalid":"{EDC44F95-33EE-45BE-975C-40D829DF5178}","st_area(shape)":0.012637099910309046,"st_perimeter(shape)":9.940336299625505,"liqcodepk":"201060006000000000117","creator":"SNOOPYPC","createdate":"2019-02-19T15:21:28","editor":"LENOVO","modifydate":"2019-03-10T17:50:55","codemove":"na"},"geometry":{"type":"Polygon","coordinates":[]}}]}