{"type":"FeatureCollection","features":[{"type":"Feature","properties":{"fid":169,"objectid":9611,"lccode":"05","liqcode":"2010600050000000","mappers":"PJDelosReyes, ACPidlaoan","project":"READY","province":"Zambales","otherinfo":"hazard boundary with Pangasinan updated on 2024","datemapped":2009,"publishdate":null,"globalid":"{05DFCAB5-92FE-456B-AE95-AC75BF442301}","st_area(shape)":0.002185593290381342,"st_perimeter(shape)":1.003530961980007,"liqcodepk":"201060005000000000115","creator":"SNOOPYPC","createdate":"2019-02-19T15:21:28","editor":"LENOVO","modifydate":"2019-03-10T17:50:55","codemove":"na"},"geometry":{"type":"Polygon","coordinates":[]}},{"type":"Feature","properties":{"fid":172,"objectid":9614,"lccode":"07","liqcode":"2010600070000000","mappers":"PJDelosReyes, ACPidlaoan","project":"READY","province":"Zambales","otherinfo":"hazard boundary with Pangasinan updated on 2024","datemapped":2009,"publishdate":null,"globalid":"{E247AAA7-6CC5-43B6-B432-1A47723CF308}","st_area(shape)":0.03098955954725758,"st_perimeter(shape)":4.795855471632837,"liqcodepk":"201060007000000000080","creator":"SNOOPYPC","createdate":"2019-02-19T15:21:28","editor":"LENOVO","modifydate":"2019-03-10T17:50:55","codemove":"na"},"geometry":{"type":"MultiPolygon","coordinates":[[[[120.10248280500002,15.007584308000048],[120.10132171800001,15.003761824000035],[120.10093570300013,15.001263682000062],[120.09872754900003,14.99901436300007],[120.09665251600006,14.99634552000004],[120.0966186160001,14.994526709000066],[120.09752452800001,14.992378944000052],[120.09849875000009,14.989493276000077],[120.09889086900013,14.98642971400006],[120.09862308400011,14.984607921000078],[120.09865831700006,14.981994428000062],[120.09914891000005,14.980295881000071],[120.10040919200003,14.977868451000063],[120.10129162800001,14.97310640300003],[120.10089477700001,14.972192207000038],[120.10102848100007,14.970943728000067],[120.10216338300006,14.969139770000021],[120.10471615900008,14.966217309000058],[120.10556262200011,14.964125513000056],[120.10741547799998,14.961080440000044],[120.10623319900003,14.95771280100007],[120.10472855400009,14.952238437000064],[120.1041609030001,14.950981139000074],[120.10391754200008,14.94734117300004],[120.10277166900006,14.945621917000034],[120.102601317219,14.944804326425798],[120.10258403759876,14.944819158457399],[120.09947956767607,14.948063177189892],[120.09671699788305,14.951587368136344],[120.09432293565804,14.955357805359894],[120.0923204448908,14.959338191424019],[120.09072882351204,14.963490206421529],[120.08956341715592,14.967773876501033],[120.0888354707076,14.972147958361521],[120.08855201919127,14.976570336030726],[120.08871581908032,14.980998426122184],[120.08932532072681,14.985389587681857],[120.09037468221523,14.989701532687103],[120.09185382454845,14.993892733251279],[120.09374852767534,14.997922821614528],[120.09604056647613,15.001752979066849],[120.0987078854328,15.005346310052047],[120.10172481033553,15.008668197839672],[120.1025909116584,15.009451516341144],[120.10248280500002,15.007584308000048]]],[[[120.17867795100007,14.978311322000025],[120.17140851900001,14.97986919200002],[120.16519869600008,14.98087167800003],[120.16184755000008,14.98230746300004],[120.16002288600009,14.983250796000048],[120.1592435020001,14.984718586000039],[120.1584716090001,14.985618234000068],[120.15796350500013,14.988680591000044],[120.15852772500013,14.99022193700006],[120.15827816800004,14.991412170000045],[120.15711061600007,14.991284001000052],[120.15594907700005,14.990701173000048],[120.1546616290001,14.990798769000035],[120.15170745400007,14.993148601000032],[120.15056974600009,14.99518008800004],[120.14856355300005,14.99657566400003],[120.14604101200008,14.997225951000075],[120.14303267000004,14.998985698000071],[120.13770504800006,15.003315891000057],[120.13712913300004,15.00453258100004],[120.13457003300005,15.007582904000058],[120.13240141300003,15.009323432000032],[120.12891734000004,15.011772746000078],[120.12423533000005,15.01311881000003],[120.12094624600002,15.014935773000046],[120.11709991000009,15.01656421400002],[120.11427154643702,15.017509965047573],[120.11666314096072,15.018646707681956],[120.12093535156474,15.020193766252882],[120.12534307607935,15.021326312564351],[120.12984384415005,15.022033428793005],[120.1343942862517,15.022308296230191],[120.13895055231393,15.022148261289637],[120.14251297108703,15.021680395478782],[120.14232363800012,15.020735949000022],[120.14327623300004,15.019252018000032],[120.143815161,15.017309514000033],[120.1450372710001,15.016599531000056],[120.14766500600001,15.015408574000043],[120.14860851300011,15.014604416000052],[120.14979777100007,15.01285144500002],[120.15064854700006,15.012000785000051],[120.15127588400001,15.010421981000038],[120.15411082100002,15.011182820000048],[120.15656556500005,15.01248281300008],[120.15801174700003,15.012455565000039],[120.1587639380001,15.012011683000027],[120.159300228,15.010250396000057],[120.16224828200005,15.009516530000042],[120.16295739100009,15.008800121000036],[120.16301653900008,15.007848870000032],[120.16247673100008,15.006346114000051],[120.16095524000002,15.005012512000064],[120.16148078600008,15.004067082000065],[120.16501641800004,15.00474586300004],[120.16899205200002,15.003888711000057],[120.16915343200003,15.002258704000038],[120.16754219000006,15.000652055000048],[120.16723136900009,14.999469549000027],[120.16780046400004,14.998751284000035],[120.16882748900002,14.998779504000028],[120.16998268900011,14.999524462000064],[120.1717978270001,15.000094949000069],[120.17268901200008,15.000909664000059],[120.17410289257542,15.001436626276499],[120.17567825710995,14.998954340176669],[120.17767984713164,14.994973025596869],[120.17927024910738,14.990820157549159],[120.18043416426399,14.98653574266713],[120.18116040502223,14.982161052874087],[120.18141226241221,14.978205343954558],[120.17867795100007,14.978311322000025]]],[[[120.14835273900007,15.019814379000026],[120.14671627300004,15.020111135000038],[120.14307907878926,15.021606040964834],[120.14346873505785,15.021554861312035],[120.14790529392683,15.02053380990847],[120.15040310391078,15.019700365775682],[120.14835273900007,15.019814379000026]]]]}},{"type":"Feature","properties":{"fid":173,"objectid":9615,"lccode":"06","liqcode":"2010600060000000","mappers":"PJDelosReyes, ACPidlaoan","project":"READY","province":"Zambales","otherinfo":"hazard boundary with Pangasinan updated on 2024","datemapped":2009,"publishdate":null,"globalid":"{872CAE87-9525-4926-8B67-3D6FB0BEE51C}","st_area(shape)":0.022446667670869943,"st_perimeter(shape)":5.391899889166991,"liqcodepk":"201060006000000000146","creator":"SNOOPYPC","createdate":"2019-02-19T15:21:28","editor":"LENOVO","modifydate":"2019-03-10T17:50:55","codemove":"na"},"geometry":{"type":"Polygon","coordinates":[[[120.11709991000009,15.01656421400002],[120.12094624600002,15.014935773000046],[120.12423533000005,15.01311881000003],[120.12891734000004,15.011772746000078],[120.13240141300003,15.009323432000032],[120.13457003300005,15.007582904000058],[120.13712913300004,15.00453258100004],[120.13770504800006,15.003315891000057],[120.14303267000004,14.998985698000071],[120.14604101200008,14.997225951000075],[120.14856355300005,14.99657566400003],[120.15056974600009,14.99518008800004],[120.15170745400007,14.993148601000032],[120.1546616290001,14.990798769000035],[120.15594907700005,14.990701173000048],[120.15455155700009,14.989933808000046],[120.15083295600004,14.989625447000034],[120.14956880900002,14.988919228000043],[120.1483975220001,14.988595031000044],[120.1463663720001,14.988474413000063],[120.14556713900005,14.98779774900004],[120.14538161200005,14.987009858000023],[120.14642900400008,14.985594611000064],[120.15011244000004,14.984855078000065],[120.1561063580001,14.98533470900003],[120.15772619900008,14.985069235000028],[120.1584716090001,14.985618234000068],[120.1592435020001,14.984718586000039],[120.16002288600009,14.983250796000048],[120.16184755000008,14.98230746300004],[120.16519869600008,14.98087167800003],[120.17140851900001,14.97986919200002],[120.17867795100007,14.978311322000025],[120.18141226241221,14.978205343954558],[120.1814420019065,14.977738227504762],[120.18127626971584,14.973309867150451],[120.18066483235532,14.968918623151254],[120.17961360612871,14.9646067866979],[120.1781327416939,14.9604158815055],[120.17623652528138,14.956386263982974],[120.17394324016564,14.952556734746215],[120.1712749897599,14.948964165209519],[120.16825748406913,14.945643142841313],[120.16491979158323,14.942625638487222],[120.16129405901901,14.939940698948186],[120.1574152016216,14.93761416775644],[120.15332056701146,14.935668436818752],[120.14904957581038,14.934122231298884],[120.14464334249601,14.932990429790792],[120.14014428011689,14.932283921495394],[120.1355956926492,14.932009501758781],[120.13104135889071,14.93216980696231],[120.12652511186286,14.93276328937922],[120.12209041773365,14.933784232230368],[120.11777995827599,14.935222804788282],[120.11363522084267,14.937065156996928],[120.1096960997673,14.939293552697826],[120.10600051299451,14.94188654018527],[120.102601317219,14.944804326425798],[120.10277166900006,14.945621917000034],[120.10391754200008,14.94734117300004],[120.1041609030001,14.950981139000074],[120.10472855400009,14.952238437000064],[120.10623319900003,14.95771280100007],[120.10741547799998,14.961080440000044],[120.10556262200011,14.964125513000056],[120.10471615900008,14.966217309000058],[120.10216338300006,14.969139770000021],[120.10102848100007,14.970943728000067],[120.10089477700001,14.972192207000038],[120.10129162800001,14.97310640300003],[120.10040919200003,14.977868451000063],[120.09914891000005,14.980295881000071],[120.09865831700006,14.981994428000062],[120.09862308400011,14.984607921000078],[120.09889086900013,14.98642971400006],[120.09849875000009,14.989493276000077],[120.09752452800001,14.992378944000052],[120.0966186160001,14.994526709000066],[120.09665251600006,14.99634552000004],[120.09872754900003,14.99901436300007],[120.10093570300013,15.001263682000062],[120.10132171800001,15.003761824000035],[120.10248280500002,15.007584308000048],[120.1025909116584,15.009451516341144],[120.10506229501392,15.011686638326557],[120.10868820073719,15.014372548736706],[120.11256760560589,15.016700048227838],[120.11427154643702,15.017509965047573],[120.11709991000009,15.01656421400002]]]}}]}