{"type":"FeatureCollection","features":[{"type":"Feature","properties":{"fid":6,"objectid":1835,"lccode":"01","liqcode":"2010600010000000","mappers":"DJLBuhay, MJVReyes, MITAbigania, KLPapiona, KMVitto","project":"MELP","province":"Bataan","otherinfo":null,"datemapped":2017,"publishdate":null,"globalid":"{8E614FC0-BB8D-468F-9704-E22C5F7BF8A3}","st_area(shape)":0.015609538694369198,"st_perimeter(shape)":5.084058587510767,"liqcodepk":"201060001000000000007","creator":"SNOOPYPC","createdate":"2019-02-19T15:21:28","editor":"LENOVO","modifydate":"2019-03-10T17:53:06","codemove":"na"},"geometry":{"type":"MultiPolygon","coordinates":[[[[120.44065513400005,14.833562375000044],[120.44043192200002,14.833148809000026],[120.44059933100004,14.831386653000038],[120.44006969200005,14.830618899000063],[120.43920425700004,14.830505569000023],[120.43877643400003,14.829750352000072],[120.43834861200004,14.827304868000052],[120.4376417740001,14.826297896000025],[120.4369163360001,14.826621566000034],[120.43626530100003,14.82619000600005],[120.4358002770001,14.824787429000025],[120.43487022700003,14.825111101000067],[120.43423779400008,14.827008171000045],[120.43442380400008,14.828860271000051],[120.43572587300002,14.831107943000063],[120.43702794200011,14.832546441000028],[120.43749296600005,14.833841081000063],[120.43717675000005,14.834614265000022],[120.43805084800012,14.835776805000023],[120.43783826400009,14.837136785000043],[120.43723682100007,14.838133915000064],[120.43728835500008,14.839972535000072],[120.43710336800005,14.841643797000078],[120.43659740200007,14.842117664000055],[120.43766610900002,14.843183138000034],[120.43754411900012,14.84446762500005],[120.43765332039033,14.844707857891343],[120.43843589508748,14.843144994506563],[120.44001997048808,14.838989245040011],[120.44117760045049,14.834702458415885],[120.44131788083921,14.833849851660677],[120.44065513400005,14.833562375000044]]],[[[120.43320091100009,14.849088844000043],[120.4322889770001,14.847054299000028],[120.43213509100008,14.846231430000046],[120.43241024700002,14.844744395000076],[120.43172201100005,14.842642630000055],[120.43101517300009,14.842175141000041],[120.43049434600006,14.840700746000035],[120.43146159700008,14.839280283000045],[120.43028573200003,14.834738427000048],[120.43010755100012,14.833155603000026],[120.43035052100005,14.830495273000054],[120.42955772800008,14.828677960000052],[120.42891653700008,14.825955678000067],[120.42818782300002,14.825767436000033],[120.42757399100003,14.826324868000029],[120.42762979400004,14.828788345000076],[120.42714616800004,14.830298784000025],[120.42709036500003,14.832294705000036],[120.42653233600005,14.833571365000065],[120.42545347900011,14.833787138000046],[120.4246722370001,14.832960008000045],[120.42392819800011,14.831629400000052],[120.4231469560001,14.831791231000066],[120.42318415800001,14.83297798900003],[120.42415141000002,14.83463224600007],[120.42441182300003,14.836286491000065],[120.4251558630001,14.836718031000032],[120.42489544900003,14.837437263000027],[120.42409560700003,14.837617070000022],[120.42398400099998,14.838606009000047],[120.42603010900007,14.84138400300003],[120.42597430600007,14.842247062000068],[120.42641701900004,14.845264108000038],[120.42472782200004,14.845414354000068],[120.4240386230001,14.845101952000043],[120.42331721800008,14.842112879000068],[120.4226856260001,14.841618195000022],[120.42245532100003,14.839935226000021],[120.4220269130001,14.839233054000033],[120.42005276300004,14.83734176800004],[120.41924609500008,14.837764427000028],[120.41787616800002,14.836861671000062],[120.41550538300011,14.835807086000045],[120.41382410400001,14.833785990000024],[120.41283810800007,14.833341594000045],[120.41241939400005,14.832415200000069],[120.41246999100008,14.830955102000065],[120.41090750800004,14.829318798000031],[120.41007046400011,14.829408705000048],[120.40960543900009,14.83277120600007],[120.40906601100005,14.833508431000041],[120.40943803000005,14.83438950300007],[120.4105726910001,14.835198647000027],[120.41436729200007,14.838812787000046],[120.41494392200002,14.840179311000039],[120.41723184300007,14.84199533700007],[120.41797588300007,14.842930315000046],[120.41747365600008,14.844134992000019],[120.4164878040001,14.844656417000063],[120.41440380500002,14.843829207000056],[120.41233265900007,14.843734158000071],[120.41121621600008,14.842383350000034],[120.41081405800004,14.841140149000069],[120.40965064700005,14.841358579000028],[120.40784586500001,14.839336766000033],[120.40724028200009,14.837119231000033],[120.40665238200008,14.835801949000029],[120.40510212100001,14.833100546000024],[120.40291838500002,14.832384611000068],[120.40291838500002,14.830316765000077],[120.40174652300006,14.829759343000035],[120.401151292,14.830352728000038],[120.39997943000003,14.82929182600003],[120.39966321300005,14.828123029000032],[120.39823093700011,14.82830284400006],[120.39836114400009,14.831161887000063],[120.39821233600003,14.832384611000068],[120.39906798100003,14.833661270000052],[120.40038865100009,14.83475811300008],[120.40113269100004,14.83680793500002],[120.40216737000004,14.838332928000058],[120.40319740000008,14.838983603000028],[120.40321600100003,14.839702827000053],[120.40206274000002,14.841608759000053],[120.40206274000002,14.842345954000052],[120.4005002570001,14.843748417000029],[120.39675633900005,14.845119167000064],[120.39272504500002,14.844521566000024],[120.39185079900005,14.845977955000022],[120.39069753800004,14.845744214000035],[120.38977926800011,14.847816051000052],[120.39033577800001,14.849020475000032],[120.391025592,14.849577408000075],[120.39200990800009,14.848809904000065],[120.39339736500007,14.850461039000034],[120.39431672700006,14.850048587000057],[120.39506521100007,14.84800876300005],[120.39536478600007,14.847836372000078],[120.3986002900001,14.84860372900005],[120.40121059800005,14.848237529000073],[120.40210017600009,14.847623542000058],[120.40301892900004,14.846102597000026],[120.40388980000012,14.845518096000037],[120.40516980000005,14.845675168000072],[120.40700316700008,14.846343741000052],[120.40857198800006,14.84739767000008],[120.40960078900004,14.848836764000053],[120.41056804000006,14.84894464200005],[120.41155389300002,14.849591914000026],[120.41172130100006,14.850401001000025],[120.41023322300009,14.852414716000057],[120.41142368600005,14.852468655000056],[120.41289316300005,14.852001187000036],[120.41479046400003,14.852288860000042],[120.41642735100004,14.85121008600004],[120.41659475900008,14.850814534000053],[120.41635294700008,14.848692925000027],[120.41758061200005,14.847722012000078],[120.41841765600007,14.847883831000043],[120.41960811900005,14.849196359000072],[120.4203707590001,14.849394137000047],[120.4213380110001,14.850293123000029],[120.42133083700001,14.852170644000068],[120.42083010000012,14.852953739000045],[120.41996991000008,14.852967976000057],[120.41872343500006,14.852404254000078],[120.41803068400007,14.85280277500004],[120.41698623300012,14.85273118800006],[120.41561213300008,14.854499587000076],[120.41533037600003,14.85525645000007],[120.41438868500008,14.855110748000074],[120.41083403200003,14.855052438000028],[120.4100797640001,14.855516160000036],[120.40955893700003,14.856469058000073],[120.408777696,14.85673874600007],[120.40838707500008,14.85767366000005],[120.40667578400009,14.85902208600004],[120.40853588300001,14.859489539000041],[120.40924272000007,14.859435602000076],[120.40957753800001,14.858662507000073],[120.41108421800006,14.857637702000035],[120.41091680900001,14.856181391000067],[120.41344654300008,14.856253308000076],[120.4129905430001,14.857231232000059],[120.41340666300006,14.858317304000025],[120.412692708,14.858844391000046],[120.411953347,14.858540828000065],[120.41082380400006,14.859345707000045],[120.41253509500008,14.860190716000032],[120.41366975500011,14.859669328000054],[120.41481200400005,14.858572280000036],[120.41575455400005,14.858659375000059],[120.41644130100008,14.859489539000041],[120.41763176400003,14.858842297000024],[120.41823751800007,14.857982331000077],[120.42007546800005,14.85716169600005],[120.4211410380001,14.857580378000025],[120.42092807600011,14.858237965000056],[120.42146356700005,14.859489539000037],[120.42230061200007,14.858824318000071],[120.42383269100003,14.858562422000034],[120.42546277900011,14.85866250700007],[120.42561188873121,14.859911574369404],[120.4281982198971,14.857683839013866],[120.43129701222898,14.854434282510422],[120.43335663864946,14.851796996585229],[120.43320091100009,14.849088844000043]],[[120.42358575800006,14.856627309000032],[120.42446558100005,14.855590727000047],[120.42476204000002,14.854704850000072],[120.4258494600001,14.85518362400006],[120.42492660900007,14.856282764000067],[120.42443414400009,14.857354832000052],[120.42371307200007,14.85720149300005],[120.42358575800006,14.856627309000032]]]]}},{"type":"Feature","properties":{"fid":223,"objectid":8405,"lccode":"06","liqcode":null,"mappers":"PJDelosReyes, ACPidlaoan","project":"READY","province":"Pampanga","otherinfo":"as of October 2015, reupdate 2021","datemapped":2008,"publishdate":null,"globalid":"{A052B1CF-2008-4592-917A-899CB9A87705}","st_area(shape)":0.005422416623690445,"st_perimeter(shape)":0.46802502688922537,"liqcodepk":null,"creator":null,"createdate":null,"editor":null,"modifydate":"1905-07-07T08:00:00","codemove":null},"geometry":{"type":"Polygon","coordinates":[]}}]}