{"type":"FeatureCollection","features":[{"type":"Feature","properties":{"fid":16,"objectid":1861,"lccode":"07","liqcode":"2010600070000000","mappers":"MITAbigania, DJLBuhay","project":"Cebu Multi-Hazard Mapping","province":"Cebu","otherinfo":null,"datemapped":2016,"publishdate":null,"globalid":"{C53CB127-C117-49E0-BEC2-5269D4100696}","st_area(shape)":0.02168908556211633,"st_perimeter(shape)":9.044842936189752,"liqcodepk":"201060007000000000053","creator":"SNOOPYPC","createdate":"2019-02-19T15:21:28","editor":"LENOVO","modifydate":"2019-03-10T17:50:55","codemove":"na"},"geometry":{"type":"Polygon","coordinates":[]}},{"type":"Feature","properties":{"fid":25,"objectid":1871,"lccode":"07","liqcode":"2010600070000000","mappers":"PJDelosReyes, ACPidlaoan","project":"READY","province":"Bohol","otherinfo":null,"datemapped":2008,"publishdate":null,"globalid":"{24D4EC03-5006-45F6-AD98-9C84307BF998}","st_area(shape)":0.043795715989879205,"st_perimeter(shape)":13.054531899785706,"liqcodepk":"201060007000000000063","creator":"SNOOPYPC","createdate":"2019-02-19T15:21:28","editor":"LENOVO","modifydate":"2019-03-10T17:50:55","codemove":"na"},"geometry":{"type":"Polygon","coordinates":[]}},{"type":"Feature","properties":{"fid":40,"objectid":1888,"lccode":"05","liqcode":"2010600050000000","mappers":"MITAbigania, DJLBuhay","project":"Cebu Multi-Hazard Mapping","province":"Cebu","otherinfo":null,"datemapped":2016,"publishdate":null,"globalid":"{6B113CA7-0A16-415A-8510-4591ABBD34CB}","st_area(shape)":0.011277825227989341,"st_perimeter(shape)":7.92725888477651,"liqcodepk":"201060005000000000082","creator":"SNOOPYPC","createdate":"2019-02-19T15:21:28","editor":"LENOVO","modifydate":"2019-03-10T17:50:55","codemove":"na"},"geometry":{"type":"Polygon","coordinates":[]}},{"type":"Feature","properties":{"fid":52,"objectid":1901,"lccode":"05","liqcode":"2010600050000000","mappers":"PJDelosReyes, ACPidlaoan","project":"READY","province":"Bohol","otherinfo":null,"datemapped":2008,"publishdate":null,"globalid":"{6E90D3A1-B401-4667-B32C-C40E7388D630}","st_area(shape)":0.010533775520257218,"st_perimeter(shape)":3.327242015595593,"liqcodepk":"201060005000000000095","creator":"SNOOPYPC","createdate":"2019-02-19T15:21:28","editor":"LENOVO","modifydate":"2019-03-10T17:50:55","codemove":"na"},"geometry":{"type":"Polygon","coordinates":[[[124.43749448900006,9.907242753000045],[124.43696337100005,9.908468310000044],[124.435461486,9.908474736000072],[124.43509567300009,9.910710159000075],[124.43520945600005,9.912198912000065],[124.43558815300003,9.912942002000023],[124.43715239700009,9.914903208000057],[124.43806547300007,9.91516525000003],[124.43972552100003,9.914519821000056],[124.44100832200003,9.913450587000055],[124.44191372300008,9.91195746300002],[124.44293006700002,9.911314877000052],[124.44308796300004,9.910622736000052],[124.4435482398524,9.910677768830253],[124.44019096288287,9.908231228077886],[124.43733637043002,9.906551326631554],[124.43749448900006,9.907242753000045]]]}},{"type":"Feature","properties":{"fid":66,"objectid":1930,"lccode":"06","liqcode":"2010600060000000","mappers":"PJDelosReyes, ACPidlaoan","project":"READY","province":"Bohol","otherinfo":null,"datemapped":2008,"publishdate":null,"globalid":"{D63C31C2-E045-4C3D-A292-79031F3364A0}","st_area(shape)":0.006668240995906857,"st_perimeter(shape)":3.000289637999567,"liqcodepk":"201060006000000000128","creator":"SNOOPYPC","createdate":"2019-02-19T15:21:28","editor":"LENOVO","modifydate":"2019-03-10T17:50:55","codemove":"na"},"geometry":{"type":"MultiPolygon","coordinates":[[[[124.387097551,9.980387815000029],[124.38572496819124,9.980539175319043],[124.38623957311405,9.980997648505905],[124.38638854822426,9.981106217907852],[124.387097551,9.980387815000029]]],[[[124.3959586630001,9.98652002800003],[124.39505989945845,9.98652379252587],[124.39585628137947,9.98689309788701],[124.3959586630001,9.98652002800003]]],[[[124.39905996900006,9.987714859000048],[124.398736911,9.98690433000007],[124.39720240151738,9.987517326199939],[124.39774818802198,9.987770418184581],[124.39862878918146,9.988078593252718],[124.39905996900006,9.987714859000048]]],[[[124.40750003399998,9.990174258000021],[124.40787539700011,9.989202409000027],[124.4064938360001,9.988435957000036],[124.40628811200008,9.987050812000064],[124.40488698100012,9.986383423000062],[124.40404489600007,9.985654370000077],[124.40374064800005,9.98456660100004],[124.40425678600003,9.983831824000045],[124.40500607800004,9.981551487000045],[124.40380983200009,9.982071355000071],[124.40252073700003,9.984235177000073],[124.40236947100004,9.986235648000045],[124.40265480300002,9.987561160000041],[124.40367419300003,9.987715247000036],[124.40411639100013,9.988346999000042],[124.40370928313028,9.989671799879671],[124.4063147717823,9.990307080582294],[124.40710872195183,9.990420399886894],[124.40750003399998,9.990174258000021]]],[[[124.4173909430001,9.990904599000032],[124.41702901400004,9.990351718000053],[124.41624698316895,9.99108347756446],[124.41738547422234,9.991023179797086],[124.4173909430001,9.990904599000032]]]]}},{"type":"Feature","properties":{"fid":91,"objectid":1919,"lccode":"06","liqcode":"2010600060000000","mappers":"MITAbigania, DJLBuhay","project":"Cebu Multi-Hazard Mapping","province":"Cebu","otherinfo":null,"datemapped":2016,"publishdate":null,"globalid":"{EDC44F95-33EE-45BE-975C-40D829DF5178}","st_area(shape)":0.012637099910309046,"st_perimeter(shape)":9.940336299625505,"liqcodepk":"201060006000000000117","creator":"SNOOPYPC","createdate":"2019-02-19T15:21:28","editor":"LENOVO","modifydate":"2019-03-10T17:50:55","codemove":"na"},"geometry":{"type":"Polygon","coordinates":[]}}]}