{"type":"FeatureCollection","features":[{"type":"Feature","properties":{"fid":174,"objectid":9616,"lccode":"07","liqcode":null,"mappers":"DJLBuhay, MITAbigania","project":"LiquePhi","province":"Pangasinan","otherinfo":null,"datemapped":2024,"publishdate":null,"globalid":"{4C1C6B5C-6BC5-4098-AF34-1358D72BE295}","st_area(shape)":0.0990952810399136,"st_perimeter(shape)":16.14272038398808,"liqcodepk":null,"creator":null,"createdate":null,"editor":null,"modifydate":null,"codemove":null},"geometry":{"type":"MultiPolygon","coordinates":[[[[120.53208191100009,16.104928931000074],[120.53074210600005,16.102723651000073],[120.52951497000004,16.101786782000033],[120.52508462000004,16.10017915200007],[120.52449517400011,16.099832048000053],[120.5236205120001,16.098297477000077],[120.5232845920001,16.094304491000056],[120.52456950300008,16.09404000400002],[120.52373046400011,16.092332901000077],[120.52267085000007,16.090981008000025],[120.52283916500004,16.089318439000067],[120.52262525400009,16.08753714500006],[120.52066439600004,16.08315235300006],[120.519666141,16.081268233000056],[120.51779805700005,16.078735668000032],[120.51734549200013,16.074269717000046],[120.51698897200004,16.072200517000056],[120.51771627200003,16.07192644900005],[120.51851487600004,16.073666773000067],[120.51949538300005,16.073950991000064],[120.52057682500003,16.07349421500004],[120.52128986500009,16.072557821000032],[120.52143247200001,16.071381613000025],[120.52051740600007,16.07027391600008],[120.519103211,16.069440283000063],[120.51843169900009,16.068574570000063],[120.51811319800004,16.067354029000057],[120.51835087700012,16.065983653000046],[120.51829145700003,16.062300720000053],[120.51852192600006,16.061016089000073],[120.51968655600001,16.059348743000044],[120.52117414800011,16.058375276000046],[120.5229907590001,16.057967692000034],[120.5247491350001,16.05836660200003],[120.52699021800004,16.05914634800007],[120.52978325300012,16.061313874000064],[120.53089008400002,16.06301291600005],[120.53244344600013,16.064981319000026],[120.53400895895538,16.06639665124133],[120.53259449014907,16.06341341407485],[120.53028511887203,16.05958499576674],[120.5275988791263,16.05599386900073],[120.5245616542543,16.052674606175707],[120.52120270227337,16.049659160096986],[120.51755437380716,16.04697655677026],[120.51365180045525,16.04465261641513],[120.5095325566051,16.042709705364107],[120.5052362979367,16.041166521215263],[120.50080438008803,16.04003791328653],[120.49627946113092,16.039334740081316],[120.49170509165815,16.03906376511998],[120.48712529639387,16.039227592125236],[120.48258415131825,16.039824640173407],[120.47812536033685,16.04084915904218],[120.47379183552796,16.042291284602435],[120.4696252849669,16.044137133719776],[120.46566581205566,16.046368937755513],[120.46195153017797,16.048965213388723],[120.45905946722252,16.051438152571546],[120.45939079800007,16.051565764000028],[120.46046001800006,16.05225790100008],[120.4632266100001,16.052490882000033],[120.46761893200006,16.05187416700005],[120.47039978500004,16.051216337000028],[120.47553366700004,16.048612403000046],[120.47934129600003,16.046447000000004],[120.48132196900008,16.04514385000005],[120.48288233900007,16.044408155000042],[120.48613855100007,16.043968443000036],[120.48740300700001,16.043165538000043],[120.4887233180001,16.043054753000035],[120.49103803700007,16.043248779000063],[120.491804429,16.04348986300005],[120.49354424400008,16.043339104000037],[120.49558353600003,16.043901023000046],[120.49708091800005,16.045052268000063],[120.49842143200011,16.04484668900005],[120.49991881400001,16.045203025000035],[120.50050350700008,16.046395378000053],[120.50167289100011,16.04797146400006],[120.50230036500012,16.049465309000023],[120.50204367100001,16.05075357000004],[120.50307044800002,16.05239814600003],[120.50623634200007,16.05426198300006],[120.50814728700003,16.055796894000025],[120.50955910400012,16.056235438000044],[120.51186935100009,16.05748254100007],[120.51219734900008,16.058798159000045],[120.51152709200005,16.06026451400004],[120.5118408300001,16.061593817000073],[120.51271073700002,16.062539399000055],[120.51326690800012,16.063978318000068],[120.51385160000007,16.06500611200005],[120.5154202860001,16.06696575700005],[120.51573402400004,16.068637606000035],[120.51573402400004,16.07024092400007],[120.51512655300006,16.073439087000054],[120.51478126500001,16.07484791100006],[120.51457505800009,16.077124431000072],[120.51483446400005,16.078383190000068],[120.51606541100013,16.081235055000032],[120.51622415800013,16.08320752900005],[120.51725696400001,16.084772296000036],[120.517597947,16.086299730000064],[120.51815566000005,16.087462662000064],[120.518345242,16.089102579000038],[120.51809723600002,16.090680122000037],[120.51747277400011,16.09119866700007],[120.51569801900007,16.091587445000066],[120.51506477900011,16.092748485000076],[120.51431868600004,16.093915312000032],[120.51218904200006,16.095743163000062],[120.51079266500005,16.098063976000052],[120.51103628700004,16.099005959000067],[120.51054249100002,16.10141901700007],[120.50941412200008,16.102950819000053],[120.50920895000002,16.10431156900006],[120.50823453900013,16.106222776000035],[120.50702838100005,16.108051829000033],[120.50674951100005,16.10999008100003],[120.50565839900001,16.113219682000025],[120.50492003300009,16.11874286800003],[120.5047733990001,16.119822142000032],[120.50515520400005,16.121088497000073],[120.504621014,16.12392946400007],[120.50440565100433,16.12751195611413],[120.50849233236227,16.12615219078619],[120.51266046596989,16.124305787632082],[120.51266099533423,16.12430548926004],[120.51237382600006,16.12406025100006],[120.51164445000006,16.122577745000058],[120.51107401900003,16.119734994000055],[120.51100271500002,16.117508716000035],[120.51039663200002,16.11370685900005],[120.51079396500005,16.111630539000032],[120.5112879310001,16.107952558000022],[120.51232183700006,16.10528086200003],[120.51478182300004,16.101992571000046],[120.51550272800013,16.101416643000046],[120.51648397800011,16.102332449000073],[120.51606412500007,16.103334503000042],[120.51481747500009,16.10397925300003],[120.51435399900004,16.104698564000046],[120.51449660700005,16.105760399000076],[120.5151055020001,16.106336283000072],[120.51734876400008,16.10761003500005],[120.51778277100003,16.106852287000034],[120.51569522500006,16.105736285000038],[120.5157360500001,16.105010863000075],[120.51775947800002,16.104394400000043],[120.52010217100009,16.105397665000055],[120.52087830800008,16.10500683900005],[120.51806910900005,16.10349135800004],[120.51783083500003,16.103115719000073],[120.51769436500003,16.10060724500005],[120.51849296800003,16.09956593500004],[120.51927255800001,16.09960247200007],[120.52136414000006,16.10108222700006],[120.5228714090001,16.10179725600005],[120.52345921900007,16.102965651000034],[120.52466860100003,16.102531144000068],[120.52567406500009,16.102524217000052],[120.5271476800001,16.102980926000047],[120.5287616620001,16.104131781000035],[120.530522732,16.106588891000058],[120.53134142154717,16.107131343013645],[120.53206868650955,16.105989540260058],[120.53245629466115,16.10522118083916],[120.53208191100009,16.104928931000074]]],[[[120.4531196270001,16.109991387000033],[120.45480715300003,16.11122445300003],[120.45568656800002,16.11266302000007],[120.45587322597132,16.113758894743093],[120.45770581706773,16.115762578439504],[120.46106461902606,16.118779028284273],[120.46471320784624,16.12146265905692],[120.46815979192208,16.12351561463648],[120.46802907800009,16.12335820800007],[120.46620878700001,16.12168000800005],[120.46431073900011,16.12084396700004],[120.46296262300008,16.119635607000074],[120.46220759200004,16.118094423000063],[120.46200276600007,16.115885752000054],[120.46130536200008,16.115418293000058],[120.46020399100009,16.115098026000055],[120.45947669100009,16.113741679000047],[120.4593721120001,16.112298553000073],[120.45981419700001,16.109540144000047],[120.4597714140001,16.108243130000062],[120.45902985400004,16.107238395000024],[120.45912138800009,16.106742474000043],[120.45837982700006,16.104111865000046],[120.45756696200009,16.103056871000035],[120.4564688820001,16.099816498000056],[120.45547062700007,16.098138060000057],[120.45465063200004,16.096254083000076],[120.4535097690001,16.09484965100006],[120.45201238700008,16.093684993000068],[120.44937414200002,16.09234905300008],[120.44862545100011,16.09159544200003],[120.44731385600006,16.08841828700002],[120.44557889200009,16.086244995000076],[120.44450527234868,16.08557876461578],[120.44460098065558,16.08809751919663],[120.44521745920878,16.092489044706983],[120.44627622092618,16.096801004440238],[120.44746326734678,16.10013781113242],[120.44786690500007,16.100834492000043],[120.44793480112385,16.10134591595167],[120.44967575892012,16.10502127371061],[120.45198384501418,16.10885040426023],[120.45262505576929,16.109708127166424],[120.4531196270001,16.109991387000033]]],[[[120.44869843800006,16.073826796000045],[120.45089539100003,16.073529130000047],[120.45217886200008,16.07279828700006],[120.45391392400005,16.072775448000073],[120.45484087500004,16.074191455000054],[120.45424667500005,16.076703700000053],[120.45429421100006,16.07816535600005],[120.45481710700004,16.078919018000025],[120.45695622400001,16.079467134000026],[120.45797824700003,16.07914739900002],[120.4577881030001,16.07850793000006],[120.45652840100001,16.07782278100007],[120.45607680900002,16.076795054000055],[120.45659970500002,16.072912481000056],[120.45557768200001,16.071496465000052],[120.45343856400007,16.07053722300003],[120.45225016600013,16.069715011000028],[120.45139115100005,16.068527852000045],[120.45096243700004,16.066923381000038],[120.4503207020001,16.06565578100003],[120.44930763796145,16.0642532837694],[120.44820850102204,16.06643048823257],[120.4466112493792,16.07058448602454],[120.44580971395138,16.073523984694038],[120.44869843800006,16.073826796000045]]]]}},{"type":"Feature","properties":{"fid":175,"objectid":9617,"lccode":"06","liqcode":null,"mappers":"DJLBuhay, MITAbigania","project":"LiquePhi","province":"Pangasinan","otherinfo":null,"datemapped":2024,"publishdate":null,"globalid":"{66023685-1332-44EF-8443-E51FD3597412}","st_area(shape)":0.04411879143836554,"st_perimeter(shape)":22.502158641584156,"liqcodepk":null,"creator":null,"createdate":null,"editor":null,"modifydate":null,"codemove":null},"geometry":{"type":"MultiPolygon","coordinates":[[[[120.491804429,16.04348986300005],[120.49103803700007,16.043248779000063],[120.4887233180001,16.043054753000035],[120.48740300700001,16.043165538000043],[120.48613855100007,16.043968443000036],[120.48288233900007,16.044408155000042],[120.48132196900008,16.04514385000005],[120.47934129600003,16.046447000000004],[120.47553366700004,16.048612403000046],[120.47039978500004,16.051216337000028],[120.46761893200006,16.05187416700005],[120.4632266100001,16.052490882000033],[120.46046001800006,16.05225790100008],[120.45939079800007,16.051565764000028],[120.45905946722252,16.051438152571546],[120.45851819635763,16.051900969125455],[120.45539886742094,16.055147945520837],[120.45262358195411,16.058674886818],[120.45021907110676,16.06244784140721],[120.44930763796145,16.0642532837694],[120.4503207020001,16.06565578100003],[120.45096243700004,16.066923381000038],[120.45139115100005,16.068527852000045],[120.45225016600013,16.069715011000028],[120.45343856400007,16.07053722300003],[120.45557768200001,16.071496465000052],[120.45659970500002,16.072912481000056],[120.45607680900002,16.076795054000055],[120.45652840100001,16.07782278100007],[120.4577881030001,16.07850793000006],[120.45797824700003,16.07914739900002],[120.45695622400001,16.079467134000026],[120.45481710700004,16.078919018000025],[120.45429421100006,16.07816535600005],[120.45424667500005,16.076703700000053],[120.45484087500004,16.074191455000054],[120.45391392400005,16.072775448000073],[120.45217886200008,16.07279828700006],[120.45089539100003,16.073529130000047],[120.44869843800006,16.073826796000045],[120.44580971395138,16.073523984694038],[120.44544271821346,16.074869842016337],[120.44471418483693,16.07924529661373],[120.44443269232475,16.083668720332465],[120.44450527234868,16.08557876461578],[120.44557889200009,16.086244995000076],[120.44731385600006,16.08841828700002],[120.44862545100011,16.09159544200003],[120.44937414200002,16.09234905300008],[120.45201238700008,16.093684993000068],[120.4535097690001,16.09484965100006],[120.45465063200004,16.096254083000076],[120.45547062700007,16.098138060000057],[120.4564688820001,16.099816498000056],[120.45756696200009,16.103056871000035],[120.45837982700006,16.104111865000046],[120.45912138800009,16.106742474000043],[120.45940660300005,16.105920412000046],[120.45926399600012,16.10390634700008],[120.45793774300012,16.099960364000026],[120.45707451600003,16.09690276400005],[120.45640233700011,16.095664622000072],[120.45655571500005,16.09410345300006],[120.45508799800007,16.09181610000007],[120.45495961600011,16.09068768000003],[120.455996335,16.088124532000048],[120.45706589400004,16.086936997000066],[120.45858704400007,16.085795130000065],[120.45896733200004,16.08474460700006],[120.45926363900003,16.08263440800004],[120.45926363900003,16.080990082000024],[120.45860764300005,16.078158155000036],[120.4594965650001,16.07458849900007],[120.46000995300005,16.071455006000065],[120.46144553900001,16.06869602900002],[120.46303324000007,16.066722698000035],[120.46436424600007,16.063397224000024],[120.46684562200004,16.061752739000042],[120.46848160400009,16.059762339000024],[120.46873910700003,16.057670257000044],[120.46925054000008,16.055610444000024],[120.46983641500002,16.054281681000074],[120.47285345600007,16.050883658000032],[120.47546882900008,16.050123222000025],[120.47723379500009,16.048933971000054],[120.47838963400012,16.048409846000027],[120.47985460000005,16.04722807100006],[120.48074422400008,16.046896040000032],[120.48410601800005,16.04709751000007],[120.48478724400003,16.046433712000063],[120.48638193500005,16.045548661000055],[120.48716627800002,16.044198692000066],[120.48845040000003,16.043714934000036],[120.48917169900005,16.043824707000056],[120.49058918600008,16.04427713500007],[120.49199425600011,16.044026015000043],[120.4927538840001,16.044840323000077],[120.4937046020001,16.045000217000055],[120.49612893600012,16.044840323000077],[120.49708091800005,16.045052268000063],[120.49558353600003,16.043901023000046],[120.49354424400008,16.043339104000037],[120.491804429,16.04348986300005]]],[[[120.46895252400009,16.122914022000028],[120.46815392000008,16.122420825000063],[120.46778313900006,16.12155772900007],[120.46705583900007,16.120927529000024],[120.46544437100012,16.120283627000052],[120.46421794300011,16.119420521000052],[120.46376159800003,16.118584812000048],[120.46283680700003,16.11575896800002],[120.46222143400006,16.115296742000055],[120.46130536200008,16.115418293000058],[120.46200276600007,16.115885752000054],[120.46220759200004,16.118094423000063],[120.46296262300008,16.119635607000074],[120.46431073900011,16.12084396700004],[120.46620878700001,16.12168000800005],[120.46802907800009,16.12335820800007],[120.46815979192208,16.12351561463648],[120.46861644192347,16.123787611053675],[120.46944076899473,16.12417652145626],[120.46895252400009,16.122914022000028]]],[[[120.45568656800002,16.11266302000007],[120.45480715300003,16.11122445300003],[120.4531196270001,16.109991387000033],[120.45262505576929,16.109708127166424],[120.45466914682947,16.11244237410247],[120.45587322597132,16.113758894743093],[120.45568656800002,16.11266302000007]]],[[[120.44786690500007,16.100834492000043],[120.44746326734678,16.10013781113242],[120.44776709804657,16.100991869330354],[120.44793480112385,16.10134591595167],[120.44786690500007,16.100834492000043]]],[[[120.51385160000007,16.06500611200005],[120.51326690800012,16.063978318000068],[120.51361216900011,16.06768107200003],[120.51485998700002,16.068480453000067],[120.51530563700008,16.06913708400003],[120.51500497200006,16.07170420700004],[120.51512655300006,16.073439087000054],[120.51573402400004,16.07024092400007],[120.51573402400004,16.068637606000035],[120.5154202860001,16.06696575700005],[120.51385160000007,16.06500611200005]]],[[[120.518345242,16.089102579000038],[120.51815566000005,16.087462662000064],[120.517597947,16.086299730000064],[120.51725696400001,16.084772296000036],[120.51622415800013,16.08320752900005],[120.51606541100013,16.081235055000032],[120.51483446400005,16.078383190000068],[120.51457505800009,16.077124431000072],[120.5144434980001,16.079303953000018],[120.51489179799998,16.080886455000037],[120.51582539000003,16.083106037000046],[120.51576646,16.086203063000028],[120.51531011500005,16.090752213000027],[120.51506477900011,16.092748485000076],[120.51569801900007,16.091587445000066],[120.51747277400011,16.09119866700007],[120.51809723600002,16.090680122000037],[120.518345242,16.089102579000038]]],[[[120.53244344600013,16.064981319000026],[120.53089008400002,16.06301291600005],[120.52978325300012,16.061313874000064],[120.52699021800004,16.05914634800007],[120.5247491350001,16.05836660200003],[120.5229907590001,16.057967692000034],[120.52117414800011,16.058375276000046],[120.51968655600001,16.059348743000044],[120.51852192600006,16.061016089000073],[120.51829145700003,16.062300720000053],[120.51835087700012,16.065983653000046],[120.51811319800004,16.067354029000057],[120.51843169900009,16.068574570000063],[120.519103211,16.069440283000063],[120.52051740600007,16.07027391600008],[120.52143247200001,16.071381613000025],[120.52128986500009,16.072557821000032],[120.52057682500003,16.07349421500004],[120.51949538300005,16.073950991000064],[120.51851487600004,16.073666773000067],[120.51771627200003,16.07192644900005],[120.51698897200004,16.072200517000056],[120.51734549200013,16.074269717000046],[120.51779805700005,16.078735668000032],[120.519666141,16.081268233000056],[120.52066439600004,16.08315235300006],[120.52262525400009,16.08753714500006],[120.52283916500004,16.089318439000067],[120.52267085000007,16.090981008000025],[120.52373046400011,16.092332901000077],[120.52456950300008,16.09404000400002],[120.5232845920001,16.094304491000056],[120.5236205120001,16.098297477000077],[120.52449517400011,16.099832048000053],[120.52508462000004,16.10017915200007],[120.52951497000004,16.101786782000033],[120.53074210600005,16.102723651000073],[120.53208191100009,16.104928931000074],[120.53245629466115,16.10522118083916],[120.5335146872334,16.103123079388208],[120.53172508400006,16.10147736900006],[120.52994248600008,16.10048401800003],[120.52522636500008,16.098285622000052],[120.52463193800008,16.097441552000078],[120.52446773300007,16.096292947000055],[120.525043997,16.09425278200007],[120.52499646100013,16.093122375000064],[120.52440226200008,16.090827288000067],[120.52461617400002,16.089251540000078],[120.52448655800004,16.087438139000028],[120.52392690300007,16.085380629000046],[120.52264343200011,16.082366063000052],[120.52115793400004,16.07943138400003],[120.5192921480001,16.076987688000024],[120.51854655200009,16.07536310500007],[120.51888929900007,16.074510540000063],[120.52022030600006,16.074693250000053],[120.52143247200001,16.07444202400006],[120.52226435200008,16.073745442000074],[120.52266920800004,16.072629674000037],[120.52212174400006,16.071187481000035],[120.52067189700004,16.069622998000053],[120.52096018400003,16.06549482900004],[120.52081533700004,16.062772116000072],[120.52143330400008,16.06103626400005],[120.52300199,16.06048809800006],[120.52642457900005,16.061310347000074],[120.52837355200006,16.063046196000073],[120.53051267,16.066243773000057],[120.53198628400003,16.067568468000047],[120.53361164000013,16.068211104000053],[120.53484275157173,16.06839120318854],[120.53450473406917,16.067442264419277],[120.53400895895538,16.06639665124133],[120.53244344600013,16.064981319000026]]],[[[120.530522732,16.106588891000058],[120.5287616620001,16.104131781000035],[120.5271476800001,16.102980926000047],[120.52567406500009,16.102524217000052],[120.52466860100003,16.102531144000068],[120.52345921900007,16.102965651000034],[120.5228714090001,16.10179725600005],[120.52136414000006,16.10108222700006],[120.51927255800001,16.09960247200007],[120.51849296800003,16.09956593500004],[120.51769436500003,16.10060724500005],[120.51783083500003,16.103115719000073],[120.51806910900005,16.10349135800004],[120.52087830800008,16.10500683900005],[120.52010217100009,16.105397665000055],[120.51775947800002,16.104394400000043],[120.5157360500001,16.105010863000075],[120.51569522500006,16.105736285000038],[120.51778277100003,16.106852287000034],[120.51734876400008,16.10761003500005],[120.5151055020001,16.106336283000072],[120.51449660700005,16.105760399000076],[120.51435399900004,16.104698564000046],[120.51481747500009,16.10397925300003],[120.51606412500007,16.103334503000042],[120.51648397800011,16.102332449000073],[120.51550272800013,16.101416643000046],[120.51478182300004,16.101992571000046],[120.51232183700006,16.10528086200003],[120.5112879310001,16.107952558000022],[120.51079396500005,16.111630539000032],[120.51039663200002,16.11370685900005],[120.51100271500002,16.117508716000035],[120.51107401900003,16.119734994000055],[120.51164445000006,16.122577745000058],[120.51237382600006,16.12406025100006],[120.51266099533423,16.12430548926004],[120.51399873742429,16.12355147392459],[120.51339769100001,16.122579357000067],[120.51220929200008,16.11817250500008],[120.51154378900003,16.115044266000037],[120.51131799300003,16.112772266000036],[120.5120310320001,16.110077800000056],[120.513200116,16.10815281000003],[120.51407706200008,16.107610156000074],[120.51506400000001,16.10754765300004],[120.51652507600011,16.108343873000024],[120.5176672330001,16.108593394000017],[120.5192921480001,16.10772582100003],[120.52140252200002,16.10736030200007],[120.5220590570001,16.106179742000055],[120.5215029540001,16.10419433100003],[120.52265024600001,16.10400240900003],[120.52463034400012,16.10613577800006],[120.52623468200011,16.10819092300005],[120.52684076600009,16.109629512000023],[120.52841794837452,16.111348733232496],[120.52966483638922,16.109763506490275],[120.53134142154717,16.107131343013645],[120.530522732,16.106588891000058]]],[[[120.504621014,16.12392946400007],[120.50515520400005,16.121088497000073],[120.5047733990001,16.119822142000032],[120.50492003300009,16.11874286800003],[120.50446601600004,16.120142165000065],[120.50346678100004,16.121837374000048],[120.50299367500007,16.124543968000065],[120.50287591000006,16.12609831800006],[120.50333739883247,16.127782969256806],[120.50415698747791,16.127594690886184],[120.50440565100433,16.12751195611413],[120.504621014,16.12392946400007]]]]}},{"type":"Feature","properties":{"fid":176,"objectid":9618,"lccode":"05","liqcode":null,"mappers":"DJLBuhay, MITAbigania","project":"LiquePhi","province":"Pangasinan","otherinfo":null,"datemapped":2024,"publishdate":null,"globalid":"{5ACB73C5-6107-4512-9787-F18573022798}","st_area(shape)":0.06533832536059311,"st_perimeter(shape)":23.271340040578984,"liqcodepk":null,"creator":null,"createdate":null,"editor":null,"modifydate":null,"codemove":null},"geometry":{"type":"MultiPolygon","coordinates":[[[[120.47546882900008,16.050123222000025],[120.47285345600007,16.050883658000032],[120.46983641500002,16.054281681000074],[120.46925054000008,16.055610444000024],[120.46873910700003,16.057670257000044],[120.46848160400009,16.059762339000024],[120.46684562200004,16.061752739000042],[120.46436424600007,16.063397224000024],[120.46303324000007,16.066722698000035],[120.46144553900001,16.06869602900002],[120.46000995300005,16.071455006000065],[120.4594965650001,16.07458849900007],[120.45860764300005,16.078158155000036],[120.45926363900003,16.080990082000024],[120.45926363900003,16.08263440800004],[120.45896733200004,16.08474460700006],[120.45858704400007,16.085795130000065],[120.45706589400004,16.086936997000066],[120.455996335,16.088124532000048],[120.45495961600011,16.09068768000003],[120.45508799800007,16.09181610000007],[120.45655571500005,16.09410345300006],[120.45640233700011,16.095664622000072],[120.45707451600003,16.09690276400005],[120.45793774300012,16.099960364000026],[120.45926399600012,16.10390634700008],[120.45940660300005,16.105920412000046],[120.45975987700002,16.105120919000058],[120.45943663300012,16.10407963200004],[120.45957924000005,16.102974400000047],[120.45892324400008,16.101448987000026],[120.45827060400008,16.10090344400004],[120.45811053600005,16.099592022000024],[120.45836723000002,16.098728827000063],[120.459455165,16.098917459000063],[120.46024337500013,16.100409119000066],[120.46107716300004,16.100149915000028],[120.46095222600002,16.099077884000046],[120.46137976800003,16.09812687000004],[120.46015560900003,16.097820433000038],[120.45979983000008,16.09646011700005],[120.4591591630001,16.095462008000023],[120.45941955400009,16.094681216000023],[120.46071760100006,16.094980965000047],[120.46143426200001,16.095959122000068],[120.46114253200005,16.09676824100006],[120.46214307100001,16.097199097000043],[120.46315963100005,16.098128900000063],[120.4634818610001,16.100006418000074],[120.46422472000008,16.10029910200006],[120.46458586200004,16.099503307000077],[120.4644710000001,16.09764737000006],[120.46573147200002,16.096800270000074],[120.46615527200004,16.095831903000033],[120.46691418900004,16.096321296000042],[120.46792043900007,16.095432209000023],[120.46909518500001,16.095566732000062],[120.46893948000002,16.097295267000046],[120.46851865300005,16.098141798000032],[120.46880807100001,16.098844200000027],[120.46961893900004,16.098786089000047],[120.4709350280001,16.097876966000054],[120.4718459830001,16.097982790000056],[120.47251031100006,16.099979629000075],[120.4734459220001,16.10052371700004],[120.47403556400002,16.099787362000026],[120.47411437200003,16.098310581000074],[120.47365229900002,16.097574556000037],[120.47344422000003,16.095788450000043],[120.47287891300005,16.095883526000023],[120.47251937600004,16.096920631000046],[120.47177050200004,16.097116960000047],[120.47137490500006,16.09521906100003],[120.47165555200002,16.09400820600007],[120.47084517300003,16.09365373000002],[120.47043383000003,16.092748090000043],[120.46882062700003,16.093421364000047],[120.4679412040001,16.092814158000063],[120.4666455680001,16.09265939900006],[120.46423010900003,16.09305693100003],[120.46398786600002,16.09364569900004],[120.46266260800007,16.093673080000027],[120.46151636300009,16.091279112000052],[120.46014421400002,16.090523533000066],[120.459336301,16.091208278000067],[120.45829631200002,16.091251275000047],[120.45782794500006,16.090325899000046],[120.45840134000002,16.088974059000062],[120.45930996000006,16.088903681000033],[120.45932119500004,16.087785265000033],[120.46001990700006,16.08765734600007],[120.46084278800004,16.08826221300006],[120.46102071600001,16.08952501600004],[120.46182892900003,16.08999652000006],[120.46214058400004,16.08744307200004],[120.46128099500002,16.08715857300007],[120.46127126500005,16.086407475000044],[120.45974454800013,16.085751228000046],[120.46017167200011,16.08423632200004],[120.46138014400005,16.084403664000035],[120.46268564400008,16.083764777000052],[120.46404896600006,16.084440573000055],[120.46443234100002,16.083448527000034],[120.4643216300001,16.082571724000047],[120.46209230600003,16.082078721000073],[120.46097318700005,16.08147113800004],[120.46186583900011,16.07989872100006],[120.45963527900005,16.079585439000024],[120.45972578500005,16.078687908000063],[120.46057374400004,16.078360132000057],[120.46029760800002,16.07726075500005],[120.46062463700002,16.076423390000055],[120.461363461,16.07585858400006],[120.4611593290001,16.07480459900006],[120.46108741800003,16.07155250800003],[120.46272124100005,16.070485091000023],[120.46291084400002,16.069552053000052],[120.46431380900003,16.069261355000034],[120.46538682100005,16.06508555000005],[120.46610471300006,16.064904851000055],[120.46690688200009,16.065875540000032],[120.46688311400008,16.06665779800005],[120.46770073300003,16.066785700000022],[120.46842327900005,16.06835705700007],[120.46950709799998,16.06945334600005],[120.46897469600005,16.07133529400005],[120.46958315600011,16.071865160000076],[120.46937399800005,16.07367400100003],[120.47064796100007,16.074112505000073],[120.47154163700009,16.07341820600004],[120.47089514800008,16.072760447000064],[120.47089514800008,16.071627634000038],[120.47190291000005,16.071170853000066],[120.47080007600003,16.070494815000078],[120.4708381050001,16.06896001700005],[120.4702106300001,16.06802817000005],[120.46918385400012,16.065232602000037],[120.46836623600008,16.064629631000056],[120.46891138900004,16.06313407400006],[120.46817069200006,16.06195956600004],[120.46865818200001,16.059902907000037],[120.46950742500006,16.05976774600003],[120.47079089500005,16.060475797000038],[120.4711319390001,16.06250159100006],[120.47227280100005,16.064420148000064],[120.47234410500005,16.06556213800007],[120.47189251400005,16.06645288600004],[120.47246294500007,16.067297950000064],[120.47341366400008,16.066064612000048],[120.47315221600003,16.065265221000057],[120.47352464700009,16.06377691500006],[120.4728587090001,16.061412248000067],[120.47304885300004,16.05990478900003],[120.47394015200008,16.058694245000023],[120.4747839150001,16.05853436100006],[120.47544941800003,16.059447980000073],[120.476281297,16.058397318000058],[120.47550883800011,16.05796334700005],[120.47556825800008,16.056855574000043],[120.47485521900002,16.055256717000077],[120.47530681,16.054788478000038],[120.47547318600006,16.052355900000066],[120.47446304700007,16.051602137000025],[120.47550883800011,16.05058569500005],[120.47746969600007,16.050951158000036],[120.4789908460001,16.05019739000005],[120.47985837700004,16.048518534000035],[120.48041692400012,16.04814164500004],[120.48243720200003,16.047536339000036],[120.48343683800012,16.04771840800003],[120.48336553400007,16.049705632000038],[120.48436378900011,16.049637108000066],[120.48469654100006,16.050505085000054],[120.48419741300006,16.05276637600002],[120.4852669720001,16.05370286300007],[120.48659797900007,16.053520135000042],[120.48693073000003,16.051167486000054],[120.48536204400011,16.050413719000066],[120.48540958000002,16.048517868000033],[120.48662174700007,16.048312293000038],[120.48750116200006,16.046918944000023],[120.48771507300013,16.044657586000024],[120.48795275300007,16.044200743000033],[120.48917169900005,16.043824707000056],[120.48845040000003,16.043714934000036],[120.48716627800002,16.044198692000066],[120.48638193500005,16.045548661000055],[120.48478724400003,16.046433712000063],[120.48410601800005,16.04709751000007],[120.48074422400008,16.046896040000032],[120.47985460000005,16.04722807100006],[120.47838963400012,16.048409846000027],[120.47723379500009,16.048933971000054],[120.47546882900008,16.050123222000025]]],[[[120.51489179799998,16.080886455000037],[120.5144434980001,16.079303953000018],[120.5130722900001,16.08328980000004],[120.51189242400007,16.08489632500004],[120.51062550400002,16.08544025300006],[120.50988410200011,16.08645526000004],[120.51066171800005,16.08858829300004],[120.51129808100005,16.089049148000072],[120.51380797900005,16.089542428000076],[120.51531011500005,16.090752213000027],[120.51576646,16.086203063000028],[120.51582539000003,16.083106037000046],[120.51489179799998,16.080886455000037]]],[[[120.46883843700004,16.116673628000054],[120.46768331400007,16.11816695600004],[120.46774035700003,16.119619173000046],[120.46691323200004,16.12000277600003],[120.46592923800006,16.119865775000044],[120.4658721940001,16.118687563000037],[120.46534454500011,16.117112037000027],[120.46448889800003,16.11612561400005],[120.46283680700003,16.11575896800002],[120.46376159800003,16.118584812000048],[120.46421794300011,16.119420521000052],[120.46544437100012,16.120283627000052],[120.46705583900007,16.120927529000024],[120.46778313900006,16.12155772900007],[120.468596004,16.120989179000052],[120.46861026500007,16.12029047700003],[120.46986521400005,16.119536972000045],[120.47100607700008,16.117769650000067],[120.47141963900002,16.115906409000047],[120.47110590200009,16.112316881000027],[120.47000782200007,16.11193326300003],[120.4693803470001,16.11382394200007],[120.46953721600006,16.114399363000075],[120.46883843700004,16.116673628000054]]],[[[120.50138816662745,16.12823073817137],[120.50333739883247,16.127782969256806],[120.50287591000006,16.12609831800006],[120.50299367500007,16.124543968000065],[120.50178875300004,16.126678441000028],[120.50131339300003,16.128048398000033],[120.50138816662745,16.12823073817137]]],[[[120.53361164000013,16.068211104000053],[120.53198628400003,16.067568468000047],[120.53051267,16.066243773000057],[120.52837355200006,16.063046196000073],[120.52642457900005,16.061310347000074],[120.52300199,16.06048809800006],[120.52143330400008,16.06103626400005],[120.52081533700004,16.062772116000072],[120.52096018400003,16.06549482900004],[120.52067189700004,16.069622998000053],[120.52212174400006,16.071187481000035],[120.52266920800004,16.072629674000037],[120.52226435200008,16.073745442000074],[120.52143247200001,16.07444202400006],[120.52022030600006,16.074693250000053],[120.51888929900007,16.074510540000063],[120.51854655200009,16.07536310500007],[120.5192921480001,16.076987688000024],[120.52115793400004,16.07943138400003],[120.52264343200011,16.082366063000052],[120.52392690300007,16.085380629000046],[120.52448655800004,16.087438139000028],[120.52461617400002,16.089251540000078],[120.52440226200008,16.090827288000067],[120.52499646100013,16.093122375000064],[120.525043997,16.09425278200007],[120.52446773300007,16.096292947000055],[120.52463193800008,16.097441552000078],[120.52522636500008,16.098285622000052],[120.52994248600008,16.10048401800003],[120.53172508400006,16.10147736900006],[120.5335146872334,16.103123079388208],[120.53407822088782,16.10200593647508],[120.53567410164644,16.09785107318025],[120.53684097943251,16.093564976403105],[120.53756764047232,16.089188934205776],[120.53784711364345,16.08476509865363],[120.53767673656932,16.080336079549056],[120.53705818013968,16.07594453385503],[120.5359974312641,16.07163275477049],[120.53484275157173,16.06839120318854],[120.53361164000013,16.068211104000053]]],[[[120.52684076600009,16.109629512000023],[120.52623468200011,16.10819092300005],[120.52463034400012,16.10613577800006],[120.52265024600001,16.10400240900003],[120.5215029540001,16.10419433100003],[120.5220590570001,16.106179742000055],[120.52140252200002,16.10736030200007],[120.5192921480001,16.10772582100003],[120.5176672330001,16.108593394000017],[120.51652507600011,16.108343873000024],[120.51506400000001,16.10754765300004],[120.51407706200008,16.107610156000074],[120.513200116,16.10815281000003],[120.5120310320001,16.110077800000056],[120.51131799300003,16.112772266000036],[120.51154378900003,16.115044266000037],[120.51220929200008,16.11817250500008],[120.51339769100001,16.122579357000067],[120.51399873742429,16.12355147392459],[120.51662122406319,16.12207327135393],[120.52033644386968,16.119476152643777],[120.52377033232156,16.116539455394612],[120.52688981127851,16.113291475233094],[120.52841794837452,16.111348733232496],[120.52684076600009,16.109629512000023]]]]}}]}