{"type":"FeatureCollection","features":[{"type":"Feature","properties":{"fid":192,"objectid":2053,"lccode":"01","liqcode":null,"mappers":"DJLBuhay, MJVReyes, MITAbigania, KLPapiona, KMVitto","project":"MELP","province":"Lanao del Sur","otherinfo":null,"datemapped":2018,"publishdate":null,"globalid":"{22B1851D-C2EE-4AE5-B511-229F233C1746}","st_area(shape)":0.021864599324414365,"st_perimeter(shape)":5.17999445853216,"liqcodepk":null,"creator":null,"createdate":null,"editor":null,"modifydate":null,"codemove":null},"geometry":{"type":"Polygon","coordinates":[]}},{"type":"Feature","properties":{"fid":193,"objectid":2144,"lccode":"01","liqcode":null,"mappers":"DJLBuhay, MJVReyes, MITAbigania, KLPapiona, KMVitto","project":"MELP","province":"Lanao del Norte","otherinfo":null,"datemapped":2018,"publishdate":null,"globalid":"{8CF0E7EB-3CCD-4F04-8515-11CAD40BD1AE}","st_area(shape)":0.03055360554823452,"st_perimeter(shape)":7.260406778623517,"liqcodepk":null,"creator":null,"createdate":null,"editor":null,"modifydate":null,"codemove":null},"geometry":{"type":"MultiPolygon","coordinates":[[[[123.78771506800001,8.006885823000063],[123.78823497400003,8.007474242000056],[123.7894976340001,8.007842030000063],[123.79141393000009,8.007547883000028],[123.79136940600007,8.006120999000075],[123.79251326100008,8.005253132000062],[123.79305143000012,8.003989486000025],[123.79413034200002,8.003245594000019],[123.7941998980001,8.001953211000055],[123.7947497330001,8.000731709000037],[123.7940522040001,8.000039045000053],[123.79388228500011,7.999058212000022],[123.79424033600004,7.997980658000074],[123.79488765500001,7.997524750000025],[123.79603582400013,7.995344889000022],[123.79709120400003,7.994864273000074],[123.79737740700011,7.993882576000028],[123.79643877,7.992639969000041],[123.79650813800004,7.991251864000047],[123.7978981330001,7.990004833000057],[123.79888180000012,7.989691864000063],[123.80024851000009,7.98882776000005],[123.80161149000004,7.986025283000061],[123.80362161600011,7.98528756400003],[123.8049050730001,7.9856171240000435],[123.80775683,7.985893850000025],[123.80960274600011,7.984574116000035],[123.81060765100004,7.982849180000074],[123.81175033400008,7.982027846000052],[123.81308133800007,7.981969040000022],[123.81374831900006,7.980737221000027],[123.81518855100002,7.97903058300005],[123.81714708000003,7.979189797000059],[123.81812617300011,7.979015592000054],[123.81804665400013,7.977637352000046],[123.81875643000001,7.977233937000051],[123.81966590600007,7.975145553000061],[123.820188786,7.975628097000026],[123.8223828240001,7.975580439000057],[123.8261307900001,7.974686745000044],[123.82833747300003,7.975018342000056],[123.82934662100001,7.975701730000027],[123.83082213000012,7.975265102000039],[123.82961647800006,7.973565636000045],[123.83259569800009,7.972439801000064],[123.8339350430001,7.972365354000031],[123.8344014710001,7.970824423000066],[123.83566119200009,7.97008300300007],[123.83621976400002,7.969147369000042],[123.83683240200003,7.969105649000028],[123.8374141380001,7.967893983000064],[123.8383499250001,7.968101205000037],[123.8389412680001,7.9663993320000355],[123.84027215300011,7.965858116000047],[123.84028410800009,7.9651036050000235],[123.84146944800013,7.965240258000052],[123.84224572200004,7.964565714000061],[123.84348166000007,7.9643421320000725],[123.84443236600009,7.964671700000055],[123.84678539400011,7.964506996000068],[123.84787873000006,7.964071562000073],[123.84869809300005,7.962962970000034],[123.84880506900004,7.962268580000056],[123.84810948600011,7.961039662000077],[123.84843242200009,7.959301854000046],[123.84821470100007,7.95830131200006],[123.84872606400008,7.957324618000031],[123.8483402500001,7.95646390400003],[123.8468641930001,7.956617719000064],[123.84541833100002,7.955665806000069],[123.8439684860001,7.955748151000021],[123.842697583,7.95509131600005],[123.84093875000009,7.9553501970000315],[123.84033264800007,7.956068124000068],[123.83945322800002,7.956338798000046],[123.83917991700004,7.955620847000034],[123.83837321300008,7.955143906000049],[123.83723690000011,7.955320668000071],[123.83623860100009,7.956944839000072],[123.83611970100003,7.959063347000037],[123.83583447400007,7.959463500000023],[123.8339525880001,7.959955301000037],[123.83328391900012,7.960970562000055],[123.83340273600004,7.961764999999999],[123.834561387,7.962941972000067],[123.83441178000008,7.9649397800000665],[123.83487696300006,7.966172765000067],[123.83423519500002,7.967364277000059],[123.83261896700002,7.967717308000035],[123.83197720700002,7.9686352890000745],[123.82857839800012,7.968588115000045],[123.82646311700013,7.966375439000049],[123.82496576000005,7.965645702000073],[123.82394374600007,7.965433825000046],[123.82116290400008,7.965292515000047],[123.819380324,7.964845230000037],[123.81828636500008,7.964088286000051],[123.81654191400004,7.961878822000076],[123.81614296700002,7.960407870000041],[123.81657602100006,7.95954555700007],[123.8163619730001,7.958772136000048],[123.81529243000013,7.958324864000075],[123.81353817400009,7.956680069000073],[123.81346084756976,7.956670950103266],[123.8102023828212,7.9582151441856555],[123.80638846131048,7.960504172424877],[123.80281791688313,7.963154826511152],[123.7995251331464,7.966141586143496],[123.7965418214619,7.969435694131572],[123.79389671554915,7.973005433079587],[123.79161529466064,7.976816430588252],[123.78971953799886,7.9808319900451545],[123.78822771274716,7.98501344382672],[123.78715419776712,7.989320525518168],[123.78650934467447,7.993711757573445],[123.78629937764815,7.9981448506867645],[123.78636985752452,7.999521287925691],[123.78843308900004,7.997920764000069],[123.78897044600001,7.997709163000025],[123.79012288600005,7.9977644270000505],[123.79181916700009,7.998530756000036],[123.79235455100002,7.999770385000032],[123.79227958600006,8.00074689500002],[123.79172418700011,8.001571157000058],[123.79153413200004,8.00262446200003],[123.79094006300011,8.003314785000041],[123.78943592500002,8.00361213900004],[123.7879025000001,8.003411540000059],[123.78668734400003,8.002867139000045],[123.7865400760939,8.002668263193767],[123.78717425751657,8.006874448862945],[123.78771506800001,8.006885823000063]],[[123.81122769800005,7.973012819000076],[123.8108473960001,7.97355418500007],[123.8092311810001,7.973459986000024],[123.80826286400007,7.974012028000064],[123.807235364,7.975376076000032],[123.80563172000006,7.975557251000055],[123.80603017400007,7.973920592000071],[123.80598004,7.9728198830000565],[123.8064089500001,7.971167854000043],[123.8072477930001,7.970472258000029],[123.80851993100009,7.9703980230000315],[123.81022286700012,7.971285641000066],[123.81099567100011,7.972044462000044],[123.81122769800005,7.973012819000076]]],[[[123.82459232300006,8.041211107000036],[123.82555791400011,8.040519817000073],[123.82442227400009,8.03983067200005],[123.82466909800009,8.038528490000033],[123.82423513900005,8.037454162000072],[123.82341055900007,8.03742549000003],[123.8228897460001,8.038313576000062],[123.82170238600007,8.037593788000036],[123.82170705700003,8.03677265600004],[123.82229619700003,8.036024867000037],[123.8218196810001,8.03545147700004],[123.81949026500003,8.034574849000023],[123.81847761100003,8.03494725200005],[123.81697306400008,8.036666123000034],[123.81656797300002,8.037840698000025],[123.81698746800011,8.03885772700005],[123.81897528000003,8.039434304000052],[123.81979623400001,8.040168357000026],[123.81888018300003,8.04112397600005],[123.81838567342834,8.041287788520826],[123.81858406845262,8.0413580963992],[123.82290542775188,8.04242780882761],[123.82402774666517,8.042591442636281],[123.82459232300006,8.041211107000036]],[[123.82047464900008,8.038913758000035],[123.81888476000005,8.037366895000046],[123.81932914200002,8.036260438000056],[123.82007688700004,8.035584131000064],[123.8206111950001,8.035777314000029],[123.82047464900008,8.038913758000035]]]]}},{"type":"Feature","properties":{"fid":197,"objectid":2628,"lccode":"01","liqcode":null,"mappers":"DJLBuhay, MJVReyes, MITAbigania, KLPapiona, KMVitto","project":"MELP","province":"Misamis Occidental","otherinfo":null,"datemapped":2018,"publishdate":null,"globalid":"{27D44928-E916-4E54-8319-EC621626DBD2}","st_area(shape)":0.012871931313296916,"st_perimeter(shape)":4.6460872002031275,"liqcodepk":null,"creator":null,"createdate":null,"editor":null,"modifydate":null,"codemove":null},"geometry":{"type":"Polygon","coordinates":[]}}]}