{"type":"FeatureCollection","features":[{"type":"Feature","properties":{"fid":19,"objectid":1865,"lccode":"07","liqcode":"2010600070000000","mappers":"PJDelosReyes, ACPidlaoan","project":"GMMA-READY","province":"Laguna","otherinfo":null,"datemapped":2009,"publishdate":null,"globalid":"{201F2E43-4214-4343-BEDF-89CDE62C8E2F}","st_area(shape)":0.011633033511708836,"st_perimeter(shape)":2.0535212447842874,"liqcodepk":"201060007000000000057","creator":"SNOOPYPC","createdate":"2019-02-19T15:21:28","editor":"LENOVO","modifydate":"2019-03-10T17:50:55","codemove":"na"},"geometry":{"type":"MultiPolygon","coordinates":[[[[121.43049717100007,14.387790067000026],[121.42987705400004,14.387177326000026],[121.42772888700006,14.388249809000058],[121.42691951500001,14.389200873000044],[121.42605969800002,14.390977461000034],[121.42363379700011,14.393482629000063],[121.42282316700006,14.394607532000068],[121.42174888400008,14.395165425000073],[121.42134295100004,14.395814802000077],[121.42009699900007,14.395415278000032],[121.41808550800012,14.396053911000022],[121.4175469810001,14.396528436000041],[121.41625155100007,14.396824114000026],[121.41584529300009,14.39751685300007],[121.41469157000006,14.39668316500007],[121.41367726800001,14.39506792300005],[121.41052783700002,14.392655848000066],[121.40906659100006,14.391167985000033],[121.40836600000011,14.389337506000066],[121.40850596300005,14.388469032000042],[121.40699624900004,14.387545984000042],[121.4067833900001,14.386109984000031],[121.40710050000008,14.385416569000032],[121.4060318270001,14.386134017000073],[121.4053494310001,14.387078444000052],[121.40527905800002,14.387577876000025],[121.40390943800003,14.388894490000045],[121.40505150500007,14.39135835300004],[121.40552556300008,14.393687218000021],[121.40680448300009,14.395717247000047],[121.40735009400011,14.397394599000052],[121.40763939700003,14.400613410000064],[121.40751696500001,14.402155862000026],[121.40696436100006,14.404608201000025],[121.40715628700003,14.405848418000053],[121.40803668700003,14.40748456200003],[121.40760739400002,14.411415763000035],[121.40820155200004,14.412528293000031],[121.40843637000012,14.414007907000038],[121.40775847800012,14.415264035000066],[121.40781173000005,14.417177086000034],[121.40733370600003,14.418543271000033],[121.40810188200011,14.420287281000075],[121.40813457900003,14.42196108300004],[121.40698912000005,14.423105341000056],[121.40672726600008,14.425429326000025],[121.40580933700005,14.425923029000048],[121.40349500600006,14.42834174700005],[121.40286107800013,14.429663305000076],[121.40313750599998,14.431556175000026],[121.40272524500006,14.433074874000058],[121.4015258830001,14.435501112000054],[121.40120572100011,14.43660745900007],[121.40117097200006,14.438346133000039],[121.40155074300004,14.441391598000054],[121.40097979300002,14.443257031000032],[121.40179272200011,14.444979678000038],[121.40159970400009,14.447021448000042],[121.40132791000009,14.447606439000026],[121.40295567100009,14.448316821000047],[121.40438635200007,14.450023497000076],[121.40482065700009,14.451917345000025],[121.4058492150001,14.454203158000038],[121.407784106,14.454992040000034],[121.40893429400013,14.454175496000062],[121.41302300500001,14.452942480000047],[121.41442195700006,14.452127672000072],[121.42041293600005,14.449258764000032],[121.42156510500001,14.448151273000061],[121.42227323400006,14.446507550000039],[121.42348317200003,14.43720634700003],[121.42460662200006,14.433092502000022],[121.42683378400011,14.42767695500004],[121.42844911600002,14.424342157000066],[121.42965089000006,14.423235031000049],[121.43104722100007,14.422759410000028],[121.43253828700006,14.422963249000075],[121.43367568200006,14.423940532000072],[121.43396636000013,14.425057684000022],[121.43490986800009,14.425306400000071],[121.44064935500013,14.424348831000033],[121.44257029600008,14.426591608000022],[121.4446411460001,14.427956899000039],[121.44741378000005,14.428120027000027],[121.44986819700011,14.431322175000048],[121.45055124800001,14.43282306400005],[121.45171529700008,14.433946572000027],[121.45227152874249,14.433950223666985],[121.45282955287368,14.430446702876658],[121.4530834250501,14.426018596908643],[121.45289071867629,14.421587560893002],[121.45225331615633,14.417196269683185],[121.45117738212346,14.412887012842711],[121.44967330307068,14.408701287414527],[121.44775558637917,14.404679398417587],[121.44544271975303,14.40086007091269],[121.4430383387921,14.397655109820537],[121.44276124000011,14.397792352000067],[121.44207305500004,14.396952186000018],[121.43874861200003,14.396552240000066],[121.43709152900011,14.394153688000072],[121.43587029800004,14.393648227000028],[121.4349805700001,14.392448584000022],[121.43403629000011,14.393218226000041],[121.43459708700004,14.394753938000067],[121.4338320170001,14.396161493000026],[121.43250128400007,14.396729667000045],[121.43152238300001,14.39952853400007],[121.4316191040001,14.400285279000059],[121.43293771400012,14.401467899000066],[121.4330940220001,14.402463700000055],[121.4325187720001,14.402997117000037],[121.43137196400005,14.400602002000024],[121.43038349900007,14.39892409600003],[121.43019241700006,14.39705258600003],[121.42880905500012,14.39638687600006],[121.42797016000009,14.39667969000004],[121.42763947100003,14.394349632000058],[121.42811388400003,14.393636538000067],[121.42950543400002,14.393128525000066],[121.43004394200011,14.392017873000045],[121.4300522850001,14.390824177000068],[121.43241780500011,14.388213617000078],[121.43230979630614,14.388053331363869],[121.43127474071478,14.387439233156666],[121.43049717100007,14.387790067000026]]],[[[121.43119632100003,14.396027439000024],[121.43077983700005,14.39836482400005],[121.43178489900005,14.39768895300006],[121.431896262,14.396064617000034],[121.43119632100003,14.396027439000024]]]]}},{"type":"Feature","properties":{"fid":44,"objectid":1893,"lccode":"05","liqcode":"2010600050000000","mappers":"PJDelosReyes, ACPidlaoan","project":"GMMA-READY","province":"Laguna","otherinfo":null,"datemapped":2009,"publishdate":null,"globalid":"{7F343170-B235-4CDB-B217-C1208E80A3A5}","st_area(shape)":0.008304377696007862,"st_perimeter(shape)":1.8107535949557698,"liqcodepk":"201060005000000000087","creator":"SNOOPYPC","createdate":"2019-02-19T15:21:28","editor":"LENOVO","modifydate":"2019-03-10T17:50:55","codemove":"na"},"geometry":{"type":"MultiPolygon","coordinates":[[[[121.4118278410001,14.470347695000044],[121.40980529500008,14.46931244300004],[121.40722138800005,14.468795059000058],[121.40579818600008,14.46817680600003],[121.40480128500008,14.467213707000043],[121.4042086610001,14.46586206400007],[121.40417276000004,14.470170007000036],[121.40430622663776,14.470786679305016],[121.40639212963319,14.470900707439814],[121.41093954467642,14.470713852109604],[121.41234315940625,14.470520652168245],[121.4118278410001,14.470347695000044]]],[[[121.40489790400011,14.380616916000061],[121.40454820100001,14.382929473000047],[121.40453811100006,14.38435086700002],[121.4054246610001,14.385905183000036],[121.40551851500004,14.385253732000024],[121.40662396800008,14.38343541900002],[121.40747514992435,14.38054317542918],[121.40703475560102,14.380519112773658],[121.40486804035164,14.380608245356049],[121.40489790400011,14.380616916000061]]]]}},{"type":"Feature","properties":{"fid":45,"objectid":1894,"lccode":"05","liqcode":"2010600050000000","mappers":" ","project":"GMMA-READY","province":"Rizal","otherinfo":null,"datemapped":2014,"publishdate":null,"globalid":"{4D5352A7-99E5-496F-ADDB-1A18F244A366}","st_area(shape)":0.006345314889758836,"st_perimeter(shape)":2.9495658321957374,"liqcodepk":"201060005000000000088","creator":"SNOOPYPC","createdate":"2019-02-19T15:21:28","editor":"LENOVO","modifydate":"2019-03-10T17:50:55","codemove":"na"},"geometry":{"type":"Polygon","coordinates":[]}},{"type":"Feature","properties":{"fid":94,"objectid":1923,"lccode":"06","liqcode":"2010600060000000","mappers":"PJDelosReyes, ACPidlaoan","project":"GMMA-READY","province":"Laguna","otherinfo":null,"datemapped":2009,"publishdate":null,"globalid":"{A65DCB4C-5102-43F3-93DD-E72F32659601}","st_area(shape)":0.0093794758121965,"st_perimeter(shape)":1.9301078794409476,"liqcodepk":"201060006000000000121","creator":"SNOOPYPC","createdate":"2019-02-19T15:21:28","editor":"LENOVO","modifydate":"2019-03-10T17:50:55","codemove":"na"},"geometry":{"type":"MultiPolygon","coordinates":[[[[121.43031713200003,14.464429244000035],[121.42881195400004,14.462767295000043],[121.42864818500004,14.46067954400007],[121.42961280000009,14.45990349600004],[121.42960459100006,14.457903806000045],[121.42836057900001,14.457178172000056],[121.42778626100007,14.456370164000077],[121.42772529900004,14.455522028000072],[121.4281381400001,14.453916346000028],[121.4275044740001,14.45204287900003],[121.427298188,14.449650579000032],[121.42642469300006,14.446992933000049],[121.4265203650001,14.446080687000062],[121.42760528400005,14.444044828000075],[121.42817365400003,14.442505335000021],[121.42942003000009,14.44288315500006],[121.43036413000006,14.445019575000062],[121.43111731800002,14.44576361200006],[121.43202165400008,14.447204208000072],[121.4333961210001,14.448408816000041],[121.43550779500005,14.449444361000076],[121.43669057000012,14.449365280000045],[121.4383457350001,14.448702482000042],[121.43911541700004,14.447077359000048],[121.43712527100001,14.444608076000067],[121.43587674100002,14.44133943500003],[121.43750928800011,14.44071986300003],[121.43892621500004,14.442229078000027],[121.44276231300013,14.442254459000027],[121.44308980000007,14.44327822600007],[121.44243696500008,14.444143336000025],[121.44107314200006,14.444612450000019],[121.44081795000011,14.446023655000031],[121.44154665100007,14.447071767000068],[121.44304538900009,14.446451364000035],[121.44373397400012,14.44686889300004],[121.4456710390001,14.447359815000024],[121.44688817168007,14.44820210725883],[121.44746042221803,14.447285826234772],[121.44943398660058,14.443289539375655],[121.45099602784046,14.43912396488131],[121.45213152111977,14.43482922969167],[121.45227152874249,14.433950223666985],[121.45171529700008,14.433946572000027],[121.45055124800001,14.43282306400005],[121.4506436050001,14.433789160000066],[121.44989696200004,14.434315253000019],[121.44875777100005,14.434307761000063],[121.44772129700004,14.433769939000051],[121.44713328500005,14.432848836000062],[121.44594897700004,14.432213520000062],[121.44302770200011,14.432049481000034],[121.44207719600003,14.433394739000052],[121.44171810200008,14.43517847800007],[121.44269594300012,14.437019308000064],[121.44268889200009,14.438032912000036],[121.44049573000007,14.439997638000023],[121.43910483900004,14.440567685000078],[121.43697964400008,14.439877744000057],[121.43436771300003,14.437977790000044],[121.43249736500003,14.43627585800005],[121.43068092300007,14.433946762000062],[121.42886154800011,14.432052032000062],[121.42739428300001,14.42938727200004],[121.42683378400011,14.42767695500004],[121.42460662200006,14.433092502000022],[121.42348317200003,14.43720634700003],[121.42227323400006,14.446507550000039],[121.42156510500001,14.448151273000061],[121.42041293600005,14.449258764000032],[121.41442195700006,14.452127672000072],[121.41302300500001,14.452942480000047],[121.40893429400013,14.454175496000062],[121.407784106,14.454992040000034],[121.4058492150001,14.454203158000038],[121.40482065700009,14.451917345000025],[121.40438635200007,14.450023497000076],[121.40295567100009,14.448316821000047],[121.40132791000009,14.447606439000026],[121.4019995630001,14.450371400000053],[121.40175992700006,14.452695518000041],[121.40137219000009,14.453888334000053],[121.4016985610001,14.455042532000054],[121.40242631300009,14.456199453000064],[121.40094332400007,14.460840779000023],[121.40244772000007,14.46256812400003],[121.40395625300005,14.463730341000028],[121.4042086610001,14.46586206400007],[121.40480128500008,14.467213707000043],[121.40579818600008,14.46817680600003],[121.40722138800005,14.468795059000058],[121.40980529500008,14.46931244300004],[121.4118278410001,14.470347695000044],[121.41234315940625,14.470520652168245],[121.41544625480931,14.470093496564013],[121.41986883169143,14.46904561609524],[121.42416465865865,14.467580305812536],[121.42829234210356,14.465711683285718],[121.43040584928441,14.464496396729533],[121.43031713200003,14.464429244000035]]],[[[121.40662396800008,14.38343541900002],[121.40551851500004,14.385253732000024],[121.4054246610001,14.385905183000036],[121.4053494310001,14.387078444000052],[121.4060318270001,14.386134017000073],[121.40710050000008,14.385416569000032],[121.4080489680001,14.383727591000026],[121.4082781520001,14.38285971700003],[121.40931279378862,14.380643573389568],[121.40747514992435,14.38054317542918],[121.40662396800008,14.38343541900002]]]]}},{"type":"Feature","properties":{"fid":95,"objectid":1924,"lccode":"06","liqcode":"2010600060000000","mappers":" ","project":"GMMA-READY","province":"Rizal","otherinfo":null,"datemapped":2014,"publishdate":null,"globalid":"{6C554346-4FA5-4F77-9F0F-617B7273CD25}","st_area(shape)":0.0032443964097093416,"st_perimeter(shape)":2.2078931693924795,"liqcodepk":"201060006000000000122","creator":"SNOOPYPC","createdate":"2019-02-19T15:21:28","editor":"LENOVO","modifydate":"2019-03-10T17:50:55","codemove":"na"},"geometry":{"type":"Polygon","coordinates":[]}},{"type":"Feature","properties":{"fid":200,"objectid":3303,"lccode":"01","liqcode":null,"mappers":"DJLBuhay, MJVReyes, MITAbigania, KLPapiona, KMVitto","project":"MELP","province":"Quezon","otherinfo":null,"datemapped":2017,"publishdate":null,"globalid":"{BC782275-8EAF-4B58-974B-C12246047CD2}","st_area(shape)":0.045970309448805105,"st_perimeter(shape)":30.915538535941515,"liqcodepk":null,"creator":null,"createdate":null,"editor":null,"modifydate":null,"codemove":null},"geometry":{"type":"Polygon","coordinates":[]}}]}