{"type":"FeatureCollection","features":[{"type":"Feature","properties":{"fid":16,"objectid":1861,"lccode":"07","liqcode":"2010600070000000","mappers":"MITAbigania, DJLBuhay","project":"Cebu Multi-Hazard Mapping","province":"Cebu","otherinfo":null,"datemapped":2016,"publishdate":null,"globalid":"{C53CB127-C117-49E0-BEC2-5269D4100696}","st_area(shape)":0.02168908556211633,"st_perimeter(shape)":9.044842936189752,"liqcodepk":"201060007000000000053","creator":"SNOOPYPC","createdate":"2019-02-19T15:21:28","editor":"LENOVO","modifydate":"2019-03-10T17:50:55","codemove":"na"},"geometry":{"type":"Polygon","coordinates":[]}},{"type":"Feature","properties":{"fid":25,"objectid":1871,"lccode":"07","liqcode":"2010600070000000","mappers":"PJDelosReyes, ACPidlaoan","project":"READY","province":"Bohol","otherinfo":null,"datemapped":2008,"publishdate":null,"globalid":"{24D4EC03-5006-45F6-AD98-9C84307BF998}","st_area(shape)":0.043795715989879205,"st_perimeter(shape)":13.054531899785706,"liqcodepk":"201060007000000000063","creator":"SNOOPYPC","createdate":"2019-02-19T15:21:28","editor":"LENOVO","modifydate":"2019-03-10T17:50:55","codemove":"na"},"geometry":{"type":"MultiPolygon","coordinates":[[[[123.89191802000005,9.925794902000064],[123.89238181600001,9.92463643600007],[123.89191363500004,9.924174753000043],[123.892011194,9.92323218000007],[123.89154091400007,9.921993559000041],[123.8900695430001,9.920476492000034],[123.88838549443425,9.920202766341108],[123.88917005462781,9.923273391486703],[123.89068912147285,9.927447437397948],[123.89081214753818,9.927703556281237],[123.89093912000008,9.92758294600003],[123.89212201500006,9.927216056000075],[123.892536973,9.926520649000052],[123.89191802000005,9.925794902000064]]],[[[123.90828973700002,9.946333992000065],[123.90734667400011,9.946565030000047],[123.90837024700012,9.947650129000067],[123.910740787,9.947785092000059],[123.91270452600008,9.947616630000027],[123.91319513400003,9.946462136000035],[123.91288481600009,9.945364167000038],[123.91182839700002,9.944290022000075],[123.9107875310001,9.944836795000072],[123.90953726800001,9.945090466000066],[123.90828973700002,9.946333992000065]]],[[[123.9220272550001,9.953183497000055],[123.92080213200006,9.952107410000052],[123.91961363700011,9.952209866000032],[123.9191809022083,9.953168010340079],[123.91965773275685,9.95333567618621],[123.92168333276807,9.953832768897609],[123.9220272550001,9.953183497000055]]],[[[123.9596958840001,9.945006945000046],[123.95778559300004,9.943411728000054],[123.95677964000002,9.943362165000053],[123.95558545300004,9.942263429000034],[123.9547637710001,9.941872111000066],[123.95431161800002,9.941112475000068],[123.95306677600001,9.940827329000056],[123.95150012300007,9.939073681000025],[123.95094033300006,9.937710739000067],[123.95085514300003,9.935690402000038],[123.95186016400008,9.935451384000029],[123.95241843400004,9.936289565000036],[123.95376901000009,9.936548103000064],[123.9550372650001,9.935783471000036],[123.95453072400004,9.93452535500006],[123.9532616360001,9.935001294000072],[123.95262469800002,9.93439959100004],[123.95127587500009,9.934744558000032],[123.95037516900005,9.934458513000036],[123.95000064700004,9.933095042000046],[123.94986297000004,9.931232264000075],[123.94868958300003,9.928165387000034],[123.94794744600004,9.927800133000062],[123.94738693900001,9.926148490000056],[123.94735737100005,9.925072732000045],[123.94653310400007,9.923763056000041],[123.94444106300013,9.923322851000025],[123.94327241600003,9.921882853000053],[123.94321556200008,9.920518476000039],[123.94234257500011,9.920652122000035],[123.9415253840001,9.92180901200004],[123.9409422670001,9.92149582500002],[123.94048710700008,9.919660238000061],[123.93982614100001,9.919898254000032],[123.93818516700003,9.919876628000054],[123.93702260000009,9.920562148000046],[123.93651622800009,9.919330215000056],[123.93495319100009,9.91878349700005],[123.93373685200004,9.919180552000059],[123.93299311600005,9.918237877000022],[123.93195920600012,9.917611011000078],[123.93110787800003,9.916038890000038],[123.92996741500006,9.915176059000032],[123.93059642900005,9.912996310000038],[123.93011952700012,9.912813999000036],[123.92882754800007,9.91454947600005],[123.92900577400007,9.912029841000045],[123.92982151100011,9.910374345000033],[123.93005482000001,9.908641890000066],[123.929226974,9.905993757000031],[123.92797903400003,9.904580223000037],[123.92660102500007,9.903927976000036],[123.92484982400003,9.902305872000055],[123.9239228990001,9.902072259000022],[123.92225678000011,9.902496725000047],[123.92061325500003,9.901504043000044],[123.91984173700007,9.900062857000023],[123.9189665250001,9.899382978000062],[123.918884552,9.898464764000037],[123.9180905710001,9.898028510000074],[123.91755639100008,9.899363324000035],[123.91766749300005,9.90064312000004],[123.91678077700011,9.900938848000065],[123.91368769500002,9.900894019000077],[123.91234547600004,9.901831025000035],[123.91059784400011,9.90204914700007],[123.9086869790001,9.901574214000048],[123.90701587000001,9.900272044000076],[123.90566734400011,9.898915560000034],[123.90509983000003,9.897930383000073],[123.90391862800004,9.898706887000058],[123.90225068000007,9.898578096000051],[123.90125211300006,9.89730067000005],[123.90092539600005,9.895861404000073],[123.90181073400005,9.895059032000061],[123.90178192100007,9.894339039000043],[123.9003560860001,9.894209497000077],[123.9003793060001,9.892849401000031],[123.89914251900005,9.892986074000019],[123.89731270200004,9.892644217000054],[123.89545228400006,9.890915723000033],[123.89622993500008,9.89006030600007],[123.8970894360001,9.889631252000074],[123.8959008690001,9.88771434800003],[123.89342768300004,9.888147598000046],[123.89313512975008,9.887762899071754],[123.89249828638432,9.888822893016382],[123.89059573554499,9.892839372249796],[123.88909933657435,9.89702141843676],[123.88802351524097,9.901328760376543],[123.88737864858038,9.905719918642488],[123.887170964336,9.910152604947593],[123.88740248031914,9.914584129363172],[123.88745806705991,9.914948975166046],[123.8877688020001,9.914793892000034],[123.88768870400007,9.914096183000025],[123.88917342400009,9.913549395000075],[123.89130065300004,9.911992577000033],[123.89057246500009,9.910268923000046],[123.89151130500011,9.91034400800004],[123.89255057000004,9.911427050000041],[123.89429389500003,9.912508123000062],[123.89531574900002,9.914347348000035],[123.89834876000009,9.915095388000056],[123.8993666570001,9.915499803000046],[123.90087154900003,9.915185550000048],[123.90202900800013,9.916539669000027],[123.90205036600003,9.917198832000052],[123.90283477900005,9.918030444000067],[123.90333518700004,9.922236403000056],[123.90418373100012,9.925026056000037],[123.90563425600008,9.92626300300003],[123.90657653400002,9.927598242000043],[123.90849743400008,9.929202253000026],[123.91010613400012,9.931078617000026],[123.91155631000004,9.932199169000059],[123.91235778300006,9.932080713000062],[123.912687978,9.931265443000026],[123.91366478400005,9.930933217000073],[123.91405902400003,9.932056636000025],[123.9159561680001,9.932129030000054],[123.91756078300011,9.932492990000073],[123.9217655440001,9.932617159000076],[123.92323191500009,9.932496847000039],[123.92391912600009,9.933503170000051],[123.92507374700007,9.933790757000054],[123.9272631250001,9.933493928000074],[123.93066798100006,9.934259973000053],[123.93237147500008,9.935030813000028],[123.93350918900002,9.936249056000063],[123.93770058200005,9.938505848000036],[123.94041904200004,9.938575798000043],[123.94092866700011,9.938981503000038],[123.94327717300007,9.939614666000066],[123.94412259900004,9.941182782000054],[123.9452187930001,9.941567475000056],[123.94693969600007,9.941543171000035],[123.94828744300001,9.940996508000069],[123.9513045330001,9.942888002000076],[123.95222418900005,9.943059795000067],[123.95371536700009,9.944742406000046],[123.95526397200003,9.94601762000002],[123.95638230600001,9.947255268000049],[123.95706626100004,9.94709816100004],[123.95808208233659,9.947636657239814],[123.95822033337646,9.9475539656882],[123.96145834895401,9.945158687590528],[123.9596958840001,9.945006945000046]]]]}},{"type":"Feature","properties":{"fid":40,"objectid":1888,"lccode":"05","liqcode":"2010600050000000","mappers":"MITAbigania, DJLBuhay","project":"Cebu Multi-Hazard Mapping","province":"Cebu","otherinfo":null,"datemapped":2016,"publishdate":null,"globalid":"{6B113CA7-0A16-415A-8510-4591ABBD34CB}","st_area(shape)":0.011277825227989341,"st_perimeter(shape)":7.92725888477651,"liqcodepk":"201060005000000000082","creator":"SNOOPYPC","createdate":"2019-02-19T15:21:28","editor":"LENOVO","modifydate":"2019-03-10T17:50:55","codemove":"na"},"geometry":{"type":"Polygon","coordinates":[]}},{"type":"Feature","properties":{"fid":52,"objectid":1901,"lccode":"05","liqcode":"2010600050000000","mappers":"PJDelosReyes, ACPidlaoan","project":"READY","province":"Bohol","otherinfo":null,"datemapped":2008,"publishdate":null,"globalid":"{6E90D3A1-B401-4667-B32C-C40E7388D630}","st_area(shape)":0.010533775520257218,"st_perimeter(shape)":3.327242015595593,"liqcodepk":"201060005000000000095","creator":"SNOOPYPC","createdate":"2019-02-19T15:21:28","editor":"LENOVO","modifydate":"2019-03-10T17:50:55","codemove":"na"},"geometry":{"type":"Polygon","coordinates":[]}},{"type":"Feature","properties":{"fid":66,"objectid":1930,"lccode":"06","liqcode":"2010600060000000","mappers":"PJDelosReyes, ACPidlaoan","project":"READY","province":"Bohol","otherinfo":null,"datemapped":2008,"publishdate":null,"globalid":"{D63C31C2-E045-4C3D-A292-79031F3364A0}","st_area(shape)":0.006668240995906857,"st_perimeter(shape)":3.000289637999567,"liqcodepk":"201060006000000000128","creator":"SNOOPYPC","createdate":"2019-02-19T15:21:28","editor":"LENOVO","modifydate":"2019-03-10T17:50:55","codemove":"na"},"geometry":{"type":"MultiPolygon","coordinates":[[[[123.9189665250001,9.899382978000062],[123.91984173700007,9.900062857000023],[123.92061325500003,9.901504043000044],[123.92225678000011,9.902496725000047],[123.9239228990001,9.902072259000022],[123.92484982400003,9.902305872000055],[123.92660102500007,9.903927976000036],[123.92797903400003,9.904580223000037],[123.929226974,9.905993757000031],[123.93005482000001,9.908641890000066],[123.92982151100011,9.910374345000033],[123.92900577400007,9.912029841000045],[123.92882754800007,9.91454947600005],[123.93011952700012,9.912813999000036],[123.93059642900005,9.912996310000038],[123.92996741500006,9.915176059000032],[123.93110787800003,9.916038890000038],[123.93195920600012,9.917611011000078],[123.93299311600005,9.918237877000022],[123.93373685200004,9.919180552000059],[123.93495319100009,9.91878349700005],[123.93651622800009,9.919330215000056],[123.93702260000009,9.920562148000046],[123.93818516700003,9.919876628000054],[123.93982614100001,9.919898254000032],[123.94048710700008,9.919660238000061],[123.9409422670001,9.92149582500002],[123.9415253840001,9.92180901200004],[123.94234257500011,9.920652122000035],[123.94321556200008,9.920518476000039],[123.94327241600003,9.921882853000053],[123.94444106300013,9.923322851000025],[123.94653310400007,9.923763056000041],[123.94735737100005,9.925072732000045],[123.94738693900001,9.926148490000056],[123.94810347000009,9.925641318000029],[123.9496308990001,9.926055342000042],[123.95021179600009,9.925253980000038],[123.9495645940001,9.924579153000025],[123.94750375500007,9.924216003000025],[123.94699247100003,9.92333165700006],[123.94561394200002,9.92290490400006],[123.94452944600005,9.921173267000029],[123.94405300900007,9.91945221100002],[123.94402544200013,9.91849271900003],[123.94444533,9.917802578000021],[123.94455324900002,9.916485838000028],[123.94507065000006,9.915180331000045],[123.94454863300007,9.91487421100004],[123.94376844200006,9.915417719000061],[123.94155977100003,9.915387125000052],[123.94016792000002,9.914652792000025],[123.93881495500011,9.914472044000032],[123.93691047600011,9.912361300000041],[123.93763732900003,9.910513904000029],[123.93928873900006,9.910915249000027],[123.94047928200007,9.910690490000038],[123.941194504,9.909150622000025],[123.94103083400012,9.90830217700005],[123.93939268700001,9.908196097000031],[123.93869632400003,9.907669028000042],[123.93794207600003,9.908606115000055],[123.93621566900003,9.90798354500003],[123.93288803400003,9.907168494000075],[123.93207757200003,9.905755932000032],[123.93054927700007,9.905022022000026],[123.9303350990001,9.903853821000041],[123.92878411500011,9.903845817000047],[123.92798722200007,9.902863761000049],[123.92701781900007,9.902288233000036],[123.92638226300006,9.901281135000037],[123.92575067000007,9.901713433000054],[123.92216101600002,9.900333171000057],[123.91988887300012,9.899785786000052],[123.918884552,9.898464764000037],[123.9189665250001,9.899382978000062]]],[[[123.91589337600011,9.899685942000078],[123.91529586200011,9.898986308000074],[123.91250031300001,9.897603683000057],[123.9117183080001,9.897470543000056],[123.91053758200007,9.896747798000034],[123.91003918900005,9.89598640200006],[123.90549439700008,9.894645334000074],[123.90502164500003,9.89417915800004],[123.90542817300003,9.893120020000026],[123.90351888700003,9.893641882000056],[123.9020026500001,9.89271096400006],[123.90219796400004,9.89155393200002],[123.90083165400006,9.890991683000038],[123.89966545700008,9.891031694000048],[123.89934527300012,9.891906057000028],[123.89762077300009,9.891959851000024],[123.89622993500008,9.89006030600007],[123.89545228400006,9.890915723000033],[123.89731270200004,9.892644217000054],[123.89914251900005,9.892986074000019],[123.9003793060001,9.892849401000031],[123.9003560860001,9.894209497000077],[123.90178192100007,9.894339039000043],[123.90181073400005,9.895059032000061],[123.90092539600005,9.895861404000073],[123.90125211300006,9.89730067000005],[123.90225068000007,9.898578096000051],[123.90391862800004,9.898706887000058],[123.90509983000003,9.897930383000073],[123.90566734400011,9.898915560000034],[123.90701587000001,9.900272044000076],[123.9086869790001,9.901574214000048],[123.91059784400011,9.90204914700007],[123.91234547600004,9.901831025000035],[123.91368769500002,9.900894019000077],[123.91678077700011,9.900938848000065],[123.91766749300005,9.90064312000004],[123.91755639100008,9.899363324000035],[123.91589337600011,9.899685942000078]]]]}},{"type":"Feature","properties":{"fid":91,"objectid":1919,"lccode":"06","liqcode":"2010600060000000","mappers":"MITAbigania, DJLBuhay","project":"Cebu Multi-Hazard Mapping","province":"Cebu","otherinfo":null,"datemapped":2016,"publishdate":null,"globalid":"{EDC44F95-33EE-45BE-975C-40D829DF5178}","st_area(shape)":0.012637099910309046,"st_perimeter(shape)":9.940336299625505,"liqcodepk":"201060006000000000117","creator":"SNOOPYPC","createdate":"2019-02-19T15:21:28","editor":"LENOVO","modifydate":"2019-03-10T17:50:55","codemove":"na"},"geometry":{"type":"Polygon","coordinates":[]}}]}