{"type":"FeatureCollection","features":[{"type":"Feature","properties":{"fid":6,"objectid":1835,"lccode":"01","liqcode":"2010600010000000","mappers":"DJLBuhay, MJVReyes, MITAbigania, KLPapiona, KMVitto","project":"MELP","province":"Bataan","otherinfo":null,"datemapped":2017,"publishdate":null,"globalid":"{8E614FC0-BB8D-468F-9704-E22C5F7BF8A3}","st_area(shape)":0.015609538694369198,"st_perimeter(shape)":5.084058587510767,"liqcodepk":"201060001000000000007","creator":"SNOOPYPC","createdate":"2019-02-19T15:21:28","editor":"LENOVO","modifydate":"2019-03-10T17:53:06","codemove":"na"},"geometry":{"type":"Polygon","coordinates":[]}},{"type":"Feature","properties":{"fid":218,"objectid":8402,"lccode":"07","liqcode":null,"mappers":"PJDelosReyes, ACPidlaoan","project":"READY","province":"Pampanga","otherinfo":"as of October 2015, reupdate 2021","datemapped":2008,"publishdate":null,"globalid":"{523547B0-D8C4-4084-9EE8-AA20F7B2A472}","st_area(shape)":0.07539067039960894,"st_perimeter(shape)":2.422972172763333,"liqcodepk":null,"creator":null,"createdate":null,"editor":null,"modifydate":"1905-07-07T08:00:00","codemove":null},"geometry":{"type":"Polygon","coordinates":[[[120.50370397100006,14.955980810000025],[120.50575541400008,14.960079841000033],[120.50701746000006,14.959108626000047],[120.50823316200002,14.958506568000077],[120.5098235920001,14.958318820000047],[120.51234711600013,14.955915064000067],[120.51351605400009,14.955359069000053],[120.51702462900005,14.95530577900007],[120.51922561100002,14.957146301000021],[120.52067952900005,14.96023394300005],[120.52133531800007,14.96092442300005],[120.52259818100002,14.960691208000071],[120.52334519000011,14.959398092000074],[120.52390628900001,14.95912012800005],[120.52699890100007,14.963172883000027],[120.52784061100009,14.962848277000031],[120.528302842,14.95823444100006],[120.52881541500005,14.956526632000074],[120.52956255800005,14.955417922000036],[120.53049797200005,14.955231511000017],[120.53209064100008,14.956888675000073],[120.53298166800006,14.958593521000067],[120.53363659900003,14.958592202000034],[120.53419713700009,14.957852942000045],[120.53428743600011,14.955269507000027],[120.53470576600012,14.95310056900007],[120.53554586100007,14.95148433500003],[120.54190084800007,14.945750594000062],[120.54694805200006,14.941818572000047],[120.55152693600007,14.93765685400007],[120.55246207300002,14.937331874000051],[120.55576726100001,14.935584229000032],[120.55943591900007,14.934225903000021],[120.56525250200004,14.933589227000029],[120.56678937800008,14.940709862000059],[120.56916118600009,14.94283148900007],[120.57144146300004,14.942448125000048],[120.57527339600007,14.940283802000067],[120.57963362600003,14.938284150000074],[120.58185915600008,14.93743420700002],[120.58204924000006,14.936504450000031],[120.58494068000005,14.935021040000043],[120.58658947600009,14.937542396000024],[120.58654652500003,14.94138536600008],[120.58569961,14.947490824000052],[120.58560973000009,14.950168579000039],[120.58612071100004,14.952678004000063],[120.58570937600007,14.958963103000025],[120.58525029200005,14.960879591000039],[120.58563948300001,14.963562413000034],[120.58812048400011,14.966674995000062],[120.58997718400009,14.966694624000066],[120.59235666000006,14.968175586000037],[120.59436617800009,14.970158796000021],[120.59473511207412,14.970343014466891],[120.59546655494044,14.967629507824585],[120.59618444844696,14.963252127256144],[120.59645750918514,14.958827413714317],[120.59628313424015,14.954397985228018],[120.59566303066795,14.950006502675961],[120.59460319799041,14.945695258825387],[120.59311386935872,14.941505771018257],[120.5912094119924,14.93747838142772],[120.58890818789108,14.93365186873081],[120.58623237619561,14.93006307492971],[120.58320775893985,14.926746550904591],[120.57986347228044,14.92373422409763],[120.57623172561883,14.921055091512384],[120.57234749133033,14.918734940966669],[120.56824816809127,14.916796103264392],[120.56397322104127,14.915257237653087],[120.5595638022333,14.914133152613918],[120.55506235500677,14.913434663691607],[120.55485418189357,14.913422487983246],[120.55498255700002,14.914084347000028],[120.55542406800008,14.91476864200007],[120.55725809500007,14.915904606000028],[120.55758690500012,14.916441104000054],[120.55715617600005,14.917473756000048],[120.55507463000004,14.919181890000063],[120.55216277300008,14.920655402000028],[120.54949762900003,14.922374208000065],[120.54701868600013,14.924566177000033],[120.53459105800006,14.93631003400003],[120.52772280900002,14.943013301000061],[120.52389124500009,14.946665577000031],[120.52197393000007,14.947223089000035],[120.52057043000002,14.947179943000032],[120.51471895600002,14.943870809000034],[120.51294076300009,14.943367071000072],[120.51088326600006,14.944109291000073],[120.50910682700011,14.94512776900007],[120.5076579360001,14.946237776000027],[120.5056936300001,14.946702960000033],[120.50517842309453,14.946659184429057],[120.50453875599095,14.949028669930083],[120.50381914024847,14.953405492279312],[120.5036595181102,14.95597435201131],[120.50370397100006,14.955980810000025]]]}},{"type":"Feature","properties":{"fid":223,"objectid":8405,"lccode":"06","liqcode":null,"mappers":"PJDelosReyes, ACPidlaoan","project":"READY","province":"Pampanga","otherinfo":"as of October 2015, reupdate 2021","datemapped":2008,"publishdate":null,"globalid":"{A052B1CF-2008-4592-917A-899CB9A87705}","st_area(shape)":0.005422416623690445,"st_perimeter(shape)":0.46802502688922537,"liqcodepk":null,"creator":null,"createdate":null,"editor":null,"modifydate":"1905-07-07T08:00:00","codemove":null},"geometry":{"type":"Polygon","coordinates":[[[120.5056936300001,14.946702960000033],[120.5076579360001,14.946237776000027],[120.50910682700011,14.94512776900007],[120.51088326600006,14.944109291000073],[120.51294076300009,14.943367071000072],[120.51471895600002,14.943870809000034],[120.52057043000002,14.947179943000032],[120.52197393000007,14.947223089000035],[120.52389124500009,14.946665577000031],[120.52772280900002,14.943013301000061],[120.53459105800006,14.93631003400003],[120.54701868600013,14.924566177000033],[120.54949762900003,14.922374208000065],[120.55216277300008,14.920655402000028],[120.55507463000004,14.919181890000063],[120.55715617600005,14.917473756000048],[120.55758690500012,14.916441104000054],[120.55725809500007,14.915904606000028],[120.55542406800008,14.91476864200007],[120.55498255700002,14.914084347000028],[120.55485418189357,14.913422487983246],[120.55051220606772,14.91316848971669],[120.54595714917262,14.913337188405082],[120.5414410243896,14.91393913194362],[120.53700729695024,14.91496852278836],[120.53269863970773,14.91641544951884],[120.5285565231828,14.91826598220935],[120.5246208171066,14.920502306401762],[120.52092940726332,14.923102894396278],[120.51751783129097,14.926042712220518],[120.51441893692245,14.929293460297147],[120.5116625659396,14.932823845508146],[120.5092752668721,14.936599882053544],[120.50728003920409,14.940585218226785],[120.50569611155626,14.944741485979598],[120.50517842309453,14.946659184429057],[120.5056936300001,14.946702960000033]]]}},{"type":"Feature","properties":{"fid":224,"objectid":8406,"lccode":"06","liqcode":null,"mappers":"PJDelosReyes, ACPidlaoan","project":"READY","province":"Pampanga","otherinfo":"as of October 2015, reupdate 2021","datemapped":2008,"publishdate":null,"globalid":"{99820630-6422-44D3-9964-5FCA6C67C1BF}","st_area(shape)":0.008066255598890066,"st_perimeter(shape)":0.53923123619839,"liqcodepk":null,"creator":null,"createdate":null,"editor":null,"modifydate":"1905-07-07T08:00:00","codemove":null},"geometry":{"type":"Polygon","coordinates":[[[120.59436617800009,14.970158796000021],[120.59235666000006,14.968175586000037],[120.58997718400009,14.966694624000066],[120.58812048400011,14.966674995000062],[120.58563948300001,14.963562413000034],[120.58525029200005,14.960879591000039],[120.58570937600007,14.958963103000025],[120.58612071100004,14.952678004000063],[120.58560973000009,14.950168579000039],[120.58569961,14.947490824000052],[120.58654652500003,14.94138536600008],[120.58658947600009,14.937542396000024],[120.58494068000005,14.935021040000043],[120.58204924000006,14.936504450000031],[120.58185915600008,14.93743420700002],[120.57963362600003,14.938284150000074],[120.57527339600007,14.940283802000067],[120.57144146300004,14.942448125000048],[120.56916118600009,14.94283148900007],[120.56678937800008,14.940709862000059],[120.56525250200004,14.933589227000029],[120.55943591900007,14.934225903000021],[120.55576726100001,14.935584229000032],[120.55246207300002,14.937331874000051],[120.55152693600007,14.93765685400007],[120.54694805200006,14.941818572000047],[120.54190084800007,14.945750594000062],[120.53554586100007,14.95148433500003],[120.53470576600012,14.95310056900007],[120.53428743600011,14.955269507000027],[120.53419713700009,14.957852942000045],[120.53363659900003,14.958592202000034],[120.53298166800006,14.958593521000067],[120.53209064100008,14.956888675000073],[120.53049797200005,14.955231511000017],[120.52956255800005,14.955417922000036],[120.52881541500005,14.956526632000074],[120.528302842,14.95823444100006],[120.52784061100009,14.962848277000031],[120.52699890100007,14.963172883000027],[120.52390628900001,14.95912012800005],[120.52334519000011,14.959398092000074],[120.52259818100002,14.960691208000071],[120.52133531800007,14.96092442300005],[120.52067952900005,14.96023394300005],[120.51922561100002,14.957146301000021],[120.51702462900005,14.95530577900007],[120.51351605400009,14.955359069000053],[120.51234711600013,14.955915064000067],[120.5098235920001,14.958318820000047],[120.50823316200002,14.958506568000077],[120.50701746000006,14.959108626000047],[120.50575541400008,14.960079841000033],[120.50370397100006,14.955980810000025],[120.5036595181102,14.95597435201131],[120.50354421936288,14.957829809947128],[120.50371666773343,14.962259020117802],[120.50433485234117,14.966650470302376],[120.50539284740886,14.970961868977477],[120.50688049040353,14.975151692851357],[120.50878347888369,14.97917958683606],[120.51108350729818,14.983006752871004],[120.5137584424558,14.986596323846651],[120.5167825360076,14.989913719016482],[120.52012667192271,14.992926977460733],[120.52375864659284,14.995607066373562],[120.52764347888052,14.99792816118601],[120.53174374712876,14.999867894806485],[120.53601994988183,15.001407573557781],[120.54043088683076,15.002532357710173],[120.54493405629478,15.003231404852361],[120.54948606538318,15.003497974701704],[120.55404304885487,15.00332949432902],[120.55856109260431,15.002727583157712],[120.56299665765506,15.001698037487897],[120.56730700053542,15.000250774689903],[120.57145058594655,14.998399737604377],[120.57538748770875,14.99616276007309],[120.57907977408836,14.993561394903368],[120.5824918737627,14.990620705934015],[120.5855909188734,14.987369026220003],[120.58834706184574,14.98383768468167],[120.59073376291255,14.980060703870086],[120.59272804557054,14.976074471779409],[120.5943107175153,14.971917390887462],[120.59473511207412,14.970343014466891],[120.59436617800009,14.970158796000021]]]}}]}