{"type":"FeatureCollection","features":[{"type":"Feature","properties":{"fid":195,"objectid":2253,"lccode":"01","liqcode":"<Null>","mappers":"DJLBuhay, MJVReyes, MITAbigania, KLPapiona, KMVitto","project":"MELP","province":"Davao Oriental","otherinfo":null,"datemapped":2018,"publishdate":null,"globalid":"{106618BF-C9C2-442C-8DFA-3A2107C26CAB}","st_area(shape)":0.03977934253941522,"st_perimeter(shape)":14.106801890447542,"liqcodepk":null,"creator":null,"createdate":null,"editor":null,"modifydate":null,"codemove":null},"geometry":{"type":"Polygon","coordinates":[]}},{"type":"Feature","properties":{"fid":204,"objectid":3530,"lccode":"01","liqcode":null,"mappers":"DJLBuhay, MJVReyes, MITAbigania, KLPapiona, KMVitto","project":"MELP","province":"Davao de Oro","otherinfo":null,"datemapped":2020,"publishdate":2021,"globalid":"{B133662C-BB56-4B68-925E-E0332BEC485E}","st_area(shape)":0.05410125761039176,"st_perimeter(shape)":8.444321327772833,"liqcodepk":null,"creator":null,"createdate":null,"editor":null,"modifydate":null,"codemove":null},"geometry":{"type":"Polygon","coordinates":[[[126.13156395100009,7.693645586000062],[126.13034471300011,7.692439783000055],[126.12779566100005,7.689419162000035],[126.12560204800002,7.687571067000021],[126.1241161050001,7.687486299000058],[126.12369340700002,7.686617436000063],[126.12492713700011,7.686169094000034],[126.12485583300007,7.685215140000026],[126.12529637000013,7.683817490000025],[126.12503409300008,7.682765472000027],[126.1233819270001,7.680497826000021],[126.12300193500005,7.6790556110000265],[126.12400018800008,7.678867172000025],[126.12313736300007,7.67686568600004],[126.12104108100004,7.6767354590000405],[126.12072021400002,7.676193696000041],[126.12132939500009,7.675325413000054],[126.12215752000007,7.674965958000028],[126.12140494900007,7.674189675000036],[126.12241980200008,7.673740174000044],[126.12245006200008,7.67296324600005],[126.12101581600007,7.6718486180000705],[126.12289941100006,7.671126205000066],[126.12375523700008,7.670477488000074],[126.12550912600011,7.672488205000036],[126.12713776500003,7.672110707000054],[126.1264857960001,7.670421786000078],[126.12564433100012,7.670009680000023],[126.12473695900007,7.668773548000048],[126.12546268300004,7.668099110000071],[126.12637408600007,7.668247824000049],[126.12553917700006,7.665944689000069],[126.1264912050001,7.665096538000054],[126.12604248900004,7.664010022000071],[126.12653208000005,7.662821092000059],[126.12541366800009,7.662169021000068],[126.12578694200012,7.659943011000051],[126.12692352400006,7.658688567000068],[126.12706658800005,7.658139265000044],[126.12921258900008,7.65799654400007],[126.12881129300003,7.656514366000067],[126.12979285000007,7.655341035000049],[126.13077085600001,7.655429520000041],[126.13222527800008,7.655151280000039],[126.13323180800012,7.656520510000067],[126.13522740400003,7.656869239000058],[126.13519488100007,7.655865300000075],[126.13327562100005,7.653892476000067],[126.13281808800004,7.652178761000071],[126.13230707800005,7.652590995000023],[126.13095230600004,7.6526204410000656],[126.13035216600008,7.652231763000032],[126.13010260300008,7.650653490000026],[126.13100578400008,7.650364925000077],[126.13294287000006,7.650253032000023],[126.1335786620001,7.650730048000071],[126.13473140600001,7.648839647000043],[126.13469575400006,7.647838497000067],[126.1353441000001,7.647405314000027],[126.13498057900007,7.64669986100006],[126.13363948900009,7.646747849000064],[126.13251239300007,7.647234010000034],[126.13076107300004,7.646214317000046],[126.130090719,7.644711360000027],[126.12935391300006,7.643910432000042],[126.12946624200002,7.642094045000022],[126.13019064700006,7.64157258000006],[126.1314061810001,7.641536952000024],[126.13207667400003,7.641154412000051],[126.13242356600007,7.640313650000054],[126.13320308700008,7.639760120000064],[126.13518904800004,7.639652558000021],[126.1359568370001,7.638682009000035],[126.13587359000007,7.638111415000024],[126.13401059000012,7.637204883000037],[126.13400110800002,7.635904875000049],[126.1325222920001,7.63545675700004],[126.13213064300011,7.634568662000051],[126.13354728000003,7.634111003000042],[126.13386076600013,7.632426275000055],[126.13487829300004,7.632686553000042],[126.135409524,7.631956184000048],[126.13496044000011,7.630812318000037],[126.13428643600002,7.63035835800002],[126.1339114970001,7.628869813000049],[126.13315458500006,7.627556106000043],[126.13146738900002,7.627434503000074],[126.13092483900006,7.627057147000072],[126.13039986700007,7.625568590000058],[126.1294448320001,7.625052373000074],[126.12966767300007,7.622381042000029],[126.1293103370001,7.621360364000057],[126.13017931500009,7.618955063000043],[126.13030607900009,7.617940847000058],[126.13110765400008,7.617495314000053],[126.13260305900008,7.617599203000054],[126.13248253100005,7.616835323000031],[126.1316144440001,7.6160386150000345],[126.13081966900006,7.614782521000054],[126.13127621700006,7.614025936000073],[126.1323712090001,7.614405171000044],[126.13400241000011,7.613816526000051],[126.1325023070001,7.61266918900003],[126.13243096700013,7.610762603000071],[126.13190893700003,7.610121118000052],[126.13254454900004,7.609308955000073],[126.1338556290001,7.609045944000059],[126.13515169000004,7.609409382000024],[126.13687594800003,7.60936822000002],[126.13778609100007,7.610021224000034],[126.13880566800005,7.609913463000054],[126.13939945300002,7.6105400770000555],[126.14029220200008,7.61077736800007],[126.14040226300007,7.6126104690000576],[126.14082611500011,7.613582447000054],[126.1401991360001,7.614318285000023],[126.13926696900012,7.61656193400006],[126.13817991000006,7.617272431000061],[126.13868262200003,7.619204554000019],[126.13991955900006,7.619338968000023],[126.14065979100009,7.620337325000036],[126.14178375100005,7.62074499300007],[126.14219370000002,7.621747984000023],[126.14182355100003,7.624229077000053],[126.14493710600004,7.625496944000078],[126.1452492840001,7.62494979300004],[126.14419475800003,7.624211839000052],[126.14347634100011,7.622266964000061],[126.14341163300004,7.621278046000043],[126.1427161810001,7.620508795000035],[126.14255699600005,7.617573207000021],[126.14297293400013,7.6168311240000435],[126.14490289000003,7.615701113000056],[126.1461221840001,7.614475296000022],[126.14590827300003,7.612991118000024],[126.14620537200007,7.61243749400006],[126.1460466530001,7.610293088000049],[126.14609120470936,7.610240197188956],[126.14583000621126,7.610081644208817],[126.14182618680327,7.608159828920361],[126.13765289622613,7.606638802578852],[126.13335031853177,7.605533205482213],[126.12895988059542,7.604853677614745],[126.12452385350562,7.604606756464631],[126.12008494589764,7.604794814321576],[126.11568589312999,7.605416035648601],[126.11136904624288,7.606464434737633],[126.10717596463714,7.607929913472233],[126.10314701637601,7.609798358636544],[126.09932098993866,7.612051777830871],[126.09573472114471,7.614668472684741],[126.09242273882435,7.617623247701469],[126.08941693263039,7.620887652727318],[126.08674624617797,7.624430256716646],[126.08443639845733,7.628216950164918],[126.08250963619594,7.632211273307026],[126.08098451955276,7.63637476693131],[126.07987574321048,7.640667342442873],[126.07919399459384,7.645047667624594],[126.07894585059026,7.649473564392947],[126.07913371377965,7.653902414729715],[126.07975578880477,7.658291570890681],[126.08080609912791,7.662598765949842],[126.0822745440333,7.666782520732498],[126.08414699534798,7.6708025432230675],[126.08640543297085,7.674620116603768],[126.08902811792588,7.678198472187045],[126.09198980129189,7.681503143647678],[126.09526196701397,7.684502299138173],[126.0988131062717,7.687167048081707],[126.10260902077236,7.689471719678826],[126.10661315205414,7.691394110434936],[126.11078693363038,7.692915698312801],[126.1150901625802,7.694021821434938],[126.11948138700109,7.694701819602159],[126.12391830558025,7.6949491372529],[126.12835817542295,7.6947613868601366],[126.13176745631343,7.694280211600854],[126.13156395100009,7.693645586000062]]]}}]}