{"type":"FeatureCollection","features":[{"type":"Feature","properties":{"fid":99,"objectid":1955,"lccode":"01","liqcode":"2010600010000000","mappers":"DJLBuhay, MJVReyes, MITAbigania, KLPapiona, KMVitto","project":"MELP","province":"Palawan","otherinfo":null,"datemapped":2018,"publishdate":null,"globalid":"{E70402A7-ADA2-4D45-93BC-46C7B654BDC8}","st_area(shape)":0.142808258668549,"st_perimeter(shape)":79.69829854453282,"liqcodepk":"201060001000000000950","creator":"SDE","createdate":"2019-06-04T11:09:46","editor":"SDE","modifydate":"2019-06-04T11:12:34","codemove":"na"},"geometry":{"type":"MultiPolygon","coordinates":[[[[119.37855013600006,10.481962565000062],[119.3791005270001,10.481118544000026],[119.3784927040001,10.480261325000072],[119.37828871700003,10.478711277000055],[119.37897378000004,10.477907004000029],[119.38016792400005,10.478149899000073],[119.38067304200001,10.47704740200004],[119.38218668700006,10.47803912900002],[119.38392311200005,10.477304129000059],[119.38478189000011,10.476501814000073],[119.38870669500011,10.476011402000038],[119.388764701,10.475171312000045],[119.3876216880001,10.474680631000068],[119.38675604000004,10.475244031000043],[119.38464243400006,10.475210450000077],[119.38364942400005,10.475934807000042],[119.3818590930001,10.476325254000075],[119.38033602700013,10.475314313000068],[119.38023110800009,10.474098184000068],[119.37954341800003,10.472638169000048],[119.37873624300005,10.47232325400006],[119.37854956,10.470114188000025],[119.37784123800009,10.469599769000066],[119.37666818900004,10.466299889000027],[119.37743014900002,10.465520373000063],[119.37789591400008,10.464063935000068],[119.37730253600013,10.462796074000037],[119.37683496700005,10.459423022000065],[119.37734531100013,10.459113553000067],[119.37667805700003,10.457973830000071],[119.37674931200002,10.45703472400004],[119.37853623700003,10.456405404000062],[119.37934160300006,10.456873146000019],[119.38033601000005,10.458518164000052],[119.38153291900007,10.458933031000074],[119.38153685500004,10.460049925000023],[119.38225337900006,10.460688624000056],[119.38306556700002,10.46067656200006],[119.38441196500003,10.463077742000051],[119.38550390700003,10.463806688000034],[119.38554669900009,10.465111285000035],[119.38676911000005,10.465827381000052],[119.38784556300004,10.465395344000058],[119.38797738300002,10.466514652000056],[119.38739065800006,10.467167214000026],[119.38760336000009,10.468803353000055],[119.38818995100007,10.469411913000043],[119.389229827,10.469638681000047],[119.38992005400009,10.468800989000043],[119.39087638400008,10.468740185000057],[119.391964389,10.467852029000028],[119.39303024800006,10.467794883000066],[119.3935885640001,10.467094215000028],[119.39454362200001,10.467143255000051],[119.39541712000006,10.466732775000025],[119.39462563200006,10.465750072000048],[119.39487758700012,10.46462716700006],[119.39681870100004,10.464756633000034],[119.39727481700004,10.462874873000029],[119.3970587020001,10.46173788500005],[119.39738023400002,10.461060798000064],[119.39973471400005,10.460917848000065],[119.40076829200007,10.460435112000027],[119.40196808700013,10.461546200000042],[119.40321880700003,10.461904281000047],[119.40340705500013,10.463157996000065],[119.403826652,10.463602226000036],[119.40485455900013,10.463193457000042],[119.40583648100004,10.463424292000067],[119.40573922600004,10.465162044000067],[119.40684288200009,10.465719093000077],[119.409020452036,10.465196404703926],[119.40924435083629,10.46361950654421],[119.40810929200006,10.463879885000038],[119.40796058900003,10.463381391000038],[119.40681205600005,10.463368427000033],[119.40669036400006,10.462201449000077],[119.40553901200008,10.461596094000072],[119.40435111200009,10.461649557000044],[119.4041503850001,10.459803347000046],[119.40482767100002,10.458826921000025],[119.401568837,10.460175453000033],[119.40131777500005,10.458510204000047],[119.40023301800012,10.457991577000028],[119.39932750900006,10.458669232000032],[119.39914653100006,10.460445436000045],[119.39821585100005,10.45987425000004],[119.397488747,10.460023023000074],[119.39679060600007,10.459446179000054],[119.3955574580001,10.459045762000072],[119.3950340670001,10.46048488300005],[119.39588563300003,10.463014400000079],[119.39561414600007,10.463536796000028],[119.39431498400008,10.464238633000035],[119.39311435900005,10.463723443000047],[119.39295724100009,10.460616611000033],[119.39191650300006,10.459840499000052],[119.39086706700003,10.459816663000025],[119.3904577600001,10.460779363000027],[119.3913247170001,10.46093250100006],[119.39233980800009,10.461839692000071],[119.392621059,10.462559430000054],[119.39195818500002,10.463509097000042],[119.39386142400008,10.464854504000073],[119.39304671900004,10.46637152300002],[119.39182681900003,10.466687305000049],[119.38939382,10.466731361000027],[119.38896348900005,10.466382535000038],[119.38908142600006,10.464950779000047],[119.38850557500005,10.464179132000023],[119.38780159900011,10.46419104700004],[119.3868155030001,10.46325989400003],[119.38590225900008,10.463166321000072],[119.38571652200005,10.461702461000073],[119.38610172100005,10.460947297000077],[119.38487388100009,10.460641244000046],[119.38505935900002,10.459688675000052],[119.38276945900009,10.458689184000033],[119.38212193700008,10.456833090000032],[119.37947420700006,10.455427243000031],[119.37886285900004,10.45446013000003],[119.37695995500007,10.453750615000047],[119.37641558000007,10.453098142000043],[119.37652270900003,10.451917560000027],[119.3773206630001,10.45131132100005],[119.37760393300006,10.449773982000066],[119.37657201600005,10.449284558000041],[119.37674546700009,10.44785345400004],[119.37487508500008,10.447879955000076],[119.37455644400006,10.447267275000058],[119.37597446400002,10.442554250000056],[119.3771314060001,10.44162395300003],[119.37854822000007,10.442213277000064],[119.37815813800012,10.440477209000049],[119.37838772900012,10.439405007000063],[119.37976998400006,10.436727698000027],[119.37892167000007,10.436013473000061],[119.37804162500004,10.435955715000032],[119.37782972000002,10.434460519000023],[119.37712229600005,10.434082276000026],[119.3766730110001,10.432250002000048],[119.37686232500006,10.430555506000076],[119.37620592300003,10.429731202000026],[119.37655362400005,10.428459710000025],[119.37634375800006,10.426579996000038],[119.37536090800008,10.425193089000059],[119.3750462370001,10.42361313500004],[119.37520990100006,10.421981286000062],[119.37573865700006,10.42083132500005],[119.37544291100004,10.419569195000067],[119.37455095000006,10.41908616200004],[119.37352274700005,10.41911748800004],[119.3728941180001,10.417147045000037],[119.37220525400006,10.416008462000036],[119.37361958700001,10.414504090000037],[119.37425480700006,10.41465460100005],[119.37650095800008,10.416958662000072],[119.37671697200005,10.418308205000068],[119.37877907300003,10.419005124000023],[119.37883624900009,10.417816314000046],[119.37751716800007,10.416712226000072],[119.37765803400008,10.41560449600007],[119.3779944763759,10.414854895072553],[119.37694656705536,10.414492479323648],[119.37259356375002,10.413447344637895],[119.37020351021305,10.413114459525822],[119.36945664000005,10.41646313800004],[119.36902691300007,10.417318097000077],[119.36841602800008,10.42006264400004],[119.36930463300007,10.419585498000059],[119.372185596,10.419575225000072],[119.37293116600006,10.420577694000029],[119.372715577,10.422354237000036],[119.37184910500002,10.423419201000057],[119.37189371800002,10.424566164000053],[119.37237208200008,10.425761047000039],[119.37114505000011,10.426707264000072],[119.37197529900006,10.42751921700005],[119.37299602900009,10.426885930000026],[119.37398683900007,10.427585057000043],[119.3735720950001,10.429643972000067],[119.37274003100002,10.430236411000065],[119.37239314300008,10.431436249000058],[119.37156057200002,10.432071668000049],[119.36953187200004,10.432234898000045],[119.3651809920001,10.431655149000049],[119.365197952,10.432687145000047],[119.36438591400008,10.433627663000037],[119.36518471300008,10.434670278000054],[119.36478744900013,10.435620243000074],[119.36387666900009,10.435509552000044],[119.36246642400012,10.434776950000069],[119.3619589220001,10.435424970000039],[119.36031591400003,10.435454625000034],[119.3587479160001,10.435837990000039],[119.35785913000007,10.435082661000026],[119.3570458480001,10.435302664000064],[119.35668775600004,10.436215726000057],[119.35498429900007,10.437041767000037],[119.35340124900007,10.438714668000044],[119.35187532300004,10.439213114000038],[119.34990594800001,10.44024530000007],[119.34907259800003,10.440899313000047],[119.34712419200002,10.441073333000075],[119.346055868,10.440817479000032],[119.34633652100001,10.441956461000073],[119.34608695100007,10.443111419000044],[119.34742503000007,10.445060610000041],[119.34780224800011,10.446306501000038],[119.34750390600004,10.446981779000057],[119.34611056200004,10.447281076000024],[119.34556495900006,10.449367046000077],[119.34487739100007,10.44997536300002],[119.34428643300008,10.452144924000041],[119.34366417900003,10.45183871100005],[119.3421567600001,10.45222682100007],[119.3417145740001,10.451422249000077],[119.340553439,10.45167163600007],[119.34009508700001,10.453720370000042],[119.3396193660001,10.454829700000058],[119.33847023600005,10.455445204000057],[119.33721650500001,10.455359138000063],[119.33545460500012,10.453540691000057],[119.33586204800007,10.45282304400007],[119.33673044900003,10.452844972000038],[119.33830272700006,10.45354373200007],[119.33855155300012,10.452901733000031],[119.33759771500002,10.451935423000066],[119.3360924970001,10.45169122400006],[119.33486809200008,10.450136651000037],[119.33374985500006,10.449404892000071],[119.33427315000006,10.44799222900002],[119.3337464750001,10.447226674000035],[119.33039274400006,10.444336396000041],[119.32991472600007,10.444359554000075],[119.32913440900006,10.445468315000028],[119.328464843,10.445775865000027],[119.32819029500001,10.448194480000039],[119.32767982700011,10.449335001000064],[119.32759060300009,10.450356182000064],[119.32589056400002,10.451291918000038],[119.32573704000002,10.452035308000065],[119.32672821200005,10.452285571000061],[119.32717999500004,10.45162204500002],[119.32860701800007,10.450921990000039],[119.32844825300002,10.449649563000037],[119.3297889050001,10.44807020600007],[119.3312509880001,10.448917571000035],[119.33177681600012,10.449754770000027],[119.3326135310001,10.450008012000069],[119.33385411200003,10.45223868000005],[119.33414925000012,10.453162641000063],[119.33499631000005,10.453607216000025],[119.33546425800012,10.454574707000061],[119.33496981300004,10.455584070000041],[119.3349795060001,10.457171703000025],[119.33448861600006,10.458049883000058],[119.33284745300011,10.458489550000024],[119.3315116330001,10.458443453000024],[119.33056901200007,10.458950523000055],[119.32934109300005,10.458721419000026],[119.32817243700002,10.459857237000051],[119.32789602500009,10.46100970900005],[119.32624471300005,10.461021499000026],[119.32577473300012,10.461589274000062],[119.32393928500005,10.461497078000034],[119.32195845200012,10.462319019000061],[119.32247800500012,10.463686367000038],[119.32389985900012,10.463430525000032],[119.325633476,10.462519093000028],[119.32627566600002,10.461620134000041],[119.32756808100008,10.461697889000048],[119.32962688500002,10.459810216000049],[119.33215579800003,10.459441699000022],[119.33284495900011,10.460267516000044],[119.332531269,10.460907250000048],[119.33104296800002,10.461736021000034],[119.33118888700005,10.462869778000027],[119.33215601300003,10.462637683000025],[119.3337710300001,10.461157229000037],[119.33455428600008,10.459952334000036],[119.3349779260001,10.458788827000033],[119.33603797600006,10.459143073000066],[119.33675756400008,10.458482612000068],[119.33782993600003,10.458602424000048],[119.338473786,10.459254687000053],[119.33990692800012,10.458447178000029],[119.34036600900004,10.457811757000059],[119.341611198,10.45715315800004],[119.34302274600009,10.457157429000063],[119.34336877500004,10.456456831000022],[119.34259110000005,10.45589857400006],[119.34237712400012,10.453567452000069],[119.34291322000001,10.453119815000036],[119.34402065400003,10.453335539000019],[119.34504259200003,10.45194050800006],[119.34588067800006,10.452079094000053],[119.34595485000013,10.450689905000045],[119.34695669400004,10.450443446000063],[119.34818193700005,10.450901731000046],[119.3486209030001,10.450505511000069],[119.34800827100001,10.448420592000048],[119.3481125510001,10.44693143200004],[119.3484385900001,10.446243735000053],[119.34970682900007,10.445755783000036],[119.3495343610001,10.44419628800006],[119.34989978600004,10.443546353000047],[119.3518324490001,10.442597115000067],[119.35325811100007,10.442461869000057],[119.35408685900006,10.44174527000007],[119.35493530600003,10.441821845000048],[119.35602672400012,10.440926722000029],[119.3560676530001,10.439171057000067],[119.35714723900003,10.437782996000067],[119.35878562300002,10.437572411000076],[119.36034595700005,10.437848166000036],[119.36187054200002,10.437464301000034],[119.36368163300006,10.437341643000023],[119.36573216200007,10.436548163000055],[119.36720748800006,10.436665279000065],[119.36710700300011,10.435345717000073],[119.36932456400008,10.43388056700007],[119.37102916300012,10.434200899000077],[119.37207837300004,10.43361093900006],[119.37287115900006,10.431413019000049],[119.37428107500011,10.430927461000065],[119.37472965500002,10.432335416000058],[119.37398316500003,10.433246492000022],[119.37556519400005,10.433109213000023],[119.37590117800005,10.434307258000045],[119.37538332500003,10.435268703000077],[119.37611390400002,10.435730808000072],[119.376561938,10.437670550000066],[119.375443872,10.43918455800002],[119.37466952800004,10.43960161500007],[119.37415942599999,10.440933352000059],[119.37347322100005,10.441845105000027],[119.37276787900011,10.443365693000032],[119.37274417000003,10.44436857200003],[119.37203257600002,10.445387510000046],[119.371902373,10.446210043000065],[119.37249180800008,10.447399034000055],[119.37172113500003,10.448309815000073],[119.37214847300002,10.449950768000063],[119.37168505700005,10.451414388000044],[119.37252206700009,10.452794829000027],[119.37154172700004,10.453058337000071],[119.37089514,10.453671968000036],[119.36889967600008,10.453040176000057],[119.36748738500013,10.454134700000056],[119.36677674900012,10.454031058000055],[119.36621112100012,10.45494415300004],[119.36356017400009,10.456280217000026],[119.36389511800007,10.45697177300002],[119.36231658800011,10.45990345000007],[119.36185309900009,10.461367034000034],[119.36193470400008,10.462645773000077],[119.3612298490001,10.46307957400006],[119.3601847020001,10.462796193000033],[119.35881500200004,10.463231089000029],[119.35824019100006,10.464172690000053],[119.3583095780001,10.465183806000026],[119.35909895900011,10.465778000000002],[119.35874896300004,10.467851917000074],[119.3590149160001,10.469942436000052],[119.35848839200004,10.47039498400005],[119.35812611400002,10.472898669000072],[119.35754509200001,10.47429640000007],[119.35624507300008,10.475270306000027],[119.35514180000007,10.475515608000025],[119.354221746,10.47742533400003],[119.35341979900011,10.477903369000044],[119.35345081199999,10.478964175000042],[119.35201459700012,10.48031385600007],[119.35055458500007,10.480110798000055],[119.34875471100008,10.480491373000064],[119.34604197500006,10.480048708000025],[119.34677539300003,10.48135710300005],[119.34666059800008,10.482502207000037],[119.34846098600009,10.48207866400003],[119.35002324800008,10.481115649000056],[119.35129597600009,10.48109377600002],[119.35125358400002,10.482239719000063],[119.35181148000004,10.482819341000038],[119.35283180600004,10.482991558000036],[119.35493770200003,10.48169445800005],[119.35462066600006,10.48032943100003],[119.35508086200002,10.479484438000041],[119.35614642000006,10.478751474000035],[119.35682578500007,10.47761282600004],[119.35835694700008,10.476684560000024],[119.35862229500003,10.477518767000047],[119.35790241500003,10.479645760000038],[119.358027407,10.481338188000054],[119.35755558000005,10.482063634000044],[119.36006150100002,10.481973086000039],[119.36183780500006,10.481138219000057],[119.36238016700008,10.480571207000025],[119.36236594600008,10.479309957000055],[119.36124099400003,10.47875754100005],[119.36057236200007,10.47791369400005],[119.36090543000013,10.476670752000075],[119.36239917500008,10.475226133000033],[119.36124218000009,10.47263340000006],[119.36092628100005,10.471168072000063],[119.36127297100006,10.46999693600003],[119.36126350000008,10.468465849000038],[119.3620633490001,10.468164502000036],[119.3626214190001,10.466869191000056],[119.3635901580001,10.466569769000046],[119.36486504000004,10.466918716000066],[119.36604378500012,10.465164741000025],[119.3661119930001,10.463103015000057],[119.36484393700006,10.461484796000036],[119.36543788800009,10.460213767000026],[119.36625029299998,10.460903745000053],[119.36788116300012,10.459692310000039],[119.36796480700002,10.458725946000072],[119.36926799400011,10.457677952000038],[119.37241594500006,10.456734563000053],[119.37242580200007,10.455886775000067],[119.37413539400006,10.455108559000053],[119.37479315200005,10.455818252000027],[119.37485251300006,10.458082029000021],[119.37565004800003,10.45922323700006],[119.3757342350001,10.460700262000046],[119.376205464,10.462511301000063],[119.37591475100011,10.463855082000066],[119.37615153000003,10.464660300000048],[119.37592386700008,10.466807320000044],[119.3763742340001,10.467775740000038],[119.37542206900001,10.469285598000054],[119.37620504000006,10.470020610000063],[119.37726166100003,10.472956121000038],[119.378161685,10.473587373000043],[119.3777236730001,10.475560031000041],[119.378690709,10.476239817000021],[119.37835177700003,10.47716267900006],[119.37681901100005,10.478092635000054],[119.37646608300008,10.479387932000064],[119.37744022000004,10.480287545000067],[119.3774652640001,10.481453399000033],[119.37789101400006,10.483025083000028],[119.37840243000005,10.48387165200006],[119.37845409400008,10.485238441000035],[119.37938230600002,10.48676808600004],[119.37940259000005,10.487513519000057],[119.38058765500011,10.488539737000051],[119.3807117790001,10.48948698400005],[119.38004654400004,10.490243711000058],[119.37992747200009,10.49135060100002],[119.38021111900002,10.492691376000039],[119.38152643300009,10.493310655000073],[119.38172818100008,10.494638555000051],[119.38268534500001,10.495342123000057],[119.3821964230001,10.497951925000056],[119.3817053250001,10.498674808000029],[119.38224601681358,10.49923368425351],[119.38341100693783,10.498677643182114],[119.38258666600007,10.497996543000056],[119.38396923100005,10.49700480300004],[119.38272714400011,10.492786934000037],[119.38130925100005,10.491868809000039],[119.38110015900008,10.490953153000023],[119.38245967800005,10.490261660000042],[119.38147384800006,10.489533886000057],[119.38173335900001,10.488801194000077],[119.38028705300007,10.48616695100003],[119.37964704100011,10.485586425000065],[119.38025568500008,10.48471440600002],[119.3786378730001,10.48271832000006],[119.37855013600006,10.481962565000062]]],[[[119.40227904500013,10.43335609200005],[119.40240861046274,10.433453359182678],[119.40231180601819,10.433296205770484],[119.40227904500013,10.43335609200005]]],[[[119.36219341200002,10.498494690000031],[119.36389853600008,10.49632166400005],[119.36401547100003,10.494990262000043],[119.36355349700013,10.493205603000035],[119.3651408820001,10.489141950000032],[119.36317618500003,10.487514432000069],[119.35982524100007,10.486802506000059],[119.35912852600008,10.488184578000075],[119.36037983100003,10.488116619000039],[119.36160779600004,10.489144477000025],[119.3620290560001,10.49026708500003],[119.36296307700002,10.490879668000046],[119.36274731400012,10.491994979000026],[119.360731417,10.493505238000068],[119.36111561300005,10.494082864000061],[119.36132931500005,10.495618679000074],[119.36068137500001,10.496542732000023],[119.3599620010001,10.496147557000024],[119.35946202600009,10.496801024000035],[119.36036525200008,10.497570901000074],[119.35971948600002,10.498308679000047],[119.36241811900004,10.501564],[119.36286968200011,10.502572315000062],[119.36549799200009,10.501943241000049],[119.36559025305887,10.502942183824743],[119.36668943979267,10.502880526598641],[119.36673961800011,10.502258410000023],[119.36636076700006,10.501222267000061],[119.36629099100001,10.499759748000029],[119.36484734900012,10.49938494400004],[119.36328995400004,10.500069291000045],[119.36270815000013,10.499980151000047],[119.36219341200002,10.498494690000031]]]]}}]}