{"type":"FeatureCollection","features":[{"type":"Feature","properties":{"fid":17,"objectid":1863,"lccode":"07","liqcode":"2010600070000000","mappers":"MITAbigania, DJVRivera, PJDelosReyes, ACPidlaoan","project":"GMMA-READY","province":"Bulacan","otherinfo":null,"datemapped":2013,"publishdate":null,"globalid":"{70EE0B92-1310-4863-994B-262A0419985C}","st_area(shape)":0.05460415768202689,"st_perimeter(shape)":2.604001747145809,"liqcodepk":"201060007000000000055","creator":"SNOOPYPC","createdate":"2019-02-19T15:21:28","editor":"LENOVO","modifydate":"2019-03-10T17:50:55","codemove":"na"},"geometry":{"type":"Polygon","coordinates":[]}},{"type":"Feature","properties":{"fid":217,"objectid":8401,"lccode":"06","liqcode":null,"mappers":"PJDelosReyes, ACPidlaoan","project":"READY","province":"Pampanga","otherinfo":"as of October 2015, reupdate 2021","datemapped":2008,"publishdate":null,"globalid":"{CD5DD08A-FAB4-4EC7-8B17-F813D0C6C3B8}","st_area(shape)":0.027606239658912374,"st_perimeter(shape)":1.089536841037015,"liqcodepk":null,"creator":null,"createdate":null,"editor":null,"modifydate":"1905-07-07T08:00:00","codemove":null},"geometry":{"type":"Polygon","coordinates":[]}},{"type":"Feature","properties":{"fid":218,"objectid":8402,"lccode":"07","liqcode":null,"mappers":"PJDelosReyes, ACPidlaoan","project":"READY","province":"Pampanga","otherinfo":"as of October 2015, reupdate 2021","datemapped":2008,"publishdate":null,"globalid":"{523547B0-D8C4-4084-9EE8-AA20F7B2A472}","st_area(shape)":0.07539067039960894,"st_perimeter(shape)":2.422972172763333,"liqcodepk":null,"creator":null,"createdate":null,"editor":null,"modifydate":"1905-07-07T08:00:00","codemove":null},"geometry":{"type":"Polygon","coordinates":[[[120.898654571687,15.051971375010176],[120.89802817539668,15.04757986069501],[120.89696187463848,15.043269156516116],[120.89546596477085,15.039080774087209],[120.89355487618936,15.03505504444738],[120.89124703443795,15.031230729859853],[120.88856468197032,15.027644650807666],[120.88553366330804,15.024331331767266],[120.88218317568798,15.021322669156737],[120.87854548761787,15.018647624639932],[120.8746556280597,15.016331946721788],[120.87055104923616,15.014397923296423],[120.86627126630133,15.012864167511681],[120.86185747733211,15.011745438992891],[120.85735216727906,15.011052502129706],[120.85279869966418,15.010792022774416],[120.84824089992482,15.010966504332915],[120.84372263438055,15.011574263852781],[120.83928738883856,15.012609448331402],[120.83497785085504,15.014062091083106],[120.8308354996364,15.015918207622319],[120.82690020749078,15.01815993014305],[120.82320985663364,15.020765679307004],[120.81979997500683,15.02371037169651],[120.81670339459392,15.026965660948377],[120.81394993550404,15.030500210262582],[120.81156611885598,15.034279993679753],[120.8095749112247,15.03826862324538],[120.80799550311595,15.042427698930114],[120.8068431236156,15.0467171779559],[120.80612889301871,15.051095759990062],[120.80585971488384,15.05552128451466],[120.80603820858533,15.05995113655888],[120.8066626830491,15.064342656898939],[120.80772715196518,15.068653552783001],[120.8092213903717,15.07284230523029],[120.81113103210636,15.076868568982151],[120.81343770722675,15.08069356124979],[120.81611921811218,15.084280435507328],[120.8191497525827,15.08759463671907],[120.8225001320088,15.090604234565614],[120.82613809204067,15.093280231442506],[120.83002859326513,15.095596842246142],[120.83413415880064,15.097531743232073],[120.83841523557446,15.099066287528277],[120.84283057578808,15.100185685207325],[120.8473376348775,15.10087914616404],[120.85189298210616,15.101139984405489],[120.85645271980408,15.100965682733973],[120.86097290717687,15.100357917188946],[120.86540998456249,15.099322541004572],[120.86972119400791,15.097869528233701],[120.87386499207335,15.096012877581602],[120.87780145084912,15.093770477379941],[120.88149264328689,15.09116393300998],[120.88490300910344,15.08821835844875],[120.8879996977082,15.084962133960815],[120.89075288483434,15.0814266322868],[120.89313605981462,15.077645915984721],[120.89512628073314,15.073656408859291],[120.89670439500298,15.069496544663973],[120.89785522325975,15.065206396478754],[120.89856770482183,15.0608272903517],[120.89883500334491,15.056401406941324],[120.898654571687,15.051971375010176]]]}}]}