{"type":"FeatureCollection","features":[{"type":"Feature","properties":{"fid":194,"objectid":2170,"lccode":"01","liqcode":null,"mappers":"DJLBuhay, MJVReyes, MITAbigania, KLPapiona, KMVitto","project":"MELP","province":"Davao del Norte","otherinfo":null,"datemapped":2018,"publishdate":null,"globalid":"{9AB618B6-D0DC-4322-9386-ECE8955C87EA}","st_area(shape)":0.06864336268566588,"st_perimeter(shape)":8.586566217312162,"liqcodepk":null,"creator":null,"createdate":null,"editor":null,"modifydate":null,"codemove":null},"geometry":{"type":"MultiPolygon","coordinates":[[[[125.78066857800002,7.557793254000046],[125.78154799100002,7.557699008000045],[125.78198769800008,7.5582762640000265],[125.78305725400003,7.558665027000074],[125.78400797100004,7.557863939000071],[125.78299783500006,7.5568036720000595],[125.78303348600002,7.55556669200007],[125.78339000500011,7.554836283000045],[125.78285522700003,7.554317927000055],[125.78177008300007,7.554680685000053],[125.78121524000007,7.554223680000062],[125.77974868000001,7.554767436000076],[125.77899543500007,7.554150658000028],[125.77776036600005,7.554475395000055],[125.77648542300007,7.553834913000058],[125.77618031000009,7.552232111000023],[125.77643257300008,7.550461469000026],[125.77708613800009,7.549964121000073],[125.7768290250001,7.548761634000072],[125.77723003500012,7.547778949000077],[125.7784743410001,7.547555917000069],[125.77892675400004,7.547122744000033],[125.78021911900008,7.546923309000021],[125.78110804700009,7.547324075000061],[125.78221714100005,7.548440620000066],[125.78296021000006,7.548507624000024],[125.78357801900006,7.54771481000006],[125.78314088700007,7.546785255000029],[125.78336810400003,7.544847438000035],[125.78262321500006,7.544493573000068],[125.78106659500008,7.544575158000043],[125.78053669500002,7.544124303000048],[125.78066719500009,7.542043661000037],[125.78039867400003,7.541256466000051],[125.77936192900006,7.540211168000042],[125.77857111500009,7.540168360000052],[125.77803849000009,7.539287209000068],[125.77829591900002,7.538329342000052],[125.77726237300011,7.537786040000071],[125.7765475230001,7.538388209000062],[125.77678421500002,7.54170964800005],[125.7763337770001,7.542453583000056],[125.77532918300005,7.542698995000023],[125.77411187400003,7.54339996500005],[125.77327268600006,7.543285737000077],[125.77244866000001,7.541784859000074],[125.77168027900008,7.541502838000041],[125.77017444100011,7.542038276000024],[125.7698507330001,7.543881091000058],[125.76995670500004,7.545482133000064],[125.76885521400006,7.545560803000058],[125.76838468193507,7.546459922288516],[125.77052635561253,7.54930363031828],[125.77353081171754,7.552569552543863],[125.77684163667745,7.555525839641978],[125.78042693916841,7.558144014974715],[125.78044856219636,7.558156761166985],[125.78066857800002,7.557793254000046]]],[[[125.76706586900002,7.542942408000042],[125.76744219200009,7.541840352000065],[125.7684440710001,7.541164663000071],[125.76846227500006,7.540256114000047],[125.76909275000003,7.539946140000039],[125.76966031400002,7.53878072200007],[125.76708319300009,7.538108467000029],[125.76652963200002,7.53921642000006],[125.76602603200001,7.539133530000073],[125.76551182200001,7.537372489000061],[125.76622403200008,7.536349600000051],[125.76661604500008,7.534697603000042],[125.76622018100011,7.533466535000062],[125.76514694300012,7.531794114000037],[125.76554707500009,7.530668004000064],[125.76664732400002,7.530398114000038],[125.76739203100011,7.530728114000053],[125.76853988399999,7.530410108000071],[125.76991488200008,7.528130364000048],[125.76935441100011,7.526627805000031],[125.76870326400001,7.5259386250000375],[125.76694886400003,7.525041226000042],[125.76641266500006,7.523586318000071],[125.76667033900003,7.52230526900007],[125.76801215800002,7.521978373000024],[125.76875610900004,7.520762644000058],[125.77189524200004,7.5196073000000725],[125.77244190500006,7.518794358000037],[125.77174075100005,7.517050650000045],[125.77251320800008,7.516909268000063],[125.7733837090001,7.517972578000069],[125.77472659700004,7.517996141000024],[125.77587934100006,7.518879776000065],[125.77618832400003,7.519716281000058],[125.77628329000005,7.521498124000062],[125.77719001300012,7.522448645000056],[125.77933931300004,7.5229131970000385],[125.77972635000005,7.524450297000044],[125.78122712400011,7.525159420000021],[125.78112016800004,7.527810275000036],[125.78218972500008,7.527928090000044],[125.78322089200005,7.528476092000062],[125.7837465240001,7.5292122750000186],[125.78355638100005,7.529919165000024],[125.7826888510001,7.529813132000071],[125.78220160900003,7.529129805000023],[125.78127466,7.52940077900007],[125.78051505500002,7.531712719000037],[125.77912366300006,7.531651039000055],[125.7793969940001,7.5328645250000354],[125.7826888510001,7.533736348000046],[125.78305725400003,7.534360761000069],[125.78342565700008,7.536080836000052],[125.78287899500003,7.53674058900003],[125.7835444970001,7.5377537800000605],[125.78336623700011,7.539803716000049],[125.78564795800001,7.542242420000039],[125.78566889700006,7.543085052000039],[125.78715722100002,7.54307888100004],[125.78715722100002,7.5417711740000755],[125.78821489400003,7.541464864000036],[125.78896358400004,7.540769774000069],[125.78941517400007,7.541394177000029],[125.7896053180001,7.5440920560000695],[125.79017574800002,7.54483426400003],[125.78994995300002,7.545494004000036],[125.78909430700003,7.545882779000067],[125.7887259050001,7.546825262000028],[125.78686012199998,7.546919510000067],[125.78624215600006,7.547355407000054],[125.78645606799999,7.548238982000043],[125.78621838800005,7.5493228310000395],[125.78716260400007,7.549622284000064],[125.78757481700006,7.551149634000072],[125.79032458500001,7.5525856130000735],[125.79159566100009,7.553552874000047],[125.79285829900005,7.553200589000028],[125.7937232590001,7.553596693000032],[125.7936358840001,7.554916842000067],[125.79263572800006,7.554765598000074],[125.79189892300009,7.555236830000068],[125.79199399400011,7.556780111000023],[125.79164935900006,7.557663666000052],[125.7922197900001,7.559430772000043],[125.79170877900002,7.560820889000069],[125.79210095000008,7.56189292600004],[125.79176819900012,7.563106328000059],[125.79157064221187,7.563419669047683],[125.79247313252358,7.563735389488023],[125.7967896419464,7.564784940547208],[125.80118845952985,7.56540720053812],[125.80562720807384,7.565596179611426],[125.81006312628249,7.565350062098529],[125.81445348111124,7.564671223832549],[125.81875597980371,7.563566209052404],[125.82292917763046,7.562045667120765],[125.82693287738606,7.560124249675366],[125.83072851678283,7.557820469215472],[125.83427953999964,7.555156520497651],[125.83755174980082,7.552158066473447],[125.84045793283258,7.548916130838531],[125.83922813100004,7.54821088500006],[125.83937290200004,7.546756151000066],[125.84136591700009,7.5460683300000255],[125.84200450845825,7.54682042767885],[125.84313668292096,7.545276119618604],[125.84345688569536,7.544735040202385],[125.84312332900002,7.54381109700006],[125.8438766807384,7.544025667986335],[125.84539563547561,7.541458914392961],[125.84578005127817,7.54063394759653],[125.84572733100003,7.540601892000041],[125.8447706720001,7.5408610780000345],[125.84427154600007,7.540348596000062],[125.84253648700007,7.540054066000039],[125.84171055200011,7.540425174000063],[125.84042114200008,7.539158694000037],[125.83945259900008,7.538516616000038],[125.84031418600011,7.537633022000022],[125.83834739000008,7.537350271000037],[125.8378126120001,7.538569632000078],[125.83713522600009,7.539358975000028],[125.83517011100002,7.5393445350000565],[125.8337273500001,7.540716425000028],[125.83223309200002,7.540489971000056],[125.83065846700005,7.540519424000022],[125.83046920900006,7.541411561000076],[125.82967817500003,7.541330603000064],[125.82775283800002,7.540460518000031],[125.82824602200004,7.539040881000061],[125.82869761300003,7.536778879000052],[125.82702755100001,7.535954710000053],[125.82532850900007,7.535488825000073],[125.82479373100011,7.53504702500004],[125.82348649500011,7.535229635000067],[125.82339736500013,7.534487411000042],[125.82266650200006,7.53425178300006],[125.8228507030001,7.533374071000024],[125.8258929980001,7.534675912000071],[125.82687342500003,7.534192877000067],[125.82678429500005,7.533521338000071],[125.82381721000003,7.532920289000059],[125.8227495110001,7.532281710000063],[125.82259519800006,7.531500826000068],[125.82102651500009,7.530334462000042],[125.82035015699998,7.530188678000058],[125.81980840900009,7.5288735570000505],[125.81957667100006,7.526970537000067],[125.82112752900002,7.526764662000061],[125.82124042600003,7.526099003000072],[125.82064028600008,7.525203601000043],[125.82199991800006,7.524567032000052],[125.8225595460001,7.524932624000031],[125.825156192,7.523395120000028],[125.8243369160001,7.521867534000023],[125.824704601,7.521121254000037],[125.82575039000005,7.521244962000025],[125.82768747600005,7.520814929000039],[125.8285490630001,7.5212449620000275],[125.82970775000001,7.522340660000053],[125.83170425500009,7.522470259000044],[125.83293743100012,7.522759088000043],[125.83394914400002,7.522289923000073],[125.83472977200006,7.522619564000026],[125.83530186300003,7.5240382170000535],[125.83529915400004,7.52493851500003],[125.8369569670001,7.525498141000072],[125.83782449600005,7.526104893000024],[125.83764595100001,7.527214397000023],[125.8386731380001,7.526777483000048],[125.83892833200004,7.525496930000031],[125.83774725,7.524284635000073],[125.83714711000005,7.522305315000038],[125.83715386200004,7.521312783000041],[125.83670740400011,7.520137479000026],[125.83578045500006,7.520013771000037],[125.834800028,7.519212611000059],[125.83339177800006,7.519283302000074],[125.83245888700002,7.519624973000022],[125.83105657900012,7.518894503000068],[125.82879268500005,7.518806140000036],[125.8276755920001,7.518234723000031],[125.82652879000011,7.5181817050000745],[125.82531068300011,7.5189710850000315],[125.82457982000005,7.518694213000061],[125.82402127400009,7.519860608000045],[125.82287377700004,7.52111341500006],[125.82130281700006,7.521115363000038],[125.82022137600005,7.521722121000039],[125.81907457400006,7.5219047380000434],[125.81880520200002,7.523161867000058],[125.8183070760001,7.523925243000063],[125.81731191100006,7.523386577000053],[125.81721093100008,7.521092322000071],[125.8180737790001,7.519959669000058],[125.81820873900004,7.518596209000066],[125.81913847500006,7.517901788000074],[125.82218646600006,7.518068724000047],[125.82268236400012,7.516109421000067],[125.82334937200007,7.515595592000067],[125.82436887900008,7.515595592000067],[125.82752720000008,7.514950716000045],[125.82790435800007,7.515666283000031],[125.82965724300006,7.515171444000032],[125.83036433900008,7.515996175000054],[125.83180229800007,7.515778211000055],[125.83214099100007,7.51482387800007],[125.83299663600008,7.514270129000066],[125.83393546900004,7.514647150000029],[125.83503050900005,7.514385971000024],[125.83485053400013,7.513492523000025],[125.83580719300005,7.5125735310000445],[125.83654994100006,7.512667787000056],[125.83741187800001,7.511730428000023],[125.83723921100012,7.510364409000035],[125.83668660700005,7.50992847500004],[125.83435735000013,7.51051757600004],[125.83387605000007,7.51032906300003],[125.83406619300001,7.509121405000028],[125.83203997700002,7.5087208150000615],[125.83161215500003,7.50986956500003],[125.8305247720001,7.510635396000053],[125.82962753299998,7.510747325000069],[125.82874012600008,7.511371523000037],[125.82779740300009,7.510888709000026],[125.82674567200003,7.51156617300006],[125.82550379800011,7.511206822000073],[125.8239815410001,7.511143865000063],[125.8235667120001,7.510535249000042],[125.82350135000003,7.509233335000031],[125.8220336810001,7.509180315000037],[125.82272295100006,7.510458665000047],[125.82277642800011,7.511348206000037],[125.821136442,7.512373238000066],[125.81981732200006,7.511907850000058],[125.81934790500009,7.513415940000073],[125.81858139000008,7.514458640000042],[125.81720285000004,7.51421711100005],[125.81681067900003,7.512803279000023],[125.8188309530001,7.51168988400002],[125.81953210700011,7.510370300000032],[125.81813574100009,7.509828327000038],[125.81714937200003,7.511277514000026],[125.81534895200002,7.510034513000051],[125.81434904900004,7.510308069000078],[125.8139970960001,7.511040387000039],[125.81432098900007,7.512868080000031],[125.814962723,7.513728161000075],[125.81458243600001,7.514334930000075],[125.81378026900006,7.514158201000041],[125.8130196950001,7.513274557000046],[125.812372019,7.514052164000021],[125.81154608400004,7.514099291000036],[125.81090435000009,7.515012389000048],[125.81009029800009,7.514729623000051],[125.81026261600005,7.5132274290000405],[125.80870581700003,7.512838625000031],[125.808272052,7.512102253000023],[125.80861668700005,7.509722289000025],[125.81000711100012,7.507907853000063],[125.81010218200005,7.50569870700002],[125.80950204200009,7.504738462000034],[125.80926436300001,7.502882767000076],[125.81161144600004,7.5026294490000405],[125.81185506700001,7.501934297000045],[125.81453490000001,7.50096815300003],[125.81477258000007,7.501427661000037],[125.81679285300004,7.501197907000061],[125.81779704800009,7.500779636000059],[125.81848631800005,7.499837053000022],[125.81949051300012,7.49987240000007],[125.82013818900008,7.499171353000067],[125.82103839900005,7.499468856000021],[125.82211686800007,7.499342197000033],[125.82233078,7.498676495000039],[125.8242381560001,7.498823775000059],[125.82487691900009,7.497719180000048],[125.82575633200008,7.497878242000071],[125.8266307130001,7.497148409000033],[125.82709030700005,7.495424560000062],[125.828141092,7.495197624000069],[125.8276490180001,7.4934724670000605],[125.82630002300006,7.493716107000067],[125.82592153000006,7.494881967000025],[125.82506357800001,7.495556798000052],[125.82496307800012,7.496679386000039],[125.82413120000001,7.49634947900006],[125.82329932300001,7.4970740960000635],[125.82245556100007,7.497156572000051],[125.82202773900008,7.49832891700004],[125.82031050600006,7.497386329000053],[125.81802284300012,7.497810493000031],[125.81740276900007,7.496679080000038],[125.81855645400003,7.495801568000045],[125.81949517200007,7.495766890000028],[125.81979813600003,7.495200793000037],[125.81867138400001,7.494299587000058],[125.8168243460001,7.494626919000037],[125.81633760300006,7.493425198000069],[125.81518153000002,7.49392979600003],[125.81547733200013,7.495237920000024],[125.81462997200005,7.495353866000076],[125.81443388700006,7.497892970000066],[125.81337918500003,7.49885617600006],[125.81295730400007,7.499845890000071],[125.81182832800006,7.499557224000056],[125.81047949800005,7.499763414000027],[125.80994174900002,7.498747189000029],[125.80871175900006,7.498552781000058],[125.80638844400005,7.498853230000066],[125.80577642000003,7.49811094300003],[125.80597844700003,7.497156572000051],[125.80578461200002,7.495927763000053],[125.80479896400004,7.495739740000032],[125.80507229500004,7.494767690000059],[125.8064894580001,7.495194803000059],[125.80714901800002,7.495798652000076],[125.80767785400009,7.495100544000025],[125.80656820000003,7.493653632000078],[125.80704014400011,7.492539030000046],[125.80811161900012,7.491707192000036],[125.8070539460001,7.491271238000024],[125.80672119500004,7.489798420000056],[125.80752336200011,7.489321225000027],[125.80840277600011,7.4895097470000564],[125.81053594700008,7.488814574000061],[125.81305058900011,7.488532520000034],[125.81310336600005,7.487420586000042],[125.8144797220001,7.48728034800007],[125.81588482000006,7.486016374000031],[125.81703982400008,7.486845702000039],[125.81793979699998,7.485250269000062],[125.81642432900003,7.484727336000047],[125.81721473400013,7.4836243090000485],[125.81668589800006,7.482658124000066],[125.81691169300008,7.481815656000041],[125.81773762800003,7.480731638000067],[125.81872223100004,7.480853977000038],[125.81953210700011,7.480478307000054],[125.82037586800006,7.481291321000071],[125.82041746200002,7.482410686000035],[125.82113687400012,7.482899132000057],[125.82268729900011,7.482463708000068],[125.823816275,7.482722929000034],[125.82515322100006,7.482510839000041],[125.82594350400005,7.48195115800007],[125.82603560500003,7.480787606000037],[125.82560137700013,7.480381822000027],[125.8246570660001,7.481370855000025],[125.82361509000009,7.480932663000032],[125.82280613800003,7.479741880000062],[125.82313891029837,7.478923743618423],[125.82238945098125,7.478575819262809],[125.82151373808556,7.478269401887633],[125.82103950000008,7.479367996000066],[125.82041487800008,7.479276054000027],[125.8203946487659,7.47787782205279],[125.82018845686916,7.477805673143647],[125.81935384700013,7.478292589000037],[125.81819516100006,7.478280806000042],[125.81730386400011,7.4776739870000615],[125.81667995600004,7.479146847000038],[125.81518851800001,7.480166063000068],[125.81399418000001,7.480266217000065],[125.81396447000009,7.47846344000004],[125.81451707400004,7.4780156910000555],[125.81453982870418,7.476219403377577],[125.81388222846664,7.47605945547526],[125.80948438891579,7.475436995017871],[125.80504658579913,7.475247716422491],[125.80061154408023,7.475493446868184],[125.79622196312053,7.4761718253966345],[125.79192010593712,7.477276325436395],[125.78774739260653,7.47879631740601],[125.78374400171535,7.480717170802498],[125.77994848368172,7.483020394802705],[125.77639738966295,7.485683816034497],[125.77312491961565,7.488681791817332],[125.77016259289566,7.49198545682973],[125.7675389445713,7.4955630008388185],[125.76527925037924,7.4993799748269545],[125.76340528298104,7.5033996225757],[125.7619351018794,7.50758323452048],[125.76088287903244,7.511890520473144],[125.76025876186273,7.516279997625665],[125.76006877499988,7.520709390098966],[125.76031476172234,7.5251360361874795],[125.76099436568364,7.529517299373702],[125.7621010531186,7.533810979148639],[125.76362417533458,7.537975717674142],[125.76554907090288,7.541971398361369],[125.76654433392046,7.543604846444287],[125.76706586900002,7.542942408000042]],[[125.77423638300003,7.510240698000076],[125.77422449900007,7.51097118300004],[125.77509202800002,7.511572064000064],[125.77639926400003,7.511477808000054],[125.77707665000004,7.512172945000031],[125.77802736700005,7.512290764000055],[125.77902562000008,7.512997681000058],[125.77893054800006,7.514458640000043],[125.77838388600003,7.515589701000065],[125.77746882100007,7.515872465000029],[125.77489000100003,7.515613264000022],[125.77433145500004,7.514694278000035],[125.77089699000011,7.513999145000072],[125.77070684600005,7.513751725000078],[125.77096829300002,7.511454244000049],[125.7728578430001,7.51067663300006],[125.7732618980001,7.510016840000051],[125.77423638300003,7.510240698000076]],[[125.7659651450001,7.519513046000041],[125.76533529500013,7.519772245000067],[125.76373096000007,7.51924206500007],[125.76282777900008,7.518652976000057],[125.76230488500005,7.51701530500003],[125.76306545800003,7.5161081030000245],[125.76490747200012,7.515837120000073],[125.7663692000001,7.516426213000045],[125.76693963000002,7.517180250000026],[125.76606021700002,7.518652976000054],[125.7659651450001,7.519513046000041]],[[125.80700846700007,7.559234770000048],[125.80649237999998,7.561374289000072],[125.80513505400005,7.561278733000051],[125.804050716,7.56029957800007],[125.80303107300006,7.560067051000032],[125.80380309400006,7.559046127000042],[125.80390432700005,7.557512484000028],[125.80528858200012,7.557213828000044],[125.80607693,7.558732749000058],[125.80700846700007,7.559234770000048]],[[125.81507595200004,7.523672450000049],[125.81469320400004,7.523827892000043],[125.81369409800006,7.523346614000048],[125.81269924900005,7.522109898000051],[125.81216442800009,7.5208893630000375],[125.81276611300008,7.519993837000071],[125.81337995600008,7.520680792000065],[125.81427291300008,7.520971509000045],[125.8153337860001,7.522045243000035],[125.81507595200004,7.523672450000049]],[[125.8363969190001,7.543825937000066],[125.83698320500002,7.5433631750000245],[125.83846774200003,7.543999005000047],[125.839126329,7.545816288000026],[125.838173072,7.547314113000029],[125.83733863400006,7.5471904250000525],[125.83693134700003,7.546525229000051],[125.83750957100006,7.545184751000022],[125.83636106300001,7.544944914000041],[125.8363969190001,7.543825937000066]],[[125.83356720300004,7.541879236000057],[125.83390288000008,7.542665929000066],[125.83291642000007,7.543482384000072],[125.83135962000007,7.542787298000065],[125.83356720300004,7.541879236000057]],[[125.84257121400003,7.542896734000066],[125.84238194300008,7.544733840000049],[125.84144494800012,7.54430962400005],[125.84122041300009,7.542934166000067],[125.84257121400003,7.542896734000066]]]]}},{"type":"Feature","properties":{"fid":204,"objectid":3530,"lccode":"01","liqcode":null,"mappers":"DJLBuhay, MJVReyes, MITAbigania, KLPapiona, KMVitto","project":"MELP","province":"Davao de Oro","otherinfo":null,"datemapped":2020,"publishdate":2021,"globalid":"{B133662C-BB56-4B68-925E-E0332BEC485E}","st_area(shape)":0.05410125761039176,"st_perimeter(shape)":8.444321327772833,"liqcodepk":null,"creator":null,"createdate":null,"editor":null,"modifydate":null,"codemove":null},"geometry":{"type":"Polygon","coordinates":[]}}]}