{"type":"FeatureCollection","features":[{"type":"Feature","properties":{"fid":174,"objectid":9616,"lccode":"07","liqcode":null,"mappers":"DJLBuhay, MITAbigania","project":"LiquePhi","province":"Pangasinan","otherinfo":null,"datemapped":2024,"publishdate":null,"globalid":"{4C1C6B5C-6BC5-4098-AF34-1358D72BE295}","st_area(shape)":0.0990952810399136,"st_perimeter(shape)":16.14272038398808,"liqcodepk":null,"creator":null,"createdate":null,"editor":null,"modifydate":null,"codemove":null},"geometry":{"type":"MultiPolygon","coordinates":[[[[120.56704926900011,16.118306737000072],[120.56590818500003,16.11926465500005],[120.56520509500001,16.120532899000068],[120.56496741500007,16.12195998200002],[120.56499712500009,16.126469497000073],[120.56520509500001,16.128381728000026],[120.56490799500011,16.13066496600004],[120.56447144000005,16.132112726000056],[120.56344230900005,16.13393755100003],[120.56297684800006,16.136287325000072],[120.56300048800004,16.14011710400007],[120.56273062000001,16.141324683000054],[120.56122396,16.143821608000053],[120.56054287500002,16.144678870000064],[120.56015440100009,16.14579074800002],[120.55991672100005,16.148558927000064],[120.55980256500003,16.151599323000028],[120.55953049200004,16.153324669000025],[120.56045150100009,16.155493472000046],[120.5603454740001,16.156600532000027],[120.55972025900007,16.157183110000066],[120.5570053240001,16.158265493000044],[120.55651790099999,16.15963315600004],[120.55566469800011,16.16519619800004],[120.55591884600007,16.16809439800005],[120.55648831300006,16.167743009000052],[120.55780137200009,16.164906562000056],[120.5586911790001,16.16057486800003],[120.55920368200009,16.159747300000053],[120.5617002140001,16.158051211000046],[120.56243477900011,16.156886524000072],[120.56248366200009,16.15568371700004],[120.56170472200006,16.15278372300003],[120.56181815900004,16.146026663000043],[120.56207960700009,16.14493079800008],[120.56301711500011,16.143053616000024],[120.56445640400011,16.14125503700006],[120.56518595500006,16.139695183000075],[120.56547842700002,16.13789884900007],[120.56794305300002,16.133434812000072],[120.56844529700004,16.131928655000028],[120.56869903100005,16.130042224000015],[120.57087375700007,16.127213462000046],[120.57211925387016,16.1254676488543],[120.56982265075241,16.121662887466027],[120.56724050015404,16.118213076009184],[120.56704926900011,16.118306737000072]]],[[[120.52345921900007,16.102965651000034],[120.52466860100003,16.102531144000068],[120.52567406500009,16.102524217000052],[120.5271476800001,16.102980926000047],[120.5287616620001,16.104131781000035],[120.530522732,16.106588891000058],[120.53190127399999,16.10750229000007],[120.53322365400004,16.107814857000047],[120.53438265100012,16.108436388000026],[120.53567562800005,16.109989148000068],[120.53747292300011,16.111171853000027],[120.53791932500006,16.113514783000028],[120.5403911940001,16.116675013000073],[120.54177924400007,16.117003820000033],[120.5432243360001,16.11764316600005],[120.54508308000004,16.120368621000065],[120.54784483000003,16.121570531000028],[120.5481300460001,16.120912931000074],[120.5463997380001,16.12014572900006],[120.54573423400007,16.119049720000074],[120.54527788900008,16.116327938000037],[120.54605747900007,16.113861863000068],[120.54579127700003,16.111651502000026],[120.54520183200009,16.110756390000056],[120.54381378200003,16.11004395100002],[120.53888905800011,16.10871040500007],[120.53649324700008,16.10719417100006],[120.53491505300008,16.105933678000042],[120.53329883100002,16.105878873000055],[120.53208191100009,16.104928931000074],[120.53074210600005,16.102723651000073],[120.52951497000004,16.101786782000033],[120.52806382000955,16.10126021922612],[120.52664512666976,16.10131114214778],[120.5228763300262,16.1018070376196],[120.52345921900007,16.102965651000034]]],[[[120.51481747500009,16.10397925300003],[120.51435399900004,16.104698564000046],[120.51449660700005,16.105760399000076],[120.5151055020001,16.106336283000072],[120.51734876400008,16.10761003500005],[120.51778277100003,16.106852287000034],[120.51569522500006,16.105736285000038],[120.5157360500001,16.105010863000075],[120.51775947800002,16.104394400000043],[120.52010217100009,16.105397665000055],[120.52087830800008,16.10500683900005],[120.51806910900005,16.10349135800004],[120.51783083500003,16.103115719000073],[120.51781874452158,16.102893481291733],[120.51764238624244,16.102934015447314],[120.51538700457925,16.103684701757757],[120.51481747500009,16.10397925300003]]],[[[120.50015453600008,16.180328702000054],[120.50000242100009,16.177863424000066],[120.50019256500002,16.176165103000073],[120.50391938300004,16.169061216000046],[120.504698973,16.165080005000053],[120.50448981400007,16.158267932000054],[120.50481305900006,16.156313755000042],[120.50540250499999,16.154377822000068],[120.50707577000001,16.151090346000046],[120.508141367,16.147303592000068],[120.50868362600009,16.145782016000055],[120.5100070650001,16.14349411500006],[120.51050699500001,16.141765098000064],[120.51046793600007,16.139359417000037],[120.51024501600011,16.137269498000023],[120.50940871900002,16.134193565000032],[120.50843577400008,16.132338686000022],[120.50792692200004,16.129337295000028],[120.50842876800004,16.128262961000075],[120.51004011200007,16.127269907000024],[120.51162486400007,16.12741697100006],[120.51306476600007,16.12831202800004],[120.51681398399998,16.131345490000054],[120.51795484700007,16.133023647000066],[120.51954519800006,16.134743193000077],[120.5201782910001,16.135989457000047],[120.52048031100003,16.137413605000063],[120.52122470200004,16.138684027000068],[120.52292920700005,16.139721204000068],[120.52565940800002,16.13971358100002],[120.52569132200006,16.139051195000032],[120.52373689800005,16.138377113000047],[120.52261511400003,16.136669382000033],[120.52202596900008,16.135222483000067],[120.51907041100003,16.132092078000028],[120.51795484700007,16.13021529400004],[120.51627012000006,16.12902648300007],[120.5150670380001,16.127852138000037],[120.51352850400008,16.125046323000053],[120.51237382600006,16.12406025100006],[120.51164445000006,16.122577745000058],[120.51107401900003,16.119734994000055],[120.51100271500002,16.117508716000035],[120.51039663200002,16.11370685900005],[120.51079396500005,16.111630539000032],[120.5112879310001,16.107952558000022],[120.51232183700006,16.10528086200003],[120.51284478564953,16.104581843567637],[120.5091399254881,16.106223262972723],[120.50769837065745,16.10703584292427],[120.50702838100005,16.108051829000033],[120.50674951100005,16.10999008100003],[120.50565839900001,16.113219682000025],[120.50492003300009,16.11874286800003],[120.5047733990001,16.119822142000032],[120.50515520400005,16.121088497000073],[120.504621014,16.12392946400007],[120.50439908000011,16.12762125800003],[120.50391529600007,16.13119258700004],[120.50436105100005,16.133667236000065],[120.5048744400001,16.134690103000025],[120.50641460400003,16.13571296400005],[120.50686592700005,16.136583125000076],[120.50701585900005,16.138607209000043],[120.50686338500009,16.13968958000004],[120.50692173200002,16.142748247000043],[120.5073271210001,16.143898377000024],[120.50746104300002,16.145664695000054],[120.50659843000004,16.146851551000058],[120.5063132140001,16.147755632000038],[120.50642730000006,16.14957747900007],[120.50542904500004,16.15120753900004],[120.50382589600008,16.15261385400003],[120.50403386500011,16.154040706000046],[120.50388531600005,16.155610231000022],[120.50254836700005,16.15806437200007],[120.50254836700005,16.161317490000044],[120.50239981700008,16.163771560000047],[120.50216213800003,16.164941514000077],[120.50207300800002,16.169307375000074],[120.50153822800009,16.171561606000072],[120.50076576900007,16.17304538900004],[120.4991020110001,16.174843035000038],[120.49806216200011,16.175242510000032],[120.49506290081428,16.17548708481146],[120.4972272260905,16.177852030382695],[120.50022557675577,16.18054312965164],[120.50015453600008,16.180328702000054]]]]}},{"type":"Feature","properties":{"fid":175,"objectid":9617,"lccode":"06","liqcode":null,"mappers":"DJLBuhay, MITAbigania","project":"LiquePhi","province":"Pangasinan","otherinfo":null,"datemapped":2024,"publishdate":null,"globalid":"{66023685-1332-44EF-8443-E51FD3597412}","st_area(shape)":0.04411879143836554,"st_perimeter(shape)":22.502158641584156,"liqcodepk":null,"creator":null,"createdate":null,"editor":null,"modifydate":null,"codemove":null},"geometry":{"type":"MultiPolygon","coordinates":[[[[120.55565701800005,16.161089492000027],[120.55584716200008,16.161956982000053],[120.55525643500003,16.16806614200004],[120.55575556200006,16.16947005500003],[120.55646860200011,16.170120645000058],[120.55656426800012,16.168384592000052],[120.55760900200005,16.166507399000064],[120.55876887900003,16.163676694000053],[120.55956748300002,16.16261745200006],[120.56008918400005,16.160231980000045],[120.5614846960001,16.159182665000056],[120.56219146700005,16.158216057000057],[120.56264781300003,16.157741212000072],[120.56293302800007,16.15693762500007],[120.5630429250001,16.155002230000033],[120.56343231400002,16.154517410000043],[120.56227819100002,16.152645687000067],[120.56225917600013,16.147542273000052],[120.56279157900008,16.14452865100003],[120.56332398200004,16.143487571000037],[120.56467400300004,16.14167936700005],[120.56592895100006,16.139030956000056],[120.56625219600005,16.137460158000064],[120.56803954700003,16.134245463000067],[120.5686481350001,16.131709846000035],[120.56996921000008,16.12993714500004],[120.57114062000007,16.127868110000065],[120.57237397032948,16.125998122123917],[120.57213338664639,16.125491062038027],[120.57211925387016,16.1254676488543],[120.57087375700007,16.127213462000046],[120.56869903100005,16.130042224000015],[120.56844529700004,16.131928655000028],[120.56794305300002,16.133434812000072],[120.56547842700002,16.13789884900007],[120.56518595500006,16.139695183000075],[120.56445640400011,16.14125503700006],[120.56301711500011,16.143053616000024],[120.56207960700009,16.14493079800008],[120.56181815900004,16.146026663000043],[120.56170472200006,16.15278372300003],[120.56248366200009,16.15568371700004],[120.56243477900011,16.156886524000072],[120.5617002140001,16.158051211000046],[120.55920368200009,16.159747300000053],[120.5586911790001,16.16057486800003],[120.55780137200009,16.164906562000056],[120.55648831300006,16.167743009000052],[120.55591884600007,16.16809439800005],[120.55566469800011,16.16519619800004],[120.55651790099999,16.15963315600004],[120.5570053240001,16.158265493000044],[120.55972025900007,16.157183110000066],[120.5603454740001,16.156600532000027],[120.56045150100009,16.155493472000046],[120.55953049200004,16.153324669000025],[120.55980256500003,16.151599323000028],[120.55991672100005,16.148558927000064],[120.56015440100009,16.14579074800002],[120.56054287500002,16.144678870000064],[120.56122396,16.143821608000053],[120.56273062000001,16.141324683000054],[120.56300048800004,16.14011710400007],[120.56297684800006,16.136287325000072],[120.56344230900005,16.13393755100003],[120.56447144000005,16.132112726000056],[120.56490799500011,16.13066496600004],[120.56520509500001,16.128381728000026],[120.56499712500009,16.126469497000073],[120.56496741500007,16.12195998200002],[120.56520509500001,16.120532899000068],[120.56590818500003,16.11926465500005],[120.56704926900011,16.118306737000072],[120.56724050015404,16.118213076009184],[120.56713495536796,16.11807206294372],[120.56638305057648,16.11725085189215],[120.56571599400002,16.117729632000078],[120.56418296000002,16.119168152000043],[120.56361252800004,16.12139441200002],[120.56343426900004,16.126326346000045],[120.56368383200004,16.12844977900005],[120.56368383200004,16.130675935000053],[120.56225775400003,16.133689768000064],[120.56193688600003,16.13550489500005],[120.56197253800008,16.14009401100003],[120.56108123900005,16.14187483300003],[120.56011863600008,16.14310770000003],[120.55922733700005,16.145162462000023],[120.55873960800011,16.146955124000044],[120.55919168600009,16.14872399900003],[120.55922733700005,16.151840291000042],[120.55897777400003,16.152764896000065],[120.55770106400006,16.154948468000043],[120.55762976000005,16.155633350000077],[120.55610860900003,16.157916273000065],[120.55603730600001,16.15917187000002],[120.55553817800002,16.16035897200004],[120.55565701800005,16.161089492000027]]],[[[120.52951497000004,16.101786782000033],[120.53074210600005,16.102723651000073],[120.53208191100009,16.104928931000074],[120.53329883100002,16.105878873000055],[120.53491505300008,16.105933678000042],[120.53649324700008,16.10719417100006],[120.53888905800011,16.10871040500007],[120.54381378200003,16.11004395100002],[120.54520183200009,16.110756390000056],[120.54579127700003,16.111651502000026],[120.54605747900007,16.113861863000068],[120.54527788900008,16.116327938000037],[120.54573423400007,16.119049720000074],[120.5463997380001,16.12014572900006],[120.5481300460001,16.120912931000074],[120.54784483000003,16.121570531000028],[120.54508308000004,16.120368621000065],[120.5432243360001,16.11764316600005],[120.54177924400007,16.117003820000033],[120.5403911940001,16.116675013000073],[120.53791932500006,16.113514783000028],[120.53747292300011,16.111171853000027],[120.53567562800005,16.109989148000068],[120.53438265100012,16.108436388000026],[120.53322365400004,16.107814857000047],[120.53190127399999,16.10750229000007],[120.530522732,16.106588891000058],[120.5287616620001,16.104131781000035],[120.5271476800001,16.102980926000047],[120.52567406500009,16.102524217000052],[120.52466860100003,16.102531144000068],[120.52345921900007,16.102965651000034],[120.5228763300262,16.1018070376196],[120.5221025334016,16.101908844494698],[120.51781874452158,16.102893481291733],[120.51783083500003,16.103115719000073],[120.51806910900005,16.10349135800004],[120.52087830800008,16.10500683900005],[120.52010217100009,16.105397665000055],[120.51775947800002,16.104394400000043],[120.5157360500001,16.105010863000075],[120.51569522500006,16.105736285000038],[120.51778277100003,16.106852287000034],[120.51734876400008,16.10761003500005],[120.5151055020001,16.106336283000072],[120.51449660700005,16.105760399000076],[120.51435399900004,16.104698564000046],[120.51481747500009,16.10397925300003],[120.51538700457925,16.103684701757757],[120.51330761024838,16.10437678468696],[120.51284478564953,16.104581843567637],[120.51232183700006,16.10528086200003],[120.5112879310001,16.107952558000022],[120.51079396500005,16.111630539000032],[120.51039663200002,16.11370685900005],[120.51100271500002,16.117508716000035],[120.51107401900003,16.119734994000055],[120.51164445000006,16.122577745000058],[120.51237382600006,16.12406025100006],[120.51352850400008,16.125046323000053],[120.5150670380001,16.127852138000037],[120.51627012000006,16.12902648300007],[120.51795484700007,16.13021529400004],[120.51907041100003,16.132092078000028],[120.52202596900008,16.135222483000067],[120.52261511400003,16.136669382000033],[120.52373689800005,16.138377113000047],[120.52569132200006,16.139051195000032],[120.52565940800002,16.13971358100002],[120.52292920700005,16.139721204000068],[120.52122470200004,16.138684027000068],[120.52048031100003,16.137413605000063],[120.5201782910001,16.135989457000047],[120.51954519800006,16.134743193000077],[120.51795484700007,16.133023647000066],[120.51681398399998,16.131345490000054],[120.51306476600007,16.12831202800004],[120.51162486400007,16.12741697100006],[120.51004011200007,16.127269907000024],[120.50842876800004,16.128262961000075],[120.50792692200004,16.129337295000028],[120.50843577400008,16.132338686000022],[120.50940871900002,16.134193565000032],[120.51024501600011,16.137269498000023],[120.51046793600007,16.139359417000037],[120.51050699500001,16.141765098000064],[120.5100070650001,16.14349411500006],[120.50868362600009,16.145782016000055],[120.508141367,16.147303592000068],[120.50707577000001,16.151090346000046],[120.50540250499999,16.154377822000068],[120.50481305900006,16.156313755000042],[120.50448981400007,16.158267932000054],[120.504698973,16.165080005000053],[120.50391938300004,16.169061216000046],[120.50019256500002,16.176165103000073],[120.50000242100009,16.177863424000066],[120.50015453600008,16.180328702000054],[120.50022557675577,16.18054312965164],[120.50058762910867,16.180868074116173],[120.50210891445008,16.18198633832539],[120.50192535800012,16.18138193300007],[120.5016282580001,16.179299014000037],[120.50168767800005,16.17755847600005],[120.50216303800006,16.175960592000028],[120.50308404700002,16.174162956000032],[120.50433186500005,16.172222633000047],[120.50572823400012,16.16748588100006],[120.50679779300003,16.16132222600004],[120.50682750200008,16.156899115000048],[120.50765938200006,16.152333219000067],[120.50866952000001,16.149279718000056],[120.51026031800006,16.145502537000027],[120.51124668900002,16.142306236000017],[120.51138929700005,16.140753729000036],[120.51119915300002,16.13843636100006],[120.50939278700004,16.130273987000066],[120.50936901900003,16.12937210900003],[120.50990379900007,16.128401730000068],[120.51066437400004,16.12791083100006],[120.51150813700006,16.128184821000044],[120.5129817510001,16.12952052000003],[120.51577448800003,16.131392766000033],[120.51653506300012,16.13216905700005],[120.51779476600007,16.134178269000063],[120.51949417600008,16.135902065000035],[120.52042112700008,16.138253710000072],[120.52184123600011,16.139829733000052],[120.52296430000001,16.140160120000075],[120.52571929300008,16.14009833900007],[120.5263943560001,16.139491216000067],[120.52585210800011,16.13843636100006],[120.52387636600008,16.136718186000053],[120.52326139900003,16.134018446000027],[120.52210525500004,16.132902870000066],[120.5212411220001,16.131153028000032],[120.52012659400009,16.12973224300003],[120.517470451,16.127684702000067],[120.5162854990001,16.126552289000074],[120.51409977900006,16.123714895000035],[120.51339769100001,16.122579357000067],[120.51220929200008,16.11817250500008],[120.51154378900003,16.115044266000037],[120.51131799300003,16.112772266000036],[120.5120310320001,16.110077800000056],[120.513200116,16.10815281000003],[120.51407706200008,16.107610156000074],[120.51506400000001,16.10754765300004],[120.51652507600011,16.108343873000024],[120.5176672330001,16.108593394000017],[120.5192921480001,16.10772582100003],[120.52140252200002,16.10736030200007],[120.5220590570001,16.106179742000055],[120.5215029540001,16.10419433100003],[120.52265024600001,16.10400240900003],[120.52463034400012,16.10613577800006],[120.52623468200011,16.10819092300005],[120.52684076600009,16.109629512000023],[120.52869466800009,16.111650370000064],[120.53008509400001,16.11257516200004],[120.53261638300013,16.11394521700003],[120.5360746230001,16.11562352100003],[120.53742939800009,16.11641129200007],[120.54063807400007,16.11870608400005],[120.54220676000011,16.120110346000047],[120.54434587800007,16.12148034900002],[120.54917858000012,16.123851803000036],[120.55008584300003,16.123740833000056],[120.55047801500007,16.122884592000048],[120.54965802000004,16.12072684900005],[120.54851715700012,16.119151339000037],[120.54783977000011,16.11671954900003],[120.54799305900009,16.11518505400005],[120.54730499000004,16.112643665000064],[120.54644934300006,16.110691321000047],[120.54488065700002,16.10938974800007],[120.54227806400002,16.108464941000022],[120.54006764300004,16.10743737200005],[120.53714418200003,16.10627278800007],[120.53561114800004,16.104765669000074],[120.53422072100012,16.103772334000038],[120.53172508400006,16.10147736900006],[120.53113736214739,16.101149864136563],[120.52806382000955,16.10126021922612],[120.52951497000004,16.101786782000033]]],[[[120.5050853800001,16.137002644000063],[120.50504972800002,16.140050627000054],[120.50530418500011,16.14120229600007],[120.50638764500003,16.142438301000027],[120.5073271210001,16.143898377000024],[120.50692173200002,16.142748247000043],[120.50686338500009,16.13968958000004],[120.50701585900005,16.138607209000043],[120.50686592700005,16.136583125000076],[120.50641460400003,16.13571296400005],[120.5048744400001,16.134690103000025],[120.50436105100005,16.133667236000065],[120.50391529600007,16.13119258700004],[120.50439908000011,16.12762125800003],[120.504621014,16.12392946400007],[120.50515520400005,16.121088497000073],[120.5047733990001,16.119822142000032],[120.50492003300009,16.11874286800003],[120.50446601600004,16.120142165000065],[120.50346678100004,16.121837374000048],[120.50299367500007,16.124543968000065],[120.50287591000006,16.12609831800006],[120.50363648500002,16.12887476300005],[120.50372604900006,16.13203231500006],[120.50409900900002,16.13437700300005],[120.50483825500008,16.135465987000035],[120.5050853800001,16.137002644000063]]],[[[120.4973624820001,16.17368511500007],[120.4949856840001,16.173940781000052],[120.49369879392212,16.173876854891212],[120.4941890189505,16.174532179189047],[120.49506290081428,16.17548708481146],[120.49806216200011,16.175242510000032],[120.4991020110001,16.174843035000038],[120.50076576900007,16.17304538900004],[120.50153822800009,16.171561606000072],[120.50207300800002,16.169307375000074],[120.50216213800003,16.164941514000077],[120.50239981700008,16.163771560000047],[120.50254836700005,16.161317490000044],[120.50254836700005,16.15806437200007],[120.50388531600005,16.155610231000022],[120.50403386500011,16.154040706000046],[120.50382589600008,16.15261385400003],[120.50280059400008,16.153796991000032],[120.5025914360001,16.15545897700002],[120.5015646590001,16.15759579500007],[120.50150761600003,16.159129907000022],[120.50177381700007,16.16179631200004],[120.50137451600006,16.164407892000042],[120.50107028500008,16.168425640000066],[120.50040478200003,16.170471008000046],[120.49869348800007,16.172552879000026],[120.4973624820001,16.17368511500007]]]]}},{"type":"Feature","properties":{"fid":176,"objectid":9618,"lccode":"05","liqcode":null,"mappers":"DJLBuhay, MITAbigania","project":"LiquePhi","province":"Pangasinan","otherinfo":null,"datemapped":2024,"publishdate":null,"globalid":"{5ACB73C5-6107-4512-9787-F18573022798}","st_area(shape)":0.06533832536059311,"st_perimeter(shape)":23.271340040578984,"liqcodepk":null,"creator":null,"createdate":null,"editor":null,"modifydate":null,"codemove":null},"geometry":{"type":"MultiPolygon","coordinates":[[[[120.57114062000007,16.127868110000065],[120.56996921000008,16.12993714500004],[120.5686481350001,16.131709846000035],[120.5699192830001,16.130182785000045],[120.57131650400005,16.129660939000075],[120.57237087800002,16.12881492100007],[120.57319543116968,16.127729435141944],[120.57237397032948,16.125998122123917],[120.57114062000007,16.127868110000065]]],[[[120.50205495400006,16.129856728000043],[120.50329088900004,16.130989208000077],[120.50372604900006,16.13203231500006],[120.50363648500002,16.12887476300005],[120.50287591000006,16.12609831800006],[120.50299367500007,16.124543968000065],[120.50178875300004,16.126678441000028],[120.50131339300003,16.128048398000033],[120.50205495400006,16.129856728000043]]],[[[120.56361252800004,16.12139441200002],[120.56418296000002,16.119168152000043],[120.56571599400002,16.117729632000078],[120.56638305057648,16.11725085189215],[120.56409619782158,16.114753157881506],[120.56073565083017,16.111738121572813],[120.55708568029098,16.109055976024408],[120.55318143350772,16.106732537010473],[120.54906050085523,16.104790166015874],[120.54476255413546,16.10324755543615],[120.54032896509268,16.102119549082044],[120.53580240774049,16.101416999697495],[120.53122644830081,16.10114666484526],[120.53113736214739,16.101149864136563],[120.53172508400006,16.10147736900006],[120.53422072100012,16.103772334000038],[120.53561114800004,16.104765669000074],[120.53714418200003,16.10627278800007],[120.54006764300004,16.10743737200005],[120.54227806400002,16.108464941000022],[120.54488065700002,16.10938974800007],[120.54644934300006,16.110691321000047],[120.54730499000004,16.112643665000064],[120.54799305900009,16.11518505400005],[120.54783977000011,16.11671954900003],[120.54851715700012,16.119151339000037],[120.54965802000004,16.12072684900005],[120.55047801500007,16.122884592000048],[120.55008584300003,16.123740833000056],[120.54917858000012,16.123851803000036],[120.54434587800007,16.12148034900002],[120.54220676000011,16.120110346000047],[120.54063807400007,16.11870608400005],[120.53742939800009,16.11641129200007],[120.5360746230001,16.11562352100003],[120.53261638300013,16.11394521700003],[120.53008509400001,16.11257516200004],[120.52869466800009,16.111650370000064],[120.52684076600009,16.109629512000023],[120.52623468200011,16.10819092300005],[120.52463034400012,16.10613577800006],[120.52265024600001,16.10400240900003],[120.5215029540001,16.10419433100003],[120.5220590570001,16.106179742000055],[120.52140252200002,16.10736030200007],[120.5192921480001,16.10772582100003],[120.5176672330001,16.108593394000017],[120.51652507600011,16.108343873000024],[120.51506400000001,16.10754765300004],[120.51407706200008,16.107610156000074],[120.513200116,16.10815281000003],[120.5120310320001,16.110077800000056],[120.51131799300003,16.112772266000036],[120.51154378900003,16.115044266000037],[120.51220929200008,16.11817250500008],[120.51339769100001,16.122579357000067],[120.51409977900006,16.123714895000035],[120.5162854990001,16.126552289000074],[120.517470451,16.127684702000067],[120.52012659400009,16.12973224300003],[120.5212411220001,16.131153028000032],[120.52210525500004,16.132902870000066],[120.52326139900003,16.134018446000027],[120.52387636600008,16.136718186000053],[120.52585210800011,16.13843636100006],[120.5263943560001,16.139491216000067],[120.52571929300008,16.14009833900007],[120.52296430000001,16.140160120000075],[120.52184123600011,16.139829733000052],[120.52042112700008,16.138253710000072],[120.51949417600008,16.135902065000035],[120.51779476600007,16.134178269000063],[120.51653506300012,16.13216905700005],[120.51577448800003,16.131392766000033],[120.5129817510001,16.12952052000003],[120.51150813700006,16.128184821000044],[120.51066437400004,16.12791083100006],[120.50990379900007,16.128401730000068],[120.50936901900003,16.12937210900003],[120.50939278700004,16.130273987000066],[120.51119915300002,16.13843636100006],[120.51138929700005,16.140753729000036],[120.51124668900002,16.142306236000017],[120.51026031800006,16.145502537000027],[120.50866952000001,16.149279718000056],[120.50765938200006,16.152333219000067],[120.50682750200008,16.156899115000048],[120.50679779300003,16.16132222600004],[120.50572823400012,16.16748588100006],[120.50433186500005,16.172222633000047],[120.50308404700002,16.174162956000032],[120.50216303800006,16.175960592000028],[120.50168767800005,16.17755847600005],[120.5016282580001,16.179299014000037],[120.50192535800012,16.18138193300007],[120.50210891445008,16.18198633832539],[120.50423786764061,16.183551249667918],[120.50579609886137,16.184478821094974],[120.50588163600003,16.18310563200004],[120.50668974700011,16.18093713200005],[120.50682277400006,16.179466127000065],[120.50610830200004,16.177916774000035],[120.50635699600001,16.176565820000064],[120.50624910800002,16.175034256000057],[120.50578656400012,16.173415677000037],[120.50592917200004,16.172890648000077],[120.5070700350001,16.171772104000073],[120.50800887000001,16.171269898000048],[120.50923292000004,16.16976327400005],[120.50932799200007,16.168667540000055],[120.50981548300001,16.167599621000022],[120.5097857730001,16.166429684000033],[120.51070678200006,16.165031457000055],[120.51195460100008,16.164432214000044],[120.51373719900006,16.164004182000042],[120.51504443700003,16.16311957900007],[120.51573189900012,16.16218559500004],[120.5164302160001,16.160106434000053],[120.5180170970001,16.159378182000065],[120.51768862400002,16.158297],[120.51643184200009,16.15773759000007],[120.51635369300003,16.156748283000066],[120.51715384500005,16.15424480200005],[120.51843137300013,16.152332820000023],[120.51985745200011,16.15082034400007],[120.52125382000007,16.149878607000066],[120.52155092000011,16.148309037000043],[120.52110813800006,16.146070403000067],[120.52079335000009,16.145593474000062],[120.51921792200005,16.144838232000037],[120.51922953600001,16.143930955000034],[120.52095970700009,16.142629087000053],[120.52265850600008,16.14223077900004],[120.52353163200009,16.14078797100006],[120.52419426200002,16.140571675000043],[120.52552446900006,16.14078212900006],[120.52657877700005,16.141521245000032],[120.52598158300009,16.142379493000018],[120.52636611300011,16.14327303800007],[120.52767967700004,16.144149188000018],[120.52861925900004,16.144269529000038],[120.5292201630001,16.143789416000065],[120.52976358300009,16.14471300200006],[120.52907226700006,16.14622479700006],[120.53026848200011,16.14734453500006],[120.53049565500011,16.148129623000045],[120.52957196700004,16.14854404500005],[120.5291346360001,16.14996864300002],[120.52966703900006,16.150954897000076],[120.529400838,16.151703717000032],[120.52833603200008,16.152836072000067],[120.52827898900011,16.15415105800002],[120.52938182300011,16.154096267000057],[120.5301614130001,16.154662439000045],[120.53240510900002,16.154571121000053],[120.53286145400011,16.154278903000034],[120.53362202900007,16.152799545000047],[120.53497205000008,16.152507325000045],[120.53622699900006,16.151758508000054],[120.53674682500002,16.15057917400003],[120.53810485600003,16.149532477000037],[120.53963010800011,16.149052496000024],[120.5401981230001,16.14752809200007],[120.54111785100007,16.147043420000042],[120.54196266900009,16.146148782000065],[120.54276436500004,16.145872188000055],[120.54318582800012,16.143780995000046],[120.54492895900012,16.14133116200003],[120.54516117000001,16.140676584000058],[120.54431672800001,16.139168492000067],[120.54430832600008,16.13817975800004],[120.5450133060001,16.137556912000036],[120.54669072500009,16.137462421000066],[120.54772355300008,16.13705953400006],[120.55056801400008,16.134457609000037],[120.55176495500008,16.134644638000058],[120.5530773390001,16.134492405000064],[120.5532180440001,16.135115432000074],[120.55259984200008,16.13612410300004],[120.5539441840001,16.136390490000046],[120.55403867200006,16.13732237200003],[120.55571994900004,16.13896241200007],[120.55543248800008,16.14024632600007],[120.5531197900001,16.142555862000048],[120.55288831500003,16.143675876000028],[120.553153027,16.145340900000065],[120.55267293800011,16.146288444000046],[120.5516265990001,16.14694702800006],[120.55215623900007,16.147414940000033],[120.55223799200007,16.150417770000047],[120.55267999900003,16.151474468000057],[120.55394669000007,16.151753122000063],[120.55332181500012,16.152957731000072],[120.55313642400007,16.154437088000066],[120.55203834400004,16.156683498000064],[120.55258025400006,16.15792997100004],[120.5534786830001,16.15708072600006],[120.5538779850001,16.15502608800006],[120.55490476200009,16.154341204000048],[120.55563206200009,16.15325908200003],[120.5555945530001,16.152559562000018],[120.5562220710001,16.15140042200005],[120.55810926000005,16.15036073000004],[120.55807260200004,16.14952442200007],[120.55728668000006,16.14834302600008],[120.55795760000001,16.147003522000038],[120.55873960800011,16.146955124000044],[120.55922733700005,16.145162462000023],[120.56011863600008,16.14310770000003],[120.56108123900005,16.14187483300003],[120.56197253800008,16.14009401100003],[120.56193688600003,16.13550489500005],[120.56225775400003,16.133689768000064],[120.56368383200004,16.130675935000053],[120.56368383200004,16.12844977900005],[120.56343426900004,16.126326346000045],[120.56361252800004,16.12139441200002]]],[[[120.56264781300003,16.157741212000072],[120.56337828200004,16.15700200400005],[120.56372054000008,16.15490170600003],[120.56467125900008,16.152490902000068],[120.56434801500005,16.15031750000003],[120.56470928800002,16.149605203000025],[120.56691574800004,16.148333565000026],[120.56794252500002,16.146068796000066],[120.56761928000003,16.14486334400004],[120.56779041000006,16.143365650000074],[120.56830379800012,16.142598535000047],[120.56805661100007,16.14091817600007],[120.5686769550001,16.139073417000077],[120.56858188300009,16.137920435000062],[120.56779754000002,16.136756030000072],[120.56803954700003,16.134245463000067],[120.56625219600005,16.137460158000064],[120.56592895100006,16.139030956000056],[120.56467400300004,16.14167936700005],[120.56332398200004,16.143487571000037],[120.56279157900008,16.14452865100003],[120.56225917600013,16.147542273000052],[120.56227819100002,16.152645687000067],[120.56343231400002,16.154517410000043],[120.5630429250001,16.155002230000033],[120.56293302800007,16.15693762500007],[120.56264781300003,16.157741212000072]]],[[[120.56047513900012,16.16193189800003],[120.5615589590001,16.160489123000044],[120.56153994400006,16.159649021000064],[120.56219146700005,16.158216057000057],[120.5614846960001,16.159182665000056],[120.56008918400005,16.160231980000045],[120.55956748300002,16.16261745200006],[120.56047513900012,16.16193189800003]]],[[[120.5015646590001,16.15759579500007],[120.5025914360001,16.15545897700002],[120.50280059400008,16.153796991000032],[120.50175670500005,16.155024019000045],[120.50038766900002,16.155517134000036],[120.49933237100004,16.157338910000018],[120.49837689900004,16.15787311200007],[120.4969650810001,16.158051179000037],[120.49667986600001,16.158941511000023],[120.49521100500009,16.160160575000077],[120.49444092300008,16.16132484200006],[120.49418422800011,16.163119170000073],[120.49312893,16.164817603000074],[120.49412718500004,16.166625596000074],[120.49446944400006,16.169775848000025],[120.49314977305079,16.173142927595478],[120.49369879392212,16.173876854891212],[120.4949856840001,16.173940781000052],[120.4973624820001,16.17368511500007],[120.49869348800007,16.172552879000026],[120.50040478200003,16.170471008000046],[120.50107028500008,16.168425640000066],[120.50137451600006,16.164407892000042],[120.50177381700007,16.16179631200004],[120.50150761600003,16.159129907000022],[120.5015646590001,16.15759579500007]]],[[[120.55468882600007,16.170357768000024],[120.55421346700008,16.17078578600007],[120.55222289900009,16.170985527000028],[120.55156928000008,16.171927163000074],[120.55189608900004,16.173125602000027],[120.54975697200007,16.176892078000037],[120.54951929200003,16.179488621000075],[120.55047001100002,16.18057288200004],[120.55026204100012,16.181828335000034],[120.55052943100009,16.182884050000037],[120.55150986000002,16.181970999000043],[120.55311419800012,16.181314741000048],[120.5542431770001,16.179602754000026],[120.55421346700008,16.178176087000054],[120.55353013700005,16.177320082000055],[120.55406491700012,16.176121668000064],[120.5545996960001,16.176121668000064],[120.55525331500006,16.177148880000058],[120.55581780500005,16.176977679000064],[120.555490995,16.175864864000058],[120.557095333,16.174295500000035],[120.55765982300011,16.17284026000004],[120.55646860200011,16.170120645000058],[120.55575556200006,16.16947005500003],[120.55525643500003,16.16806614200004],[120.55584716200008,16.161956982000053],[120.55565701800005,16.161089492000027],[120.55516418600008,16.16208256700002],[120.55451056600009,16.164422486000042],[120.5542431770001,16.166847983000025],[120.55430259700006,16.168074988000058],[120.5548967960001,16.16901663800007],[120.55468882600007,16.170357768000024]]]]}}]}