{"type":"FeatureCollection","features":[{"type":"Feature","properties":{"fid":99,"objectid":1955,"lccode":"01","liqcode":"2010600010000000","mappers":"DJLBuhay, MJVReyes, MITAbigania, KLPapiona, KMVitto","project":"MELP","province":"Palawan","otherinfo":null,"datemapped":2018,"publishdate":null,"globalid":"{E70402A7-ADA2-4D45-93BC-46C7B654BDC8}","st_area(shape)":0.142808258668549,"st_perimeter(shape)":79.69829854453282,"liqcodepk":"201060001000000000950","creator":"SDE","createdate":"2019-06-04T11:09:46","editor":"SDE","modifydate":"2019-06-04T11:12:34","codemove":"na"},"geometry":{"type":"MultiPolygon","coordinates":[[[[117.97975877600005,8.994955014000027],[117.98054584300007,8.993535137000038],[117.98131325000008,8.993054863000053],[117.98155709000002,8.991954382000072],[117.98324201700008,8.990023974000053],[117.98462421400006,8.989966526000044],[117.98519129600004,8.989192178000055],[117.98966321600005,8.987688948000027],[117.99163165500009,8.98546486600003],[117.99263409700006,8.98233107900006],[117.99394742400013,8.981700379000074],[117.99487305300009,8.980543203000023],[117.99546931700002,8.978459176000056],[117.99610228800009,8.977075271000045],[117.99598164200005,8.976081710000074],[117.99540429300008,8.974814889000072],[117.9961179080001,8.973145944000066],[117.9957904470001,8.971844368000061],[117.9960865590001,8.971237976000054],[117.99548478700001,8.97035233500003],[117.99399725,8.969702647000075],[117.99253120700006,8.967489070000056],[117.99160519600002,8.966465500000027],[117.99181116100011,8.965438231000064],[117.99383491300011,8.964759921000052],[117.99319446100003,8.962500335000072],[117.99264912700006,8.962109823000047],[117.99260844800006,8.960297082000066],[117.99370526000007,8.959189316000048],[117.99500932400008,8.959226081000052],[117.99580918300002,8.959656588000028],[117.99788913700002,8.959074374000068],[117.99830475800002,8.958145308000041],[118.00032966900005,8.955979056000043],[118.00083104707869,8.955686860426944],[117.99872079296576,8.954139515955758],[117.99488659414959,8.951868465158343],[117.99084702252881,8.949981981946422],[117.98776132887039,8.948893460024205],[117.98746989700008,8.949455683000052],[117.98660153700008,8.949825402000045],[117.98586328200008,8.951198330000066],[117.98419127400007,8.952463196000055],[117.9816117270001,8.95171283700006],[117.98205579600007,8.952553404000072],[117.98400146700008,8.955026207000056],[117.98362119700005,8.955849030000023],[117.98293005300002,8.955733175000033],[117.98227385400003,8.95636803900004],[117.97993766800003,8.95570680000003],[117.97828732000005,8.95659862000002],[117.97722295100004,8.955369444000041],[117.97536131700008,8.954728946000046],[117.97433048500012,8.953312915000025],[117.97270061200004,8.952561118000062],[117.9708585210001,8.952593259000023],[117.96900224900004,8.95156655300002],[117.9674598920001,8.951774435000061],[117.96677176700007,8.952637721000029],[117.96491450000008,8.953771180000047],[117.96328444900007,8.954077983000047],[117.96212002300001,8.955049201000065],[117.96380483200005,8.95598776600002],[117.96418474400002,8.956608104000052],[117.96218573800002,8.958626564000042],[117.96321379300001,8.959219256000038],[117.96431909500006,8.95834095200007],[117.96652249400007,8.957626171000072],[117.96792962000008,8.95736017000007],[117.9693935700001,8.957623329000057],[117.97024546100009,8.957092740000062],[117.9719212220001,8.957102615000052],[117.97321416700004,8.958104568000067],[117.97455812400005,8.95872372800005],[117.97513059200003,8.959990464000043],[117.97867603000009,8.961215415000026],[117.97897597000008,8.961949164000034],[117.97853481400011,8.962763333000053],[117.9765510310001,8.96315358500004],[117.97579356400003,8.963739358000055],[117.97828280400007,8.964477490000034],[117.97868652000011,8.965248721000027],[117.97668902100008,8.966975212000023],[117.9753691620001,8.967227094000066],[117.97378860700006,8.96653511300002],[117.97186724399998,8.965006781000056],[117.97216321300003,8.966498647000035],[117.974335847,8.967544001000023],[117.97485578900013,8.968439308000029],[117.9764767690001,8.968803509000052],[117.97811132700008,8.968436498000074],[117.9792534940001,8.969453333000047],[117.97904456100002,8.970412176000023],[117.97933798600003,8.973134356000058],[117.98028215400008,8.97248913300007],[117.98063845900003,8.970648480000023],[117.98121705100003,8.969383102000053],[117.98129212700006,8.968110867000062],[117.98250369000006,8.967867633000024],[117.98317043400004,8.969027],[117.982979279,8.970405860000028],[117.98333492200005,8.971163095000065],[117.98316789800005,8.972346027000073],[117.98366215800003,8.973025153000037],[117.98363536500005,8.974970447000032],[117.98456673800001,8.976299311000048],[117.9843781410001,8.977455556000054],[117.98345996600005,8.979345789000034],[117.98338033800009,8.98094701000002],[117.98375322200002,8.982172012000035],[117.9825386980001,8.982594186000028],[117.979983532,8.982845471000077],[117.97839638900007,8.983853869000027],[117.97588090700003,8.984010287000046],[117.97510572300007,8.984571948000054],[117.97473146400013,8.986665069000026],[117.9728698780001,8.98948178100005],[117.97209777000012,8.991207029000066],[117.9722338160001,8.992467824000071],[117.97356497700002,8.993325314000062],[117.97358751400007,8.994470111000055],[117.97231355400004,8.995024932000037],[117.97022319300004,8.994958186000076],[117.9701508600001,8.996025379000061],[117.96850503200005,8.997109183000022],[117.96562475700011,8.997279558000058],[117.96254949500008,8.997676130000059],[117.96210274700002,8.99807057000004],[117.961696877,8.99966726100007],[117.9617419870001,9.000564379000023],[117.96243639200009,9.001680222000061],[117.9622802350001,9.003205756000058],[117.96327724500009,9.004686451000055],[117.96336508000002,9.006652330000062],[117.96491121700001,9.007226699000055],[117.9659473590001,9.007221835000053],[117.9672277190001,9.006209361000062],[117.96681401900004,9.004219931000023],[117.96716392500002,9.00250801100003],[117.96637252900008,9.001467137000075],[117.96663221400001,9.000726787000072],[117.96757997700003,9.00008759900004],[117.97054109100009,8.999712139000051],[117.97171731000003,8.999289520000046],[117.973267942,8.99953963400003],[117.97518622100007,8.999565874000037],[117.97621504700011,8.998702500000034],[117.97748375000005,8.998529095000036],[117.97897243000013,8.997710141000027],[117.97943182300003,8.996400245000073],[117.9790408460001,8.995536532000074],[117.97975877600005,8.994955014000027]]],[[[118.01294731800012,8.969496307000043],[118.01214593800013,8.969714144000022],[118.01112509000006,8.971180060000052],[118.00555518600002,8.974103152000053],[118.00412577000009,8.975156778000041],[118.00328532900006,8.976981409000073],[118.00195040300004,8.97785379800007],[118.00117694200003,8.981086148000031],[117.99997766400007,8.981794733000072],[117.99965842300004,8.982686946000058],[118.00015009700007,8.983208665000063],[118.00284118000003,8.98284462300006],[118.00396667800011,8.98331771700003],[118.00381367500006,8.98188496600005],[118.00446948100011,8.98023428400006],[118.00568819700003,8.979506865000074],[118.00669589200004,8.978362963000048],[118.00819104700008,8.977763271000072],[118.0093599810001,8.976467651000062],[118.01105609900002,8.975203008000049],[118.011708343,8.973680338000067],[118.01259317400002,8.973292386000026],[118.01379244600001,8.973521940000069],[118.01498634139057,8.973259093966398],[118.01360750370509,8.970381105587386],[118.0132484365908,8.96978918238551],[118.01294731800012,8.969496307000043]]],[[[118.0153428660001,8.974156598000034],[118.01550322609441,8.974337950286268],[118.01532915833556,8.973974632056722],[118.0153428660001,8.974156598000034]]],[[[118.01537655400011,8.97605901700007],[118.01450716800002,8.976417503000048],[118.014155178,8.978558126000053],[118.01315295000006,8.979939482000075],[118.01384147100008,8.98044954900007],[118.01474197900005,8.980366363000028],[118.01460587300005,8.978921902000025],[118.01630811700011,8.978086524000046],[118.01712265400012,8.979027502000063],[118.01680872200008,8.980060512000023],[118.01745060100006,8.98047456300003],[118.01749445377786,8.98033583801808],[118.0170421239381,8.978561319192846],[118.01656456230832,8.977245805396363],[118.0159098690001,8.976519289000064],[118.01613568477521,8.97606438900857],[118.01580773717433,8.975160994903097],[118.01537655400011,8.97605901700007]]]]}}]}