{"type":"FeatureCollection","features":[{"type":"Feature","properties":{"fid":207,"objectid":7271,"lccode":"01","liqcode":null,"mappers":"DJLBuhay, MJVReyes, MITAbigania, KLPapiona, KMVitto","project":"MELP","province":"Zamboanga del Norte","otherinfo":null,"datemapped":2020,"publishdate":2021,"globalid":"{6B0290BE-0A77-4263-894C-1C10E652B59E}","st_area(shape)":0.033021563613966895,"st_perimeter(shape)":18.189103020785044,"liqcodepk":null,"creator":null,"createdate":null,"editor":null,"modifydate":null,"codemove":null},"geometry":{"type":"Polygon","coordinates":[]}},{"type":"Feature","properties":{"fid":208,"objectid":7461,"lccode":"01","liqcode":null,"mappers":"DJLBuhay, MJVReyes, MITAbigania, KLPapiona, KMVitto","project":"MELP","province":"Zamboanga del Sur","otherinfo":null,"datemapped":2020,"publishdate":2021,"globalid":"{956CA67A-D8B3-4AFB-A15B-79E0A6393BB2}","st_area(shape)":0.059065434056611577,"st_perimeter(shape)":16.76855550220317,"liqcodepk":null,"creator":null,"createdate":null,"editor":null,"modifydate":null,"codemove":null},"geometry":{"type":"Polygon","coordinates":[]}},{"type":"Feature","properties":{"fid":209,"objectid":7568,"lccode":"01","liqcode":null,"mappers":"DJLBuhay, MJVReyes, MITAbigania, KLPapiona, KMVitto","project":"MELP","province":"Zamboanga Sibugay","otherinfo":null,"datemapped":2021,"publishdate":2021,"globalid":"{08423ED1-E932-4EA1-95BF-6D5A5DF8C9A2}","st_area(shape)":0.03611593413386012,"st_perimeter(shape)":14.29973412419831,"liqcodepk":null,"creator":null,"createdate":null,"editor":null,"modifydate":null,"codemove":null},"geometry":{"type":"MultiPolygon","coordinates":[[[[122.92309360600007,7.571370028000045],[122.92367592000006,7.570745669000076],[122.92319232100012,7.5689985960000286],[122.92314114100009,7.566009935000069],[122.92354519600009,7.563806976000023],[122.92468605700003,7.563689170000028],[122.92493562000004,7.562310842000043],[122.924590985,7.561368393000067],[122.92577938100011,7.560720458000048],[122.92583880100007,7.559624857000075],[122.92634834100012,7.559412441000063],[122.92600785900004,7.557495145000075],[122.92500036700004,7.556405878000022],[122.92500692400004,7.555360232000055],[122.92410374200006,7.553722700000037],[122.92313483700002,7.552691782000067],[122.92276627700006,7.551420382000059],[122.92276650400004,7.550142271000028],[122.92228694500011,7.549491200000034],[122.92234478900002,7.547902039000065],[122.92150904800006,7.547480704000067],[122.92083565300004,7.545841250000023],[122.92110898400006,7.5438738100000355],[122.92075246500008,7.5432729730000565],[122.92081188500003,7.5417885500000335],[122.92034841000007,7.5404926210000545],[122.92097826000008,7.539090656000041],[122.92094603800001,7.537466862000031],[122.92036134000011,7.53668368700005],[122.91969583800005,7.537143158000047],[122.91857874600011,7.5371078140000245],[122.9172952780001,7.5378146900000615],[122.91613065000001,7.539322690000064],[122.9149303690001,7.539534752000064],[122.9140271880001,7.5391695340000515],[122.9125892290001,7.539640783000036],[122.91087793800013,7.540689310000063],[122.91018866800003,7.541667148000043],[122.90903592400002,7.542586077000066],[122.90733651700009,7.542939511000044],[122.90478146500003,7.544117622000045],[122.90454378600009,7.544624209000062],[122.90202438600011,7.54402337400006],[122.9006696140001,7.543964468000068],[122.89979748726917,7.543692286816764],[122.8994782117434,7.545836767706431],[122.89944550279235,7.546498069528917],[122.89958712700002,7.546548112000038],[122.90069244800009,7.548370378000069],[122.90213108900004,7.550055606000059],[122.90329152800007,7.551048442000025],[122.90380593400006,7.552038037000048],[122.9038178180001,7.5536402340000555],[122.90438824800002,7.554535576000036],[122.90410556400002,7.5581550710000425],[122.90475763300005,7.559533771000076],[122.90465528800006,7.560415670000055],[122.90523201000009,7.560708678000026],[122.90562031800005,7.56298035200007],[122.9063010120001,7.564211827000065],[122.90626591400007,7.565432690000023],[122.9068601130001,7.5672468850000305],[122.90588562800009,7.568401369000071],[122.9063847540001,7.5697914580000525],[122.90558852900006,7.5707456690000745],[122.90776329400002,7.573891016000059],[122.90866647500002,7.573572949000041],[122.90918936900006,7.574173743000074],[122.91010907300006,7.57438435200004],[122.91124529500009,7.573796774000071],[122.91223166400006,7.574939460000054],[122.91216252700009,7.576784402000044],[122.91259861300011,7.578397712000027],[122.9127852800001,7.580479944000046],[122.91385039600004,7.57966163800006],[122.9137788170001,7.577766109000036],[122.91498503700006,7.577350594000052],[122.91585099600003,7.5785419530000695],[122.91576442000006,7.579719453000052],[122.9144688340001,7.581614715000059],[122.91460845600011,7.582608338000057],[122.91369339100005,7.582902839000041],[122.91378383128917,7.583390792057998],[122.91532256811801,7.584782927075379],[122.91637916700006,7.583644981000022],[122.91698679500008,7.584314876000064],[122.91618068300012,7.585319919000025],[122.91634745800857,7.585623937965787],[122.91731449294862,7.58633985733954],[122.91770137200002,7.586187063000071],[122.91924573300003,7.587058054000064],[122.91989317400011,7.5880059310000565],[122.92062722900003,7.587532187000022],[122.92101602500009,7.5862973010000605],[122.91987926900003,7.585378056000026],[122.92005131100007,7.58320912000005],[122.91962348800006,7.582455197000059],[122.92026847200009,7.581931736000058],[122.92031222200002,7.578801271000033],[122.92079244800004,7.576618524000025],[122.92282660000001,7.575470092000048],[122.92351027000007,7.573684249000054],[122.92309360600007,7.571370028000045]],[[122.91729423200002,7.559377463000034],[122.91907682600005,7.559165411000039],[122.9188629150001,7.558081586000069],[122.91933827300011,7.556985978000058],[122.92043159800004,7.557339401000033],[122.92030087400006,7.55819939300005],[122.92074058100003,7.558811990000038],[122.92254694300004,7.558305420000065],[122.92290346200004,7.5586352790000415],[122.9229757600001,7.560309176000031],[122.92335505300002,7.562558235000038],[122.92296288200009,7.563477120000072],[122.92163187800008,7.565267763000065],[122.92096637600002,7.564396003000068],[122.91978986400011,7.564313540000058],[122.9193858090001,7.563406437000028],[122.91980174800007,7.562216597000031],[122.91893421900012,7.561710031000076],[122.91825683300011,7.562687821000057],[122.91748437500009,7.562711382000033],[122.91675945300007,7.562039888000072],[122.91658119400005,7.560602652000057],[122.91729423200002,7.559377463000034]],[[122.91647614900013,7.571199223000063],[122.91743563000013,7.570759033000061],[122.91812589300001,7.573420545000032],[122.9178290100001,7.573973478000026],[122.9163197470001,7.574103061000071],[122.91578496900001,7.573726092000075],[122.91654554200012,7.573125297000043],[122.91647614900013,7.571199223000063]]],[[[122.96114524900008,7.509584810000036],[122.95954804100008,7.50997238600007],[122.95861271000003,7.510489260000042],[122.95915942800004,7.511164232000055],[122.96009475800007,7.51066171700006],[122.96061273500004,7.510948964000022],[122.960252921,7.511939773000052],[122.96061255700009,7.512930647000075],[122.96231048100003,7.5127297560000565],[122.9620945710001,7.513591339000074],[122.96255493900003,7.514553499000044],[122.96212317100003,7.5156448240000495],[122.96360517100004,7.516621430000042],[122.96445411300012,7.516851260000065],[122.96521677700002,7.51637744100003],[122.96574329400003,7.515132038000046],[122.96632746200008,7.512758801000076],[122.96655325700011,7.511698425000077],[122.96583875420689,7.510338640752556],[122.96193142334988,7.5084939305393235],[122.9616403840302,7.508389975425058],[122.96114524900008,7.509584810000036]]],[[[122.93687410700011,7.506192386000063],[122.937132019114,7.505712306854258],[122.93595082839643,7.505886995113174],[122.93687410700011,7.506192386000063]]],[[[122.92915547300004,7.517479746000049],[122.93026123800007,7.517631624000047],[122.93081300900008,7.516458977000069],[122.92996894600003,7.5149487280000375],[122.92919112400013,7.516183744000046],[122.92915547300004,7.517479746000049]]],[[[122.94886656400001,7.523153725000042],[122.94974903800005,7.523804814000072],[122.94896217300004,7.525891711000044],[122.95024749700009,7.527078953000057],[122.95057351600008,7.528342671000075],[122.95178228900012,7.52788328500003],[122.95120682400011,7.526849301000027],[122.95099598400009,7.525011196000037],[122.95132233000005,7.5233454710000265],[122.95099643900006,7.520952100000047],[122.95138021600006,7.520396889000038],[122.95061292600009,7.519171415000071],[122.95105443000011,7.517084476000036],[122.95184118200008,7.515782588000036],[122.95153441700005,7.513944472000048],[122.950498454,7.513503983000025],[122.95021052600008,7.514786778000031],[122.94942384700005,7.515437676000036],[122.9481959200001,7.515897053000059],[122.94961541500004,7.517926767000062],[122.94950010800005,7.519592515000057],[122.94844471100009,7.521162421000041],[122.9492887460001,7.522349613000076],[122.94886656400001,7.523153725000042]]],[[[122.9330980740001,7.521675379000043],[122.93358714500006,7.521041432000063],[122.93324313300002,7.519367255000076],[122.93235116200002,7.518318838000028],[122.93143614700011,7.519203479000051],[122.92999818800003,7.519097443000022],[122.92942985400009,7.5201564590000185],[122.9283649370001,7.5208312070000725],[122.92750360200012,7.520790425000028],[122.92757490600002,7.522204230000054],[122.92843055100002,7.523500214000022],[122.9286919980001,7.524631252000063],[122.92844243500006,7.525550217000046],[122.92636274100006,7.527576648000037],[122.92465145100005,7.530097891000024],[122.92285697200009,7.530686965000028],[122.92296392800006,7.531276038000044],[122.92440188800003,7.531122879000065],[122.92523376500003,7.530168580000066],[122.92549521200011,7.5290729020000535],[122.92758678900009,7.52807147300007],[122.92824892600002,7.52628799000007],[122.92976050900008,7.525624498000071],[122.93094890500004,7.523680530000033],[122.93118658400012,7.522796905000062],[122.93213730100003,7.5216658630000675],[122.9330980740001,7.521675379000043]]]]}}]}