{"type":"FeatureCollection","features":[{"type":"Feature","properties":{"fid":171,"objectid":9613,"lccode":"01","liqcode":"2010600010000000","mappers":"DJLBuhay, MJVReyes, MITAbigania, KLPapiona, KMVitto","project":"MELP","province":"Nueva Ecija","otherinfo":"hazard boundary with Pangasinan updated on 2024","datemapped":2018,"publishdate":null,"globalid":"{142EC992-C228-490B-8C06-5B4A68BA1242}","st_area(shape)":0.21874224791512728,"st_perimeter(shape)":7.9099228422392365,"liqcodepk":"201060001000000000019","creator":"SNOOPYPC","createdate":"2019-02-19T15:21:28","editor":"LENOVO","modifydate":"2019-03-10T17:53:06","codemove":"na"},"geometry":{"type":"Polygon","coordinates":[]}},{"type":"Feature","properties":{"fid":174,"objectid":9616,"lccode":"07","liqcode":null,"mappers":"DJLBuhay, MITAbigania","project":"LiquePhi","province":"Pangasinan","otherinfo":null,"datemapped":2024,"publishdate":null,"globalid":"{4C1C6B5C-6BC5-4098-AF34-1358D72BE295}","st_area(shape)":0.0990952810399136,"st_perimeter(shape)":16.14272038398808,"liqcodepk":null,"creator":null,"createdate":null,"editor":null,"modifydate":null,"codemove":null},"geometry":{"type":"Polygon","coordinates":[[[120.55745646600009,16.00956123900005],[120.55849037300005,16.009218547000042],[120.55950051200011,16.010555044000053],[120.56068788900006,16.01118038900006],[120.56439671400005,16.010977695000065],[120.56739539400007,16.012248929000066],[120.56925959100012,16.012786490000053],[120.57316709600002,16.013536429000048],[120.5757438940001,16.014676285000053],[120.57726034500001,16.015672908000056],[120.57847161200006,16.016172912000062],[120.5798419990001,16.01822300200007],[120.58017347100008,16.019473491000042],[120.58027582300008,16.021611401000033],[120.5801379840001,16.023078502000033],[120.58058325900005,16.025632062000053],[120.58151662900002,16.027603889000034],[120.58259570200006,16.029020860000056],[120.58531050300007,16.031552731000033],[120.58649890200002,16.033408767000026],[120.58813295000006,16.03637839000004],[120.59003438800005,16.04203197100003],[120.59089597700007,16.046828824000045],[120.59098510700005,16.050369283000066],[120.59077713700003,16.052282248000036],[120.58949500900007,16.058237545000054],[120.58941136500005,16.05920070500002],[120.589618448,16.062160845000047],[120.59021264800003,16.06461614300002],[120.5916595860001,16.067351117000044],[120.59157911700005,16.069101526000054],[120.5922750430001,16.070603434000073],[120.5936726000001,16.071370828000052],[120.595070157,16.07254932000006],[120.59725391000006,16.07298105800004],[120.59803596400002,16.073367207000047],[120.60126475500012,16.076549601000067],[120.60200952011016,16.077407199917225],[120.60406952568844,16.077135307746385],[120.60426140307695,16.0770911151717],[120.60429692400011,16.07692178400003],[120.60525500800009,16.075551054000073],[120.60691133700006,16.074493317000076],[120.60923428400008,16.074666325000067],[120.61054220573085,16.075436956222372],[120.6128626256709,16.07466330302565],[120.61654090011103,16.07303114025747],[120.61451540000009,16.07260802300004],[120.61291340600006,16.071815010000023],[120.61109392100002,16.07018542900005],[120.60928644600006,16.069353450000055],[120.60661856200011,16.068821372000055],[120.60370097200008,16.068839565000072],[120.60076515200001,16.068644178000053],[120.59782514500012,16.06773283900003],[120.59573786500006,16.066289708000053],[120.59508508200008,16.064043243000068],[120.59472856200011,16.059932017000047],[120.59518917300011,16.056270554000033],[120.59570673000007,16.055127758000022],[120.59722804000012,16.05407928700003],[120.59763709800006,16.05330887700006],[120.59752129900005,16.05159510500005],[120.59782015700013,16.050159068000028],[120.59863135800003,16.048081595000042],[120.59912563700004,16.044228639000035],[120.59894737800006,16.038061156000026],[120.59900679700003,16.03526288300003],[120.59859085800007,16.033492527000018],[120.59579812100003,16.030465752000058],[120.59346213700009,16.02878188300002],[120.592485882,16.02740320600003],[120.59188578700001,16.025819631000047],[120.590168274,16.023710308000034],[120.58959176400003,16.02205648000006],[120.5897460430001,16.021376738000072],[120.59135866400003,16.020034329000055],[120.59312630000012,16.01954369400005],[120.59605580000003,16.019394546000058],[120.59734367000011,16.018980718000023],[120.59896565400004,16.019056813000073],[120.60010799900012,16.019737560000074],[120.60323342900006,16.02064708600005],[120.6044200450001,16.021970372000055],[120.60552034100012,16.02447453700006],[120.60617887500007,16.025351363000027],[120.60648785900001,16.026744863000026],[120.6071628950001,16.02667095400005],[120.60743051000009,16.024431934000066],[120.60644837000007,16.022875883000037],[120.60577482000008,16.021170804000064],[120.60387338200009,16.019366056000017],[120.59957137900005,16.017881123000052],[120.59758119000003,16.016580886000042],[120.5952294020001,16.017171532000077],[120.59371816500006,16.017010226000025],[120.59228217400005,16.016314832000035],[120.59085609500005,16.016040687000046],[120.58761283600008,16.014976443000027],[120.58691537500012,16.013993723000056],[120.58745688500005,16.013645104000027],[120.59054735300002,16.01369387400007],[120.59351098700004,16.01397944500007],[120.59561646300006,16.013485319000043],[120.5976744210001,16.01144132100006],[120.59943325100006,16.010870172000068],[120.60036020200006,16.011098631000035],[120.60333119900008,16.01249223100006],[120.6062071230001,16.013223296000035],[120.60915376600008,16.01466430000005],[120.6109804470001,16.015235951000022],[120.6147618530001,16.015303446000072],[120.61716012000011,16.014721927000043],[120.62007952200007,16.014401265000057],[120.62126431600005,16.014645479000023],[120.62367576100007,16.015581894000036],[120.62967173800008,16.016155361000074],[120.63397596100003,16.01683513000006],[120.63670927800001,16.016606677000027],[120.63907383700007,16.016606677000023],[120.63907704629409,16.01660735554889],[120.6388372981079,16.015935297651467],[120.63692515840107,16.011907141065347],[120.63585662899902,16.010137512306617],[120.63101649400006,16.009035550000018],[120.62774839800011,16.00772188800005],[120.62595026000008,16.006496697000046],[120.62458761100005,16.005069446000046],[120.62348748500006,16.003595982000036],[120.62206889300013,16.001178772000053],[120.62133104500003,15.99855457600006],[120.62111618100003,15.996833929000049],[120.6212266027437,15.995088981661302],[120.61797550483824,15.993154815379224],[120.61385593821267,15.991213907601418],[120.61083087186694,15.99012885124678],[120.61231739500012,15.992700451000077],[120.61341072200004,15.996264719000061],[120.61350579400005,15.999737535000067],[120.61335272300005,16.001010090000023],[120.61434147000013,16.00164980900007],[120.61593012700007,16.003575839000064],[120.61792663700008,16.00540357800003],[120.61944826100012,16.007672849000077],[120.61930031800011,16.00950583100007],[120.61961463700004,16.011423044000026],[120.61875899000006,16.011720041000046],[120.61652480000008,16.011742887000025],[120.61452829100006,16.012588183000044],[120.61246047700001,16.01302225300003],[120.60994107200007,16.01277095000006],[120.60592428400001,16.011057509000064],[120.60356361000002,16.010299215000025],[120.60076026600008,16.00901593000003],[120.59950693200005,16.008681513000052],[120.597981612,16.008959019000027],[120.5954426080001,16.010554897000077],[120.59442058600008,16.011788579000036],[120.59106930100008,16.011742887000022],[120.58923916800008,16.01208557500007],[120.58619686700003,16.012291188000063],[120.58488962900003,16.010851895000027],[120.58290399600001,16.009448390000042],[120.57850692100008,16.00784915300005],[120.57534055100005,16.006497733000064],[120.57107420000013,16.00562956400006],[120.56979072900005,16.005652411000025],[120.56823794800006,16.00511378300007],[120.567743574,16.005643825000043],[120.56618439500006,16.00576262700002],[120.56266033700001,16.00412168300005],[120.56115630100011,16.003165597000077],[120.56065168736914,16.002730291293854],[120.55973917104829,16.003681411924457],[120.55696636888798,16.007210081017586],[120.55587598781541,16.00892356268477],[120.55745646600009,16.00956123900005]]]}},{"type":"Feature","properties":{"fid":175,"objectid":9617,"lccode":"06","liqcode":null,"mappers":"DJLBuhay, MITAbigania","project":"LiquePhi","province":"Pangasinan","otherinfo":null,"datemapped":2024,"publishdate":null,"globalid":"{66023685-1332-44EF-8443-E51FD3597412}","st_area(shape)":0.04411879143836554,"st_perimeter(shape)":22.502158641584156,"liqcodepk":null,"creator":null,"createdate":null,"editor":null,"modifydate":null,"codemove":null},"geometry":{"type":"MultiPolygon","coordinates":[[[[120.56266033700001,16.00412168300005],[120.56618439500006,16.00576262700002],[120.567743574,16.005643825000043],[120.56823794800006,16.00511378300007],[120.56979072900005,16.005652411000025],[120.57107420000013,16.00562956400006],[120.57534055100005,16.006497733000064],[120.57850692100008,16.00784915300005],[120.58290399600001,16.009448390000042],[120.58488962900003,16.010851895000027],[120.58619686700003,16.012291188000063],[120.58923916800008,16.01208557500007],[120.59106930100008,16.011742887000022],[120.59442058600008,16.011788579000036],[120.5954426080001,16.010554897000077],[120.597981612,16.008959019000027],[120.59950693200005,16.008681513000052],[120.60076026600008,16.00901593000003],[120.60356361000002,16.010299215000025],[120.60592428400001,16.011057509000064],[120.60994107200007,16.01277095000006],[120.61246047700001,16.01302225300003],[120.61452829100006,16.012588183000044],[120.61652480000008,16.011742887000025],[120.61875899000006,16.011720041000046],[120.61961463700004,16.011423044000026],[120.61930031800011,16.00950583100007],[120.61944826100012,16.007672849000077],[120.61792663700008,16.00540357800003],[120.61593012700007,16.003575839000064],[120.61434147000013,16.00164980900007],[120.61335272300005,16.001010090000023],[120.61350579400005,15.999737535000067],[120.61341072200004,15.996264719000061],[120.61231739500012,15.992700451000077],[120.61083087186694,15.99012885124678],[120.60955961198398,15.989672849516088],[120.60533564971644,15.98859927904819],[120.60536796900011,15.988651582000042],[120.60670159200004,15.99196790700006],[120.60807072600007,15.993575326000041],[120.60887718100004,15.995047471000081],[120.61004656600004,15.997693229000049],[120.61055210300002,16.000045768000057],[120.61138591300006,16.001157273000043],[120.61150807000003,16.00190235200006],[120.61298293300001,16.00287361700003],[120.61470611100005,16.004444336000066],[120.61553798999999,16.004844153000022],[120.61764739700006,16.00670043800005],[120.61850898600005,16.007842759000024],[120.61889521600006,16.009327766000073],[120.61868724600004,16.01095554900007],[120.61479524100002,16.01172660000003],[120.61283438300006,16.01238341800007],[120.61087352500012,16.01229774600006],[120.60873440800003,16.01158381300007],[120.6068923900001,16.010755646000064],[120.60513950200004,16.009699016000067],[120.60303009400002,16.008899399000025],[120.60059387700005,16.008185454000056],[120.59783085000004,16.00838535900004],[120.59604825200006,16.008985073000076],[120.5950381130001,16.00981324600002],[120.5931366750001,16.010869877000058],[120.5909678480001,16.010727089000056],[120.59001712900012,16.010384398000042],[120.58743236200007,16.007842759000024],[120.58523382500005,16.006443415000035],[120.58318383700008,16.005415320000054],[120.58059907000008,16.004358661000023],[120.57667735400003,16.003130645000056],[120.57483533600009,16.002930734000074],[120.5705868110001,16.002902176000077],[120.56864945100007,16.00394920900004],[120.56766656600007,16.00324468900004],[120.56700596100006,16.003347218000044],[120.56525212200006,16.000823081000018],[120.56409497106857,15.99937181757728],[120.56285611076711,16.000432550146463],[120.56065168736914,16.002730291293854],[120.56115630100011,16.003165597000077],[120.56266033700001,16.00412168300005]]],[[[120.62111618100003,15.996833929000049],[120.62133104500003,15.99855457600006],[120.62206889300013,16.001178772000053],[120.62348748500006,16.003595982000036],[120.62458761100005,16.005069446000046],[120.62595026000008,16.006496697000046],[120.62774839800011,16.00772188800005],[120.63101649400006,16.009035550000018],[120.63585662899902,16.010137512306617],[120.63461407770599,16.0080796398022],[120.63192633113647,16.004489644482582],[120.62888781631125,16.001171716593],[120.6255278034461,15.998157796104907],[120.62187865317637,15.995476894391365],[120.6212266027437,15.995088981661302],[120.62111618100003,15.996833929000049]]],[[[120.63907383700007,16.016606677000023],[120.63670927800001,16.016606677000027],[120.63397596100003,16.01683513000006],[120.62967173800008,16.016155361000074],[120.62367576100007,16.015581894000036],[120.62126431600005,16.014645479000023],[120.62007952200007,16.014401265000057],[120.61716012000011,16.014721927000043],[120.6147618530001,16.015303446000072],[120.6109804470001,16.015235951000022],[120.60915376600008,16.01466430000005],[120.6062071230001,16.013223296000035],[120.60333119900008,16.01249223100006],[120.60036020200006,16.011098631000035],[120.59943325100006,16.010870172000068],[120.5976744210001,16.01144132100006],[120.59561646300006,16.013485319000043],[120.59351098700004,16.01397944500007],[120.59054735300002,16.01369387400007],[120.58745688500005,16.013645104000027],[120.58691537500012,16.013993723000056],[120.58761283600008,16.014976443000027],[120.59085609500005,16.016040687000046],[120.59228217400005,16.016314832000035],[120.59371816500006,16.017010226000025],[120.5952294020001,16.017171532000077],[120.59758119000003,16.016580886000042],[120.59957137900005,16.017881123000052],[120.60387338200009,16.019366056000017],[120.60577482000008,16.021170804000064],[120.60644837000007,16.022875883000037],[120.60743051000009,16.024431934000066],[120.6071628950001,16.02667095400005],[120.60648785900001,16.026744863000026],[120.60617887500007,16.025351363000027],[120.60552034100012,16.02447453700006],[120.6044200450001,16.021970372000055],[120.60323342900006,16.02064708600005],[120.60010799900012,16.019737560000074],[120.59896565400004,16.019056813000073],[120.59734367000011,16.018980718000023],[120.59605580000003,16.019394546000058],[120.59312630000012,16.01954369400005],[120.59135866400003,16.020034329000055],[120.5897460430001,16.021376738000072],[120.58959176400003,16.02205648000006],[120.590168274,16.023710308000034],[120.59188578700001,16.025819631000047],[120.592485882,16.02740320600003],[120.59346213700009,16.02878188300002],[120.59579812100003,16.030465752000058],[120.59859085800007,16.033492527000018],[120.59900679700003,16.03526288300003],[120.59894737800006,16.038061156000026],[120.59912563700004,16.044228639000035],[120.59863135800003,16.048081595000042],[120.59782015700013,16.050159068000028],[120.59752129900005,16.05159510500005],[120.59763709800006,16.05330887700006],[120.59722804000012,16.05407928700003],[120.59570673000007,16.055127758000022],[120.59518917300011,16.056270554000033],[120.59472856200011,16.059932017000047],[120.59508508200008,16.064043243000068],[120.59573786500006,16.066289708000053],[120.59782514500012,16.06773283900003],[120.60076515200001,16.068644178000053],[120.60370097200008,16.068839565000072],[120.60661856200011,16.068821372000055],[120.60928644600006,16.069353450000055],[120.61109392100002,16.07018542900005],[120.61291340600006,16.071815010000023],[120.61451540000009,16.07260802300004],[120.61654090011103,16.07303114025747],[120.61702894607234,16.072814572202965],[120.61810673787797,16.072206160888694],[120.61557950500003,16.07109216200007],[120.61379690700005,16.070121498000045],[120.61195488900012,16.068636944000044],[120.60904331200004,16.067494972000073],[120.60580492600002,16.06680978600002],[120.60146727100006,16.06715237900005],[120.59879337400001,16.066638489000074],[120.59671367600004,16.06492551100007],[120.59603034700002,16.063583668000035],[120.59570353800007,16.06129965900004],[120.5958223770001,16.058273307000032],[120.59632744700002,16.056103441000058],[120.59787236500006,16.05487574400007],[120.59870424400003,16.05373369300003],[120.59870424400003,16.052077707000024],[120.59912018400006,16.05099274300005],[120.60042742200005,16.04879424600006],[120.6008433620001,16.047052562000033],[120.60063539200007,16.04362625500005],[120.60042742200005,16.043112304000033],[120.5998035130001,16.038972093000037],[120.5998035130001,16.03791561100007],[120.6004571320001,16.03534576800007],[120.60111075100006,16.03460336300003],[120.6033984190001,16.033089990000065],[120.603992618,16.032347576000063],[120.60405203800006,16.030948405000057],[120.60357667900007,16.029834771000022],[120.6033984190001,16.028235697000067],[120.60384406800007,16.027064938000024],[120.6047353670001,16.026722275000058],[120.60672593500011,16.027835926000023],[120.60770636400002,16.027150603000052],[120.60812230300007,16.02620828100004],[120.60821143300005,16.023723954000047],[120.60764694400007,16.023067172000026],[120.60628028500001,16.020097352000043],[120.60482449700008,16.01866953800004],[120.60259625000003,16.017612949000068],[120.60060568200004,16.01709893100008],[120.59828830500011,16.01555686800003],[120.59712961600009,16.015385527000035],[120.59502020800007,16.016270788000043],[120.59451513900001,16.01598522000006],[120.5952578880001,16.014814389000037],[120.59745642600001,16.012929623000044],[120.59888250400002,16.012329920000067],[120.59977380300006,16.012329920000063],[120.60212089000002,16.01278683700002],[120.60607231600011,16.014157579000027],[120.60818172300004,16.01512851500007],[120.61165737700004,16.016159497000046],[120.61429572500002,16.01627652400003],[120.61743309700013,16.015728234000047],[120.61953656300011,16.015522625000074],[120.62057047000008,16.015728234000044],[120.62249567600007,16.01788711700004],[120.62497671200002,16.019444366000073],[120.62659565100013,16.019943174000048],[120.62848520500008,16.020011709000073],[120.63098084200011,16.019326359000047],[120.63311995900006,16.017955652000072],[120.63515212100002,16.01747590300004],[120.63777491700013,16.01757870600005],[120.6395642139874,16.01797296375437],[120.63907704629409,16.01660735554889],[120.63907383700007,16.016606677000023]]],[[[120.60923428400008,16.074666325000067],[120.60691133700006,16.074493317000076],[120.60525500800009,16.075551054000073],[120.60429692400011,16.07692178400003],[120.60426140307695,16.0770911151717],[120.60564993453859,16.076771307226505],[120.60657265100009,16.076141137000032],[120.60805815000003,16.075821398000073],[120.60868293695047,16.076056833088142],[120.61054220573085,16.075436956222372],[120.60923428400008,16.074666325000067]]],[[[120.55499648100012,16.010532198000025],[120.5572782060001,16.011023387000026],[120.55973819100006,16.012062877000062],[120.56102230600005,16.012157457000058],[120.56230513300012,16.01186868700006],[120.56331527100009,16.012074300000055],[120.56641319100004,16.014453498000023],[120.5687937890001,16.015021394000026],[120.57149145400001,16.015169890000035],[120.57363057200007,16.01548972700005],[120.57641866000007,16.01649866100007],[120.5778744480001,16.017640925000023],[120.57861719800007,16.018811739000057],[120.57909255700008,16.020153884000024],[120.57891429700011,16.023666262000063],[120.57894400700002,16.026550363000073],[120.57956791600007,16.028377891000044],[120.5828063030001,16.033517724000035],[120.5839352810001,16.03631602100006],[120.58524252000008,16.040570500000058],[120.5863120790001,16.044767783000054],[120.58660917800013,16.046395277000048],[120.58678743800012,16.049536018000026],[120.58672801800003,16.05250540000003],[120.58649033900008,16.057187797000044],[120.58678743800012,16.061213428000027],[120.58752543400011,16.064216895000072],[120.58859023900004,16.066446056000075],[120.59020646100008,16.06860210500002],[120.59113816600006,16.07145243900004],[120.59189874100004,16.072146745000058],[120.59309664700004,16.072475626000028],[120.59425652400012,16.073407453000073],[120.59663332100003,16.07375460300005],[120.59726079500001,16.07412002300003],[120.59880096000006,16.075800948000047],[120.60065818556451,16.07758554593344],[120.60200952011016,16.077407199917225],[120.60126475500012,16.076549601000067],[120.59803596400002,16.073367207000047],[120.59725391000006,16.07298105800004],[120.595070157,16.07254932000006],[120.5936726000001,16.071370828000052],[120.5922750430001,16.070603434000073],[120.59157911700005,16.069101526000054],[120.5916595860001,16.067351117000044],[120.59021264800003,16.06461614300002],[120.589618448,16.062160845000047],[120.58941136500005,16.05920070500002],[120.58949500900007,16.058237545000054],[120.59077713700003,16.052282248000036],[120.59098510700005,16.050369283000066],[120.59089597700007,16.046828824000045],[120.59003438800005,16.04203197100003],[120.58813295000006,16.03637839000004],[120.58649890200002,16.033408767000026],[120.58531050300007,16.031552731000033],[120.58259570200006,16.029020860000056],[120.58151662900002,16.027603889000034],[120.58058325900005,16.025632062000053],[120.5801379840001,16.023078502000033],[120.58027582300008,16.021611401000033],[120.58017347100008,16.019473491000042],[120.5798419990001,16.01822300200007],[120.57847161200006,16.016172912000062],[120.57726034500001,16.015672908000056],[120.5757438940001,16.014676285000053],[120.57316709600002,16.013536429000048],[120.56925959100012,16.012786490000053],[120.56739539400007,16.012248929000066],[120.56439671400005,16.010977695000065],[120.56068788900006,16.01118038900006],[120.55950051200011,16.010555044000053],[120.55849037300005,16.009218547000042],[120.55745646600009,16.00956123900005],[120.55587598781541,16.00892356268477],[120.55488693213074,16.010477781953096],[120.55499648100012,16.010532198000025]]]]}},{"type":"Feature","properties":{"fid":176,"objectid":9618,"lccode":"05","liqcode":null,"mappers":"DJLBuhay, MITAbigania","project":"LiquePhi","province":"Pangasinan","otherinfo":null,"datemapped":2024,"publishdate":null,"globalid":"{5ACB73C5-6107-4512-9787-F18573022798}","st_area(shape)":0.06533832536059311,"st_perimeter(shape)":23.271340040578984,"liqcodepk":null,"creator":null,"createdate":null,"editor":null,"modifydate":null,"codemove":null},"geometry":{"type":"MultiPolygon","coordinates":[[[[120.61764739700006,16.00670043800005],[120.61553798999999,16.004844153000022],[120.61470611100005,16.004444336000066],[120.61298293300001,16.00287361700003],[120.61150807000003,16.00190235200006],[120.61138591300006,16.001157273000043],[120.61055210300002,16.000045768000057],[120.61004656600004,15.997693229000049],[120.60887718100004,15.995047471000081],[120.60807072600007,15.993575326000041],[120.60670159200004,15.99196790700006],[120.60536796900011,15.988651582000042],[120.60533564971644,15.98859927904819],[120.60512788237999,15.988546470139475],[120.60060340564492,15.987845606700285],[120.5960297281443,15.987577000668912],[120.59145086801509,15.987743233147693],[120.58691089235072,15.988342700232602],[120.58245349395163,15.989369628575218],[120.57812157167324,15.990814130990607],[120.57395681837069,15.992662301575328],[120.56999932036666,15.994896349422962],[120.56628717226228,15.997494769657166],[120.56409497106857,15.99937181757728],[120.56525212200006,16.000823081000018],[120.56700596100006,16.003347218000044],[120.56766656600007,16.00324468900004],[120.56864945100007,16.00394920900004],[120.5705868110001,16.002902176000077],[120.57483533600009,16.002930734000074],[120.57667735400003,16.003130645000056],[120.58059907000008,16.004358661000023],[120.58318383700008,16.005415320000054],[120.58523382500005,16.006443415000035],[120.58743236200007,16.007842759000024],[120.59001712900012,16.010384398000042],[120.5909678480001,16.010727089000056],[120.5931366750001,16.010869877000058],[120.5950381130001,16.00981324600002],[120.59604825200006,16.008985073000076],[120.59783085000004,16.00838535900004],[120.60059387700005,16.008185454000056],[120.60303009400002,16.008899399000025],[120.60513950200004,16.009699016000067],[120.6068923900001,16.010755646000064],[120.60873440800003,16.01158381300007],[120.61087352500012,16.01229774600006],[120.61283438300006,16.01238341800007],[120.61479524100002,16.01172660000003],[120.61868724600004,16.01095554900007],[120.61889521600006,16.009327766000073],[120.61850898600005,16.007842759000024],[120.61764739700006,16.00670043800005]]],[[[120.63777491700013,16.01757870600005],[120.63515212100002,16.01747590300004],[120.63311995900006,16.017955652000072],[120.63098084200011,16.019326359000047],[120.62848520500008,16.020011709000073],[120.62659565100013,16.019943174000048],[120.62497671200002,16.019444366000073],[120.62249567600007,16.01788711700004],[120.62057047000008,16.015728234000044],[120.61953656300011,16.015522625000074],[120.61743309700013,16.015728234000047],[120.61429572500002,16.01627652400003],[120.61165737700004,16.016159497000046],[120.60818172300004,16.01512851500007],[120.60607231600011,16.014157579000027],[120.60212089000002,16.01278683700002],[120.59977380300006,16.012329920000063],[120.59888250400002,16.012329920000067],[120.59745642600001,16.012929623000044],[120.5952578880001,16.014814389000037],[120.59451513900001,16.01598522000006],[120.59502020800007,16.016270788000043],[120.59712961600009,16.015385527000035],[120.59828830500011,16.01555686800003],[120.60060568200004,16.01709893100008],[120.60259625000003,16.017612949000068],[120.60482449700008,16.01866953800004],[120.60628028500001,16.020097352000043],[120.60764694400007,16.023067172000026],[120.60821143300005,16.023723954000047],[120.60812230300007,16.02620828100004],[120.60770636400002,16.027150603000052],[120.60672593500011,16.027835926000023],[120.6047353670001,16.026722275000058],[120.60384406800007,16.027064938000024],[120.6033984190001,16.028235697000067],[120.60357667900007,16.029834771000022],[120.60405203800006,16.030948405000057],[120.603992618,16.032347576000063],[120.6033984190001,16.033089990000065],[120.60111075100006,16.03460336300003],[120.6004571320001,16.03534576800007],[120.5998035130001,16.03791561100007],[120.5998035130001,16.038972093000037],[120.60042742200005,16.043112304000033],[120.60063539200007,16.04362625500005],[120.6008433620001,16.047052562000033],[120.60042742200005,16.04879424600006],[120.59912018400006,16.05099274300005],[120.59870424400003,16.052077707000024],[120.59870424400003,16.05373369300003],[120.59787236500006,16.05487574400007],[120.59632744700002,16.056103441000058],[120.5958223770001,16.058273307000032],[120.59570353800007,16.06129965900004],[120.59603034700002,16.063583668000035],[120.59671367600004,16.06492551100007],[120.59879337400001,16.066638489000074],[120.60146727100006,16.06715237900005],[120.60580492600002,16.06680978600002],[120.60904331200004,16.067494972000073],[120.61195488900012,16.068636944000044],[120.61379690700005,16.070121498000045],[120.61557950500003,16.07109216200007],[120.61810673787797,16.072206160888694],[120.62098771279167,16.07057980838183],[120.62470078247193,16.067980543953073],[120.62813238298791,16.065041823490148],[120.63124945845836,16.06179196208213],[120.63402198788441,16.0582622721178],[120.63642327433502,16.05448676117255],[120.63843020189212,16.050501803929155],[120.64002345788761,16.04634579131415],[120.6411877183072,16.042058760249997],[120.64191179459846,16.037682007608808],[120.64218874049965,16.033257692103362],[120.64201591789585,16.02882842796436],[120.64139502110903,16.02443687432876],[120.64033205943036,16.020125324301432],[120.6395642139874,16.01797296375437],[120.63777491700013,16.01757870600005]]],[[[120.59880096000006,16.075800948000047],[120.59726079500001,16.07412002300003],[120.59663332100003,16.07375460300005],[120.59425652400012,16.073407453000073],[120.59309664700004,16.072475626000028],[120.59189874100004,16.072146745000058],[120.59113816600006,16.07145243900004],[120.59020646100008,16.06860210500002],[120.58859023900004,16.066446056000075],[120.58752543400011,16.064216895000072],[120.58678743800012,16.061213428000027],[120.58649033900008,16.057187797000044],[120.58672801800003,16.05250540000003],[120.58678743800012,16.049536018000026],[120.58660917800013,16.046395277000048],[120.5863120790001,16.044767783000054],[120.58524252000008,16.040570500000058],[120.5839352810001,16.03631602100006],[120.5828063030001,16.033517724000035],[120.57956791600007,16.028377891000044],[120.57894400700002,16.026550363000073],[120.57891429700011,16.023666262000063],[120.57909255700008,16.020153884000024],[120.57861719800007,16.018811739000057],[120.5778744480001,16.017640925000023],[120.57641866000007,16.01649866100007],[120.57363057200007,16.01548972700005],[120.57149145400001,16.015169890000035],[120.5687937890001,16.015021394000026],[120.56641319100004,16.014453498000023],[120.56331527100009,16.012074300000055],[120.56230513300012,16.01186868700006],[120.56102230600005,16.012157457000058],[120.55973819100006,16.012062877000062],[120.5572782060001,16.011023387000026],[120.55499648100012,16.010532198000025],[120.55488693213074,16.010477781953096],[120.55456441169831,16.010984589081975],[120.55255644117364,16.01496859997494],[120.55096181006272,16.01912375913761],[120.54979589522479,16.023410062445183],[120.54906994879057,16.02778624099277],[120.5487909888903,16.032210158129644],[120.54896173103555,16.036639214934155],[120.54958056085518,16.041030760237096],[120.55064154849019,16.04534250125383],[120.55213450455385,16.049532910875683],[120.5540450771618,16.053561627698834],[120.55635488914062,16.0573898449346],[120.55904171413262,16.060980684448065],[120.56207968993486,16.064299552310857],[120.56543956704607,16.067314472428897],[120.5690889900479,16.06999639501392],[120.57299280912345,16.072319476907534],[120.57711341871571,16.07426133103661],[120.58141112005984,16.075803242575198],[120.5858445040831,16.076930349709276],[120.59037085096277,16.077631787242776],[120.59494654246464,16.077900791643156],[120.59952748305473,16.07773476649893],[120.60065818556451,16.07758554593344],[120.59880096000006,16.075800948000047]]],[[[120.60805815000003,16.075821398000073],[120.60657265100009,16.076141137000032],[120.60564993453859,16.076771307226505],[120.60852889813285,16.076108188413762],[120.60868293695047,16.076056833088142],[120.60805815000003,16.075821398000073]]]]}}]}