{"type":"FeatureCollection","features":[{"type":"Feature","properties":{"fid":38,"objectid":1885,"lccode":"07","liqcode":"2010600070000000","mappers":"JSPerez ","project":"READY","province":"Surigao del Sur","otherinfo":null,"datemapped":2007,"publishdate":null,"globalid":"{FDA7F772-DEDF-47F9-B8FA-912035EE9393}","st_area(shape)":0.04086090170713132,"st_perimeter(shape)":12.6212836285462,"liqcodepk":"201060007000000000079","creator":"SNOOPYPC","createdate":"2019-02-19T15:21:28","editor":"LENOVO","modifydate":"2019-03-10T17:50:55","codemove":"na"},"geometry":{"type":"Polygon","coordinates":[]}},{"type":"Feature","properties":{"fid":81,"objectid":1916,"lccode":"05","liqcode":"2010600050000000","mappers":"JSPerez","project":"READY","province":"Surigao del Sur","otherinfo":null,"datemapped":2007,"publishdate":null,"globalid":"{436AF97F-3789-427C-9D93-46719D182001}","st_area(shape)":0.0045057935314115815,"st_perimeter(shape)":1.4887365100085943,"liqcodepk":"201060005000000000114","creator":"SNOOPYPC","createdate":"2019-02-19T15:21:28","editor":"LENOVO","modifydate":"2019-03-10T17:50:55","codemove":"na"},"geometry":{"type":"Polygon","coordinates":[]}},{"type":"Feature","properties":{"fid":86,"objectid":1945,"lccode":"06","liqcode":"2010600060000000","mappers":"JSPerez","project":"READY","province":"Surigao del Sur","otherinfo":null,"datemapped":2007,"publishdate":null,"globalid":"{E4D44F91-040C-4614-A92C-CD665C28A96D}","st_area(shape)":0.00901660285265909,"st_perimeter(shape)":4.024381446086732,"liqcodepk":"201060006000000000145","creator":"SNOOPYPC","createdate":"2019-02-19T15:21:28","editor":"LENOVO","modifydate":"2019-03-10T17:50:55","codemove":"na"},"geometry":{"type":"Polygon","coordinates":[]}},{"type":"Feature","properties":{"fid":89,"objectid":1949,"lccode":"01","liqcode":"2010600010000000","mappers":"DJLBuhay, MITAbigania, KLPapiona, KMVitto","project":"MELP","province":"Agusan del Sur","otherinfo":null,"datemapped":2018,"publishdate":null,"globalid":"{1E6CEE5B-C387-4818-8ED8-6D59425E2C9E}","st_area(shape)":0.13568303251391492,"st_perimeter(shape)":20.45926534020769,"liqcodepk":"201060001000000000548","creator":null,"createdate":"2019-06-04T13:29:47","editor":"SDE","modifydate":"2019-06-04T10:20:42","codemove":"na"},"geometry":{"type":"MultiPolygon","coordinates":[[[[126.0291069010001,7.999672508000058],[126.02908209200007,7.998907875000042],[126.02792817300009,7.998495663000029],[126.02768633600012,7.996910439000032],[126.02903871600007,7.995619490000024],[126.02932135600008,7.994929091000072],[126.03147985200009,7.993708728000058],[126.03218135400006,7.992594619000044],[126.03203625800006,7.991123417000038],[126.03266385100004,7.990392255000076],[126.03408232100003,7.990267157000063],[126.03373018500008,7.9893328400000305],[126.03401562600006,7.988782722000052],[126.03655599100011,7.986922129000053],[126.03759783200006,7.986771100000056],[126.03974894300005,7.984233869000038],[126.04112667900004,7.984116223000056],[126.04184132700006,7.985114794000022],[126.0437777850001,7.984359688000037],[126.04447524600006,7.984653324000019],[126.04503548000004,7.985844218000069],[126.04476816000012,7.986981436000066],[126.04544368200006,7.987550080000066],[126.0456220110001,7.988970827000059],[126.04504231700001,7.99001473900006],[126.04538502700008,7.990968226000061],[126.04457810000008,7.992085508000058],[126.04577984200012,7.992482982000068],[126.0464666260001,7.991330732000049],[126.04611095400003,7.990245891000031],[126.0463889330001,7.988929344000042],[126.04884128100001,7.988230172000042],[126.04741724700011,7.986950034000076],[126.04750802000001,7.986256265000064],[126.04638244000012,7.984806627000068],[126.04720141599998,7.984023861000028],[126.04662813100005,7.982364624000069],[126.04807662000007,7.981766048000055],[126.04817341800005,7.9831850010000345],[126.04862071500007,7.983368135000035],[126.04947339500006,7.981956549000073],[126.04949463800007,7.980938252000044],[126.04905929000006,7.980425209000033],[126.04769467800007,7.980693350000024],[126.04823996100005,7.979474248000032],[126.04809068100009,7.97885741500005],[126.0489616970001,7.9778628660000654],[126.04904249400012,7.977116592000075],[126.0497860270001,7.976508852000051],[126.05116817300008,7.976861770000028],[126.051753823,7.978235379000069],[126.05260064200003,7.981525093000072],[126.05299384400008,7.982335994000038],[126.05483145500011,7.9846525560000705],[126.05540017600003,7.985627228000054],[126.0543871640001,7.986753202000044],[126.0544080300001,7.987627786000078],[126.0555245710001,7.988824116000044],[126.05633085300008,7.988918555000053],[126.05813479700011,7.987758065000034],[126.06011262200002,7.986768366000034],[126.061870827,7.987199928000053],[126.06277385100009,7.9867630660000355],[126.06309766100003,7.985814246000074],[126.06184324600008,7.983486110000058],[126.06058670100002,7.982807064000041],[126.05838749300005,7.983038375000034],[126.05856616300002,7.982352474000037],[126.05973991600001,7.981695476000026],[126.06139848000011,7.977399693000051],[126.0615260620001,7.976338376000058],[126.0610380810001,7.974545247000039],[126.06016611300004,7.973347121000076],[126.05838533500004,7.971801365000031],[126.05516960400008,7.969753829000069],[126.05375227700006,7.96742828500004],[126.0536407840001,7.965966428000059],[126.05429195000009,7.964541990000043],[126.05604994900011,7.964959276000059],[126.05726921400002,7.966441668000075],[126.05814864100012,7.966707660000053],[126.05826960700006,7.965559578000069],[126.05736300600006,7.965508883000043],[126.05688197900008,7.964652024000033],[126.05571244400005,7.9640583390000765],[126.05589106000002,7.962924172000043],[126.05464707000012,7.961986870000031],[126.05578487900004,7.961378552000042],[126.05726482800003,7.961732338000048],[126.05940820300009,7.961808149000035],[126.06053092400009,7.96137855200004],[126.06111780000005,7.960544627000047],[126.06132014800006,7.959100026000043],[126.0609498250001,7.958299717000047],[126.05986935500005,7.95742814700003],[126.05839473400009,7.955125477000024],[126.05852135100008,7.954092073000027],[126.06171767400009,7.9532081970000394],[126.06470457900002,7.952536159000034],[126.06631634600001,7.952639016000031],[126.0654847740001,7.95170826800006],[126.06402954100008,7.952024890000074],[126.06224673100009,7.952133598000044],[126.0598527720001,7.952590945000053],[126.05767117200001,7.953237921000038],[126.05702293900005,7.953758916000027],[126.05709092200004,7.9551732900000625],[126.05759731600006,7.956221166000034],[126.05955577200008,7.95911299900007],[126.05987280400008,7.9604872990000235],[126.05851455299998,7.9609561600000225],[126.05276216100003,7.959964426000054],[126.04950827900008,7.961508322000043],[126.04824241600011,7.962840349000031],[126.04754192400003,7.964046576000046],[126.0464969210001,7.966483148000065],[126.0468031170001,7.967215980000048],[126.04787480400012,7.967771922000056],[126.047991485,7.968765936000066],[126.04700036300005,7.968959622000056],[126.0460449860001,7.9700994880000735],[126.04660585800002,7.972031285000072],[126.04788615100004,7.972036238000044],[126.04851058500005,7.97088445600002],[126.04921106499998,7.9702913760000325],[126.05002038200006,7.970801678000042],[126.0518571670001,7.970798079000076],[126.05422952700007,7.971989668000047],[126.05436630100007,7.97297811900006],[126.05539797200004,7.974376446000066],[126.05686037200006,7.9750157660000704],[126.05839122100008,7.9771268040000205],[126.05878202500004,7.97809903900003],[126.05883498000003,7.980067994000024],[126.05808029200013,7.981756102000075],[126.05722091700012,7.982259550000038],[126.05563582700006,7.9824850470000674],[126.05415183200013,7.982125052000073],[126.05287048500008,7.979415263000023],[126.05257240000003,7.977856614000075],[126.05188057700002,7.975872865000046],[126.0510561210001,7.975262302000034],[126.047808572,7.975730681000074],[126.04569081000011,7.977251921000064],[126.04432102100009,7.97876767300005],[126.04317153700003,7.978948179000042],[126.04180078800005,7.978384618000065],[126.0407214270001,7.978320823000046],[126.04051296800002,7.977361560000078],[126.0409116100001,7.97679937700002],[126.04197721600008,7.976949314000024],[126.04240145500013,7.975956740000072],[126.04179424800007,7.975545323000059],[126.03960825200011,7.975618685000027],[126.03880958900005,7.976556638000033],[126.03698829200006,7.975365383000051],[126.03686298600007,7.973975302000042],[126.03777282300007,7.972505954000042],[126.03979868100011,7.972175657000038],[126.04089233100001,7.9702747590000635],[126.04210007100006,7.970194221000042],[126.04170441500004,7.969207649000057],[126.04202412200006,7.968470672000023],[126.04155044000004,7.967832124000038],[126.03984074100003,7.968117089000031],[126.039363535,7.96777641400007],[126.03801986400005,7.96893344700004],[126.03727334200006,7.968125550000024],[126.03702180600011,7.9652163300000325],[126.03675583600011,7.964257480000072],[126.03607142600003,7.963314916000054],[126.03744567600008,7.9622137480000665],[126.03703460700001,7.961083874000052],[126.03728625100007,7.9600925640000355],[126.037047582,7.958932752000065],[126.03631043000006,7.95845056200005],[126.0360872020001,7.957434036000052],[126.0351509940001,7.95726877900006],[126.035431517,7.956291600000041],[126.03607499800012,7.955770662000019],[126.03644118900003,7.954706818000035],[126.03619056800007,7.953876913000045],[126.03645081600006,7.952096831000061],[126.03601604900008,7.9516554540000435],[126.03518590100009,7.952220770000053],[126.03390417500009,7.950050392000035],[126.03426648800009,7.948455989000025],[126.03402480000011,7.946880322000028],[126.03350384800001,7.946453906000046],[126.0322950110001,7.946376659000066],[126.03057216100001,7.94485477600006],[126.0299683710001,7.944902185000046],[126.02947312800008,7.946024326000041],[126.02667889700002,7.943549403000076],[126.02574659100003,7.943914677000064],[126.02361643000008,7.94570833100005],[126.02423910700008,7.946277430000065],[126.02391613500004,7.947355299000036],[126.026160075,7.947353356000064],[126.02622445200008,7.946320385000033],[126.02718814700007,7.946313389000069],[126.02736776800009,7.947272885000075],[126.03064301200006,7.94667547700004],[126.03075198300009,7.9478075660000504],[126.03202045900001,7.948171188000061],[126.0328689800001,7.950115288000061],[126.03155965600001,7.950067454000018],[126.0306789980001,7.951593928000019],[126.03168616700009,7.951629622000039],[126.03205174200001,7.952444356000056],[126.03197289600007,7.953463087000047],[126.03301724100004,7.954645725000034],[126.03261576900002,7.95678534500007],[126.03208997800004,7.957663930000022],[126.03198709800006,7.959328148000052],[126.03112669100005,7.959692920000067],[126.03043648300002,7.961691244000063],[126.03059922500007,7.962306690000046],[126.03170910600011,7.962614090000046],[126.03240616400001,7.963512446000036],[126.03414263100001,7.962954857000058],[126.03484034100006,7.963941634000035],[126.0331511610001,7.967022762000056],[126.03318719100002,7.968011976000069],[126.03215167900008,7.968170578000072],[126.03159776700011,7.969465240000034],[126.03096342700006,7.96960131800006],[126.03065350000007,7.968205402000026],[126.02950942200006,7.968739062000051],[126.0291037940001,7.96938781800003],[126.02641732600011,7.969216179000059],[126.02584860500009,7.970128538000043],[126.02515371100004,7.970181397000036],[126.0242992950001,7.969243632000028],[126.02475280700004,7.967818159000045],[126.02309880000007,7.966216896000048],[126.02349876400001,7.963537122000049],[126.02301300200008,7.962680230000046],[126.02225495300002,7.962291377000039],[126.02065905400002,7.96207590900002],[126.02070929900003,7.960749058000032],[126.01926862200004,7.960448803000075],[126.01887118099998,7.958551580000063],[126.0194926570001,7.9582961160000405],[126.01953354000011,7.957327842000039],[126.01848673200004,7.956985205000024],[126.01878978600007,7.954098036000061],[126.01953866400002,7.953232183000067],[126.019876038,7.950182400000074],[126.02055377500005,7.9494246170000356],[126.02000863700005,7.948639846000048],[126.01993018500002,7.947744138000077],[126.01660190700012,7.949955156000043],[126.01736332300004,7.9508100700000455],[126.01751473600007,7.9518486560000365],[126.01701678700009,7.952605135000056],[126.016429506,7.955907692000039],[126.01553782100008,7.956917982000048],[126.01547321600003,7.957922282000028],[126.01396967900007,7.958865301000058],[126.0127457230001,7.958694904000028],[126.01248591000001,7.957585395000021],[126.01129374300001,7.956841143000075],[126.01085152900009,7.955374437000045],[126.01167339300002,7.954651469000053],[126.011517818,7.953039286000033],[126.0084229910001,7.9551737910000515],[126.00272997700007,7.959290081000061],[126.00252580375285,7.9594329532815955],[126.00249955422233,7.959896948289695],[126.00268550381548,7.964325526311465],[126.00330597523207,7.968714612315584],[126.00435500795591,7.973021940107026],[126.00582251413917,7.97720602922956],[126.00769437517756,7.981226584386069],[126.0099525771269,7.985044883511152],[126.01257538367899,7.988624150758637],[126.0155375450503,7.991929910809124],[126.01881054078974,7.994930321080218],[126.0223628541814,7.997596478632514],[126.02616027560985,7.999902698806046],[126.02849255252157,8.001022899221407],[126.0291069010001,7.999672508000058]],[[126.03505540800006,7.960154193000051],[126.03610302100005,7.960471597000037],[126.03629546300009,7.961865972000052],[126.0350016110001,7.961971012000047],[126.03409502800004,7.9612701730000595],[126.03505540800006,7.960154193000051]]],[[[126.04386597200003,8.005165343000044],[126.0445825490001,8.004796791000045],[126.04483720500002,8.002921150000079],[126.0457338670001,8.002264473000025],[126.04534233400013,8.001196230000062],[126.04534039600004,7.999638356000048],[126.04613931100005,7.998733837000032],[126.04535205000002,7.99732474000007],[126.04461991100004,7.998180965000075],[126.04475221800011,7.9992124770000705],[126.04402170199998,8.000288572000045],[126.04386666100004,8.001369998000031],[126.04287550700008,8.002218567000059],[126.042937574,8.002829955000038],[126.0415495420001,8.003184317000033],[126.04159136700004,8.003652453000027],[126.0427839460001,8.004102572000022],[126.0422034131052,8.005009977120356],[126.04304165822603,8.005140071538378],[126.04386843237253,8.005186502442099],[126.04386597200003,8.005165343000044]]],[[[126.05061513200008,8.00512975600003],[126.0505394993167,8.005261566638147],[126.0508242791355,8.005249662061658],[126.05061513200008,8.00512975600003]]]]}},{"type":"Feature","properties":{"fid":195,"objectid":2253,"lccode":"01","liqcode":"<Null>","mappers":"DJLBuhay, MJVReyes, MITAbigania, KLPapiona, KMVitto","project":"MELP","province":"Davao Oriental","otherinfo":null,"datemapped":2018,"publishdate":null,"globalid":"{106618BF-C9C2-442C-8DFA-3A2107C26CAB}","st_area(shape)":0.03977934253941522,"st_perimeter(shape)":14.106801890447542,"liqcodepk":null,"creator":null,"createdate":null,"editor":null,"modifydate":null,"codemove":null},"geometry":{"type":"Polygon","coordinates":[]}},{"type":"Feature","properties":{"fid":204,"objectid":3530,"lccode":"01","liqcode":null,"mappers":"DJLBuhay, MJVReyes, MITAbigania, KLPapiona, KMVitto","project":"MELP","province":"Davao de Oro","otherinfo":null,"datemapped":2020,"publishdate":2021,"globalid":"{B133662C-BB56-4B68-925E-E0332BEC485E}","st_area(shape)":0.05410125761039176,"st_perimeter(shape)":8.444321327772833,"liqcodepk":null,"creator":null,"createdate":null,"editor":null,"modifydate":null,"codemove":null},"geometry":{"type":"MultiPolygon","coordinates":[[[[126.06324866000013,7.918618517000027],[126.06380275700008,7.919067280000032],[126.06459154700008,7.920613637000031],[126.06442517200003,7.923326748000022],[126.06547096100006,7.92440963400003],[126.06535212100005,7.925298304000021],[126.06417560900003,7.926310562000026],[126.06258910000008,7.928152630000057],[126.06112737200009,7.930506698000046],[126.06091346100004,7.931648416000028],[126.06119867600013,7.932854867000059],[126.06266634500004,7.934261408000055],[126.06586907300003,7.935667945000033],[126.06743181400009,7.935832727000045],[126.06854296500002,7.936533050000038],[126.06866180500003,7.937062706000062],[126.0678834050001,7.938345647000062],[126.06607197300002,7.940202508000028],[126.06604733300004,7.940958597000076],[126.06454401100007,7.943577415000049],[126.06431821600006,7.945131043000062],[126.06612457800007,7.946408074000032],[126.06839441500006,7.946231526000075],[126.07079497600013,7.945089848000066],[126.07116337900005,7.943906973000025],[126.07175163500006,7.943177237000043],[126.07248249800013,7.94313604200005],[126.07335002800006,7.944495469000062],[126.07440770000005,7.945678342000066],[126.07519798400007,7.94598435900002],[126.07697463600003,7.945849005000072],[126.07764608000004,7.946349224000072],[126.0777384590001,7.947726250000074],[126.07740245900004,7.948438368000041],[126.07579812400003,7.949744813000052],[126.07393234200003,7.949944899000059],[126.07201902400004,7.949368180000022],[126.07121091400006,7.948850310000068],[126.07036715300002,7.949427029000049],[126.07064048400002,7.95058046500003],[126.07041468900003,7.951533812000036],[126.06907180100006,7.952216454000053],[126.06807354800004,7.952192915000067],[126.06541819400002,7.951631335000057],[126.06684961400003,7.953169797000043],[126.06791905700005,7.954040751000035],[126.06691355300006,7.955706178000071],[126.06709312100008,7.956730103000043],[126.06823371400003,7.958828383000023],[126.07065831000011,7.957224424000058],[126.0710385970001,7.954905818000042],[126.07137134800008,7.954376185000055],[126.07304843100007,7.953974490000066],[126.07500189900009,7.95314625800006],[126.07606933700005,7.952394238000066],[126.07693304200006,7.951286648000062],[126.07981490300006,7.948273591000032],[126.07936877200007,7.94587027600005],[126.07834938800012,7.943103932000041],[126.07656464000002,7.941464707000024],[126.07508508600006,7.940917402000025],[126.07319553600009,7.94097625200004],[126.07191801000012,7.941670682000052],[126.07052758700002,7.94284767800002],[126.06930948000002,7.9429418380000225],[126.06803789600008,7.942671129000075],[126.06742587200004,7.941676567000059],[126.06740804600008,7.940611381000055],[126.0681329680001,7.938904725000044],[126.06950556600009,7.937009740000064],[126.06853108100006,7.935585553000068],[126.06703964400003,7.935026470000026],[126.0656551620001,7.933784715000058],[126.0673010910001,7.931442436000054],[126.06827557600002,7.93071267800002],[126.06940455200002,7.9287823440000675],[126.07081874400001,7.9290000960000375],[126.07218539900009,7.92978282300004],[126.0732014780001,7.929553302000045],[126.07367089500008,7.928382152000039],[126.07446711999998,7.928835311000055],[126.0744611780001,7.929977034000048],[126.0759050800001,7.929718087000024],[126.07638043800011,7.928211482000053],[126.07762825400005,7.927110950000042],[126.07863230740496,7.927192548422549],[126.0769733741141,7.925672155154717],[126.0767607250001,7.925992761000032],[126.07537030100002,7.926028072000066],[126.07468103200004,7.926534200000049],[126.0733381440001,7.926322333000028],[126.07230423900013,7.926734297000054],[126.07124656600003,7.925910368000074],[126.07077120800012,7.924533224000071],[126.06979672300008,7.923803454000051],[126.06858455900012,7.924344896000037],[126.06732485900011,7.9236268960000285],[126.06619588200012,7.924074175000043],[126.06547096100006,7.922744108000074],[126.06650486500007,7.919530741000075],[126.06667890301622,7.919209579011932],[126.06544092888313,7.918615109312564],[126.06330630177939,7.91783660484529],[126.06324866000013,7.918618517000027]]],[[[126.01182394600005,7.952687255000057],[126.01177804900009,7.951655070000071],[126.0127101160001,7.950596667000069],[126.01306543000011,7.9493512430000255],[126.01294142400002,7.948128420000045],[126.01360638300004,7.947263163000062],[126.01244773000008,7.94618169100005],[126.01127911100002,7.946362253000073],[126.00968020200004,7.945398687000022],[126.00926533300002,7.943738188000053],[126.00811213300005,7.9434023660000435],[126.0066943370001,7.9436038380000555],[126.00603634062834,7.9427393826963755],[126.00454562028176,7.946800143567313],[126.00343412523105,7.951091864534246],[126.00274990281113,7.955471523260206],[126.00253869401706,7.959205099236315],[126.01182394600005,7.952687255000057]]]]}}]}