{"type":"FeatureCollection","features":[{"type":"Feature","properties":{"fid":33,"objectid":1879,"lccode":"07","liqcode":"2010600070000000","mappers":"PJDelosReyes, ACPidlaoan","project":"READY","province":"Isabela","otherinfo":null,"datemapped":2012,"publishdate":null,"globalid":"{91DB2F3C-1BB4-4146-BF15-299122E74073}","st_area(shape)":0.020995608528075003,"st_perimeter(shape)":7.369078683303569,"liqcodepk":"201060007000000000072","creator":"SNOOPYPC","createdate":"2019-02-19T15:21:28","editor":"LENOVO","modifydate":"2019-03-10T17:50:55","codemove":"na"},"geometry":{"type":"Polygon","coordinates":[[[121.80884312800003,16.812722867000044],[121.80786408000007,16.81165472700007],[121.80505068900005,16.811186321000037],[121.80381142400006,16.810455686000072],[121.80133852500002,16.808090367000027],[121.80113198100003,16.80734323400003],[121.79877126500003,16.805814921000035],[121.79692090400012,16.805238990000078],[121.79532167800004,16.805772156000042],[121.79291892200003,16.80718215400003],[121.79031071200008,16.807686765000028],[121.7895318400001,16.80838292900006],[121.78604417200006,16.81062282800008],[121.78029800400009,16.81370833400007],[121.77832142700004,16.814510383000027],[121.77487105300008,16.814557621000052],[121.77346413800001,16.81436842100004],[121.77025872900003,16.812834750000036],[121.768929608,16.811493083000077],[121.76954823500012,16.81018575300004],[121.77164784800006,16.808502970000067],[121.77275356100006,16.808080090000036],[121.77407383700007,16.807138550000044],[121.77837512500001,16.80246233700007],[121.77903866300005,16.80144899900006],[121.77975522600002,16.799486647000037],[121.77973871800008,16.798401502000043],[121.78066661900006,16.796417809000047],[121.7813980080001,16.795811757000028],[121.78166173200009,16.79493176100004],[121.78097551100008,16.79214730700005],[121.77968165900006,16.78897494600005],[121.7788245160001,16.787229251000042],[121.77658506800005,16.785158901000045],[121.77509618300006,16.783138176000023],[121.77339322900002,16.781568330000027],[121.77083898700005,16.781033169000068],[121.76959532,16.781025743000047],[121.76868341200009,16.78052304000004],[121.76761237300002,16.779228098000036],[121.76595574600003,16.77777151300006],[121.76428476300008,16.774913254000065],[121.76349792200006,16.773213197000075],[121.76133783800003,16.769809461000023],[121.76075988100001,16.768472361000022],[121.76055953700008,16.766798321000064],[121.75932630600006,16.765208605000055],[121.75735839400011,16.764744680000035],[121.75609948400007,16.76349382400002],[121.75493037900002,16.762876385000027],[121.75397694300013,16.761559591000033],[121.75398283100004,16.76065539500007],[121.7549568500001,16.758807725000054],[121.75654179500009,16.75680542200007],[121.75814567500004,16.755504052000042],[121.76068612600011,16.75450206000005],[121.76331446000007,16.75440479600007],[121.76938466100012,16.75541311200004],[121.77105172800007,16.75521965100006],[121.77300440700004,16.75439490100007],[121.77569429500011,16.75201470300004],[121.77607458800004,16.751248443000062],[121.77613136300012,16.749711654000066],[121.77563072500004,16.744038731000046],[121.77506453400008,16.742779177000042],[121.77507352000009,16.741373578000033],[121.77572522600009,16.738969874000077],[121.77518409600007,16.73682827600004],[121.77182221500004,16.73591111100006],[121.77069396800003,16.73518657100004],[121.76932168300004,16.733802654000044],[121.76863818288096,16.733155243138338],[121.7674164022451,16.733703159062348],[121.76345423765649,16.735959383455416],[121.76284653698688,16.73638804411979],[121.76401719900002,16.73615015900003],[121.76574833400004,16.736179040000025],[121.76901492600008,16.737464497000072],[121.76977078500012,16.738171828000077],[121.77019904900008,16.73916138800007],[121.77057473000004,16.74107764400003],[121.77136195700007,16.742951622000074],[121.77261901600004,16.74538158000007],[121.77386503900004,16.747123641000027],[121.77350199800003,16.749967301000027],[121.77241296700005,16.751497946000033],[121.7712388660001,16.751649177000044],[121.76676482600011,16.750537429000072],[121.763597247,16.750586329000043],[121.76028398900007,16.751380228000073],[121.75696506100007,16.753055591000077],[121.75609152800007,16.75388669700004],[121.75357252000003,16.75520520200007],[121.75284114500006,16.755833662000043],[121.75139613700003,16.757949822000057],[121.75141049800004,16.762945545000033],[121.7526896400001,16.764671212000053],[121.75384969400012,16.766690091000044],[121.75603900600005,16.76918984100007],[121.75730191500008,16.76983043200005],[121.75869630400008,16.771895882000024],[121.76221265700008,16.776031039000028],[121.7624622410001,16.77734366400006],[121.76163234800003,16.778672390000054],[121.7623509880001,16.780032924000068],[121.76400891900006,16.78128614400004],[121.76601937600003,16.782451104000074],[121.76805541800003,16.78329966800004],[121.77088903300013,16.784198155000066],[121.77411611800005,16.78593541200007],[121.77579704500009,16.787279042000023],[121.7769387310001,16.788551776000073],[121.77768124600006,16.789867225000023],[121.77862674100005,16.792472415000073],[121.77868760400008,16.79396471700005],[121.77839890200005,16.79507064100005],[121.77711035000004,16.798408489000053],[121.77665433300001,16.799988167000034],[121.77572724100003,16.80183621300006],[121.77457039800005,16.802914370000053],[121.77084786200008,16.805175290000022],[121.76945644900002,16.806229334000022],[121.76716183600003,16.809041238000077],[121.7664982780001,16.810031850000033],[121.7666298900001,16.811456712000055],[121.76902775183675,16.814391802434795],[121.77105244936601,16.81532899574183],[121.77537791636902,16.816848819265314],[121.77836771741643,16.81758905702828],[121.77905419900004,16.817362980000038],[121.78119796400006,16.816109754000028],[121.782796157,16.815757601000026],[121.78484472900006,16.814707263000056],[121.78562321200003,16.814078979000037],[121.79045047000011,16.811553032000067],[121.79259181200005,16.810661378000077],[121.79397871200003,16.810307893000072],[121.79526961100011,16.81029287000007],[121.79611046800007,16.81093068100006],[121.79640086500001,16.813260706000055],[121.7969967250001,16.815547337000048],[121.79784908400008,16.81808405000004],[121.79785145168968,16.818100734706622],[121.79814370075934,16.818060726417258],[121.80261679571663,16.81700926926623],[121.80696128981364,16.815540497728236],[121.80936697476919,16.814461631437034],[121.80884312800003,16.812722867000044]]]}},{"type":"Feature","properties":{"fid":60,"objectid":1909,"lccode":"05","liqcode":"2010600050000000","mappers":"PJDelosReyes, ACPidlaoan","project":"READY","province":"Isabela","otherinfo":null,"datemapped":2012,"publishdate":null,"globalid":"{CB433018-447B-4349-A32C-A82989A96D3F}","st_area(shape)":0.11608726533381088,"st_perimeter(shape)":15.125533415932647,"liqcodepk":"201060005000000000104","creator":"SNOOPYPC","createdate":"2019-02-19T15:21:28","editor":"LENOVO","modifydate":"2019-03-10T17:50:55","codemove":"na"},"geometry":{"type":"Polygon","coordinates":[[[121.82657512100003,16.800206190000043],[121.8255883820001,16.79838103800006],[121.82338799600008,16.796857894000027],[121.820435728,16.795914063000055],[121.82047775700006,16.794884454000055],[121.82123356200009,16.79368715700002],[121.82302418200004,16.792289931000028],[121.8231747320001,16.790986151000023],[121.8226779060001,16.790640026000055],[121.82078787300009,16.79083523200006],[121.81928553400007,16.791719211000043],[121.81867414900012,16.792608295000036],[121.81451799800006,16.796154758000057],[121.81323029300006,16.796902576000036],[121.8116890780001,16.798301239000068],[121.81150448500011,16.799330112000067],[121.81288838700004,16.80029927300006],[121.81381420300009,16.800441962000036],[121.81591989200003,16.79997345900006],[121.81709613800001,16.800657845000046],[121.81797968500005,16.799718014000064],[121.81884876100003,16.80111547400003],[121.81894212800012,16.802707456000064],[121.818208851,16.80439417800005],[121.81788773100003,16.806232361000067],[121.8179285560001,16.80797322600006],[121.818397732552,16.809084129752417],[121.818813126904,16.8087910759032],[121.82224293900828,16.805832518848632],[121.82535505830344,16.8025643436617],[121.8272853257095,16.80008817347736],[121.82657512100003,16.800206190000043]]]}},{"type":"Feature","properties":{"fid":74,"objectid":1938,"lccode":"06","liqcode":"2010600060000000","mappers":"PJDelosReyes, ACPidlaoan","project":"READY","province":"Isabela","otherinfo":null,"datemapped":2012,"publishdate":null,"globalid":"{57DA03B8-A8DC-43FC-92E3-BCA08FF4E128}","st_area(shape)":0.09517793329217689,"st_perimeter(shape)":18.374122243984093,"liqcodepk":"201060006000000000137","creator":"SNOOPYPC","createdate":"2019-02-19T15:21:28","editor":"LENOVO","modifydate":"2019-03-10T17:50:55","codemove":"na"},"geometry":{"type":"MultiPolygon","coordinates":[[[[121.7666298900001,16.811456712000055],[121.7664982780001,16.810031850000033],[121.76716183600003,16.809041238000077],[121.76945644900002,16.806229334000022],[121.77084786200008,16.805175290000022],[121.77457039800005,16.802914370000053],[121.77572724100003,16.80183621300006],[121.77665433300001,16.799988167000034],[121.77711035000004,16.798408489000053],[121.77839890200005,16.79507064100005],[121.77868760400008,16.79396471700005],[121.77862674100005,16.792472415000073],[121.77768124600006,16.789867225000023],[121.7769387310001,16.788551776000073],[121.77579704500009,16.787279042000023],[121.77411611800005,16.78593541200007],[121.77088903300013,16.784198155000066],[121.76805541800003,16.78329966800004],[121.76601937600003,16.782451104000074],[121.76400891900006,16.78128614400004],[121.7623509880001,16.780032924000068],[121.76163234800003,16.778672390000054],[121.7624622410001,16.77734366400006],[121.76221265700008,16.776031039000028],[121.75869630400008,16.771895882000024],[121.75730191500008,16.76983043200005],[121.75603900600005,16.76918984100007],[121.75384969400012,16.766690091000044],[121.7526896400001,16.764671212000053],[121.75141049800004,16.762945545000033],[121.75139613700003,16.757949822000057],[121.75284114500006,16.755833662000043],[121.75357252000003,16.75520520200007],[121.75609152800007,16.75388669700004],[121.75696506100007,16.753055591000077],[121.76028398900007,16.751380228000073],[121.763597247,16.750586329000043],[121.76676482600011,16.750537429000072],[121.7712388660001,16.751649177000044],[121.77241296700005,16.751497946000033],[121.77350199800003,16.749967301000027],[121.77386503900004,16.747123641000027],[121.77261901600004,16.74538158000007],[121.77136195700007,16.742951622000074],[121.77057473000004,16.74107764400003],[121.77019904900008,16.73916138800007],[121.76977078500012,16.738171828000077],[121.76901492600008,16.737464497000072],[121.76574833400004,16.736179040000025],[121.76401719900002,16.73615015900003],[121.76284653698688,16.73638804411979],[121.75974056534929,16.738578877971037],[121.75631113851398,16.741536428861565],[121.75319897878477,16.744803567714154],[121.75043405844276,16.748348845066268],[121.74804301175287,16.752138132712254],[121.74604887821431,16.756134951811084],[121.74447088020678,16.76030082365708],[121.74332423719106,16.764595639756337],[121.74262001827866,16.76897804766371],[121.74236503462342,16.77340584888139],[121.74256177270921,16.77783640500063],[121.74320836921922,16.782227048185298],[121.74429862777416,16.786535492050145],[121.7458220774245,16.79072023897847],[121.74776407237955,16.79474097995389],[121.75010593205515,16.798558983048753],[121.752825120131,16.802137466816703],[121.75589546092564,16.80544195497906],[121.75928739103155,16.808440608971146],[121.76296824380469,16.8111045351261],[121.76690256397755,16.81340806351591],[121.76902775183675,16.814391802434795],[121.7666298900001,16.811456712000055]]],[[[121.79784908400008,16.81808405000004],[121.7969967250001,16.815547337000048],[121.79640086500001,16.813260706000055],[121.79611046800007,16.81093068100006],[121.79526961100011,16.81029287000007],[121.79397871200003,16.810307893000072],[121.79259181200005,16.810661378000077],[121.79045047000011,16.811553032000067],[121.78562321200003,16.814078979000037],[121.78484472900006,16.814707263000056],[121.782796157,16.815757601000026],[121.78119796400006,16.816109754000028],[121.77905419900004,16.817362980000038],[121.77836771741643,16.81758905702828],[121.77983728572312,16.817952886194007],[121.78438758477009,16.81863055478139],[121.78898496232961,16.81887529226044],[121.79358511214204,16.818684738007345],[121.79785145168968,16.818100734706622],[121.79784908400008,16.81808405000004]]],[[[121.76932168300004,16.733802654000044],[121.7692050069251,16.732901043375],[121.76863818288096,16.733155243138338],[121.76932168300004,16.733802654000044]]],[[[121.8179285560001,16.80797322600006],[121.81788773100003,16.806232361000067],[121.818208851,16.80439417800005],[121.81894212800012,16.802707456000064],[121.81884876100003,16.80111547400003],[121.81797968500005,16.799718014000064],[121.81709613800001,16.800657845000046],[121.81648629400001,16.807417885000067],[121.81642041800002,16.809705183000055],[121.81533462300001,16.809947605000048],[121.81430453100006,16.809543808000054],[121.81353650700011,16.808494983000063],[121.81283471800008,16.805109164000044],[121.81155234900007,16.803758992000038],[121.81073554300008,16.80226231700004],[121.80829055500011,16.796926800000055],[121.80788656100005,16.79548229500006],[121.8066565160001,16.794032912000034],[121.80459981500009,16.79267821100007],[121.80208947200003,16.78958022600005],[121.80085700900008,16.788528658000075],[121.79850354000006,16.78513317600004],[121.79732178900007,16.784231071000022],[121.79655371800003,16.78323198000004],[121.797129078,16.782041763000052],[121.80100866000011,16.780821108000055],[121.80582920000008,16.777715928000077],[121.80899577700006,16.774899534000042],[121.8078790400001,16.771859463000055],[121.80643056100006,16.77234833700004],[121.80481538800008,16.774726139000045],[121.80346260800003,16.776409217000033],[121.80164680900009,16.77784082600004],[121.79817501000004,16.779909385000053],[121.7975042070001,16.77985577200007],[121.79709617800007,16.779057670000046],[121.79679683000005,16.77741469500006],[121.79578003200002,16.774922198000066],[121.794603057,16.773274179000055],[121.79290682600005,16.772120369000053],[121.79152719600008,16.769874313000063],[121.79102198900011,16.76813072700002],[121.79067370100005,16.76606484000007],[121.79077423500009,16.762410147000022],[121.78802038900004,16.761175549000022],[121.78660606600009,16.760346663000064],[121.78588957800002,16.75937260200004],[121.78675053900008,16.757910571000025],[121.78758163200007,16.75709489100006],[121.78603689700003,16.75648906000004],[121.78493541000012,16.755189509000044],[121.78501461600003,16.750838465000076],[121.78676784700008,16.748782590000072],[121.78720067900008,16.74587993800003],[121.78705364100007,16.744803959000023],[121.78618491400005,16.742240911000067],[121.78550159500003,16.740791114000043],[121.78439411300008,16.739487101000066],[121.78381743200009,16.73940951800006],[121.78169819900006,16.739916053000055],[121.78054586100006,16.73961268400007],[121.7790837230001,16.739641088000038],[121.7778851490001,16.740560825000045],[121.77692446300011,16.740369714000046],[121.77572522600009,16.738969874000077],[121.77507352000009,16.741373578000033],[121.77506453400008,16.742779177000042],[121.77563072500004,16.744038731000046],[121.77613136300012,16.749711654000066],[121.77607458800004,16.751248443000062],[121.77569429500011,16.75201470300004],[121.77300440700004,16.75439490100007],[121.77105172800007,16.75521965100006],[121.76938466100012,16.75541311200004],[121.76331446000007,16.75440479600007],[121.76068612600011,16.75450206000005],[121.75814567500004,16.755504052000042],[121.75654179500009,16.75680542200007],[121.7549568500001,16.758807725000054],[121.75398283100004,16.76065539500007],[121.75397694300013,16.761559591000033],[121.75493037900002,16.762876385000027],[121.75609948400007,16.76349382400002],[121.75735839400011,16.764744680000035],[121.75932630600006,16.765208605000055],[121.76055953700008,16.766798321000064],[121.76075988100001,16.768472361000022],[121.76133783800003,16.769809461000023],[121.76349792200006,16.773213197000075],[121.76428476300008,16.774913254000065],[121.76595574600003,16.77777151300006],[121.76761237300002,16.779228098000036],[121.76868341200009,16.78052304000004],[121.76959532,16.781025743000047],[121.77083898700005,16.781033169000068],[121.77339322900002,16.781568330000027],[121.77509618300006,16.783138176000023],[121.77658506800005,16.785158901000045],[121.7788245160001,16.787229251000042],[121.77968165900006,16.78897494600005],[121.78097551100008,16.79214730700005],[121.78166173200009,16.79493176100004],[121.7813980080001,16.795811757000028],[121.78066661900006,16.796417809000047],[121.77973871800008,16.798401502000043],[121.77975522600002,16.799486647000037],[121.77903866300005,16.80144899900006],[121.77837512500001,16.80246233700007],[121.77407383700007,16.807138550000044],[121.77275356100006,16.808080090000036],[121.77164784800006,16.808502970000067],[121.76954823500012,16.81018575300004],[121.768929608,16.811493083000077],[121.77025872900003,16.812834750000036],[121.77346413800001,16.81436842100004],[121.77487105300008,16.814557621000052],[121.77832142700004,16.814510383000027],[121.78029800400009,16.81370833400007],[121.78604417200006,16.81062282800008],[121.7895318400001,16.80838292900006],[121.79031071200008,16.807686765000028],[121.79291892200003,16.80718215400003],[121.79532167800004,16.805772156000042],[121.79692090400012,16.805238990000078],[121.79877126500003,16.805814921000035],[121.80113198100003,16.80734323400003],[121.80133852500002,16.808090367000027],[121.80381142400006,16.810455686000072],[121.80505068900005,16.811186321000037],[121.80786408000007,16.81165472700007],[121.80884312800003,16.812722867000044],[121.80936697476919,16.814461631437034],[121.81113531737402,16.813668564609003],[121.8150986584304,16.8114115077462],[121.818397732552,16.809084129752417],[121.8179285560001,16.80797322600006]]]]}}]}