{"type":"FeatureCollection","features":[{"type":"Feature","properties":{"fid":171,"objectid":9613,"lccode":"01","liqcode":"2010600010000000","mappers":"DJLBuhay, MJVReyes, MITAbigania, KLPapiona, KMVitto","project":"MELP","province":"Nueva Ecija","otherinfo":"hazard boundary with Pangasinan updated on 2024","datemapped":2018,"publishdate":null,"globalid":"{142EC992-C228-490B-8C06-5B4A68BA1242}","st_area(shape)":0.21874224791512728,"st_perimeter(shape)":7.9099228422392365,"liqcodepk":"201060001000000000019","creator":"SNOOPYPC","createdate":"2019-02-19T15:21:28","editor":"LENOVO","modifydate":"2019-03-10T17:53:06","codemove":"na"},"geometry":{"type":"Polygon","coordinates":[]}},{"type":"Feature","properties":{"fid":174,"objectid":9616,"lccode":"07","liqcode":null,"mappers":"DJLBuhay, MITAbigania","project":"LiquePhi","province":"Pangasinan","otherinfo":null,"datemapped":2024,"publishdate":null,"globalid":"{4C1C6B5C-6BC5-4098-AF34-1358D72BE295}","st_area(shape)":0.0990952810399136,"st_perimeter(shape)":16.14272038398808,"liqcodepk":null,"creator":null,"createdate":null,"editor":null,"modifydate":null,"codemove":null},"geometry":{"type":"MultiPolygon","coordinates":[[[[120.80694216800009,15.93531726200007],[120.80724512300003,15.934625105000066],[120.80708754869268,15.934485131799445],[120.8054950650425,15.934544593153547],[120.80694216800009,15.93531726200007]]],[[[120.8267630900001,15.940185924000046],[120.82434805600009,15.940294711000034],[120.82140576200004,15.94100319200004],[120.81812697400005,15.940742532000058],[120.81592737100004,15.940710661000024],[120.81284704200004,15.941021476000056],[120.80895860200006,15.940779223000046],[120.80671297000004,15.940046279000057],[120.80512340400003,15.938507727000054],[120.80346820000011,15.938185277000061],[120.80066888900001,15.938420178000058],[120.79842519200008,15.938438461000032],[120.79610543800005,15.93805450900004],[120.79481246100012,15.937652273000028],[120.79288044074767,15.936624317491098],[120.79041032302567,15.937451026489505],[120.79055324,15.93761570600003],[120.79291102300009,15.939352630000027],[120.79724630100009,15.941308937000029],[120.79882449400009,15.941638033000054],[120.80114424900012,15.941089539000071],[120.8031816460001,15.93997801400007],[120.80457645100013,15.940137207000078],[120.80537862000007,15.940565720000052],[120.8072206380001,15.943308185000031],[120.80802280700003,15.943822392000072],[120.81236046200003,15.943879527000034],[120.81402422000009,15.944279465000026],[120.81779738600007,15.944050929000069],[120.81913433400007,15.944336599000051],[120.82138449800004,15.944458684000043],[120.82334297900002,15.944001612000026],[120.827602199,15.94184421700004],[120.83002400603682,15.9403727283863],[120.82944051180603,15.9400263108433],[120.82839498007436,15.939534909512904],[120.8267630900001,15.940185924000046]]],[[[120.76902148100011,15.954147286000026],[120.76951585500001,15.955390457000025],[120.7706947460001,15.95624970200004],[120.77200673800007,15.955536711000036],[120.77240604000008,15.956213139000058],[120.77445959300009,15.956853001000066],[120.77599975800003,15.95692612800008],[120.77668427500011,15.957657395000071],[120.77828148300011,15.957785367000042],[120.77930825900013,15.958297253000067],[120.78075335200005,15.958608040000062],[120.78193224400002,15.957584269000048],[120.78402382500008,15.95732832500005],[120.785240745,15.957675677000053],[120.78605836400004,15.95752942400003],[120.78820698800007,15.95809615500008],[120.78900559200008,15.958790855000073],[120.79242818000012,15.959266175000039],[120.79362608600002,15.95891882600006],[120.79505216400003,15.95937586400004],[120.79537540900004,15.95860804000006],[120.79372115800003,15.958041310000059],[120.79239015200005,15.958406942000066],[120.7899753260001,15.958059592000039],[120.78850309400002,15.957118594000061],[120.786378237,15.95654957500005],[120.78530154800002,15.956631842000036],[120.78421772800004,15.956289059000028],[120.78219269700001,15.956145090000067],[120.78070244500007,15.957043182000062],[120.77881289100003,15.956700399000058],[120.77717290100009,15.95670725500003],[120.775028,15.95562748600003],[120.77457165500005,15.954256343000052],[120.7731075480001,15.952519548000055],[120.77238500200006,15.950874149000073],[120.7714660231899,15.950359817698699],[120.77122299610862,15.950613728889515],[120.76861697709272,15.953938313129475],[120.76902148100011,15.954147286000026]]],[[[120.79279844000006,16.021311092000076],[120.79323666100004,16.020070617000044],[120.79476457200009,16.018177319000074],[120.79750449900007,16.01591964500005],[120.79836014600005,16.015462736000078],[120.80050936900011,16.01332765500007],[120.80321759100002,16.011364158000053],[120.80661980700006,16.008083047000074],[120.80702706900001,16.007447787000043],[120.80931426600011,16.004926751000028],[120.80993475400008,16.003910975000053],[120.81136234700013,16.002416948000075],[120.81355850800004,16.000785668000052],[120.81763709200006,15.998564913000052],[120.81981899200002,15.997098104000028],[120.82073471500009,15.996695091000053],[120.82337606700003,15.996145739000038],[120.82537590700008,15.995398454000053],[120.82896154100001,15.993358302000043],[120.83185529100001,15.991147746000024],[120.83386962700001,15.989308453000039],[120.83558805200006,15.988646989000074],[120.83776645200008,15.987266327000045],[120.8392863480001,15.98676426000003],[120.84337420100009,15.985031868000025],[120.84672097000009,15.984333138000066],[120.8481720750001,15.983730504000054],[120.84981714100002,15.982523949000038],[120.85036559100001,15.982840710000064],[120.85123379800008,15.98441967300005],[120.85204031800004,15.984312433000072],[120.85197801100004,15.983335786000051],[120.8506508060001,15.981428624000042],[120.84947153400003,15.980277202000027],[120.84805658000006,15.979734407000025],[120.84624996900004,15.979776422000045],[120.84521872200003,15.980057714000052],[120.84179486000006,15.981552011000074],[120.83935626600011,15.982813291000072],[120.83487301900004,15.986022235000062],[120.83234517300001,15.98832711300003],[120.83040049300007,15.989626808000027],[120.82478174500011,15.992944372000068],[120.81887368700008,15.995919585000022],[120.81507984200005,15.998261457000067],[120.81364407300009,15.998989874000072],[120.81117695700003,16.00053891900006],[120.81003972700012,16.00150643700005],[120.80716922300009,16.004957631000025],[120.80644237700004,16.00626891000007],[120.80494410100005,16.007670353000037],[120.80396106900002,16.00920785200003],[120.80280587700008,16.009421705000022],[120.8011323830001,16.010740833000053],[120.79926145700006,16.011948962000073],[120.79201903600004,16.01803061700002],[120.78840316500009,16.020915739000035],[120.78825396707916,16.02098944072513],[120.78867212720449,16.021186019112168],[120.79269233809231,16.022624086510515],[120.79279844000006,16.021311092000076]]]]}},{"type":"Feature","properties":{"fid":175,"objectid":9617,"lccode":"06","liqcode":null,"mappers":"DJLBuhay, MITAbigania","project":"LiquePhi","province":"Pangasinan","otherinfo":null,"datemapped":2024,"publishdate":null,"globalid":"{66023685-1332-44EF-8443-E51FD3597412}","st_area(shape)":0.04411879143836554,"st_perimeter(shape)":22.502158641584156,"liqcodepk":null,"creator":null,"createdate":null,"editor":null,"modifydate":null,"codemove":null},"geometry":{"type":"MultiPolygon","coordinates":[[[[120.80724512300003,15.934625105000066],[120.80694216800009,15.93531726200007],[120.8054950650425,15.934544593153547],[120.80331889701472,15.934625829364442],[120.80429633700011,15.934981458000035],[120.80615023900009,15.935392842000056],[120.80695835000007,15.935827079000028],[120.80802790900009,15.93514144100004],[120.80776569487121,15.934485880251167],[120.80749146458461,15.934470048196768],[120.80708754869268,15.934485131799445],[120.80724512300003,15.934625105000066]]],[[[120.79481246100012,15.937652273000028],[120.79610543800005,15.93805450900004],[120.79842519200008,15.938438461000032],[120.80066888900001,15.938420178000058],[120.80346820000011,15.938185277000061],[120.80512340400003,15.938507727000054],[120.80671297000004,15.940046279000057],[120.80895860200006,15.940779223000046],[120.81284704200004,15.941021476000056],[120.81592737100004,15.940710661000024],[120.81812697400005,15.940742532000058],[120.82140576200004,15.94100319200004],[120.82434805600009,15.940294711000034],[120.8267630900001,15.940185924000046],[120.82839498007436,15.939534909512904],[120.82623517371918,15.938519775112043],[120.8244991140001,15.938706734000046],[120.8225263720001,15.93925523500008],[120.82003073500003,15.939712318000032],[120.8156336600001,15.939666609000032],[120.81401743800006,15.93991800500004],[120.81183078500011,15.939895150000037],[120.80971543500004,15.938935276000054],[120.80750501400006,15.938638171000038],[120.80541343200004,15.93758687300004],[120.80310793900003,15.937061222000072],[120.80035085400006,15.93726691200004],[120.79792652100004,15.937015513000063],[120.79747492900003,15.936078479000058],[120.7984475687051,15.93523542917433],[120.79837461389481,15.935245139731286],[120.79391889403172,15.936276752814347],[120.79288044074767,15.936624317491098],[120.79481246100012,15.937652273000028]]],[[[120.827602199,15.94184421700004],[120.82334297900002,15.944001612000026],[120.82138449800004,15.944458684000043],[120.81913433400007,15.944336599000051],[120.81779738600007,15.944050929000069],[120.81402422000009,15.944279465000026],[120.81236046200003,15.943879527000034],[120.80802280700003,15.943822392000072],[120.8072206380001,15.943308185000031],[120.80537862000007,15.940565720000052],[120.80457645100013,15.940137207000078],[120.8031816460001,15.93997801400007],[120.80114424900012,15.941089539000071],[120.79882449400009,15.941638033000054],[120.79724630100009,15.941308937000029],[120.79291102300009,15.939352630000027],[120.79055324,15.93761570600003],[120.79041032302567,15.937451026489505],[120.78958908787197,15.937725872687786],[120.78832793989059,15.938287244394868],[120.78890691200003,15.939256338000062],[120.7900061800001,15.94045617800003],[120.7922938480001,15.941884551000042],[120.79416557600008,15.942570166000054],[120.79663150300007,15.943198644000063],[120.79897859000005,15.943370047000029],[120.80197929700013,15.942655867000045],[120.80275276500005,15.942289762000032],[120.80425929700006,15.94266756500002],[120.80556653500003,15.944210190000037],[120.806695514,15.944924364000027],[120.80841869200005,15.945495701000025],[120.81067665000013,15.945381434000069],[120.81373677600003,15.94552426800004],[120.81561296000007,15.945410001000024],[120.81807294600004,15.94502149200002],[120.81962974800003,15.944987211000072],[120.82107652600008,15.945288646000048],[120.82326318000003,15.944968697000036],[120.82521215300007,15.944237383000027],[120.82732750300009,15.942797600000059],[120.82920517300012,15.942134840000048],[120.83065077379538,15.94074483429308],[120.83002400603682,15.9403727283863],[120.827602199,15.94184421700004]]],[[[120.77238500200006,15.950874149000073],[120.7731075480001,15.952519548000055],[120.77457165500005,15.954256343000052],[120.775028,15.95562748600003],[120.77717290100009,15.95670725500003],[120.77881289100003,15.956700399000058],[120.78070244500007,15.957043182000062],[120.78219269700001,15.956145090000067],[120.78421772800004,15.956289059000028],[120.78530154800002,15.956631842000036],[120.786378237,15.95654957500005],[120.78850309400002,15.957118594000061],[120.7899753260001,15.958059592000039],[120.79239015200005,15.958406942000066],[120.79372115800003,15.958041310000059],[120.79537540900004,15.95860804000006],[120.79505216400003,15.95937586400004],[120.79362608600002,15.95891882600006],[120.79242818000012,15.959266175000039],[120.78900559200008,15.958790855000073],[120.78820698800007,15.95809615500008],[120.78605836400004,15.95752942400003],[120.785240745,15.957675677000053],[120.78402382500008,15.95732832500005],[120.78193224400002,15.957584269000048],[120.78075335200005,15.958608040000062],[120.77930825900013,15.958297253000067],[120.77828148300011,15.957785367000042],[120.77668427500011,15.957657395000071],[120.77599975800003,15.95692612800008],[120.77445959300009,15.956853001000066],[120.77240604000008,15.956213139000058],[120.77200673800007,15.955536711000036],[120.7706947460001,15.95624970200004],[120.76951585500001,15.955390457000025],[120.76902148100011,15.954147286000026],[120.76861697709272,15.953938313129475],[120.76845438405705,15.95414573320476],[120.7670716574143,15.956324340625454],[120.76738014400006,15.956252369000026],[120.76978070900007,15.956983639000045],[120.77137316300002,15.95696078700007],[120.7745580720001,15.957737758000064],[120.77681602900009,15.958674691000057],[120.7782183390001,15.95869754300003],[120.78035745700004,15.959565916000026],[120.78118933600001,15.959405953000047],[120.78173599900005,15.95869754300003],[120.78382758100008,15.95819479900007],[120.78701248900006,15.958720395000057],[120.78808204800008,15.959383101000071],[120.79176608400009,15.960045804000055],[120.79354868200005,15.959817286000032],[120.79549765600007,15.960137211000076],[120.79654344600011,15.959771582000027],[120.79583040700005,15.958149095000069],[120.79359621800006,15.95757779400003],[120.79174231600008,15.957806315000028],[120.79012609400003,15.957394977000037],[120.78796879000004,15.956350760000078],[120.78308209500005,15.955710897000067],[120.78171305900003,15.95587543300007],[120.77990669300004,15.956698114000062],[120.77893696000001,15.956204506000061],[120.77730045600005,15.95589310600007],[120.776178608,15.95528980500006],[120.77402998300012,15.951761371000032],[120.77353560900006,15.950189096000027],[120.77285109100002,15.949348106000059],[120.77249527712263,15.949284456892418],[120.7714660231899,15.950359817698699],[120.77238500200006,15.950874149000073]]],[[[120.78840316500009,16.020915739000035],[120.79201903600004,16.01803061700002],[120.79926145700006,16.011948962000073],[120.8011323830001,16.010740833000053],[120.80280587700008,16.009421705000022],[120.80396106900002,16.00920785200003],[120.80494410100005,16.007670353000037],[120.80644237700004,16.00626891000007],[120.80716922300009,16.004957631000025],[120.81003972700012,16.00150643700005],[120.81117695700003,16.00053891900006],[120.81364407300009,15.998989874000072],[120.81507984200005,15.998261457000067],[120.81887368700008,15.995919585000022],[120.82478174500011,15.992944372000068],[120.83040049300007,15.989626808000027],[120.83234517300001,15.98832711300003],[120.83487301900004,15.986022235000062],[120.83935626600011,15.982813291000072],[120.84179486000006,15.981552011000074],[120.84521872200003,15.980057714000052],[120.84624996900004,15.979776422000045],[120.84805658000006,15.979734407000025],[120.84947153400003,15.980277202000027],[120.8506508060001,15.981428624000042],[120.85197801100004,15.983335786000051],[120.85204031800004,15.984312433000072],[120.85123379800008,15.98441967300005],[120.85036559100001,15.982840710000064],[120.85065476800003,15.984091414000028],[120.85179174300004,15.985275906000028],[120.85307910100005,15.984749466000043],[120.85260849500003,15.983063204000075],[120.85016990100007,15.980143058000062],[120.84903938400011,15.97931613200007],[120.84812718500008,15.979032347000043],[120.84583462300009,15.979251925000028],[120.8416989950001,15.98067773500003],[120.83724963100006,15.983008366000039],[120.83248652900011,15.985147038000036],[120.8307324530001,15.985722830000043],[120.82893313000011,15.98758699300004],[120.82693908400005,15.988355003000034],[120.82604065500006,15.989095296000075],[120.82472866300009,15.990712962000027],[120.82368944000007,15.991340313000025],[120.82210467900006,15.991795969000062],[120.82062155700008,15.99253624800002],[120.8185680040001,15.994071634000022],[120.81545915400011,15.995154623000074],[120.81399029300007,15.99593601600003],[120.81294925600002,15.997156080000027],[120.80988699400008,15.998994982000054],[120.80831450100005,16.00072026800007],[120.80693120500007,16.002886167000042],[120.80428820200005,16.00503361600005],[120.80379383200011,16.00595676900002],[120.80358745800002,16.008046249000074],[120.8029111830001,16.00908316500005],[120.8011128050001,16.00978124600004],[120.79958690100011,16.009767539000052],[120.79870273300003,16.01001427700004],[120.79615968500002,16.01223288300002],[120.794709839,16.01321525200006],[120.7937591200001,16.013557938000076],[120.79190521800003,16.014700219000076],[120.79027950400005,16.015308730000072],[120.78899702400008,16.016334871000023],[120.78614486800008,16.017648476000033],[120.78421372000004,16.01836238700002],[120.78327242557545,16.018489506319643],[120.78454991492977,16.01924810437799],[120.78825396707916,16.02098944072513],[120.78840316500009,16.020915739000035]]],[[[120.7973217770001,16.02246200100006],[120.79728374800004,16.020415108000062],[120.7975227810001,16.019652001000054],[120.79880489800007,16.01838647000005],[120.80051619200003,16.01736300500005],[120.80236058700008,16.01542571800007],[120.80445216800001,16.01197145200007],[120.80656664300012,16.00982809600003],[120.80730432500002,16.008663342000027],[120.80978439200011,16.00540837400007],[120.8106875750001,16.00387764500004],[120.81199481300007,16.002621067000064],[120.81422900200006,16.001044622000055],[120.8181507180001,15.999171149000064],[120.81974317200002,15.998120169000059],[120.82209620100002,15.997023488000018],[120.8243066230001,15.996315211000027],[120.82570893300012,15.996132430000047],[120.82770544300003,15.995241368000055],[120.829083985,15.994373151000048],[120.83436047500004,15.989963460000071],[120.8364520570001,15.98891243200006],[120.83854363900004,15.98729018100005],[120.84013609300007,15.98694745000006],[120.84434302400007,15.98557652100004],[120.84538808900004,15.985089963000068],[120.84672097000009,15.984333138000066],[120.84337420100009,15.985031868000025],[120.8392863480001,15.98676426000003],[120.83776645200008,15.987266327000045],[120.83558805200006,15.988646989000074],[120.83386962700001,15.989308453000039],[120.83185529100001,15.991147746000024],[120.82896154100001,15.993358302000043],[120.82537590700008,15.995398454000053],[120.82337606700003,15.996145739000038],[120.82073471500009,15.996695091000053],[120.81981899200002,15.997098104000028],[120.81763709200006,15.998564913000052],[120.81355850800004,16.000785668000052],[120.81136234700013,16.002416948000075],[120.80993475400008,16.003910975000053],[120.80931426600011,16.004926751000028],[120.80702706900001,16.007447787000043],[120.80661980700006,16.008083047000074],[120.80321759100002,16.011364158000053],[120.80050936900011,16.01332765500007],[120.79836014600005,16.015462736000078],[120.79750449900007,16.01591964500005],[120.79476457200009,16.018177319000074],[120.79323666100004,16.020070617000044],[120.79279844000006,16.021311092000076],[120.79269233809231,16.022624086510515],[120.79297096987214,16.02272375231651],[120.79740502266564,16.02384648273819],[120.79772785887015,16.023896189817616],[120.7973217770001,16.02246200100006]]]]}},{"type":"Feature","properties":{"fid":176,"objectid":9618,"lccode":"05","liqcode":null,"mappers":"DJLBuhay, MITAbigania","project":"LiquePhi","province":"Pangasinan","otherinfo":null,"datemapped":2024,"publishdate":null,"globalid":"{5ACB73C5-6107-4512-9787-F18573022798}","st_area(shape)":0.06533832536059311,"st_perimeter(shape)":23.271340040578984,"liqcodepk":null,"creator":null,"createdate":null,"editor":null,"modifydate":null,"codemove":null},"geometry":{"type":"MultiPolygon","coordinates":[[[[120.82210467900006,15.991795969000062],[120.82368944000007,15.991340313000025],[120.82472866300009,15.990712962000027],[120.82604065500006,15.989095296000075],[120.82693908400005,15.988355003000034],[120.82893313000011,15.98758699300004],[120.8307324530001,15.985722830000043],[120.83248652900011,15.985147038000036],[120.83724963100006,15.983008366000039],[120.8416989950001,15.98067773500003],[120.84583462300009,15.979251925000028],[120.84812718500008,15.979032347000043],[120.84903938400011,15.97931613200007],[120.85016990100007,15.980143058000062],[120.85260849500003,15.983063204000075],[120.85307910100005,15.984749466000043],[120.85179174300004,15.985275906000028],[120.85313370207015,15.986291564490209],[120.85342220010287,15.984535331619686],[120.85343496034086,15.984327807549935],[120.85296001300003,15.983146388000028],[120.85165968800004,15.980700510000071],[120.85363448851739,15.978618879275759],[120.85351665751426,15.97568041535839],[120.85289105603974,15.971288884337238],[120.85182353565123,15.966977818246992],[120.85032440521256,15.962788731873589],[120.84840812771286,15.958761962573583],[120.84609318000341,15.954936282029848],[120.84340187401358,15.951348523179346],[120.84036014120018,15.94803322589372],[120.83699728233036,15.945022304809292],[120.83334568502698,15.942344742487842],[120.83065077379538,15.94074483429308],[120.82920517300012,15.942134840000048],[120.82732750300009,15.942797600000059],[120.82521215300007,15.944237383000027],[120.82326318000003,15.944968697000036],[120.82107652600008,15.945288646000048],[120.81962974800003,15.944987211000072],[120.81807294600004,15.94502149200002],[120.81561296000007,15.945410001000024],[120.81373677600003,15.94552426800004],[120.81067665000013,15.945381434000069],[120.80841869200005,15.945495701000025],[120.806695514,15.944924364000027],[120.80556653500003,15.944210190000037],[120.80425929700006,15.94266756500002],[120.80275276500005,15.942289762000032],[120.80197929700013,15.942655867000045],[120.79897859000005,15.943370047000029],[120.79663150300007,15.943198644000063],[120.79416557600008,15.942570166000054],[120.7922938480001,15.941884551000042],[120.7900061800001,15.94045617800003],[120.78890691200003,15.939256338000062],[120.78832793989059,15.938287244394868],[120.78542686823774,15.939578549254083],[120.78147229744452,15.941816948427892],[120.77776344232801,15.944419523576592],[120.7743360083254,15.947361222631443],[120.77249527712263,15.949284456892418],[120.77285109100002,15.949348106000059],[120.77353560900006,15.950189096000027],[120.77402998300012,15.951761371000032],[120.776178608,15.95528980500006],[120.77730045600005,15.95589310600007],[120.77893696000001,15.956204506000061],[120.77990669300004,15.956698114000062],[120.78171305900003,15.95587543300007],[120.78308209500005,15.955710897000067],[120.78796879000004,15.956350760000078],[120.79012609400003,15.957394977000037],[120.79174231600008,15.957806315000028],[120.79359621800006,15.95757779400003],[120.79583040700005,15.958149095000069],[120.79654344600011,15.959771582000027],[120.79549765600007,15.960137211000076],[120.79354868200005,15.959817286000032],[120.79176608400009,15.960045804000055],[120.78808204800008,15.959383101000071],[120.78701248900006,15.958720395000057],[120.78382758100008,15.95819479900007],[120.78173599900005,15.95869754300003],[120.78118933600001,15.959405953000047],[120.78035745700004,15.959565916000026],[120.7782183390001,15.95869754300003],[120.77681602900009,15.958674691000057],[120.7745580720001,15.957737758000064],[120.77137316300002,15.95696078700007],[120.76978070900007,15.956983639000045],[120.76738014400006,15.956252369000026],[120.7670716574143,15.956324340625454],[120.76605683961677,15.957923234966447],[120.76405346232255,15.961909868987053],[120.76246356096327,15.966067255172812],[120.76130246705071,15.97035536763033],[120.76058138640943,15.974732919674388],[120.76030729034608,15.979157761047203],[120.76048284748072,15.983587283538924],[120.76110639693617,15.987978831115285],[120.76217196318618,15.992290110611314],[120.7636693124632,15.996479599040034],[120.76558405022708,16.000506943594186],[120.7678977587978,16.00433335048425],[120.77058817386538,16.007921958860226],[120.7736293982108,16.011238196203752],[120.77699215060716,16.014250111752585],[120.78064404752341,16.016928684728278],[120.78327242557545,16.018489506319643],[120.78421372000004,16.01836238700002],[120.78614486800008,16.017648476000033],[120.78899702400008,16.016334871000023],[120.79027950400005,16.015308730000072],[120.79190521800003,16.014700219000076],[120.7937591200001,16.013557938000076],[120.794709839,16.01321525200006],[120.79615968500002,16.01223288300002],[120.79870273300003,16.01001427700004],[120.79958690100011,16.009767539000052],[120.79840138400004,16.00885592500003],[120.79727478200006,16.00886963300007],[120.79626226600008,16.00843098500007],[120.79582018200007,16.007498855000048],[120.79456523300009,16.007512563000034],[120.79358123900012,16.007046496000047],[120.79302506800002,16.006155483000043],[120.79199829200002,16.00592244800003],[120.79065777800008,16.00425007200005],[120.789844914,16.00274218100003],[120.78967378400012,15.998835318000033],[120.7908003860001,15.997957977000056],[120.79131377400006,15.994763874000057],[120.79335658900003,15.993568316000054],[120.793713109,15.992860028000054],[120.79471136300003,15.992585851000062],[120.79540063500008,15.99304281200006],[120.79632758600007,15.992517307000071],[120.79768236000008,15.992654395000047],[120.79941742200005,15.991877559000041],[120.79994031700004,15.992425914000025],[120.80293627000003,15.993439225000035],[120.80357800600007,15.993123923000043],[120.80429104500003,15.993713401000035],[120.80376696100006,15.995099125000017],[120.8035854860001,15.996910456000027],[120.80377765700007,15.99836062200006],[120.80424826300009,15.999196836000067],[120.8035494840001,15.999676630000067],[120.80138184500002,15.998183554000036],[120.80003538900009,15.998320639000042],[120.79857696300009,15.999872923000057],[120.79863307900007,16.001816266000045],[120.79923263400008,16.002372992000062],[120.80096294500005,16.002784485000067],[120.80329494400007,16.003898548000052],[120.80367737100005,16.004633471000034],[120.80379383200011,16.00595676900002],[120.80428820200005,16.00503361600005],[120.80693120500007,16.002886167000042],[120.80831450100005,16.00072026800007],[120.80988699400008,15.998994982000054],[120.81294925600002,15.997156080000027],[120.81399029300007,15.99593601600003],[120.81545915400011,15.995154623000074],[120.8185680040001,15.994071634000022],[120.82062155700008,15.99253624800002],[120.82210467900006,15.991795969000062]]],[[[120.80802790900009,15.93514144100004],[120.80695835000007,15.935827079000028],[120.80615023900009,15.935392842000056],[120.80429633700011,15.934981458000035],[120.80331889701472,15.934625829364442],[120.80291336448484,15.934640965417572],[120.7984475687051,15.93523542917433],[120.79747492900003,15.936078479000058],[120.79792652100004,15.937015513000063],[120.80035085400006,15.93726691200004],[120.80310793900003,15.937061222000072],[120.80541343200004,15.93758687300004],[120.80750501400006,15.938638171000038],[120.80971543500004,15.938935276000054],[120.81183078500011,15.939895150000037],[120.81401743800006,15.93991800500004],[120.8156336600001,15.939666609000032],[120.82003073500003,15.939712318000032],[120.8225263720001,15.93925523500008],[120.8244991140001,15.938706734000046],[120.82623517371918,15.938519775112043],[120.8253193616122,15.938089323496692],[120.82102190810575,15.936552421423308],[120.81658951816911,15.935430393936006],[120.81206485428471,15.934734036709646],[120.80776569487121,15.934485880251167],[120.80802790900009,15.93514144100004]]],[[[120.82209620100002,15.997023488000018],[120.81974317200002,15.998120169000059],[120.8181507180001,15.999171149000064],[120.81422900200006,16.001044622000055],[120.81199481300007,16.002621067000064],[120.8106875750001,16.00387764500004],[120.80978439200011,16.00540837400007],[120.80730432500002,16.008663342000027],[120.80656664300012,16.00982809600003],[120.80445216800001,16.01197145200007],[120.80236058700008,16.01542571800007],[120.80051619200003,16.01736300500005],[120.79880489800007,16.01838647000005],[120.7975227810001,16.019652001000054],[120.79728374800004,16.020415108000062],[120.7973217770001,16.02246200100006],[120.79772785887015,16.023896189817616],[120.80193155919983,16.02454338768894],[120.8065069593777,16.024807747667424],[120.81108713052153,16.02463701137822],[120.81562793313273,16.024032820508985],[120.82008560713595,16.023000994019522],[120.82441719445819,16.02155147208994],[120.8285809538282,16.01969822026857],[120.82918459136562,16.0193565489542],[120.82917862400006,16.01930263400004],[120.82955042029337,16.019149480743295],[120.830178470669,16.01879398610722],[120.83071878900013,16.017803994000076],[120.83079484600012,16.01637844800007],[120.83172655100007,16.015830159000075],[120.833570946,16.01416700500005],[120.83330474400009,16.01275970900002],[120.8336125610001,16.01191402000006],[120.83502134400008,16.01106683200004],[120.8352019800001,16.01026265200005],[120.83652348000011,16.009376222000068],[120.83682771000007,16.00724694800005],[120.83750272000009,16.006333089000066],[120.83755976300006,16.00551975200005],[120.83841541000004,16.004733827000052],[120.8379780800001,16.00409411800007],[120.83674214500002,16.003637182000034],[120.83653298700006,16.00278727800003],[120.83675165200009,16.00157181800006],[120.83750272000009,16.00133420900005],[120.83794005100003,15.999415044000042],[120.8372460260001,15.998537705000047],[120.83605762800006,15.997642085000049],[120.83406111800002,15.998062479000051],[120.83193388400004,15.99979202400004],[120.830484038,16.000077615000066],[120.82891535200008,16.002190973000044],[120.82775072100004,16.003207661000033],[120.82665739400012,16.00496686300005],[120.82582551500002,16.005823611000043],[120.82476784000005,16.00597211400003],[120.82332987800011,16.00738859600006],[120.82242669500012,16.007491404000064],[120.82147597600009,16.00830244900004],[120.8205965610001,16.007936908000033],[120.81963395800005,16.008530912000023],[120.81865654300009,16.009865128000058],[120.818300023,16.010996007000067],[120.8163272810001,16.012572374000058],[120.81528149100006,16.012309647000052],[120.81450903100006,16.01252668200004],[120.8121203500001,16.01222968600007],[120.81113397900005,16.011749923000025],[120.80970790100002,16.009602397000037],[120.80988616100001,16.008254470000054],[120.81169698000006,16.006997840000054],[120.81301376500006,16.005566301000044],[120.81330533000006,16.004301170000076],[120.81299283000011,16.003355366000047],[120.81607299800011,16.002510414000028],[120.81720922600003,16.002671253000074],[120.81773188900002,16.00201586100008],[120.81852015900007,16.002163244000034],[120.8201524320001,16.001127714000063],[120.8214520900001,16.000944722000046],[120.8221239930001,16.000301397000044],[120.823574332,16.00093358500004],[120.82565871800011,15.999957362000034],[120.82730249200006,15.998732268000019],[120.82746277200012,15.998328994000074],[120.82929845900003,15.99706290700004],[120.82971115600004,15.99636761100004],[120.83172240300007,15.995148738000072],[120.83265270200002,15.995367253000042],[120.83439996600008,15.99413271600002],[120.83421421000003,15.992669768000042],[120.83567998400008,15.991681966000042],[120.83619413000008,15.990805769000078],[120.83760125800008,15.98962976100006],[120.83841505400005,15.987636110000036],[120.83875970000008,15.987369020000074],[120.84034803000007,15.987549368000028],[120.84216498700006,15.987090668000066],[120.84396633000006,15.986292938000073],[120.84538808900004,15.985089963000068],[120.84434302400007,15.98557652100004],[120.84013609300007,15.98694745000006],[120.83854363900004,15.98729018100005],[120.8364520570001,15.98891243200006],[120.83436047500004,15.989963460000071],[120.829083985,15.994373151000048],[120.82770544300003,15.995241368000055],[120.82570893300012,15.996132430000047],[120.8243066230001,15.996315211000027],[120.82209620100002,15.997023488000018]]]]}}]}