{"type":"FeatureCollection","features":[{"type":"Feature","properties":{"fid":96,"objectid":1951,"lccode":"01","liqcode":"2010600010000000","mappers":"DJLBuhay, MJVReyes, MITAbigania, KLPapiona, KMVitto","project":"MELP","province":"Occidental Mindoro","otherinfo":null,"datemapped":2018,"publishdate":null,"globalid":"{C5AA9548-05C4-42DC-9659-04CEB911292E}","st_area(shape)":0.08333386498474091,"st_perimeter(shape)":18.751147816133788,"liqcodepk":"201060001000000000550","creator":null,"createdate":"2019-06-04T13:29:47","editor":"SDE","modifydate":"2019-06-04T10:00:42","codemove":"na"},"geometry":{"type":"Polygon","coordinates":[[[121.11286515800009,12.40800997300005],[121.11116379000008,12.40763061700005],[121.10637309100002,12.407310230000064],[121.10344550800006,12.408413750000022],[121.10114969400003,12.407881338000038],[121.1007569750001,12.406744837000076],[121.10145983500001,12.403760455000054],[121.10159412100008,12.402015641000046],[121.10205505100011,12.400433950000037],[121.1019285750001,12.399506147000068],[121.100839199,12.396764823000069],[121.10056770500013,12.393941020000055],[121.10142868500007,12.39263174800004],[121.1027404580001,12.392903979000037],[121.10297283500007,12.394412214000052],[121.1038835810001,12.395216608000053],[121.10519267900007,12.394673963000058],[121.10572737000008,12.393666187000063],[121.10583942800008,12.39162472500004],[121.10556345686398,12.390781746725478],[121.10264941383764,12.387575812814612],[121.09932817510217,12.384574210967825],[121.09572371059524,12.381907032510124],[121.09187073027745,12.379599952590643],[121.08780633315685,12.377675178597984],[121.083569650286,12.376151236711777],[121.07920146834225,12.375042793883104],[121.07474383739944,12.374360516943213],[121.07023966664681,12.374110970183903],[121.06573231192264,12.374296552384314],[121.06126515900581,12.374915473881353],[121.05688120664655,12.375961773898014],[121.05262265331959,12.377425377959142],[121.04853049164748,12.379292194841097],[121.04464411436834,12.381544252124295],[121.04100093561449,12.384159869048782],[121.03763603112482,12.387113865016588],[121.03458180083436,12.39037780174392],[121.0318676570766,12.393920256744265],[121.02951974139148,12.397707125523443],[121.02756067266347,12.401701949592338],[121.02600932901935,12.405866267154707],[121.02488066559563,12.410159983109315],[121.02418556994655,12.414541754818636],[121.02393075650669,12.418969389943328],[121.02411870115039,12.423400252523612],[121.02474761650777,12.427791673406762],[121.0258114683075,12.432101361075361],[121.02730003262215,12.436287808923952],[121.02919899349868,12.440310695062593],[121.03149008006578,12.444131270794516],[121.03415124182744,12.447712734020797],[121.03715686048103,12.451020583967043],[121.04047799624041,12.45402295380433],[121.04408266630816,12.456690917947052],[121.04793615282406,12.458998771052624],[121.05200133732734,12.46092427601931],[121.0562390585067,12.462448878576524],[121.06060848978322,12.463557886383926],[121.0650675330719,12.46424061089842],[121.06865617002914,12.464439622129646],[121.06931817800013,12.46367040300004],[121.06903467600013,12.46252050600003],[121.06749875199999,12.462904098000022],[121.06512891300008,12.462528421000057],[121.06433044100004,12.461912895000067],[121.06330844500009,12.461905567000027],[121.06247374600002,12.461253906000023],[121.06097726000006,12.461243166000031],[121.0604026000001,12.459983563000037],[121.05916348800008,12.459723567000028],[121.057698705,12.460358710000033],[121.05679182900009,12.459598903000025],[121.05814524200002,12.45921405900003],[121.05774802300004,12.458637272000033],[121.05621906500004,12.458088214000043],[121.05637227600005,12.457120808000067],[121.05590286800009,12.456435889000034],[121.05484359900004,12.456535876000029],[121.053594609,12.457602999000072],[121.05223959500006,12.45820303100004],[121.0507063670001,12.45822784300003],[121.0501908230001,12.458833922000052],[121.04913234900006,12.45882627800006],[121.04902768100011,12.458179853000049],[121.04969324400008,12.45703680300005],[121.05126805300006,12.456330755000067],[121.05310744300004,12.454407005000062],[121.05308084500007,12.453079601000068],[121.05146891500009,12.450341071000025],[121.05150535400003,12.44953424700003],[121.05056695700013,12.448929637000049],[121.04819315800012,12.448596290000067],[121.04716067100004,12.447919220000072],[121.04589051900007,12.445103888000062],[121.04582969600007,12.44434355100003],[121.04635958800009,12.443040573000076],[121.04571621100001,12.441780909000041],[121.04341729600003,12.440090333000056],[121.04229468100006,12.439723506000062],[121.03983941000001,12.439794969000047],[121.03832612200007,12.439455032000069],[121.03817232700011,12.438156143000073],[121.0394023560001,12.43625676100004],[121.04067560700003,12.435189872000024],[121.04191126800002,12.433284351000054],[121.04344856900003,12.432053335000033],[121.04539448200002,12.431658311000037],[121.04769797300003,12.431847608000053],[121.04941095100003,12.431582289000056],[121.04986359400006,12.430304647000066],[121.05087985600005,12.428574363000049],[121.05423545400004,12.427223458000071],[121.05539112200007,12.427231760000037],[121.05624000200011,12.427596564000053],[121.05788360300004,12.427429004000034],[121.06044533900001,12.426490813000042],[121.06239482900003,12.426086277000026],[121.06415340200012,12.426173412000027],[121.06459477700001,12.427097811000065],[121.06625147100011,12.428072033000033],[121.0662238560001,12.429112919000032],[121.06697517800002,12.429309195000029],[121.06761924500006,12.43166669900006],[121.06869874000006,12.431165264000068],[121.07072805600001,12.43115821300006],[121.07157878700002,12.42968609700006],[121.07222490800005,12.429117054000072],[121.07397637500004,12.429259657000042],[121.07543223500012,12.429808078000063],[121.07622451200008,12.429604460000064],[121.07798121700012,12.430603395000048],[121.07809407900004,12.431799900000042],[121.07869795200008,12.432402041000044],[121.08012404000011,12.432370011000042],[121.08018828700006,12.433561390000023],[121.08182612400003,12.435180034000043],[121.08413909800005,12.436315602000032],[121.08340731200009,12.437890189000028],[121.08184604700013,12.439758774000042],[121.07961827100007,12.440933890000053],[121.08012448800002,12.441583164000063],[121.08114746700006,12.441446939000059],[121.08322620200012,12.440686860000026],[121.08394878100013,12.441696374000058],[121.08520261000001,12.441934830000035],[121.08544218800012,12.441118661000077],[121.0867079960001,12.439721464000057],[121.08803564800007,12.43785119500006],[121.08898467500002,12.43784355200006],[121.08949164700006,12.438392376000024],[121.0913315050001,12.438216919000068],[121.09221838100007,12.439390191000028],[121.09172448500011,12.44038154000003],[121.09191410700011,12.441071609000064],[121.09294451400001,12.441251057000043],[121.09335677700005,12.440775679000067],[121.0934040840001,12.43962812700005],[121.09458318400006,12.43939473900002],[121.09475388200009,12.438719329000035],[121.09275748600008,12.437538245000036],[121.09284539799998,12.436161402000035],[121.09220556700006,12.435812526000063],[121.09124926900007,12.436150147000033],[121.09059781100007,12.435750522000031],[121.089555259,12.436214717000041],[121.08901555600006,12.435483914000033],[121.08785032100002,12.435112187000072],[121.08738834500004,12.434401060000027],[121.08768199400005,12.433696257000062],[121.08887997600004,12.432728038000048],[121.09215758500011,12.43171806600003],[121.09294094000006,12.43216504700007],[121.09256301400002,12.433533454000038],[121.09301493500003,12.434268586000028],[121.09499987100004,12.434157094000057],[121.09641704,12.434504865000067],[121.09662941000012,12.43511668600007],[121.09586553900012,12.435761781000055],[121.0955650610001,12.436926685000058],[121.09585215900006,12.437598306000039],[121.09678244400004,12.438159663000024],[121.097086364,12.439194901000064],[121.09896294200006,12.440796006000028],[121.09858753000003,12.44155862700006],[121.09912866500008,12.442098112000055],[121.10016590200009,12.441340140000024],[121.10242945400012,12.440590770000027],[121.10310880000009,12.440863376000038],[121.10333361200004,12.442073339000046],[121.1028159990001,12.443654522000031],[121.10162956500005,12.44619068600002],[121.10122661600008,12.448062742000046],[121.10233784500008,12.447840968000039],[121.1031109160001,12.449425519000041],[121.10313651198544,12.450469123702288],[121.1052404278221,12.448220283904682],[121.1079543660175,12.44467704321954],[121.11030177550329,12.440889401254724],[121.11226005684804,12.436893846212428],[121.11381036218363,12.432728867979748],[121.11493777627526,12.428434587047072],[121.11500620439928,12.428002314525877],[121.11404444400013,12.427649813000071],[121.11349121900003,12.426761121000027],[121.11379336100003,12.425352268000038],[121.11510962200009,12.425026629000058],[121.11546310600009,12.42385197900006],[121.11565410613207,12.423656484627182],[121.11571262271188,12.422633546643452],[121.11563813100008,12.422591019000038],[121.1146535360001,12.423357644000074],[121.1141508810001,12.423011131000065],[121.11481538100007,12.421963516000062],[121.11455550200004,12.420885552000072],[121.11310259200003,12.419918853000071],[121.11257664400011,12.418623804000047],[121.1143078560001,12.418109738000053],[121.11517822100006,12.418881061000036],[121.11559957800011,12.417807835000076],[121.11580591375478,12.417781109319472],[121.1156952359299,12.415193390749769],[121.11506475931198,12.410801956551307],[121.11475123439426,12.409533689632033],[121.11286515800009,12.40800997300005]],[[121.09388199000011,12.432820707000072],[121.09404621500005,12.431654845000024],[121.09552413600012,12.431856563000052],[121.09448302800001,12.433150173000056],[121.09388199000011,12.432820707000072]]]}},{"type":"Feature","properties":{"fid":227,"objectid":9201,"lccode":"07","liqcode":null,"mappers":"DJLBuhay, CJMLegaspi, RPADizon, MITAbigania","project":"LiquePhi Project","province":"Oriental Mindoro","otherinfo":null,"datemapped":2022,"publishdate":null,"globalid":"{43411E98-449C-4927-9CA8-4F53CDD889D1}","st_area(shape)":0.06400129074299865,"st_perimeter(shape)":8.088152331944666,"liqcodepk":null,"creator":null,"createdate":null,"editor":null,"modifydate":null,"codemove":null},"geometry":{"type":"Polygon","coordinates":[]}},{"type":"Feature","properties":{"fid":228,"objectid":9202,"lccode":"06","liqcode":null,"mappers":"DJLBuhay, CJMLegaspi, RPADizon, MITAbigania","project":"LiquePhi Project","province":"Oriental Mindoro","otherinfo":null,"datemapped":2022,"publishdate":null,"globalid":"{35AEA128-650E-4E7B-9A04-0010CDA19259}","st_area(shape)":0.023290767215288475,"st_perimeter(shape)":8.742681464464527,"liqcodepk":null,"creator":null,"createdate":null,"editor":null,"modifydate":null,"codemove":null},"geometry":{"type":"Polygon","coordinates":[]}},{"type":"Feature","properties":{"fid":229,"objectid":9203,"lccode":"05","liqcode":null,"mappers":"DJLBuhay, CJMLegaspi, RPADizon, MITAbigania","project":"LiquePhi Project","province":"Oriental Mindoro","otherinfo":null,"datemapped":2022,"publishdate":null,"globalid":"{F3BDD761-0F01-4330-8A50-39E3D691BA6D}","st_area(shape)":0.020225090287084545,"st_perimeter(shape)":13.120620867054654,"liqcodepk":null,"creator":null,"createdate":null,"editor":null,"modifydate":null,"codemove":null},"geometry":{"type":"Polygon","coordinates":[]}}]}