{"type":"FeatureCollection","features":[{"type":"Feature","properties":{"fid":4,"objectid":1833,"lccode":"01","liqcode":"2010600010000000","mappers":"DJLBuhay, MITAbigania, KLPapiona, KMVitto","project":"MELP","province":"Aklan","otherinfo":null,"datemapped":2017,"publishdate":null,"globalid":"{2610B680-7BB1-4235-9EBC-A203F48D9AEE}","st_area(shape)":0.031193944395976114,"st_perimeter(shape)":7.591260939778177,"liqcodepk":"201060001000000000004","creator":"SNOOPYPC","createdate":"2019-02-19T15:21:28","editor":"LENOVO","modifydate":"2019-03-10T17:53:06","codemove":"na"},"geometry":{"type":"Polygon","coordinates":[]}},{"type":"Feature","properties":{"fid":10,"objectid":1841,"lccode":"01","liqcode":"2010600010000000","mappers":"DJLBuhay, MJVReyes, MITAbigania, KLPapiona, KMVitto","project":"MELP","province":"Capiz","otherinfo":null,"datemapped":2017,"publishdate":null,"globalid":"{FE12B36A-531F-4D3F-AE5B-76F7E9CFE484}","st_area(shape)":0.04128187917080134,"st_perimeter(shape)":8.871881460062728,"liqcodepk":"201060001000000000013","creator":"SNOOPYPC","createdate":"2019-02-19T15:21:28","editor":"LENOVO","modifydate":"2019-03-10T17:53:06","codemove":"na"},"geometry":{"type":"MultiPolygon","coordinates":[[[[122.56702301300004,11.418399684000061],[122.5661887220001,11.418379309000045],[122.56517776400004,11.419698608000035],[122.56420364500002,11.422300468000062],[122.56319451100002,11.422413819000043],[122.56193422300008,11.421818538000025],[122.56174207300012,11.42059316600006],[122.56129642400005,11.420190519000071],[122.5593566650001,11.419843055000056],[122.5574745570001,11.419859364000047],[122.5562693170001,11.421312330000031],[122.55557006500011,11.42178982000007],[122.55568463500002,11.422976793000029],[122.5569447360001,11.423686952000027],[122.55733077900004,11.424989187000051],[122.55789246400002,11.425640860000046],[122.55948229100011,11.42644721500005],[122.55965547300002,11.42738543000007],[122.55876034100004,11.429049432000058],[122.55805816600004,11.431402832000058],[122.55795916000012,11.432685192000065],[122.5586171980001,11.433777274000024],[122.55964589600002,11.433587403000047],[122.56145003900008,11.433858096000053],[122.56145304200004,11.431905623000034],[122.56296870200003,11.430491384000048],[122.56401708300008,11.430110107000074],[122.56530069500002,11.428159535000077],[122.56701026300003,11.42680298700003],[122.56819375300005,11.426881301000035],[122.56999870000004,11.426596825000049],[122.57046498600005,11.426195527000061],[122.57201782800009,11.425814959000036],[122.57463704800011,11.425971907000074],[122.57466951756525,11.425957859506994],[122.57206251132526,11.422479341252489],[122.56904682089878,11.41918699721722],[122.56797791725447,11.418228358392257],[122.56702301300004,11.418399684000061]]],[[[122.56439563000004,11.486622728000043],[122.56489558700002,11.484900706000076],[122.56327185300005,11.48383949500004],[122.56282492100001,11.482630494000034],[122.56337363700005,11.480753019000076],[122.5643022060001,11.48031773300005],[122.56365445200004,11.479557072000032],[122.56143511400012,11.479338399000028],[122.56031974300004,11.478995756000073],[122.56038458300007,11.480204185000046],[122.56083839900009,11.48087483300003],[122.560029846,11.482129801000038],[122.56029317300012,11.484403294000058],[122.55972179400011,11.485233907000065],[122.55975059600009,11.486214971000036],[122.55912432200013,11.487242901000055],[122.5577658640001,11.487198971000053],[122.5575849170001,11.486558641000045],[122.55671228400001,11.486108679000038],[122.55692577600007,11.485325383000026],[122.55786080700013,11.484650855000043],[122.55798411500008,11.483358966000026],[122.558493945,11.483108501000059],[122.55879915300012,11.481840814000062],[122.5576589860001,11.481839088000072],[122.55708416300003,11.480988796000073],[122.55585230800013,11.481447525000023],[122.55563730900008,11.48319389200003],[122.55625930300005,11.484905642000056],[122.55617267500007,11.486006167000026],[122.55568704100006,11.486292555000036],[122.55426799700001,11.486212627000043],[122.55403071700005,11.486690810000026],[122.55171141400001,11.488296366000045],[122.55185424900004,11.490019351000056],[122.55353448700008,11.489854437000076],[122.55496838300006,11.492075887000055],[122.55505014280165,11.49245428598688],[122.55813177936714,11.491022484917211],[122.5619942661359,11.488747023733804],[122.56460289505559,11.486844866401112],[122.56439563000004,11.486622728000043]]],[[[122.57487520000006,11.47479413700006],[122.573443644,11.475001414000074],[122.57237759200007,11.474126505000074],[122.57161561200007,11.472695726000039],[122.57021181700007,11.470594036000023],[122.5695896750001,11.468942130000073],[122.56867337000006,11.469317635000035],[122.56782259000012,11.470470873000066],[122.56824600400012,11.471195302000067],[122.56933700700006,11.471597697000048],[122.56928083000003,11.472650419000045],[122.5704921450001,11.473705008000023],[122.57102894600007,11.475655879000048],[122.57098514700012,11.476547109000023],[122.57157827900005,11.47734356500007],[122.57158216000005,11.47879117700006],[122.57074955500002,11.47994445000006],[122.57148948453813,11.48037872076692],[122.57197626007097,11.47985056604],[122.57466157883705,11.476290316130523],[122.5753415880878,11.475175008771393],[122.57487520000006,11.47479413700006]]],[[[122.56026864900002,11.412668162000042],[122.55831703600006,11.413746752000065],[122.5576452050001,11.415324951000056],[122.55556813300008,11.415963067000064],[122.55424548300006,11.418057103000022],[122.55312973600006,11.41811283100003],[122.55254901800005,11.417240988000062],[122.55168508800013,11.417565081000017],[122.55112007700006,11.419047717000064],[122.54999362800005,11.419735100000024],[122.55083546800005,11.421124180000048],[122.5521544930001,11.421365472000046],[122.55326058200001,11.421290591000059],[122.55453328300008,11.420134440000023],[122.5555133680001,11.419982792000042],[122.55566958900012,11.419341773000042],[122.55720458000008,11.417946733000065],[122.55803838000008,11.418282974000022],[122.55969747900009,11.41818018900005],[122.56026122100003,11.417491924000046],[122.56149335200006,11.417455485000062],[122.56316087400013,11.418185367000035],[122.56386070400004,11.417315449000055],[122.56505500700007,11.416637683000035],[122.56504221994311,11.415705622275304],[122.56210994415262,11.413553341605304],[122.56031709803037,11.412489531907086],[122.56026864900002,11.412668162000042]]],[[[122.56564041300011,11.465023396000047],[122.56543923800005,11.465902519000052],[122.5664516170001,11.467314131000025],[122.56828039400011,11.467620088000047],[122.56840422000005,11.467059260000042],[122.56668605300001,11.464782350000064],[122.56564041300011,11.465023396000047]]]]}},{"type":"Feature","properties":{"fid":32,"objectid":1878,"lccode":"07","liqcode":"2010600070000000","mappers":"PJDelosReyes, ACPidlaoan","project":"READY","province":"Iloilo","otherinfo":null,"datemapped":2010,"publishdate":null,"globalid":"{2F92972A-C07C-4633-B325-DF2A08960C6C}","st_area(shape)":0.031106077518548395,"st_perimeter(shape)":5.287074988133156,"liqcodepk":"201060007000000000071","creator":"SNOOPYPC","createdate":"2019-02-19T15:21:28","editor":"LENOVO","modifydate":"2019-03-10T17:50:55","codemove":"na"},"geometry":{"type":"Polygon","coordinates":[]}},{"type":"Feature","properties":{"fid":59,"objectid":1908,"lccode":"05","liqcode":"2010600050000000","mappers":"PJDelosReyes, ACPidlaoan","project":"READY","province":"Iloilo","otherinfo":null,"datemapped":2010,"publishdate":null,"globalid":"{282D04BA-68E2-41E5-9B8A-0D8D85396F2D}","st_area(shape)":0.06128738608791496,"st_perimeter(shape)":10.692281506054618,"liqcodepk":"201060005000000000103","creator":"SNOOPYPC","createdate":"2019-02-19T15:21:28","editor":"LENOVO","modifydate":"2019-03-10T17:50:55","codemove":"na"},"geometry":{"type":"Polygon","coordinates":[]}},{"type":"Feature","properties":{"fid":73,"objectid":1937,"lccode":"06","liqcode":"2010600060000000","mappers":"PJDelosReyes, ACPidlaoan","project":"READY","province":"Iloilo","otherinfo":null,"datemapped":2010,"publishdate":null,"globalid":"{DBB85F45-4FB4-4F72-8BD3-A1308397A487}","st_area(shape)":0.017575391436836466,"st_perimeter(shape)":7.287100410898002,"liqcodepk":"201060006000000000136","creator":"SNOOPYPC","createdate":"2019-02-19T15:21:28","editor":"LENOVO","modifydate":"2019-03-10T17:50:55","codemove":"na"},"geometry":{"type":"Polygon","coordinates":[]}}]}