{"type":"FeatureCollection","features":[{"type":"Feature","properties":{"fid":30,"objectid":1876,"lccode":"07","liqcode":"2010600070000000","mappers":"PJDelosReyes, ACPidlaoan","project":"READY","province":"Ilocos Norte","otherinfo":null,"datemapped":2012,"publishdate":null,"globalid":"{DDD7C418-83F8-494F-BE1F-501E5EB1EB53}","st_area(shape)":0.0068069229463748535,"st_perimeter(shape)":2.382699422788448,"liqcodepk":"201060007000000000069","creator":"SNOOPYPC","createdate":"2019-02-19T15:21:28","editor":"LENOVO","modifydate":"2019-03-10T17:50:55","codemove":"na"},"geometry":{"type":"Polygon","coordinates":[]}},{"type":"Feature","properties":{"fid":57,"objectid":1906,"lccode":"05","liqcode":"2010600050000000","mappers":"PJDelosReyes, ACPidlaoan","project":"READY","province":"Ilocos Norte","otherinfo":null,"datemapped":2012,"publishdate":null,"globalid":"{F206138B-2823-4B11-8CEA-F1A1A521E220}","st_area(shape)":0.04191862089529889,"st_perimeter(shape)":8.367222149982817,"liqcodepk":"201060005000000000101","creator":"SNOOPYPC","createdate":"2019-02-19T15:21:28","editor":"LENOVO","modifydate":"2019-03-10T17:50:55","codemove":"na"},"geometry":{"type":"MultiPolygon","coordinates":[[[[120.81403160900004,18.578149100000076],[120.81414124501607,18.577594230698654],[120.81223195601899,18.57865565826371],[120.81403160900004,18.578149100000076]]],[[[120.79334865600003,18.626377753000043],[120.798579302,18.630122787000065],[120.80273915000011,18.632379466000028],[120.80507812500002,18.633288823000044],[120.80703728700009,18.633844539000044],[120.80710155600002,18.63288907400005],[120.80608500500011,18.63234602400007],[120.80482262700002,18.63235296200003],[120.80402202800006,18.63182317000008],[120.80227419100005,18.631553407000066],[120.80200567100007,18.63032524600004],[120.80015047400002,18.629566279000073],[120.79887857200005,18.628543202000053],[120.79827373800003,18.628491418000063],[120.7976882380001,18.627472758000067],[120.79671482600008,18.626994467000035],[120.79623915900004,18.625899335000042],[120.795376249,18.625292561000034],[120.79496680000013,18.624128306000042],[120.79354423400004,18.62387023100007],[120.79169420200003,18.62218190000004],[120.7913046120001,18.621526843000026],[120.79042682790242,18.621409695827545],[120.79083718511538,18.624291269869897],[120.79334865600003,18.626377753000043]]],[[[120.85863650700003,18.622994157000054],[120.86007486900009,18.621193857000033],[120.86111327500008,18.62072866400007],[120.86202812400008,18.62077966000004],[120.86336908500004,18.622510080000044],[120.86438303100009,18.623150834000057],[120.86602839500007,18.623524725000035],[120.86821634100009,18.62307253100004],[120.86858009600007,18.621219379000014],[120.8683329790001,18.619694223000067],[120.86728302800009,18.61767281300007],[120.8673646200001,18.61710539200004],[120.868623188,18.616054004000034],[120.86903775400002,18.615246776000053],[120.86752001400009,18.614786570000035],[120.86647221400007,18.615417253000032],[120.86580218300004,18.616639867000057],[120.8654313740001,18.61858185500006],[120.86682993600003,18.62225142000005],[120.86656650900012,18.62329504300004],[120.864907076,18.622009336000072],[120.86287748500003,18.621068190000074],[120.86198397400005,18.62014003100005],[120.86017208700004,18.62026636300004],[120.85869906900008,18.62102067100005],[120.85769819500001,18.62251483800003],[120.85718235200012,18.623720745000067],[120.85717426200006,18.625905528000033],[120.85768897300011,18.627857668000047],[120.85753166300003,18.629655126000042],[120.85599958600004,18.63050066700003],[120.85579803400005,18.631214347000025],[120.85626790500011,18.632137799000073],[120.85737653000002,18.63281132600002],[120.8582844240001,18.635667526000077],[120.85832353400009,18.63692514200005],[120.86033915800012,18.63409623200005],[120.85985402500012,18.63203046600006],[120.86038236200012,18.630646068000033],[120.8601131370001,18.629191699000042],[120.86033710100004,18.627458770000032],[120.858794922,18.625644846000057],[120.85826657400003,18.624481846000037],[120.85863650700003,18.622994157000054]]],[[[120.79384234500003,18.59970270600007],[120.79641559100003,18.60111418400004],[120.79705665400002,18.602567961000034],[120.8003044610001,18.60442184500004],[120.80114003900009,18.60609182400003],[120.80310273600004,18.605803451000043],[120.80242192200001,18.606910985000063],[120.80333187500004,18.607025371000073],[120.80429233100006,18.606388077000073],[120.80540984100004,18.60516885800007],[120.80565392100004,18.60417298900006],[120.80501549700011,18.603037057000055],[120.80379150700003,18.60300977700007],[120.80178863900007,18.602195215000048],[120.80049018900003,18.600558664000054],[120.79910206200009,18.599543730000047],[120.79789962100006,18.597843447000052],[120.79719077300003,18.597433017000068],[120.7951707430001,18.59690356300007],[120.79505520406637,18.596925803343034],[120.79398159998605,18.59902319445425],[120.7936933961478,18.59976245986382],[120.79384234500003,18.59970270600007]]],[[[120.8361966870001,18.62505719300003],[120.83787325700007,18.624693202000053],[120.83867107200003,18.624041398000024],[120.839321175,18.62289218500007],[120.84034981400009,18.62226135700007],[120.84128815300004,18.621152200000033],[120.84171406500003,18.61999173300006],[120.84259085700013,18.61993216200005],[120.84267523100006,18.61902840900007],[120.8417632820001,18.61898308900004],[120.8396615370001,18.617775821000063],[120.84007263500008,18.617014987000058],[120.8412630380001,18.616408403000037],[120.84101181800008,18.61503200300007],[120.83964842000013,18.614713636000033],[120.83943747300009,18.615945112000073],[120.83766199800004,18.615389272000073],[120.83632434100002,18.616136737000033],[120.8366088470001,18.61673162400007],[120.83787509400008,18.617616131000034],[120.83916692100001,18.619370874000026],[120.83839569300005,18.619744835000063],[120.83694079000009,18.61934529000007],[120.83471659700002,18.62151728700007],[120.8346513470001,18.623627965000026],[120.83568598300006,18.62488839900004],[120.8361966870001,18.62505719300003]]],[[[120.86920408000003,18.61385824000007],[120.86844507500007,18.612408478000077],[120.86853321000001,18.610460859000053],[120.87086975000013,18.607462886000064],[120.87138713500006,18.60608846500003],[120.87293517000013,18.604005104000066],[120.87180319900004,18.603304600000058],[120.87108490100002,18.603773863000068],[120.87047542100004,18.60477682700002],[120.86999252800003,18.60644211700003],[120.86892580200004,18.60705436300003],[120.86669717300005,18.606643490000067],[120.86444126000004,18.609959586000056],[120.86447614800012,18.61179599900003],[120.86510144100009,18.61261092300003],[120.86642038200011,18.613397046000042],[120.86778333900008,18.61374294200004],[120.86921835100009,18.61447322800006],[120.86920408000003,18.61385824000007]]]]}},{"type":"Feature","properties":{"fid":71,"objectid":1935,"lccode":"06","liqcode":"2010600060000000","mappers":"PJDelosReyes, ACPidlaoan","project":"READY","province":"Ilocos Norte","otherinfo":null,"datemapped":2012,"publishdate":null,"globalid":"{E589EE25-8FDC-4504-BE01-5A3AF4CD900F}","st_area(shape)":0.013905399003380454,"st_perimeter(shape)":4.825147044260804,"liqcodepk":"201060006000000000134","creator":"SNOOPYPC","createdate":"2019-02-19T15:21:28","editor":"LENOVO","modifydate":"2019-03-10T17:50:55","codemove":"na"},"geometry":{"type":"MultiPolygon","coordinates":[[[[120.7931784970001,18.630291743000043],[120.7965177750001,18.632411380000065],[120.79836389200011,18.63268672400005],[120.80081677700004,18.633378902000057],[120.8034607520001,18.633907100000048],[120.80600234700013,18.634119456000068],[120.80703728700009,18.633844539000044],[120.80507812500002,18.633288823000044],[120.80273915000011,18.632379466000028],[120.798579302,18.630122787000065],[120.79334865600003,18.626377753000043],[120.79083718511538,18.624291269869897],[120.79094977383761,18.625081870065276],[120.79202367217466,18.629393775958597],[120.7923310167431,18.630245592966467],[120.7931784970001,18.630291743000043]]],[[[120.83568598300006,18.62488839900004],[120.83507730000008,18.62497314700004],[120.83315842600007,18.625942552000023],[120.83216010500007,18.627216234000056],[120.83195543300009,18.62816862200003],[120.83305219600005,18.630013634000022],[120.8320647050001,18.630979665000044],[120.83081000700008,18.63132272700005],[120.83006885000009,18.632577686000047],[120.83035226400011,18.633892152000044],[120.8297693390001,18.634505213000065],[120.82961337700011,18.636935068000067],[120.83137338800009,18.637306265000067],[120.83303569300004,18.638025706000064],[120.83381743400004,18.639343918000066],[120.8336060470001,18.640062049000047],[120.83402146400012,18.642563451000054],[120.83446825400006,18.64343125200002],[120.83559478200006,18.644428669000035],[120.83712491100006,18.64634412300006],[120.8384773350001,18.64716144700003],[120.84095930800005,18.649585119000047],[120.84270091200007,18.650782397000057],[120.84498750100009,18.650981174000037],[120.84620415600011,18.650751554000067],[120.84855316100005,18.64937792300003],[120.85115340100003,18.648342047000032],[120.85085470800006,18.647553655000028],[120.84969085600004,18.64820131400006],[120.8452030410001,18.64972886500004],[120.84235604600008,18.649439167000022],[120.8411304430001,18.64887429000004],[120.83886873300004,18.644955960000065],[120.8377899510001,18.641932461000067],[120.83614632700005,18.64092212900005],[120.83565632500006,18.640071916000064],[120.83436349400006,18.63867854500006],[120.83405994900009,18.63758086400003],[120.83292057200005,18.636448802000075],[120.83264378900003,18.634609901000033],[120.83220340500007,18.633841983000018],[120.83296139000004,18.63323093100007],[120.833503672,18.631878301000025],[120.83554718800008,18.630449937000034],[120.83625383200001,18.629393145000048],[120.83630350200008,18.628512388000047],[120.83479878700007,18.628715423000074],[120.83342070100002,18.62803857700004],[120.83414974200004,18.626743453000078],[120.83601336900007,18.625571472000043],[120.8361966870001,18.62505719300003],[120.83568598300006,18.62488839900004]]]]}}]}