{"type":"FeatureCollection","features":[{"type":"Feature","properties":{"fid":96,"objectid":1951,"lccode":"01","liqcode":"2010600010000000","mappers":"DJLBuhay, MJVReyes, MITAbigania, KLPapiona, KMVitto","project":"MELP","province":"Occidental Mindoro","otherinfo":null,"datemapped":2018,"publishdate":null,"globalid":"{C5AA9548-05C4-42DC-9659-04CEB911292E}","st_area(shape)":0.08333386498474091,"st_perimeter(shape)":18.751147816133788,"liqcodepk":"201060001000000000550","creator":null,"createdate":"2019-06-04T13:29:47","editor":"SDE","modifydate":"2019-06-04T10:00:42","codemove":"na"},"geometry":{"type":"MultiPolygon","coordinates":[[[[120.79163629100005,12.749506693000058],[120.79219117300012,12.752231055000035],[120.79241179400005,12.755319606000056],[120.79217522300009,12.760061339000059],[120.79164878300004,12.761778432000028],[120.79081388700001,12.762548513000068],[120.7892840730001,12.764657689000044],[120.78784955900005,12.765407905000075],[120.7872765620001,12.766813295000077],[120.78744485200004,12.768328162000042],[120.78800952400003,12.770827047000072],[120.78785980400005,12.772356005000061],[120.78717421400007,12.77339459500007],[120.78597891800008,12.776444426000069],[120.78516502500008,12.779721815000073],[120.78466032800009,12.784610282000072],[120.78486060000012,12.786007176000055],[120.78533130100004,12.786906160000056],[120.78667694000002,12.787570217000054],[120.78691993000007,12.788771974000042],[120.78811045700002,12.789196245000028],[120.78866598400009,12.79086501300003],[120.78790330400011,12.79311896100006],[120.78806303900001,12.795039665000045],[120.78810118500009,12.801309597000055],[120.78793509959657,12.80237422667848],[120.78837176869698,12.802962505177362],[120.78884289300004,12.801951891000044],[120.7887439330001,12.799721733000068],[120.78890422800008,12.798102011000026],[120.78940173500007,12.796999913000032],[120.7898705450001,12.794566722000068],[120.78952301200002,12.791019610000031],[120.78843462500005,12.788210997000022],[120.78719879800008,12.786757902000035],[120.78676133200007,12.785178720000033],[120.78665469700003,12.782739051000018],[120.78681766900002,12.77974025000003],[120.78740358300003,12.775819452000066],[120.78802347400006,12.774205255000027],[120.78859037200006,12.773502340000048],[120.79040204300009,12.77277219700005],[120.79103687200008,12.772064078000026],[120.79152805,12.770379183000047],[120.79195293400007,12.767035387000018],[120.79247806100011,12.766173053000045],[120.79227815800004,12.76466896800002],[120.79295595500004,12.76420786600005],[120.79599434900001,12.764030870000058],[120.79783136200001,12.763206680000053],[120.802125842,12.759241193000038],[120.80270914300002,12.758923832000052],[120.804675212,12.759242669000061],[120.80472649800004,12.760398644000073],[120.80550560100006,12.760840965000058],[120.80464707500005,12.762209334000032],[120.8046867480001,12.76357943500005],[120.80597553300004,12.764085343000032],[120.80648864400008,12.76475191000003],[120.80827668200006,12.76502976800003],[120.80909699600012,12.764534468000019],[120.80807597500007,12.763429624000025],[120.80690697900002,12.763098297000056],[120.80672986400008,12.762376455000034],[120.8074051110001,12.761579508000068],[120.80742026500002,12.760527599000053],[120.80838044800011,12.760053478000028],[120.80724529700001,12.758924183000032],[120.80770532100007,12.757983562000046],[120.80875058100003,12.758087874000068],[120.8087852550001,12.756889676000073],[120.80928678900011,12.756636804000038],[120.81084415500005,12.756823061000032],[120.81184337200013,12.757553449000056],[120.81219841000006,12.761085230000052],[120.8133985290001,12.762863835000076],[120.814109647,12.761020958000074],[120.8141826320001,12.759377750000056],[120.81373235100013,12.75848457300003],[120.8151013600001,12.758481554000072],[120.81638316700003,12.759190201000026],[120.8157460860001,12.761896329000022],[120.81633510600011,12.765427545000021],[120.81780432700009,12.767307447000066],[120.81835132900005,12.768287499000055],[120.81906264000008,12.770560049000041],[120.8186934580001,12.772390264000022],[120.81801924800003,12.773885421000045],[120.81794584400006,12.77562546400003],[120.81686960800005,12.776133017000062],[120.81684197700008,12.776819188000044],[120.81801996000002,12.778342255000041],[120.81667508900011,12.780626486000072],[120.81486264900002,12.782887704000075],[120.81505209700003,12.783520496000051],[120.81608205700002,12.78472114400006],[120.816244062,12.785424041000052],[120.81719421600009,12.78657634800004],[120.81669335600009,12.787570096000026],[120.81460647600012,12.787744083000062],[120.81489056800001,12.788702836000025],[120.81711731000009,12.789084719000073],[120.81771636400005,12.788726247000058],[120.8192713200001,12.789217317000066],[120.81958894000003,12.786274230000059],[120.82053832300004,12.784656199000036],[120.82288245900008,12.784025212000076],[120.824365348,12.783827043000029],[120.82547288800002,12.78421874200006],[120.82587313200007,12.78527408700006],[120.82565090100002,12.786190403000031],[120.82460539700003,12.786633974000038],[120.82425527800002,12.787575237000054],[120.82306059000007,12.78825398400005],[120.82256534500004,12.789187167000021],[120.82075501100009,12.791199776000044],[120.82047576700006,12.791943459000038],[120.81862649200004,12.791679494000048],[120.81909842000005,12.793462305000048],[120.8197947540001,12.794080163000046],[120.82108675700012,12.793421371000022],[120.82178785700012,12.793484552000052],[120.82259309000007,12.795040578000053],[120.82244993800008,12.79582364500004],[120.82308782000008,12.796441015000024],[120.82653400900006,12.798052176000054],[120.82650284600004,12.799031421000052],[120.82556337900006,12.800625643000044],[120.82361896400003,12.800083558000043],[120.82159470100008,12.800329832000045],[120.81977160200007,12.802681836000032],[120.81974230800007,12.803255434000048],[120.8208264650001,12.804675100000052],[120.82134578600007,12.80661610900006],[120.82187353600013,12.807576878000077],[120.82043803700002,12.809047414000077],[120.81980917600004,12.810778072000062],[120.81804391800006,12.810361753000048],[120.81603156200003,12.811478392000026],[120.81645089700011,12.812012672000037],[120.81772781100005,12.811420735000068],[120.81881869300001,12.81206100200006],[120.81802094500007,12.813029915000072],[120.81815946100004,12.81392051400007],[120.81877142900011,12.81415512500007],[120.82025262700007,12.81360790800005],[120.82075992800002,12.81411422000002],[120.820795513,12.815075696000065],[120.8214182800001,12.81575511500006],[120.82089091500006,12.817023636000043],[120.8209263230001,12.818562857000073],[120.81913342200006,12.819652637000045],[120.81781660100012,12.819694946000027],[120.81764637200001,12.820874054000058],[120.81913333800004,12.82135980700002],[120.81924496762036,12.821684383359232],[120.82069079699748,12.821907109161621],[120.82062475500004,12.821329135000042],[120.82177669000008,12.819975809000027],[120.82367334000003,12.820421894000049],[120.82358395700008,12.81891482100002],[120.82393214500009,12.817914958000072],[120.82580876300005,12.816896086000042],[120.8267215960001,12.816143289000024],[120.82892840600005,12.816218896000066],[120.83020348100003,12.815842072000065],[120.83315396600007,12.816138969000065],[120.8340464460001,12.817074547000058],[120.83293929700005,12.819324359000063],[120.83262322400003,12.82090369800005],[120.83066610200001,12.821824836000076],[120.83083652954147,12.821955182296355],[120.83462786718081,12.821435193467208],[120.83902000998486,12.82039388751211],[120.84328695872206,12.818935056108735],[120.84364273388991,12.818773484913022],[120.84346109500008,12.818601771000033],[120.84193836100008,12.818876204000048],[120.84123040200006,12.81732100800002],[120.84001936500012,12.81761711700005],[120.83894691600005,12.81822389000007],[120.83932189200004,12.816290126000068],[120.8405661060001,12.815718029000038],[120.84261595000011,12.816774947000056],[120.84382275500003,12.81668920000004],[120.84540578900011,12.815339282000025],[120.84613851800009,12.815130090000027],[120.84658569500004,12.814117559000065],[120.84738217300003,12.813574139000023],[120.8493937630001,12.813399305000072],[120.84980863800003,12.811884386000028],[120.85195112500004,12.811116825000054],[120.85356025000009,12.811769849000028],[120.85399168135366,12.812887143450938],[120.85493390724042,12.81221320910739],[120.85830687331487,12.809262786588416],[120.86136883228485,12.806002075718597],[120.86286961391905,12.804050148195305],[120.86240168400003,12.803401088000042],[120.8611040490001,12.801985803000033],[120.85912991000008,12.801342108000027],[120.85828656900004,12.800229388000048],[120.85813865000011,12.799045195000073],[120.857600798,12.798490295000017],[120.8560354220001,12.79772503400005],[120.85588565000012,12.796996934000049],[120.8561330980001,12.79539216000006],[120.85586575600006,12.795056780000037],[120.85441739500003,12.79545470700003],[120.85231498400003,12.795150651000032],[120.85020836800004,12.795343881000063],[120.84883322900009,12.794318853000046],[120.84781620200012,12.79243597100003],[120.84681316100011,12.791203564000053],[120.84497179100003,12.790002558000024],[120.84284768300007,12.789966053000057],[120.84192781300011,12.79041760100006],[120.84032859200012,12.790411939000021],[120.839903917,12.790056711000032],[120.83993626200004,12.788545845000048],[120.84069650900007,12.78623755500007],[120.83992819900004,12.784911411000055],[120.8394755050001,12.782723675000055],[120.83976552500006,12.781122684000023],[120.84063811600004,12.779350901000043],[120.8423220310001,12.778427395000048],[120.84322642500001,12.777497506000032],[120.84336330400004,12.776807359000031],[120.84166008400007,12.774268496000046],[120.84203533900005,12.773109521000038],[120.84391892100008,12.773340112000026],[120.84396533900008,12.774723860000051],[120.84480477400007,12.775743171000043],[120.84441284000002,12.777145900000045],[120.84667138400005,12.778042114000073],[120.84867602800013,12.777387543000032],[120.84972707500003,12.777549140000078],[120.85046033200001,12.778415893000044],[120.8517458880001,12.778502879000033],[120.85208413500006,12.777683113000023],[120.85082276200002,12.77704160300004],[120.84991487600008,12.775571409000067],[120.84966638200001,12.774580886000022],[120.84864946400012,12.77459799600007],[120.8482246760001,12.773725563000028],[120.84857056300007,12.773154533000023],[120.85035677000008,12.772566099000075],[120.85116891200006,12.771801421000077],[120.85119863900002,12.770617524000045],[120.85216234300003,12.770309525000073],[120.85267970200005,12.771203430000071],[120.85372916800009,12.770972861000073],[120.85576387100002,12.767438681000042],[120.85644241700005,12.764969446000066],[120.85631530300009,12.762708863000055],[120.85660463100008,12.761935794000065],[120.85827381100013,12.759661469000038],[120.85883557000012,12.759312750000047],[120.85825514700004,12.756496156000026],[120.85961772100006,12.753590685000061],[120.85953749000008,12.752317403000065],[120.85869370600005,12.749823862000026],[120.85952302200009,12.74809468600006],[120.8595293762706,12.746118279040012],[120.85884526496545,12.74536496442101],[120.85552339632983,12.742360144135661],[120.85191756407126,12.739689372668927],[120.84806249159006,12.737378359346812],[120.84658424778016,12.736677259861821],[120.8472787950001,12.737735208000057],[120.84740436700008,12.739017833000046],[120.84643070100002,12.741247929000055],[120.84580362500002,12.741663646000063],[120.84531112700006,12.743537960000024],[120.8433216410001,12.744818724000028],[120.84317818900001,12.745281075000035],[120.84459957700005,12.745785562000037],[120.84532578400001,12.747474777000036],[120.84502233600006,12.748792160000047],[120.84614716200008,12.749432564000074],[120.84633966700004,12.752016462000027],[120.84558836300003,12.753291938000071],[120.84536511600005,12.754342178000059],[120.8471622720001,12.756135764000021],[120.84724983500008,12.757303310000056],[120.8460729510001,12.760507281000057],[120.84527303500009,12.76061552600004],[120.84383800500007,12.759781297000073],[120.84389658400003,12.75746724700002],[120.84314294200009,12.756715090000055],[120.84192685500011,12.757642447000022],[120.84118556900013,12.75773203100004],[120.84050988100013,12.756980505000058],[120.84088920300006,12.755912420000074],[120.84205136500009,12.754449034000059],[120.84194288000003,12.753453477000047],[120.83993924300013,12.753035412000035],[120.83955520600011,12.75236278300002],[120.8399166580001,12.751103270000042],[120.841131743,12.750290680000033],[120.84086461900006,12.749619008000025],[120.83986712800005,12.749987559000033],[120.83872683100003,12.749405730000037],[120.83723218500005,12.750545725000052],[120.83619619800005,12.750919811000074],[120.83526381500008,12.750567868000076],[120.83475282800009,12.748784757000067],[120.83402197700002,12.747650204000024],[120.83291603200006,12.74708642200005],[120.83266822900009,12.746481801000076],[120.83150305800007,12.745563708000077],[120.8299419560001,12.746220387000049],[120.82920373600007,12.747482798000018],[120.828078634,12.747639699000045],[120.82615188000011,12.747356068000045],[120.82477481600007,12.746754050000051],[120.82337236100012,12.746529818000056],[120.82240268300006,12.745986247000078],[120.82002976300008,12.74546936200005],[120.81966773200007,12.744509975000025],[120.81783271900008,12.742620288000067],[120.81724900400002,12.740243594000049],[120.81653970900004,12.738879649000067],[120.81801463000009,12.737304189000042],[120.81753554400008,12.736362963000033],[120.81831737100002,12.736082490000058],[120.81947969900011,12.734600081000053],[120.8207893880001,12.734113540000067],[120.82158035400003,12.732761957000035],[120.82275005000008,12.732695070000036],[120.8230245104606,12.732001439192839],[120.82189788924366,12.7320464851193],[120.81742449003558,12.732660271899517],[120.8130338962344,12.733701454553138],[120.8087683694437,12.735160007644541],[120.80466896860722,12.737021888448936],[120.80077515537015,12.739269172043416],[120.79712441472537,12.741880223706652],[120.79375189457194,12.744829906975358],[120.79098585175312,12.74777491069571],[120.79163629100005,12.749506693000058]],[[120.8460900340001,12.765510439000026],[120.84631136400004,12.766989911000051],[120.84545638900012,12.76784371000002],[120.84353532400007,12.766866825000019],[120.84342533600011,12.766048191000039],[120.84452864400009,12.765210773000035],[120.8460900340001,12.765510439000026]]],[[[120.83487003100004,12.733551461000047],[120.83591646800005,12.733854316000077],[120.83637515700002,12.734432711000064],[120.83756370300011,12.734442426000042],[120.83763564000004,12.735150761000057],[120.83716575600012,12.737710110000021],[120.83726230000002,12.738506092000021],[120.83799296500003,12.739666147000035],[120.83916881100002,12.740480954000079],[120.83959180300009,12.74115389900004],[120.83937846800008,12.743332784000074],[120.83972401000007,12.743947712000022],[120.84144194300008,12.743579174000047],[120.84177950800006,12.742835924000078],[120.84298839300004,12.742750145000059],[120.84400711900003,12.742108088000064],[120.84389846100008,12.741131656000052],[120.84429463200003,12.740369752000047],[120.84271062900008,12.738730928000049],[120.84264782600007,12.738057557000047],[120.84312385200009,12.736450022000044],[120.84391796700005,12.736282020000033],[120.84483228700003,12.736701487000063],[120.84627058320582,12.736528493989143],[120.84399529815015,12.735449348956267],[120.83975514167709,12.73392090795511],[120.83538284208161,12.732807746084568],[120.83450589236061,12.732672708085358],[120.83487003100004,12.733551461000047]]],[[[120.82867532500006,12.732972489000078],[120.8287209130001,12.73448399000006],[120.82940329600002,12.73672758700008],[120.82883059200002,12.737621914000046],[120.82894196000008,12.738273185000022],[120.82999412700008,12.738281818000075],[120.83022012700008,12.739201826000055],[120.83128625000006,12.739860927000052],[120.83213637000007,12.739920011000038],[120.83257663300002,12.739355041000065],[120.83091771400008,12.737371239000025],[120.831041292,12.73658799400005],[120.83027298200012,12.735280977000059],[120.83049788700008,12.734039487000077],[120.83192690600004,12.733266942000055],[120.83175772700008,12.732538684000076],[120.83053071300003,12.732471244000067],[120.83045011350818,12.732094024882704],[120.82641103574824,12.731866005872211],[120.8232185952379,12.731993678571989],[120.82867532500006,12.732972489000078]]]]}},{"type":"Feature","properties":{"fid":229,"objectid":9203,"lccode":"05","liqcode":null,"mappers":"DJLBuhay, CJMLegaspi, RPADizon, MITAbigania","project":"LiquePhi Project","province":"Oriental Mindoro","otherinfo":null,"datemapped":2022,"publishdate":null,"globalid":"{F3BDD761-0F01-4330-8A50-39E3D691BA6D}","st_area(shape)":0.020225090287084545,"st_perimeter(shape)":13.120620867054654,"liqcodepk":null,"creator":null,"createdate":null,"editor":null,"modifydate":null,"codemove":null},"geometry":{"type":"Polygon","coordinates":[]}}]}