{"type":"FeatureCollection","features":[{"type":"Feature","properties":{"fid":77,"objectid":1911,"lccode":"05","liqcode":"2010600050000000","mappers":"PJDelosReyes, ACPidlaoan","project":"READY","province":"Nueva Vizcaya","otherinfo":null,"datemapped":2012,"publishdate":null,"globalid":"{0ACA3F57-AD60-4484-BA31-EC0AA40442C7}","st_area(shape)":0.021555889848122466,"st_perimeter(shape)":5.854854757009637,"liqcodepk":"201060005000000000109","creator":"SNOOPYPC","createdate":"2019-02-19T15:21:28","editor":"LENOVO","modifydate":"2019-03-10T17:50:55","codemove":"na"},"geometry":{"type":"Polygon","coordinates":[]}},{"type":"Feature","properties":{"fid":82,"objectid":1940,"lccode":"06","liqcode":"2010600060000000","mappers":"PJDelosReyes, ACPidlaoan","project":"READY","province":"Nueva Vizcaya","otherinfo":null,"datemapped":2012,"publishdate":null,"globalid":"{ADBEBD6E-E111-40F8-9385-10213D95674F}","st_area(shape)":0.009472600042928265,"st_perimeter(shape)":2.831265766038306,"liqcodepk":"201060006000000000140","creator":"SNOOPYPC","createdate":"2019-02-19T15:21:28","editor":"LENOVO","modifydate":"2019-03-10T17:50:55","codemove":"na"},"geometry":{"type":"Polygon","coordinates":[]}}]}