{"type":"FeatureCollection","features":[{"type":"Feature","properties":{"fid":187,"objectid":10016,"lccode":"01","liqcode":null,"mappers":"DJLBuhay, MJVReyes, MITAbigania, KLPapiona, KMVitto","project":"MELP","province":"Sultan Kudarat","otherinfo":null,"datemapped":2020,"publishdate":2021,"globalid":"{1B7E7CC9-093D-4716-9F84-3DA25042BFE2}","st_area(shape)":0.08978084284158963,"st_perimeter(shape)":9.534125484685708,"liqcodepk":null,"creator":null,"createdate":null,"editor":null,"modifydate":null,"codemove":null},"geometry":{"type":"Polygon","coordinates":[]}},{"type":"Feature","properties":{"fid":212,"objectid":10021,"lccode":"04","liqcode":null,"mappers":"OPCHalasan, KSSochayseng, AATMagnaye, RPADizon, MJVReyes, HALVidal, MITAbigania, DJLBuhay","project":"ACER-DeLTA Liquefaction","province":"Sarangani","otherinfo":null,"datemapped":2025,"publishdate":2025,"globalid":"{4B0F16AF-9FC5-426E-BE2A-C2A0BDACB3B7}","st_area(shape)":0.00681203411406619,"st_perimeter(shape)":4.420543025412032,"liqcodepk":null,"creator":null,"createdate":null,"editor":"DJLB","modifydate":"2025-07-07T08:00:00","codemove":null},"geometry":{"type":"MultiPolygon","coordinates":[[[[124.39827553400006,6.092352222000045],[124.39820137800008,6.0933883240000455],[124.39745981800002,6.094050067000069],[124.39858531000004,6.095532572000023],[124.40002058200004,6.09830671000003],[124.4009831820001,6.098251170000026],[124.40192875700006,6.096155167000063],[124.403205962,6.09485550200003],[124.4041243570001,6.095193934000063],[124.4043981640001,6.0958821450000755],[124.40586607400007,6.096931475000076],[124.4076586020001,6.096975464000024],[124.40830405300005,6.097812093000072],[124.41007966100005,6.097574307000058],[124.41006520400003,6.098887568000066],[124.41037818600013,6.1011023050000395],[124.40975048600001,6.102549979000058],[124.41032620400006,6.103314163000049],[124.4125030690001,6.101794882000035],[124.41341845500006,6.101777180000055],[124.41466563800007,6.102392185000041],[124.41554812400011,6.103453496000042],[124.41499014300007,6.104804694000052],[124.41560942900003,6.105113392000021],[124.4165608290001,6.102808392000043],[124.41458069400005,6.1013659040000325],[124.41299021800012,6.100603192000051],[124.41316020700003,6.09979159200003],[124.41451125400012,6.098129846000064],[124.41375041000002,6.096784855000067],[124.41223349700012,6.096441729000047],[124.41166236900007,6.094841006000024],[124.41225383400001,6.093263991000071],[124.412914332,6.092290194000043],[124.41426548100003,6.092297461000045],[124.41548359,6.093780475000073],[124.41607307400012,6.092735116000028],[124.41725430400004,6.09218815500003],[124.41830306600002,6.0909444270000686],[124.42041247300006,6.090170420000048],[124.42060855900003,6.091694800000025],[124.42155847000004,6.091696885000033],[124.42212079700003,6.091098048000049],[124.42189203000011,6.08977455300004],[124.42339039400008,6.089245919000064],[124.4250682510001,6.08802531200007],[124.42574563800008,6.087783063000074],[124.42890119800006,6.087510627000028],[124.42974563900007,6.086826106000047],[124.43019936000009,6.085933666000074],[124.4319189250001,6.0849469920000265],[124.43275281892637,6.084209368360706],[124.43175163197814,6.083961155426541],[124.43065845280464,6.083801796597024],[124.42928540200012,6.084902079000073],[124.42526782000006,6.087527757000031],[124.4235351960001,6.08853756700006],[124.42156183800012,6.089460491000069],[124.41819159800002,6.090527289000022],[124.41339215200003,6.090824682000061],[124.41227515500009,6.091247283000028],[124.40966295700004,6.091232365000052],[124.40893922300006,6.092150537000065],[124.40652558500005,6.093068707000043],[124.40419761500004,6.093639317000055],[124.40255158000004,6.093752902000062],[124.40028530400002,6.093336063000038],[124.39844804000008,6.091889680000064],[124.39888754300011,6.090272191000054],[124.39826792900008,6.090824535000024],[124.39824321000003,6.090860459000054],[124.3981931190001,6.091060969000068],[124.39816352200013,6.091742378000049],[124.39828884400002,6.092303064000019],[124.39827553400006,6.092352222000045]]],[[[124.38043453500006,6.113978351000071],[124.38039563044345,6.113614486295105],[124.3800921007483,6.114470509080196],[124.38043453500006,6.113978351000071]]]]}},{"type":"Feature","properties":{"fid":213,"objectid":10022,"lccode":"03","liqcode":null,"mappers":"OPCHalasan, KSSochayseng, AATMagnaye, RPADizon, MJVReyes, HALVidal, MITAbigania, DJLBuhay","project":"ACER-DeLTA Liquefaction","province":"Sarangani","otherinfo":null,"datemapped":2025,"publishdate":2025,"globalid":"{6B71C9FC-C348-4B94-AE03-7E47FA7930C0}","st_area(shape)":0.011541225204631354,"st_perimeter(shape)":8.576922001598057,"liqcodepk":null,"creator":null,"createdate":null,"editor":"DJLB","modifydate":"2025-07-07T08:00:00","codemove":null},"geometry":{"type":"MultiPolygon","coordinates":[[[[124.4196991660001,6.0975637840000445],[124.42101906800009,6.09637084800005],[124.4226768840001,6.096524466000061],[124.42296942100005,6.09745643100007],[124.42417049600009,6.098225929000022],[124.4244775940001,6.099100012000065],[124.42392767300011,6.100279233000037],[124.42538049100006,6.100698725000028],[124.4258989870001,6.099140867000075],[124.42668465600002,6.098564255000042],[124.42708226600007,6.097419793000029],[124.42835980700009,6.097068628000045],[124.42894212100009,6.095877497000061],[124.42996746000006,6.095711333000053],[124.43100633800009,6.094663467000032],[124.43119094100007,6.093363042000021],[124.43244076700013,6.09181959600005],[124.43224184300004,6.0908117130000505],[124.43294824700001,6.089539236000065],[124.43417820600007,6.089193880000039],[124.43462742000008,6.089794179000022],[124.43539512600012,6.088891366000041],[124.43673066100007,6.089093005000051],[124.43771799600006,6.088447184000075],[124.43877984600009,6.08732949900002],[124.44012257600002,6.08704555600002],[124.44030956012512,6.086547966955205],[124.44023248966023,6.086511730642589],[124.43605464316951,6.085027936621361],[124.43275281892637,6.084209368360706],[124.4319189250001,6.0849469920000265],[124.43019936000009,6.085933666000074],[124.42974563900007,6.086826106000047],[124.42890119800006,6.087510627000028],[124.42574563800008,6.087783063000074],[124.4250682510001,6.08802531200007],[124.42339039400008,6.089245919000064],[124.42189203000011,6.08977455300004],[124.42212079700003,6.091098048000049],[124.42155847000004,6.091696885000033],[124.42060855900003,6.091694800000025],[124.42041247300006,6.090170420000048],[124.41830306600002,6.0909444270000686],[124.41725430400004,6.09218815500003],[124.41607307400012,6.092735116000028],[124.41548359,6.093780475000073],[124.41426548100003,6.092297461000045],[124.412914332,6.092290194000043],[124.41225383400001,6.093263991000071],[124.41166236900007,6.094841006000024],[124.41223349700012,6.096441729000047],[124.41362188572116,6.09675578297633],[124.41253500700009,6.096370192000052],[124.41223818800006,6.095598424000059],[124.41228541800002,6.093810695000059],[124.41288408200012,6.0924668650000635],[124.41398335100008,6.092419597000059],[124.41528156200003,6.095381654000049],[124.41641980200008,6.095881462000023],[124.41820799400011,6.09783363500003],[124.4196991660001,6.0975637840000445]]],[[[124.41375041000002,6.096784855000067],[124.41362188572116,6.09675578297633],[124.41376210441938,6.096805528021519],[124.41375041000002,6.096784855000067]]],[[[124.41450477296875,6.0981183891208275],[124.41456155300011,6.09797761300007],[124.41399454700003,6.096887991000074],[124.41376210441938,6.096805528021519],[124.41450477296875,6.0981183891208275]]],[[[124.41451125400012,6.098129846000064],[124.41450477296875,6.0981183891208275],[124.41448922219152,6.0981569445335255],[124.41451125400012,6.098129846000064]]],[[[124.3896646657511,6.097957210359144],[124.388060058251,6.099738531673196],[124.38736421366127,6.100682743714548],[124.38845058100004,6.100583455000047],[124.38976853300005,6.100171364000061],[124.3914085230001,6.100227493000034],[124.39147091400002,6.09957166600003],[124.39036273200009,6.099483041000044],[124.38963226800001,6.098439513000073],[124.3896646657511,6.097957210359144]]],[[[124.38043453500006,6.113978351000071],[124.3800921007483,6.114470509080196],[124.3797909351897,6.115319862535586],[124.379538125931,6.116341187447536],[124.3803662140001,6.115937106000047],[124.3822809080001,6.114338572000064],[124.38368203100003,6.112502303000042],[124.38409752400004,6.109472728000072],[124.384704445,6.1088325940000345],[124.38402545400004,6.107992877000072],[124.38323939300005,6.109167300000023],[124.38226616509422,6.109023669319346],[124.38127377060867,6.11113792030286],[124.38039563044345,6.113614486295105],[124.38043453500006,6.113978351000071]]],[[[124.41466563800007,6.102392185000041],[124.41341845500006,6.101777180000055],[124.4125030690001,6.101794882000035],[124.41032620400006,6.103314163000049],[124.40975048600001,6.102549979000058],[124.41037818600013,6.1011023050000395],[124.41006520400003,6.098887568000066],[124.41007966100005,6.097574307000058],[124.40830405300005,6.097812093000072],[124.4076586020001,6.096975464000024],[124.40586607400007,6.096931475000076],[124.4043981640001,6.0958821450000755],[124.4041243570001,6.095193934000063],[124.403205962,6.09485550200003],[124.40192875700006,6.096155167000063],[124.4009831820001,6.098251170000026],[124.40002058200004,6.09830671000003],[124.39858531000004,6.095532572000023],[124.39745981800002,6.094050067000069],[124.39820137800008,6.0933883240000455],[124.39827553400006,6.092352222000045],[124.39828884400002,6.092303064000019],[124.39816352200013,6.091742378000049],[124.3981931190001,6.091060969000068],[124.39824321000003,6.090860459000054],[124.39826792900008,6.090824535000024],[124.39888754300011,6.090272191000054],[124.3974312270001,6.09113121100006],[124.39755889700007,6.091354159000047],[124.3975674300001,6.091556467000033],[124.39708965600005,6.094071008000071],[124.39734704400006,6.094876982000074],[124.39828699100009,6.095620710000048],[124.39931676100004,6.098016304000056],[124.39928955700009,6.1009027520000245],[124.39895405800007,6.102049012000064],[124.39999814300006,6.103453859000068],[124.4006683990001,6.10515545000004],[124.40310476,6.105438126000024],[124.40478501300004,6.104616614000066],[124.40609225100003,6.105110547000039],[124.4068346130001,6.106496064000054],[124.40828128200009,6.10826792900002],[124.40987919600003,6.107919939000055],[124.41138993700008,6.108755744000064],[124.41150701100004,6.110222050000062],[124.41276392600003,6.110300798000026],[124.41475349600012,6.111414925000078],[124.4152706540001,6.112916333000044],[124.4161460990001,6.114697488000047],[124.41664968700002,6.115197141000068],[124.41794888600009,6.1173968640000576],[124.41802924000001,6.118309983000074],[124.41950475600004,6.118795869000053],[124.42037561500003,6.118561434000071],[124.4209949100001,6.11907226100004],[124.42073528700007,6.120730544000025],[124.42089850900005,6.121788689000028],[124.42047498700005,6.124340952000069],[124.42074445800006,6.126713901000072],[124.41972651100004,6.128197885000019],[124.42100871800005,6.129897997000056],[124.42142359400009,6.131177625000022],[124.42129168700001,6.1327291950000244],[124.42154180400009,6.13347323100004],[124.42262174200005,6.134916605000059],[124.42252346600003,6.1361190020000445],[124.4207780360001,6.138765242000034],[124.42123749100007,6.1410076900000385],[124.42107272900012,6.143236504000072],[124.42132562000008,6.145510155000068],[124.42207893800003,6.143316983000035],[124.42316706200005,6.142556776000047],[124.42385145500009,6.139694496000061],[124.42268357700004,6.137965639000071],[124.42269946700003,6.137293921000036],[124.42479641500005,6.135921812000049],[124.4249680580001,6.135290262000068],[124.42342044000009,6.13334057800006],[124.42337891300008,6.132400835000055],[124.42382276700005,6.131458618000068],[124.42339523500006,6.130449580000063],[124.42395259800003,6.129958877000035],[124.42340751700011,6.128897705000042],[124.42417453400003,6.128211570000077],[124.42427856000008,6.127329423000047],[124.42503018100001,6.126684931000057],[124.4262694250001,6.126206237000075],[124.4258701230001,6.124984680000068],[124.42586623700004,6.123782092000057],[124.42645956900003,6.122635393000053],[124.4279498210001,6.122822089000067],[124.42946638800004,6.122699102000069],[124.43030720300011,6.12349791300005],[124.43046693200006,6.1217097880000315],[124.42989606300011,6.120718459000045],[124.42994745800002,6.119503317000068],[124.4289787670001,6.119308493000061],[124.42730314200003,6.120124099000066],[124.42715835900003,6.119028305000027],[124.42634571100007,6.118114863000072],[124.42652180500009,6.116883831000052],[124.42577696800005,6.115680791000044],[124.42449578700007,6.115736831000049],[124.42379867400007,6.114279087000057],[124.42145866200008,6.113495667000052],[124.42028247600003,6.113464420000071],[124.41997252400006,6.1112159530000545],[124.42028550000009,6.110320562000028],[124.41922723900008,6.109013311000068],[124.41721234600004,6.107814119000068],[124.41651553400006,6.106780714000023],[124.4166352090001,6.1028346160000515],[124.41427999200003,6.100878876000025],[124.41421954700003,6.098825556000064],[124.41448922219152,6.0981569445335255],[124.41316020700003,6.09979159200003],[124.41299021800012,6.100603192000051],[124.41458069400005,6.1013659040000325],[124.4165608290001,6.102808392000043],[124.41560942900003,6.105113392000021],[124.41499014300007,6.104804694000052],[124.41554812400011,6.103453496000042],[124.41466563800007,6.102392185000041]]]]}},{"type":"Feature","properties":{"fid":214,"objectid":10023,"lccode":"02","liqcode":null,"mappers":"OPCHalasan, KSSochayseng, AATMagnaye, RPADizon, MJVReyes, HALVidal, MITAbigania, DJLBuhay","project":"ACER-DeLTA Liquefaction","province":"Sarangani","otherinfo":null,"datemapped":2025,"publishdate":2025,"globalid":"{80FA53E4-996E-4B30-88CB-5CF3D52CBB3A}","st_area(shape)":0.00512214156560372,"st_perimeter(shape)":11.803879412251622,"liqcodepk":null,"creator":null,"createdate":null,"editor":"DJLB","modifydate":"2025-07-07T08:00:00","codemove":null},"geometry":{"type":"MultiPolygon","coordinates":[[[[124.3974312270001,6.09113121100006],[124.39741584490642,6.0923542655905685],[124.3975674300001,6.091556467000033],[124.39755889700007,6.091354159000047],[124.3974312270001,6.09113121100006]]],[[[124.39741584490642,6.0923542655905685],[124.39740794609288,6.092395837345307],[124.39741558800006,6.092374693000067],[124.39741584490642,6.0923542655905685]]],[[[124.41310651141438,6.092457300829776],[124.41325799819015,6.092450787046791],[124.41315064000003,6.092397027000062],[124.41310651141438,6.092457300829776]]],[[[124.41288408200012,6.0924668650000635],[124.41254927593012,6.093218409831614],[124.41310651141438,6.092457300829776],[124.41288408200012,6.0924668650000635]]],[[[124.4237858580001,6.0992161240000655],[124.42335803500009,6.1003889310000545],[124.42383478400008,6.101095596000049],[124.42441785700011,6.10321279100003],[124.42515396400006,6.103801495000028],[124.42727677900007,6.104356370000062],[124.42844206600012,6.100826888000029],[124.42923928400012,6.099571244000061],[124.42982886500012,6.097712444000025],[124.42951393900012,6.096433280000042],[124.43259486200009,6.094684394000069],[124.43352478500005,6.094371248000074],[124.43475319000004,6.093417652000028],[124.43589564000001,6.093065488000036],[124.43588375600007,6.091301820000068],[124.43725868500007,6.091022449000035],[124.43842098700009,6.090453958000069],[124.43964800900005,6.090258978000064],[124.44014713600008,6.089381572000037],[124.44210799400004,6.0881821520000585],[124.44070585300007,6.0876185640000235],[124.44057012248808,6.086670475744046],[124.44030956012512,6.086547966955205],[124.44012257600002,6.08704555600002],[124.43877984600009,6.08732949900002],[124.43771799600006,6.088447184000075],[124.43673066100007,6.089093005000051],[124.43539512600012,6.088891366000041],[124.43462742000008,6.089794179000022],[124.43417820600007,6.089193880000039],[124.43294824700001,6.089539236000065],[124.43224184300004,6.0908117130000505],[124.43244076700013,6.09181959600005],[124.43119094100007,6.093363042000021],[124.43100633800009,6.094663467000032],[124.42996746000006,6.095711333000053],[124.42894212100009,6.095877497000061],[124.42835980700009,6.097068628000045],[124.42708226600007,6.097419793000029],[124.42668465600002,6.098564255000042],[124.4258989870001,6.099140867000075],[124.42538049100006,6.100698725000028],[124.42392767300011,6.100279233000037],[124.4244775940001,6.099100012000065],[124.42417049600009,6.098225929000022],[124.42296942100005,6.09745643100007],[124.4226768840001,6.096524466000061],[124.42101906800009,6.09637084800005],[124.4196991660001,6.0975637840000445],[124.41820799400011,6.09783363500003],[124.41641980200008,6.095881462000023],[124.41528156200003,6.095381654000049],[124.41398335100008,6.092419597000059],[124.41325799819015,6.092450787046791],[124.41414176400008,6.092893335000042],[124.4143342850001,6.093737058000044],[124.41521132300011,6.095523761000038],[124.41626662100009,6.0959704350000266],[124.41802782800004,6.097906022000074],[124.41985657100008,6.097633122000046],[124.42044348600007,6.097127516000056],[124.42159920400002,6.09686459200003],[124.42196166600003,6.09752633100004],[124.4237858580001,6.0992161240000655]]],[[[124.41249225200352,6.093346412234807],[124.41254927593012,6.093218409831614],[124.41250177400003,6.093283291000035],[124.41249225200352,6.093346412234807]]],[[[124.41253500700009,6.096370192000052],[124.41399454700003,6.096887991000074],[124.41456155300011,6.09797761300007],[124.41421954700003,6.098825556000064],[124.41427999200003,6.100878876000025],[124.4165533773904,6.102766664619084],[124.41655095300007,6.102686285000061],[124.4144626320001,6.101011453000068],[124.41435686500006,6.098803682000037],[124.41459248600006,6.097953524000047],[124.41403390000005,6.096884219000059],[124.41269332200011,6.096376036000038],[124.4122878620001,6.09470131100005],[124.41249225200352,6.093346412234807],[124.41228541800002,6.093810695000059],[124.41223818800006,6.095598424000059],[124.41253500700009,6.096370192000052]]],[[[124.38963226800001,6.098439513000073],[124.39036273200009,6.099483041000044],[124.39147091400002,6.09957166600003],[124.3914085230001,6.100227493000034],[124.38976853300005,6.100171364000061],[124.38845058100004,6.100583455000047],[124.38788168704654,6.100635449425117],[124.38833398800013,6.1007031150000435],[124.39221767400011,6.100339161000022],[124.39221292,6.099285111000029],[124.39097461000007,6.099448181000071],[124.39026157000002,6.099174033000053],[124.38978720000011,6.098231635000047],[124.38991064100512,6.097684144862056],[124.3896646657511,6.097957210359144],[124.38963226800001,6.098439513000073]]],[[[124.38788168704654,6.100635449425117],[124.38744699343847,6.100570417575011],[124.38736421366127,6.100682743714548],[124.38788168704654,6.100635449425117]]],[[[124.4166352090001,6.1028346160000515],[124.4165533773904,6.102766664619084],[124.41658873000006,6.103938752000033],[124.41660120247654,6.103955912035667],[124.4166352090001,6.1028346160000515]]],[[[124.38323939300005,6.109167300000023],[124.38402545400004,6.107992877000072],[124.38468177351851,6.108804555950289],[124.3848655040001,6.1084281090000445],[124.3839653780001,6.107688780000046],[124.38296571700005,6.108781551000049],[124.38238754941756,6.108765064637374],[124.38226616509422,6.109023669319346],[124.38323939300005,6.109167300000023]]],[[[124.42016315428492,6.110169431024037],[124.42015161100005,6.109851932000025],[124.41936053200004,6.109014155000067],[124.41739917200003,6.1077741730000525],[124.41658794600005,6.1066050200000745],[124.41659083000002,6.105345418000069],[124.41717104500005,6.104739918000064],[124.41660120247654,6.103955912035667],[124.41651553400006,6.106780714000023],[124.41721234600004,6.107814119000068],[124.41922723900008,6.109013311000068],[124.42016315428492,6.110169431024037]]],[[[124.40426760400011,6.107064180000065],[124.40493073000005,6.10818438700005],[124.40546907500004,6.106489895000038],[124.406203505,6.10652889000005],[124.40700106400003,6.107477381000025],[124.4075559030001,6.110002946000067],[124.40739903400005,6.110711934000051],[124.40811563800003,6.1122894300000326],[124.40882867800008,6.110984894000066],[124.409470413,6.110598496000025],[124.41118883800004,6.110488603000022],[124.41278604500009,6.111371292000057],[124.41228335200005,6.112583658000062],[124.41199813700005,6.114487280000047],[124.41368320500011,6.114982418000067],[124.41595170100004,6.117524790000062],[124.41663146500002,6.118673335000039],[124.41824768700008,6.118739505000065],[124.41910808800003,6.11972734500006],[124.41986757400002,6.118724735000058],[124.4208515680001,6.1192068390000705],[124.42066621300013,6.120492711000052],[124.42064647589231,6.123307512477683],[124.42089850900005,6.121788689000028],[124.42073528700007,6.120730544000025],[124.4209949100001,6.11907226100004],[124.42037561500003,6.118561434000071],[124.41950475600004,6.118795869000053],[124.41802924000001,6.118309983000074],[124.41794888600009,6.1173968640000576],[124.41664968700002,6.115197141000068],[124.4161460990001,6.114697488000047],[124.4152706540001,6.112916333000044],[124.41475349600012,6.111414925000078],[124.41276392600003,6.110300798000026],[124.41150701100004,6.110222050000062],[124.41138993700008,6.108755744000064],[124.40987919600003,6.107919939000055],[124.40828128200009,6.10826792900002],[124.4068346130001,6.106496064000054],[124.40609225100003,6.105110547000039],[124.40478501300004,6.104616614000066],[124.40310476,6.105438126000024],[124.4006683990001,6.10515545000004],[124.39999814300006,6.103453859000068],[124.39895405800007,6.102049012000064],[124.39928955700009,6.1009027520000245],[124.39931676100004,6.098016304000056],[124.39828699100009,6.095620710000048],[124.39734704400006,6.094876982000074],[124.39708965600005,6.094071008000071],[124.39740794609288,6.092395837345307],[124.39692359100003,6.093735994000044],[124.39722306800002,6.094927130000032],[124.39805732300012,6.095671589000061],[124.39921244700008,6.0981318400000655],[124.399076969,6.101194730000032],[124.39874897100005,6.101847010000029],[124.39979000900009,6.103364266000028],[124.39979000900009,6.104349772000035],[124.40039223500004,6.106511165000029],[124.40235665900002,6.106543069000054],[124.40426760400011,6.107064180000065]]],[[[124.384704445,6.1088325940000345],[124.38468177351851,6.108804555950289],[124.38462951926518,6.108911620054492],[124.384704445,6.1088325940000345]]],[[[124.42017965801816,6.110623364869859],[124.42028550000009,6.110320562000028],[124.42016315428492,6.110169431024037],[124.42017965801816,6.110623364869859]]],[[[124.42024186700007,6.112334389000069],[124.42017965801816,6.110623364869859],[124.41997252400006,6.1112159530000545],[124.42028247600003,6.113464420000071],[124.42145866200008,6.113495667000052],[124.42369181541494,6.11424331176871],[124.42151778500012,6.11347218100002],[124.42049217800003,6.113446179000049],[124.42024186700007,6.112334389000069]]],[[[124.38027470800012,6.117770232000054],[124.38134664300001,6.118181439000069],[124.3815058890001,6.116933637000045],[124.38243572400005,6.1155574460000235],[124.38467653600004,6.115152965000049],[124.38471456500008,6.114118390000044],[124.38611390400003,6.112771320000036],[124.386146585,6.112074151000057],[124.38495759200008,6.111205642000072],[124.38423802999999,6.1097137440000315],[124.38462951926518,6.108911620054492],[124.38409752400004,6.109472728000072],[124.38368203100003,6.112502303000042],[124.3822809080001,6.114338572000064],[124.3803662140001,6.115937106000047],[124.379538125931,6.116341187447536],[124.37933970815004,6.117142774541144],[124.38027470800012,6.117770232000054]]],[[[124.42379867400007,6.114279087000057],[124.42369181541494,6.11424331176871],[124.42379989910887,6.114281648854259],[124.42379867400007,6.114279087000057]]],[[[124.42449578700007,6.115736831000049],[124.42459008878822,6.1157327062592595],[124.42400866600008,6.114355698000054],[124.42379989910887,6.114281648854259],[124.42449578700007,6.115736831000049]]],[[[124.42577696800005,6.115680791000044],[124.42459008878822,6.1157327062592595],[124.42462931500005,6.115825607000034],[124.42583277574617,6.115770930391428],[124.42577696800005,6.115680791000044]]],[[[124.42882794030271,6.119381907779407],[124.42851601800008,6.119459472000073],[124.42835833300012,6.118201872000044],[124.4278164230001,6.117394582000032],[124.42660435000005,6.11689711300005],[124.42630727100006,6.115749372000039],[124.42583277574617,6.115770930391428],[124.42652180500009,6.116883831000052],[124.42634571100007,6.118114863000072],[124.42715835900003,6.119028305000027],[124.42730314200003,6.120124099000066],[124.42882794030271,6.119381907779407]]],[[[124.42974156100001,6.119154721000029],[124.42905860324015,6.1193245498107665],[124.4298595355522,6.119485634040295],[124.42974156100001,6.119154721000029]]],[[[124.4289787670001,6.119308493000061],[124.42882794030271,6.119381907779407],[124.42905860324015,6.1193245498107665],[124.4289787670001,6.119308493000061]]],[[[124.42994745800002,6.119503317000068],[124.4298595355522,6.119485634040295],[124.42993880198017,6.11970797229286],[124.42994745800002,6.119503317000068]]],[[[124.42610476620932,6.123321100673567],[124.42616161966289,6.12321122325858],[124.42610569600004,6.123258605000046],[124.42610476620932,6.123321100673567]]],[[[124.42064647589231,6.123307512477683],[124.42062633160232,6.123428907607363],[124.42064597500008,6.123378953000042],[124.42064647589231,6.123307512477683]]],[[[124.43591329800006,6.13141891600003],[124.43601212700004,6.13030842300003],[124.43505927600006,6.128891899000052],[124.43531998900005,6.126938602000052],[124.43504637800004,6.1262867670000665],[124.43291221400011,6.125307534000058],[124.4327624030001,6.12433012200006],[124.43132697600005,6.122519728000043],[124.43014036500006,6.120273345000045],[124.42993880198017,6.11970797229286],[124.42989606300011,6.120718459000045],[124.43046693200006,6.1217097880000315],[124.43030720300011,6.12349791300005],[124.42946638800004,6.122699102000069],[124.4279498210001,6.122822089000067],[124.42645956900003,6.122635393000053],[124.42616161966289,6.12321122325858],[124.42657248400008,6.122863115000028],[124.4277263570001,6.123303551000049],[124.42883215100005,6.122871681000049],[124.42996262600003,6.123543822000045],[124.43038049000006,6.125145547000045],[124.4297497870001,6.126199525000061],[124.4316895710001,6.1267571280000634],[124.43339158300012,6.128155894000031],[124.43461995000007,6.130738823000059],[124.43591329800006,6.13141891600003]]],[[[124.42417453400003,6.128211570000077],[124.42373389631211,6.128605742711566],[124.42427726000005,6.128312124000047],[124.42463377900005,6.1272344970000745],[124.42640038900004,6.126280656000062],[124.42608766600006,6.1244705050000325],[124.42610476620932,6.123321100673567],[124.42586623700004,6.123782092000057],[124.4258701230001,6.124984680000068],[124.4262694250001,6.126206237000075],[124.42503018100001,6.126684931000057],[124.42427856000008,6.127329423000047],[124.42417453400003,6.128211570000077]]],[[[124.42363283530348,6.12869614678379],[124.42373389631211,6.128605742711566],[124.42362126400008,6.128666606000023],[124.42363283530348,6.12869614678379]]],[[[124.42340751700011,6.128897705000042],[124.42392942006889,6.129913753972222],[124.42404497400003,6.129748307000058],[124.42363283530348,6.12869614678379],[124.42340751700011,6.128897705000042]]],[[[124.42395259800003,6.129958877000035],[124.42392942006889,6.129913753972222],[124.42381057259057,6.130083916448384],[124.42395259800003,6.129958877000035]]],[[[124.42342044000009,6.13334057800006],[124.4249680580001,6.135290262000068],[124.42493132961475,6.13542540193839],[124.42504572000007,6.135207573000059],[124.42448528200009,6.1339854700000265],[124.42374961100006,6.133600972000067],[124.42363552400002,6.132183056000032],[124.42397778300007,6.13153081300004],[124.4235657690001,6.130434419000038],[124.42381057259057,6.130083916448384],[124.42339523500006,6.130449580000063],[124.42382276700005,6.131458618000068],[124.42337891300008,6.132400835000055],[124.42342044000009,6.13334057800006]]],[[[124.42072344400005,6.130141898000035],[124.42121098100006,6.131230513000049],[124.42102773700003,6.132905022000045],[124.42137285200009,6.133967696000071],[124.42233968100004,6.135055340000066],[124.42231353600006,6.1360218820000245],[124.42079951600012,6.138084934000062],[124.42050348799998,6.139924388000053],[124.42103644600002,6.141243866000025],[124.42095638500007,6.143498932000056],[124.4203479250001,6.146417411000073],[124.4213251860001,6.14647938100006],[124.42194538600006,6.14596089300005],[124.42224587500004,6.14388316700007],[124.42348532600009,6.142492062000031],[124.42387830200003,6.140134136000028],[124.42379573716671,6.139927520670553],[124.42316706200005,6.142556776000047],[124.42207893800003,6.143316983000035],[124.42132562000008,6.145510155000068],[124.42107272900012,6.143236504000072],[124.42123749100007,6.1410076900000385],[124.4207780360001,6.138765242000034],[124.42252346600003,6.1361190020000445],[124.42262174200005,6.134916605000059],[124.42154180400009,6.13347323100004],[124.42129168700001,6.1327291950000244],[124.42142359400009,6.131177625000022],[124.42100871800005,6.129897997000056],[124.41972651100004,6.128197885000019],[124.42074445800006,6.126713901000072],[124.42047498700005,6.124340952000069],[124.42062633160232,6.123428907607363],[124.42039601900001,6.124014609000027],[124.42061115500007,6.125899102000062],[124.42042405600012,6.12685129300007],[124.41926826400004,6.128454333000036],[124.4184660950001,6.129160343000024],[124.41748269500012,6.129053999000064],[124.41665972900012,6.129635939000025],[124.41658963000009,6.131010830000037],[124.41922072900002,6.129760008000062],[124.42072344400005,6.130141898000035]]],[[[124.42479641500005,6.135921812000049],[124.42493132961475,6.13542540193839],[124.42460480392668,6.13604719062481],[124.42479641500005,6.135921812000049]]],[[[124.42460480392668,6.13604719062481],[124.42269946700003,6.137293921000036],[124.42268357700004,6.137965639000071],[124.42348706317945,6.139155073842637],[124.4228654420001,6.1375994770000375],[124.4231122970001,6.137056278000045],[124.424478893,6.136286957000036],[124.42460480392668,6.13604719062481]]],[[[124.42385145500009,6.139694496000061],[124.42348706317945,6.139155073842637],[124.42379573716671,6.139927520670553],[124.42385145500009,6.139694496000061]]],[[[124.46402921300012,6.11050743800007],[124.463462347,6.112171194000041],[124.46162815300012,6.113379028000054],[124.46208340800001,6.114026370000034],[124.46308206000003,6.113063334000059],[124.46399712600008,6.11264385100003],[124.46444379400009,6.111793743000019],[124.46494811148709,6.111477843466207],[124.46474589418773,6.110916969796988],[124.46436425196954,6.110114948229787],[124.46402921300012,6.11050743800007]]]]}}]}