{"type":"FeatureCollection","features":[{"type":"Feature","properties":{"fid":10,"objectid":1841,"lccode":"01","liqcode":"2010600010000000","mappers":"DJLBuhay, MJVReyes, MITAbigania, KLPapiona, KMVitto","project":"MELP","province":"Capiz","otherinfo":null,"datemapped":2017,"publishdate":null,"globalid":"{FE12B36A-531F-4D3F-AE5B-76F7E9CFE484}","st_area(shape)":0.04128187917080134,"st_perimeter(shape)":8.871881460062728,"liqcodepk":"201060001000000000013","creator":"SNOOPYPC","createdate":"2019-02-19T15:21:28","editor":"LENOVO","modifydate":"2019-03-10T17:53:06","codemove":"na"},"geometry":{"type":"MultiPolygon","coordinates":[[[[122.69671933200004,11.564185922000036],[122.69543449700008,11.563000161000048],[122.69511827300005,11.56370569200004],[122.6943418940001,11.563573272000042],[122.69456176900007,11.562209634000054],[122.69333247500003,11.561289519000072],[122.69230351000012,11.561364996000066],[122.69159607200005,11.560330575000021],[122.69009213900007,11.559821707000026],[122.68873083500013,11.56014294800008],[122.68825680500005,11.559364160000026],[122.6863533950001,11.560300134000045],[122.6852448950001,11.559892878000028],[122.68474898700003,11.560535913000022],[122.68520113800002,11.561350421000041],[122.68413639500011,11.562943706000054],[122.68442834100007,11.56426611700004],[122.68399354078225,11.565121210905179],[122.68712089898598,11.565276103806456],[122.69161601590415,11.565063185902524],[122.69606830715273,11.56441677871191],[122.69672437293299,11.56425546742805],[122.69671933200004,11.564185922000036]]],[[[122.71485668800005,11.555228207000024],[122.71345236700007,11.55458077800006],[122.71258000000013,11.553409855000043],[122.71103747600012,11.552668960000062],[122.70930460300009,11.552983073000064],[122.70780591000005,11.55210581800003],[122.70752352400008,11.550641165000057],[122.70682540300004,11.549951346000055],[122.70656433200008,11.548996371000046],[122.70706097800009,11.547417652000036],[122.708015465,11.546571577000064],[122.70722294400004,11.545666315000062],[122.70719461500005,11.544905389000062],[122.7061694140001,11.543755828000029],[122.7060912390001,11.54193246600005],[122.705086842,11.54011361800002],[122.70545298900005,11.538999491000027],[122.7044642730001,11.53779253600004],[122.70416438000005,11.53685426800007],[122.70350449000011,11.53676745600006],[122.7026096410001,11.53860418100004],[122.70196955300004,11.538144115000023],[122.70116372100006,11.538392134000047],[122.700494519,11.537932035000038],[122.70070879300012,11.537223999000046],[122.70002113900011,11.535864202000026],[122.69869199800006,11.535374704000048],[122.6981879540001,11.534771205000025],[122.69817949600008,11.533603529000061],[122.69927673400002,11.533116544000052],[122.70145017200004,11.533673906000043],[122.70226759600008,11.531754138000055],[122.70163746400009,11.53107155500004],[122.70165098500001,11.52975555000006],[122.70074798500002,11.527710423000029],[122.7002437980001,11.527250494000043],[122.700731087,11.525336786000025],[122.69937212500008,11.525555518000035],[122.69896340600006,11.526588768000064],[122.69802154800004,11.527008917000046],[122.69714687600003,11.528127820000064],[122.69690212900004,11.530099199000063],[122.69526137700007,11.530604748000028],[122.69421037400004,11.530593679000047],[122.69393857600005,11.529516651000051],[122.69444431200009,11.52844956700005],[122.69612490300005,11.526986960000045],[122.69628129800005,11.525953450000028],[122.6955829960001,11.525512452000044],[122.69516701400003,11.524267781000043],[122.6941289560001,11.523902991000057],[122.69430540700012,11.522276099000067],[122.69471444600003,11.520955725000022],[122.69684143000005,11.519484008000063],[122.69763655400006,11.52012609600007],[122.69849093200004,11.519811138000023],[122.69900635700003,11.518279531000074],[122.69878878500005,11.517537550000041],[122.6990938450001,11.515862932000061],[122.69727379400001,11.514488370000036],[122.69735217000004,11.513799336000032],[122.69844895500012,11.513666480000039],[122.69924568400006,11.512786767000025],[122.700651235,11.51433872700005],[122.70275593500003,11.515527696000051],[122.703832884,11.515806354000066],[122.70393872700005,11.516677428000037],[122.70582594300004,11.51650389800005],[122.7068200010001,11.517174875000023],[122.70766919400012,11.517163766000069],[122.70885906900004,11.516171962000044],[122.70866612900011,11.515047169000066],[122.70729965300006,11.51375208500002],[122.7064358660001,11.513808641000026],[122.7056000970001,11.514918039000065],[122.70469732700008,11.515127688000064],[122.70409636700005,11.51441881900007],[122.704747569,11.51348151700006],[122.70420876900006,11.51288277900005],[122.70435546500003,11.511806184000022],[122.70322797900009,11.51114702600006],[122.70247523500005,11.51174444900005],[122.7015532480001,11.511779396000064],[122.70017085600013,11.511275495000062],[122.69824083200001,11.51241006400005],[122.69676111400008,11.512169249000069],[122.69602054900008,11.51270684900004],[122.6951722460001,11.511904386000024],[122.69560996200005,11.510971666000044],[122.69348724100007,11.510801945000022],[122.69365882000011,11.509187011000048],[122.69460502200002,11.509188005000054],[122.69523713700005,11.507968358000028],[122.69412256800001,11.506615278000025],[122.6931639070001,11.506925329000069],[122.69335671600005,11.50810995000006],[122.69236104600009,11.508982258000058],[122.69170396400011,11.51083595400007],[122.69026007700008,11.511121552000077],[122.69030205700004,11.506013049000044],[122.68971989000009,11.505916719000027],[122.68924038900003,11.507549692000056],[122.68825669400009,11.508553601000072],[122.68731061300004,11.508444912000073],[122.68594125700007,11.507163311000058],[122.68414616700012,11.50693405700002],[122.68254476900007,11.507063917000039],[122.68205998400003,11.50666858200003],[122.68179456100007,11.505376202000035],[122.68077522500006,11.505698109000035],[122.68064016900009,11.50713361700002],[122.678994826,11.507292895000035],[122.67861710500006,11.50876402600005],[122.68093391900003,11.508910140000067],[122.68113482000001,11.509538883000062],[122.6834871650001,11.510462663000055],[122.68429981200006,11.51057122000003],[122.68495403900012,11.511325648000021],[122.68602275,11.51025006100002],[122.6869932830001,11.510191287000055],[122.68788967200008,11.511364702000037],[122.68773488900001,11.512901462000059],[122.68644824000013,11.513593979000063],[122.68644682200011,11.514874104000056],[122.68542729700006,11.51533959200003],[122.68505051500007,11.515985230000068],[122.68592290400011,11.516931313000041],[122.68560419800009,11.519897991000052],[122.68502077900008,11.520902319000074],[122.68470300500009,11.523019566000073],[122.68511451300003,11.523881405000052],[122.68402192400004,11.524562156000059],[122.68373010000005,11.525160028000073],[122.6840565000001,11.526189269000042],[122.68338855700004,11.526822624000035],[122.68359341400004,11.528055117000067],[122.682195953,11.530123328000057],[122.68124964200001,11.530158183000024],[122.68124995100005,11.528449256000044],[122.68174635100002,11.527179246000058],[122.68140506700003,11.526446688000021],[122.68170436700008,11.525678941000024],[122.68277492800006,11.525177631000078],[122.68308941600004,11.523842815000023],[122.6819923260001,11.523699882000074],[122.6820784900001,11.522592418000043],[122.68136284800005,11.522495924000054],[122.68067055100006,11.523212992000026],[122.6796764280001,11.52263763700006],[122.67847337,11.524442841000052],[122.6789571600001,11.525735465000023],[122.67747561700001,11.527049841000066],[122.67488258400012,11.526941946000022],[122.67480362200003,11.528090380000037],[122.67392941900006,11.528721088000056],[122.67355949000013,11.52969691700002],[122.6719847180001,11.531858195000039],[122.67357527500009,11.532836230000042],[122.67392327900005,11.534042569000064],[122.6736119520001,11.534693049000053],[122.674154422,11.535593333000064],[122.67367819800006,11.537765145000034],[122.6726221460001,11.538254472000062],[122.67162556700009,11.539760781000043],[122.67103221000002,11.538803008000055],[122.67134904900003,11.537595027000066],[122.67013263800006,11.536469806000069],[122.66902609300007,11.536564258000055],[122.66832875400009,11.535319231000072],[122.66739668700008,11.535605295000037],[122.66660128600006,11.535221543000034],[122.66569021400004,11.534167685000057],[122.66450712500011,11.533343214000068],[122.66318700300009,11.533494823000071],[122.66264395500001,11.533111353000036],[122.66151645100003,11.534507409000069],[122.66190386900007,11.535177830000064],[122.66372816100012,11.535467078000066],[122.66411565300008,11.536080071000072],[122.66378464000002,11.536941079000028],[122.66403586900003,11.53787932800003],[122.66239254200002,11.540180889000052],[122.66146955700005,11.540969423000034],[122.66101966300005,11.541806360000066],[122.65969659500003,11.542355145000045],[122.65888373900009,11.542354191000074],[122.65830222000012,11.541671574000077],[122.65723369000013,11.542412067000045],[122.65769288500006,11.543920041000037],[122.65737627100009,11.544888731000071],[122.65647768100008,11.545545675000026],[122.65645150800005,11.547112894000065],[122.657407991,11.548741094000036],[122.65930004700012,11.549245799000063],[122.66115546800006,11.549953832000028],[122.66274507000003,11.549752301000069],[122.66249121700001,11.548974362000022],[122.66307413300001,11.548508453000068],[122.66345146600007,11.547480008000036],[122.66410739900006,11.546822762000033],[122.66510232500002,11.546764093000036],[122.66600074400002,11.546238723000045],[122.66740816700008,11.546180520000064],[122.66753935400006,11.548106835000054],[122.66918901500003,11.54840781400003],[122.67193264600007,11.546951350000027],[122.6739957190001,11.546463161000075],[122.67699249800012,11.546394728000053],[122.67821837300006,11.54595343100004],[122.67973592200008,11.54506979000007],[122.68046583800003,11.543323884000076],[122.679750796,11.54265312500007],[122.6789615350001,11.543238478000037],[122.67824683700007,11.542268621000062],[122.6746929310001,11.541546835000078],[122.67564006400005,11.54083006800005],[122.67612651600007,11.539813691000063],[122.675570117,11.538353490000077],[122.6758271980001,11.536341744000024],[122.67685424400007,11.534122412000041],[122.6772474180001,11.534966707000022],[122.67739141600008,11.536354664000044],[122.67782775600004,11.536714062000042],[122.67799553100008,11.538532742000031],[122.67879714300011,11.537744020000044],[122.680593099,11.537375124000047],[122.68217830100002,11.534541447000041],[122.68338195400008,11.53438962400003],[122.6826813360001,11.536012106000042],[122.68120417000011,11.53771413100003],[122.68097002400008,11.538785828000071],[122.68038456700005,11.539336202000072],[122.6823451680001,11.541505506000023],[122.68275115300004,11.542979887000058],[122.68365173000005,11.543143862000019],[122.68308275700008,11.54419844600005],[122.68387556500011,11.544773572000055],[122.68450269200002,11.543790832000072],[122.68571081800008,11.544014668000045],[122.68645706300003,11.544515276000025],[122.68748067600006,11.544141152000066],[122.68846129100007,11.542770398000073],[122.68894957200008,11.541529667000075],[122.6890869010001,11.540149701000072],[122.6896514770001,11.53835011700005],[122.69013975800011,11.538220418000037],[122.6907228130001,11.536460671000043],[122.69118604900007,11.536540054000056],[122.69092352400004,11.53841313600003],[122.691095603,11.540810862000054],[122.69007352400001,11.543523159000074],[122.688810783,11.545187335000039],[122.68967179700009,11.545535206000068],[122.69168234400003,11.548671859000025],[122.6916817030001,11.549258084000028],[122.69297839800002,11.550623330000061],[122.69331657500005,11.552035413000057],[122.6950637010001,11.552013328000044],[122.69606013700002,11.550566755000034],[122.696824579,11.550483809000069],[122.69869396700007,11.54957650800003],[122.70096921000003,11.549666305000075],[122.70230334800011,11.55008641000006],[122.70197702000007,11.548901659000023],[122.70225022700005,11.548228271000028],[122.7036700540001,11.547918665000052],[122.70517890300005,11.549957744000038],[122.70416516300007,11.550596775000027],[122.70345350100003,11.552408563000029],[122.70426373100007,11.554945713000052],[122.70509994100006,11.55585581300005],[122.70536470000003,11.55792581700007],[122.70621923000009,11.559010822000058],[122.70646096700011,11.559896387000038],[122.70615024121886,11.561165725958528],[122.70874378723565,11.559959381369527],[122.71260608289475,11.557681922260395],[122.7152444050678,11.555756507212285],[122.71485668800005,11.555228207000024]]],[[[122.71959927000013,11.551701116000057],[122.71962303500003,11.549763002000077],[122.72032273200011,11.548895105000042],[122.72095618500008,11.548759327000026],[122.72042686400005,11.546655580000046],[122.71969163100003,11.546662049000073],[122.71957411900007,11.54770996500002],[122.71859117300006,11.547924362000058],[122.71862672600004,11.548771434000058],[122.71741089600005,11.548920997000039],[122.71765033800011,11.549703663000058],[122.71716142800007,11.550880425000058],[122.71809961000007,11.551764267000067],[122.71828767500006,11.552970401000039],[122.71820383817798,11.553275569752394],[122.71956068024232,11.55206531176268],[122.71980776478519,11.551797019036647],[122.71959927000013,11.551701116000057]]],[[[122.64152021400002,11.518951009000032],[122.64241898500008,11.51655875600005],[122.64346122800009,11.516015623000044],[122.64549259500006,11.51575103500005],[122.64587503200005,11.516114193000021],[122.6475349860001,11.515771652000067],[122.64664922700001,11.513983193000058],[122.64667927300002,11.513236691000031],[122.64751771800002,11.51210354300002],[122.64826873100004,11.510411042000044],[122.64856178600009,11.50886807100005],[122.65028833500004,11.507606776000044],[122.65078514300001,11.506085581000038],[122.6527811320001,11.504688206000026],[122.65291393600012,11.503223998000067],[122.65403531100003,11.502801815000055],[122.6542986080001,11.501754100000028],[122.65326647400002,11.500625886000021],[122.65334738600006,11.499929690000045],[122.65409066600013,11.499191212000026],[122.65639803600004,11.499043199000026],[122.65753467400009,11.498018044000048],[122.6588951550001,11.498464693000072],[122.65919995000002,11.49920441100005],[122.66017512500004,11.499291690000062],[122.6606124880001,11.498732294000035],[122.66052663700009,11.497490353000044],[122.66141457100002,11.497491386000034],[122.66215529200008,11.498877652000033],[122.66391775500007,11.497917802000075],[122.66268960700006,11.496351519000028],[122.66246327700003,11.49514512700006],[122.66174499800002,11.494856680000055],[122.660776069,11.49583964000004],[122.6598902290001,11.495635190000028],[122.65966312500007,11.493950323000035],[122.65779939200002,11.493526991000067],[122.65640306500006,11.494894164000073],[122.65535527400003,11.494684757000071],[122.6555918050001,11.493247048000056],[122.65492769900004,11.491243231000055],[122.65187619400001,11.491249876000042],[122.65158349900003,11.492132914000024],[122.65309294900011,11.492689400000076],[122.65359134900005,11.493922627000074],[122.65268358000003,11.49529798900005],[122.65157909400011,11.495717821000026],[122.65039188100003,11.495654767000074],[122.64979935400004,11.494750124000062],[122.64916397600008,11.494810992000055],[122.64868245500008,11.495617144000047],[122.6486355947047,11.495620465191273],[122.64676093507414,11.498696666836308],[122.64483224402106,11.502705734828451],[122.64331122144237,11.506881934530826],[122.64221253113186,11.511185053676826],[122.64154677196305,11.515573656145644],[122.64137357113425,11.518964160379635],[122.64152021400002,11.518951009000032]]],[[[122.65093723300002,11.545929735000072],[122.65109280600005,11.544681056000059],[122.65051275800012,11.54319522000003],[122.65113062200011,11.541778331000044],[122.65342598700009,11.540093422000039],[122.6551566060001,11.538374071000021],[122.6552259680001,11.53763158400005],[122.65608172400005,11.53758196900003],[122.65578086900007,11.536601983000025],[122.65481059500007,11.536371128000042],[122.65516165300004,11.535012463000042],[122.653860602,11.535432039000055],[122.6525214080001,11.535296447000063],[122.64982285400004,11.53563776200002],[122.64844505400004,11.535329826000064],[122.64718385800005,11.536491196000043],[122.6465664530001,11.53753679300007],[122.64723210100009,11.538972110000033],[122.64726485400003,11.540153510000039],[122.64786264500003,11.541116200000031],[122.64833851800007,11.543783274000079],[122.6483320933664,11.54400748455771],[122.64901638517345,11.545136435862462],[122.65006221425429,11.546530541092972],[122.65093723300002,11.545929735000072]]],[[[122.656679,11.55305849600006],[122.65625256900013,11.551876632000072],[122.65623720300006,11.550442105000057],[122.65498832800006,11.550035585000046],[122.65385264096346,11.551059660251472],[122.65471061448937,11.55199538388151],[122.65607217024092,11.553215196365542],[122.656679,11.55305849600006]]],[[[122.65731739300008,11.554204695000065],[122.6569218895948,11.55397644813784],[122.6573305035557,11.554342517391573],[122.65731739300008,11.554204695000065]]],[[[122.68001702600009,11.54875659600003],[122.68049679800004,11.546543734000066],[122.67898145400011,11.546455859000046],[122.67790941800003,11.546784536000073],[122.67662441400012,11.547560528000075],[122.67668637200008,11.548622847000047],[122.67859161600006,11.548509637000052],[122.67916377300003,11.549028110000052],[122.68001702600009,11.54875659600003]]]]}},{"type":"Feature","properties":{"fid":32,"objectid":1878,"lccode":"07","liqcode":"2010600070000000","mappers":"PJDelosReyes, ACPidlaoan","project":"READY","province":"Iloilo","otherinfo":null,"datemapped":2010,"publishdate":null,"globalid":"{2F92972A-C07C-4633-B325-DF2A08960C6C}","st_area(shape)":0.031106077518548395,"st_perimeter(shape)":5.287074988133156,"liqcodepk":"201060007000000000071","creator":"SNOOPYPC","createdate":"2019-02-19T15:21:28","editor":"LENOVO","modifydate":"2019-03-10T17:50:55","codemove":"na"},"geometry":{"type":"Polygon","coordinates":[]}},{"type":"Feature","properties":{"fid":59,"objectid":1908,"lccode":"05","liqcode":"2010600050000000","mappers":"PJDelosReyes, ACPidlaoan","project":"READY","province":"Iloilo","otherinfo":null,"datemapped":2010,"publishdate":null,"globalid":"{282D04BA-68E2-41E5-9B8A-0D8D85396F2D}","st_area(shape)":0.06128738608791496,"st_perimeter(shape)":10.692281506054618,"liqcodepk":"201060005000000000103","creator":"SNOOPYPC","createdate":"2019-02-19T15:21:28","editor":"LENOVO","modifydate":"2019-03-10T17:50:55","codemove":"na"},"geometry":{"type":"Polygon","coordinates":[]}},{"type":"Feature","properties":{"fid":73,"objectid":1937,"lccode":"06","liqcode":"2010600060000000","mappers":"PJDelosReyes, ACPidlaoan","project":"READY","province":"Iloilo","otherinfo":null,"datemapped":2010,"publishdate":null,"globalid":"{DBB85F45-4FB4-4F72-8BD3-A1308397A487}","st_area(shape)":0.017575391436836466,"st_perimeter(shape)":7.287100410898002,"liqcodepk":"201060006000000000136","creator":"SNOOPYPC","createdate":"2019-02-19T15:21:28","editor":"LENOVO","modifydate":"2019-03-10T17:50:55","codemove":"na"},"geometry":{"type":"Polygon","coordinates":[]}}]}