{"type":"FeatureCollection","features":[{"type":"Feature","properties":{"fid":99,"objectid":1955,"lccode":"01","liqcode":"2010600010000000","mappers":"DJLBuhay, MJVReyes, MITAbigania, KLPapiona, KMVitto","project":"MELP","province":"Palawan","otherinfo":null,"datemapped":2018,"publishdate":null,"globalid":"{E70402A7-ADA2-4D45-93BC-46C7B654BDC8}","st_area(shape)":0.142808258668549,"st_perimeter(shape)":79.69829854453282,"liqcodepk":"201060001000000000950","creator":"SDE","createdate":"2019-06-04T11:09:46","editor":"SDE","modifydate":"2019-06-04T11:12:34","codemove":"na"},"geometry":{"type":"MultiPolygon","coordinates":[[[[119.37855013600006,10.481962565000062],[119.3791005270001,10.481118544000026],[119.3784927040001,10.480261325000072],[119.37828871700003,10.478711277000055],[119.37897378000004,10.477907004000029],[119.38016792400005,10.478149899000073],[119.38067304200001,10.47704740200004],[119.38218668700006,10.47803912900002],[119.38392311200005,10.477304129000059],[119.38478189000011,10.476501814000073],[119.38870669500011,10.476011402000038],[119.388764701,10.475171312000045],[119.3876216880001,10.474680631000068],[119.38675604000004,10.475244031000043],[119.38464243400006,10.475210450000077],[119.38364942400005,10.475934807000042],[119.3818590930001,10.476325254000075],[119.38033602700013,10.475314313000068],[119.38023110800009,10.474098184000068],[119.37954341800003,10.472638169000048],[119.37873624300005,10.47232325400006],[119.37854956,10.470114188000025],[119.37784123800009,10.469599769000066],[119.37749871580654,10.468636237164375],[119.3760507366377,10.468288714721485],[119.37542206900001,10.469285598000054],[119.37620504000006,10.470020610000063],[119.37726166100003,10.472956121000038],[119.378161685,10.473587373000043],[119.3777236730001,10.475560031000041],[119.378690709,10.476239817000021],[119.37835177700003,10.47716267900006],[119.37681901100005,10.478092635000054],[119.37646608300008,10.479387932000064],[119.37744022000004,10.480287545000067],[119.3774652640001,10.481453399000033],[119.37789101400006,10.483025083000028],[119.37840243000005,10.48387165200006],[119.37845409400008,10.485238441000035],[119.37938230600002,10.48676808600004],[119.37940259000005,10.487513519000057],[119.38058765500011,10.488539737000051],[119.3807117790001,10.48948698400005],[119.38004654400004,10.490243711000058],[119.37992747200009,10.49135060100002],[119.38021111900002,10.492691376000039],[119.38152643300009,10.493310655000073],[119.38172818100008,10.494638555000051],[119.38268534500001,10.495342123000057],[119.3821964230001,10.497951925000056],[119.3817053250001,10.498674808000029],[119.38286191300004,10.499870290000045],[119.38362192700004,10.49885191200002],[119.38258666600007,10.497996543000056],[119.38396923100005,10.49700480300004],[119.38272714400011,10.492786934000037],[119.38130925100005,10.491868809000039],[119.38110015900008,10.490953153000023],[119.38245967800005,10.490261660000042],[119.38147384800006,10.489533886000057],[119.38173335900001,10.488801194000077],[119.38028705300007,10.48616695100003],[119.37964704100011,10.485586425000065],[119.38025568500008,10.48471440600002],[119.3786378730001,10.48271832000006],[119.37855013600006,10.481962565000062]]],[[[119.3590149160001,10.469942436000052],[119.35848839200004,10.47039498400005],[119.35812611400002,10.472898669000072],[119.35754509200001,10.47429640000007],[119.35624507300008,10.475270306000027],[119.35514180000007,10.475515608000025],[119.354221746,10.47742533400003],[119.35341979900011,10.477903369000044],[119.35345081199999,10.478964175000042],[119.35201459700012,10.48031385600007],[119.35055458500007,10.480110798000055],[119.34875471100008,10.480491373000064],[119.34604197500006,10.480048708000025],[119.34677539300003,10.48135710300005],[119.34666059800008,10.482502207000037],[119.34846098600009,10.48207866400003],[119.35002324800008,10.481115649000056],[119.35129597600009,10.48109377600002],[119.35125358400002,10.482239719000063],[119.35181148000004,10.482819341000038],[119.35283180600004,10.482991558000036],[119.35493770200003,10.48169445800005],[119.35462066600006,10.48032943100003],[119.35508086200002,10.479484438000041],[119.35614642000006,10.478751474000035],[119.35682578500007,10.47761282600004],[119.35835694700008,10.476684560000024],[119.35862229500003,10.477518767000047],[119.35790241500003,10.479645760000038],[119.358027407,10.481338188000054],[119.35755558000005,10.482063634000044],[119.36006150100002,10.481973086000039],[119.36183780500006,10.481138219000057],[119.36238016700008,10.480571207000025],[119.36236594600008,10.479309957000055],[119.36124099400003,10.47875754100005],[119.36057236200007,10.47791369400005],[119.36090543000013,10.476670752000075],[119.36239917500008,10.475226133000033],[119.36124218000009,10.47263340000006],[119.36092628100005,10.471168072000063],[119.36127297100006,10.46999693600003],[119.36126350000008,10.468465849000038],[119.3620633490001,10.468164502000036],[119.36239570489653,10.46739308681234],[119.36145073046173,10.46744606370623],[119.35875037308837,10.467863001116278],[119.3590149160001,10.469942436000052]]],[[[119.36219341200002,10.498494690000031],[119.36389853600008,10.49632166400005],[119.36401547100003,10.494990262000043],[119.36355349700013,10.493205603000035],[119.3651408820001,10.489141950000032],[119.36317618500003,10.487514432000069],[119.35982524100007,10.486802506000059],[119.35912852600008,10.488184578000075],[119.36037983100003,10.488116619000039],[119.36160779600004,10.489144477000025],[119.3620290560001,10.49026708500003],[119.36296307700002,10.490879668000046],[119.36274731400012,10.491994979000026],[119.360731417,10.493505238000068],[119.36111561300005,10.494082864000061],[119.36132931500005,10.495618679000074],[119.36068137500001,10.496542732000023],[119.3599620010001,10.496147557000024],[119.35946202600009,10.496801024000035],[119.36036525200008,10.497570901000074],[119.35971948600002,10.498308679000047],[119.36241811900004,10.501564],[119.36286968200011,10.502572315000062],[119.36549799200009,10.501943241000049],[119.36562651300005,10.503334779000056],[119.36460547200011,10.503967952000039],[119.36383279300003,10.505650096000066],[119.36383821000003,10.506424008000065],[119.36442512300006,10.507003961000065],[119.36449857200012,10.508151248000049],[119.36418461800008,10.50899315000004],[119.3630610260001,10.509725446000061],[119.36146110800007,10.50909087100007],[119.35956120800006,10.509341335000045],[119.35852599500005,10.509945652000056],[119.35681566100006,10.510083631000041],[119.35634410200008,10.510780401000035],[119.35558669800004,10.510611311000046],[119.355148686,10.509889752000047],[119.3540292580001,10.509649979000072],[119.35372257200002,10.511103373000024],[119.35413827500008,10.512696442000049],[119.35500335600011,10.51404389900006],[119.356198274,10.512994805000066],[119.35748169700003,10.511323705000052],[119.35875347300009,10.511538947000076],[119.36061008800004,10.510041244000032],[119.36177631600005,10.510613523000073],[119.36325483100006,10.510487189000054],[119.36437439800011,10.510098779000032],[119.36505255200005,10.510307186000034],[119.364757315,10.512023465000027],[119.36518432500009,10.512769851000028],[119.36509984500003,10.513800682000063],[119.36424176200002,10.515352866000056],[119.36479536200011,10.51630503600006],[119.36394852100011,10.516897199000029],[119.3635387700001,10.518497515000034],[119.36514767500012,10.519605108000066],[119.36570896900004,10.518665733000033],[119.36649655500004,10.518187531000024],[119.36562239100012,10.517403649000071],[119.36571833100004,10.516630900000052],[119.3665075890001,10.516009409000047],[119.36645840000006,10.515263655000071],[119.36568425200004,10.514595568000063],[119.36551700400003,10.512802329000067],[119.3659058730001,10.511746327000028],[119.36542164600009,10.51105290600003],[119.36604303800006,10.510037625000052],[119.36548753700004,10.509022423000033],[119.36466332400005,10.506447801000038],[119.36502674600003,10.505090565000044],[119.36653637400002,10.504778264000038],[119.36673961800011,10.502258410000023],[119.36636076700006,10.501222267000061],[119.36629099100001,10.499759748000029],[119.36484734900012,10.49938494400004],[119.36328995400004,10.500069291000045],[119.36270815000013,10.499980151000047],[119.36219341200002,10.498494690000031]]]]}}]}