{"type":"FeatureCollection","features":[{"type":"Feature","properties":{"fid":186,"objectid":9626,"lccode":"01","liqcode":"2010600010000000","mappers":"DJLBuhay, MJVReyes, MITAbigania, KLPapiona, KMVitto","project":"MELP","province":"Camarines Sur","otherinfo":"hazard boundary with Albay updated on 2024","datemapped":2017,"publishdate":null,"globalid":"{FACCEE19-027B-4BCC-AA3E-C446A7485A33}","st_area(shape)":0.06258623447864109,"st_perimeter(shape)":16.64832304604979,"liqcodepk":"201060001000000000012","creator":"SNOOPYPC","createdate":"2019-02-19T15:21:28","editor":"LENOVO","modifydate":"2019-03-10T17:53:06","codemove":"na"},"geometry":{"type":"Polygon","coordinates":[]}},{"type":"Feature","properties":{"fid":200,"objectid":3303,"lccode":"01","liqcode":null,"mappers":"DJLBuhay, MJVReyes, MITAbigania, KLPapiona, KMVitto","project":"MELP","province":"Quezon","otherinfo":null,"datemapped":2017,"publishdate":null,"globalid":"{BC782275-8EAF-4B58-974B-C12246047CD2}","st_area(shape)":0.045970309448805105,"st_perimeter(shape)":30.915538535941515,"liqcodepk":null,"creator":null,"createdate":null,"editor":null,"modifydate":null,"codemove":null},"geometry":{"type":"Polygon","coordinates":[[[122.63267390700004,13.203988437000017],[122.63329979900004,13.204478346000029],[122.6350614050001,13.205079079000031],[122.63602884100011,13.20592281300003],[122.63630099400005,13.206822822000047],[122.63610224500007,13.209119449000069],[122.63701693400002,13.211455939000073],[122.63822909500004,13.210787724000054],[122.63958156000001,13.207688804000039],[122.63953328798218,13.207398099911858],[122.63916025840892,13.207126223856065],[122.63527941554973,13.20483970129188],[122.63257566095176,13.20358204182577],[122.63267390700004,13.203988437000017]]]}}]}