{"type":"FeatureCollection","features":[{"type":"Feature","properties":{"fid":30,"objectid":1876,"lccode":"07","liqcode":"2010600070000000","mappers":"PJDelosReyes, ACPidlaoan","project":"READY","province":"Ilocos Norte","otherinfo":null,"datemapped":2012,"publishdate":null,"globalid":"{DDD7C418-83F8-494F-BE1F-501E5EB1EB53}","st_area(shape)":0.0068069229463748535,"st_perimeter(shape)":2.382699422788448,"liqcodepk":"201060007000000000069","creator":"SNOOPYPC","createdate":"2019-02-19T15:21:28","editor":"LENOVO","modifydate":"2019-03-10T17:50:55","codemove":"na"},"geometry":{"type":"Polygon","coordinates":[]}},{"type":"Feature","properties":{"fid":57,"objectid":1906,"lccode":"05","liqcode":"2010600050000000","mappers":"PJDelosReyes, ACPidlaoan","project":"READY","province":"Ilocos Norte","otherinfo":null,"datemapped":2012,"publishdate":null,"globalid":"{F206138B-2823-4B11-8CEA-F1A1A521E220}","st_area(shape)":0.04191862089529889,"st_perimeter(shape)":8.367222149982817,"liqcodepk":"201060005000000000101","creator":"SNOOPYPC","createdate":"2019-02-19T15:21:28","editor":"LENOVO","modifydate":"2019-03-10T17:50:55","codemove":"na"},"geometry":{"type":"MultiPolygon","coordinates":[[[[120.53957251100007,18.02413134200003],[120.53956657437095,18.024140529438785],[120.53958142430028,18.024132268665692],[120.53957251100007,18.02413134200003]]],[[[120.5598459580001,18.000855754000042],[120.55979186600007,18.00017114000008],[120.56126671000003,17.999186667000057],[120.56180518500004,17.998144792000065],[120.56024985900001,17.996200141000024],[120.55835766300004,17.995846257000036],[120.55746298200008,17.99611003300003],[120.55475379200004,17.998086224000076],[120.5547290080001,18.00103437800004],[120.5552592790001,18.004050313000047],[120.55727483800003,18.006477008000047],[120.55785235022931,18.007077775720234],[120.55833549103053,18.00632907380931],[120.56037061611816,18.00234845355246],[120.56075744515158,18.001355409754925],[120.5598459580001,18.000855754000042]]],[[[120.51439651800001,17.939695825000054],[120.51454655000009,17.94129294900005],[120.51416264900003,17.944093320000036],[120.51310374900004,17.94584002600004],[120.51206260100003,17.946321699000066],[120.50763446900011,17.946539945000037],[120.50463736600011,17.94716151700004],[120.50248740400004,17.948839041000042],[120.50153952300002,17.948876867000017],[120.4999051420001,17.948364878000064],[120.4983343240001,17.948811114000026],[120.49598956500007,17.948728779000078],[120.49539014200002,17.950019243000042],[120.49582138000005,17.952399795000076],[120.49576553100007,17.954547145000046],[120.49491144600006,17.956905237000058],[120.49296171700007,17.958748833000072],[120.49283797400004,17.960244804000073],[120.49341297600006,17.961307892000036],[120.49502142400002,17.961844172000042],[120.49780958400004,17.960579069000058],[120.49954394500003,17.95945673600005],[120.50142422800002,17.95890712300007],[120.50435665300007,17.956921485000066],[120.50573922100011,17.956691757000048],[120.5080357610001,17.95685878800003],[120.50954248600011,17.95597055200005],[120.5109496890001,17.953980840000042],[120.51238580000006,17.954026796000047],[120.51312398700007,17.95466879200006],[120.5130837370001,17.955493417000078],[120.51353806300006,17.956908698000063],[120.51502917200001,17.958165513000036],[120.51652847200012,17.959862355000034],[120.51738353200005,17.960368402000025],[120.52141243200003,17.96407780700003],[120.52377998200006,17.965345765000052],[120.52606710500004,17.966200007000054],[120.52819752000006,17.965924670000046],[120.52959162500008,17.96486977500006],[120.52972336700009,17.963661272000024],[120.52696654100008,17.959390692000053],[120.52577551099999,17.958247859000032],[120.52520010500007,17.956232735000068],[120.52348901300002,17.95528950000005],[120.52245361000007,17.95329604200003],[120.5223984480001,17.951067588000058],[120.52320666300012,17.948740169000075],[120.52416474499998,17.948037227000047],[120.52455165000002,17.94707958000004],[120.52454054900012,17.945814267000056],[120.52504495100005,17.944665599000075],[120.52585403600007,17.944345870000056],[120.52683691200002,17.94463849900006],[120.52801907900006,17.94641374700006],[120.52974360400005,17.946380706000067],[120.53048374200011,17.94688523100007],[120.53137448900007,17.948239123000064],[120.53234416300006,17.95083680000005],[120.53206685500005,17.952180894000033],[120.53138921900008,17.953382461000047],[120.53040326300004,17.95403],[120.53072966400009,17.955354321000076],[120.5334235250001,17.95588360100004],[120.53552662900006,17.955497836000063],[120.53608438100001,17.954652316000022],[120.53640866700006,17.951988547000038],[120.53684213300005,17.94973873800006],[120.53725197400001,17.94919383600006],[120.53968357100007,17.94790449600003],[120.53941147800003,17.946800931000034],[120.53406058700013,17.94310256300002],[120.53236587989427,17.941859514782188],[120.53131343481779,17.941483910217773],[120.52683795595028,17.94035014804686],[120.52226798340467,17.939641632520438],[120.51764749780489,17.939365178098274],[120.51431586543872,17.939479156722538],[120.51439651800001,17.939695825000054]],[[120.50054023400003,17.95244437200006],[120.50171111100006,17.95091934000004],[120.50420961000009,17.94897126500007],[120.50588212100001,17.94855265300004],[120.50673246800011,17.94938871500005],[120.50683735100006,17.95010512800008],[120.50608038599998,17.950810468000043],[120.50178892500004,17.953560631000073],[120.50081053500004,17.95365801500003],[120.50053327500008,17.952939382000068],[120.50054023400003,17.95244437200006]]],[[[120.517156181,18.028301421000034],[120.51614089600002,18.027076050000062],[120.51468025100007,18.024138782000023],[120.51459907000005,18.023239732000032],[120.51517595700011,18.02225929100007],[120.51947739600008,18.020069431000024],[120.52212203100011,18.018891077000035],[120.52252126600003,18.017189923000046],[120.52164482100011,18.016101084000066],[120.51991249200012,18.015809528000037],[120.51863932900005,18.016242164000058],[120.51539045000004,18.01700872300006],[120.51427822400001,18.016006584000024],[120.51341255300008,18.014154568000038],[120.5137655530001,18.01240796700006],[120.51363988700005,18.01132874400002],[120.51266911900008,18.010283539000053],[120.51124925900001,18.007795746000053],[120.50752859800004,18.005413059000034],[120.50725216700005,18.005050298000068],[120.50693050300005,18.001229660000035],[120.50754902500012,17.998380441000055],[120.50692185000003,17.998014792000053],[120.50604761200009,17.996820914000068],[120.50444026700006,17.996662686000036],[120.5032535050001,17.997252469000042],[120.50211643600007,18.00001578700005],[120.50173777100008,18.00186632100002],[120.50070415000005,18.004326930000047],[120.49993089700001,18.00499164300004],[120.49732677400004,18.006307385000074],[120.49336415300003,18.008111520000057],[120.49253289600006,18.00871928200007],[120.49174926800004,18.01011464800007],[120.49182689300004,18.012926965000077],[120.49164035000003,18.013655494000027],[120.49013643800002,18.016109834000073],[120.48988951700007,18.01694977900007],[120.49046908000001,18.017519426000035],[120.49258504400008,18.017490607000067],[120.49524256300003,18.016569245000024],[120.4969027520001,18.015522433000058],[120.49874641800011,18.01397195600003],[120.49985719100005,18.01437991400007],[120.49989928700006,18.01556117600006],[120.50104979000002,18.01731939600006],[120.50027798400005,18.017871702000036],[120.49746173700008,18.01755411000005],[120.49473670200008,18.019093158000032],[120.49196719500004,18.019619546000055],[120.491078709,18.020114044000028],[120.49017566389821,18.02164815592177],[120.49027245579933,18.02171880216334],[120.4942124777788,18.02404817061308],[120.49837227553373,18.025996767981717],[120.50271177051825,18.02754581297796],[120.50718914815623,18.028680373790444],[120.5117612614203,18.029389512417808],[120.51638404741979,18.029666390454835],[120.51750834756643,18.02962801121203],[120.517156181,18.028301421000034]]]]}},{"type":"Feature","properties":{"fid":71,"objectid":1935,"lccode":"06","liqcode":"2010600060000000","mappers":"PJDelosReyes, ACPidlaoan","project":"READY","province":"Ilocos Norte","otherinfo":null,"datemapped":2012,"publishdate":null,"globalid":"{E589EE25-8FDC-4504-BE01-5A3AF4CD900F}","st_area(shape)":0.013905399003380454,"st_perimeter(shape)":4.825147044260804,"liqcodepk":"201060006000000000134","creator":"SNOOPYPC","createdate":"2019-02-19T15:21:28","editor":"LENOVO","modifydate":"2019-03-10T17:50:55","codemove":"na"},"geometry":{"type":"Polygon","coordinates":[[[120.47443749400009,17.968458309000027],[120.47496404100002,17.969586313000033],[120.4750115940001,17.972313089000068],[120.47528652800008,17.973791862000045],[120.47626115700008,17.97636548700007],[120.476971337,17.97759029100007],[120.47796141300013,17.97734354200003],[120.47886594500005,17.977909982000025],[120.48116899800004,17.97822245000003],[120.48183284200003,17.980318843000077],[120.48404161600001,17.981964646000044],[120.48669519400003,17.98248180000007],[120.48870554900007,17.983895689000068],[120.48898252000004,17.986602525000027],[120.48993346000009,17.987133775000068],[120.49224430800005,17.987815376000075],[120.49289111200005,17.98845128700003],[120.49385058900009,17.990165303000023],[120.49606079800003,17.99172653300008],[120.49768522000011,17.99369049300003],[120.49815877800006,17.994987900000066],[120.49857084100006,17.997068939000034],[120.49846553500004,17.999467125000027],[120.49867328000006,18.002065538000068],[120.49838052300005,18.003358150000054],[120.49696511500008,18.00450915000005],[120.49349762700002,18.005489535000038],[120.49185820700006,18.006196989000046],[120.48913541900004,18.008364700000076],[120.48776724000004,18.010549954000055],[120.4888942230001,18.012886210000037],[120.48858374500003,18.014797104000028],[120.48814816600009,18.01553708300002],[120.4861336570001,18.017705449000058],[120.48483291566127,18.017465197628983],[120.48659016546212,18.019031111940183],[120.49017566389821,18.02164815592177],[120.491078709,18.020114044000028],[120.49196719500004,18.019619546000055],[120.49473670200008,18.019093158000032],[120.49746173700008,18.01755411000005],[120.50027798400005,18.017871702000036],[120.50104979000002,18.01731939600006],[120.49989928700006,18.01556117600006],[120.49985719100005,18.01437991400007],[120.49874641800011,18.01397195600003],[120.4969027520001,18.015522433000058],[120.49524256300003,18.016569245000024],[120.49258504400008,18.017490607000067],[120.49046908000001,18.017519426000035],[120.48988951700007,18.01694977900007],[120.49013643800002,18.016109834000073],[120.49164035000003,18.013655494000027],[120.49182689300004,18.012926965000077],[120.49174926800004,18.01011464800007],[120.49253289600006,18.00871928200007],[120.49336415300003,18.008111520000057],[120.49732677400004,18.006307385000074],[120.49993089700001,18.00499164300004],[120.50070415000005,18.004326930000047],[120.50173777100008,18.00186632100002],[120.50211643600007,18.00001578700005],[120.5032535050001,17.997252469000042],[120.50444026700006,17.996662686000036],[120.50604761200009,17.996820914000068],[120.50692185000003,17.998014792000053],[120.50754902500012,17.998380441000055],[120.50766501100007,17.996264195000037],[120.5080280630001,17.994976173000055],[120.508204169,17.99266818400002],[120.50790585100005,17.991399192000078],[120.50728990400013,17.990236186000057],[120.5062079710001,17.98950719800007],[120.50493301800009,17.988198089000033],[120.50257255400004,17.984372314000037],[120.50150824100001,17.98340731600007],[120.49742361400003,17.983219707000046],[120.49631392600008,17.984453001000077],[120.49369841500005,17.98502607200004],[120.491882282,17.983889851000068],[120.49144715600006,17.982265837000057],[120.49064978100012,17.981345056000062],[120.48952305400007,17.978801627000056],[120.48918133600012,17.975560350000016],[120.48881817000006,17.973836045000038],[120.48704402800003,17.972228268000034],[120.48694552400002,17.97172124200005],[120.48816274400008,17.970354580000045],[120.48905055700006,17.969856085000057],[120.48874260900004,17.96796391100003],[120.4877601730001,17.96768147100005],[120.48706322100008,17.968380544000066],[120.485965985,17.96873716900006],[120.48512437700005,17.96845654200007],[120.48442820800004,17.96910495800006],[120.48443576500006,17.969813158000022],[120.48319616100004,17.971516669000035],[120.48301704600009,17.972964227000034],[120.48234582000009,17.974337941000037],[120.48111086500012,17.97570432900005],[120.4798303770001,17.976560124000056],[120.47818488100006,17.975822228000027],[120.47761455600006,17.975047747000076],[120.4773514860001,17.971862215000044],[120.47739853200007,17.970412951000068],[120.47819872000004,17.96864471400005],[120.47884829800012,17.966318293000025],[120.48026379100008,17.963394759000042],[120.48197786400011,17.95928660900006],[120.48326407800005,17.956774467000056],[120.48601671300004,17.955191681000027],[120.48718741700009,17.953369224000028],[120.48787807200007,17.951860916000047],[120.48761177200004,17.950761632000024],[120.48922581700005,17.94997328200002],[120.49405354400004,17.949867088000072],[120.49539014200002,17.950019243000042],[120.49598956500007,17.948728779000078],[120.49479919700002,17.946951639000076],[120.49444763161573,17.944905551420817],[120.49133403831247,17.946637591158165],[120.48757856896566,17.949228927617042],[120.48410644142375,17.95216003000585],[120.480951085578,17.95540268545981],[120.47814288723205,17.95892568160026],[120.47570889555175,17.962695106508267],[120.47367256239271,17.96667467468398],[120.4729746400227,17.96846424973081],[120.47443749400009,17.968458309000027]]]}}]}