{"type":"FeatureCollection","features":[{"type":"Feature","properties":{"fid":38,"objectid":1885,"lccode":"07","liqcode":"2010600070000000","mappers":"JSPerez ","project":"READY","province":"Surigao del Sur","otherinfo":null,"datemapped":2007,"publishdate":null,"globalid":"{FDA7F772-DEDF-47F9-B8FA-912035EE9393}","st_area(shape)":0.04086090170713132,"st_perimeter(shape)":12.6212836285462,"liqcodepk":"201060007000000000079","creator":"SNOOPYPC","createdate":"2019-02-19T15:21:28","editor":"LENOVO","modifydate":"2019-03-10T17:50:55","codemove":"na"},"geometry":{"type":"Polygon","coordinates":[]}},{"type":"Feature","properties":{"fid":81,"objectid":1916,"lccode":"05","liqcode":"2010600050000000","mappers":"JSPerez","project":"READY","province":"Surigao del Sur","otherinfo":null,"datemapped":2007,"publishdate":null,"globalid":"{436AF97F-3789-427C-9D93-46719D182001}","st_area(shape)":0.0045057935314115815,"st_perimeter(shape)":1.4887365100085943,"liqcodepk":"201060005000000000114","creator":"SNOOPYPC","createdate":"2019-02-19T15:21:28","editor":"LENOVO","modifydate":"2019-03-10T17:50:55","codemove":"na"},"geometry":{"type":"Polygon","coordinates":[]}},{"type":"Feature","properties":{"fid":86,"objectid":1945,"lccode":"06","liqcode":"2010600060000000","mappers":"JSPerez","project":"READY","province":"Surigao del Sur","otherinfo":null,"datemapped":2007,"publishdate":null,"globalid":"{E4D44F91-040C-4614-A92C-CD665C28A96D}","st_area(shape)":0.00901660285265909,"st_perimeter(shape)":4.024381446086732,"liqcodepk":"201060006000000000145","creator":"SNOOPYPC","createdate":"2019-02-19T15:21:28","editor":"LENOVO","modifydate":"2019-03-10T17:50:55","codemove":"na"},"geometry":{"type":"Polygon","coordinates":[]}},{"type":"Feature","properties":{"fid":89,"objectid":1949,"lccode":"01","liqcode":"2010600010000000","mappers":"DJLBuhay, MITAbigania, KLPapiona, KMVitto","project":"MELP","province":"Agusan del Sur","otherinfo":null,"datemapped":2018,"publishdate":null,"globalid":"{1E6CEE5B-C387-4818-8ED8-6D59425E2C9E}","st_area(shape)":0.13568303251391492,"st_perimeter(shape)":20.45926534020769,"liqcodepk":"201060001000000000548","creator":null,"createdate":"2019-06-04T13:29:47","editor":"SDE","modifydate":"2019-06-04T10:20:42","codemove":"na"},"geometry":{"type":"MultiPolygon","coordinates":[[[[126.047808572,7.975730681000074],[126.04569081000011,7.977251921000064],[126.04432102100009,7.97876767300005],[126.04317153700003,7.978948179000042],[126.04180078800005,7.978384618000065],[126.0407214270001,7.978320823000046],[126.04051296800002,7.977361560000078],[126.0409116100001,7.97679937700002],[126.04197721600008,7.976949314000024],[126.04240145500013,7.975956740000072],[126.04179424800007,7.975545323000059],[126.03960825200011,7.975618685000027],[126.03880958900005,7.976556638000033],[126.03698829200006,7.975365383000051],[126.03686298600007,7.973975302000042],[126.03777282300007,7.972505954000042],[126.03979868100011,7.972175657000038],[126.04089233100001,7.9702747590000635],[126.04210007100006,7.970194221000042],[126.04170441500004,7.969207649000057],[126.04202412200006,7.968470672000023],[126.04155044000004,7.967832124000038],[126.03984074100003,7.968117089000031],[126.039363535,7.96777641400007],[126.03801986400005,7.96893344700004],[126.03727334200006,7.968125550000024],[126.03702180600011,7.9652163300000325],[126.03675583600011,7.964257480000072],[126.03607142600003,7.963314916000054],[126.03744567600008,7.9622137480000665],[126.03703460700001,7.961083874000052],[126.03728625100007,7.9600925640000355],[126.037047582,7.958932752000065],[126.03631043000006,7.95845056200005],[126.0360872020001,7.957434036000052],[126.0351509940001,7.95726877900006],[126.035431517,7.956291600000041],[126.03607499800012,7.955770662000019],[126.03644118900003,7.954706818000035],[126.03619056800007,7.953876913000045],[126.03645081600006,7.952096831000061],[126.03601604900008,7.9516554540000435],[126.03518590100009,7.952220770000053],[126.03390417500009,7.950050392000035],[126.03426648800009,7.948455989000025],[126.03402480000011,7.946880322000028],[126.03350384800001,7.946453906000046],[126.0322950110001,7.946376659000066],[126.03057216100001,7.94485477600006],[126.0299683710001,7.944902185000046],[126.02947312800008,7.946024326000041],[126.02667889700002,7.943549403000076],[126.02574659100003,7.943914677000064],[126.02361643000008,7.94570833100005],[126.02423910700008,7.946277430000065],[126.02391613500004,7.947355299000036],[126.026160075,7.947353356000064],[126.02622445200008,7.946320385000033],[126.02718814700007,7.946313389000069],[126.02736776800009,7.947272885000075],[126.03064301200006,7.94667547700004],[126.03075198300009,7.9478075660000504],[126.03202045900001,7.948171188000061],[126.0328689800001,7.950115288000061],[126.03155965600001,7.950067454000018],[126.0306789980001,7.951593928000019],[126.03168616700009,7.951629622000039],[126.03205174200001,7.952444356000056],[126.03197289600007,7.953463087000047],[126.03301724100004,7.954645725000034],[126.03261576900002,7.95678534500007],[126.03208997800004,7.957663930000022],[126.03198709800006,7.959328148000052],[126.03112669100005,7.959692920000067],[126.03043648300002,7.961691244000063],[126.03059922500007,7.962306690000046],[126.03170910600011,7.962614090000046],[126.03240616400001,7.963512446000036],[126.03414263100001,7.962954857000058],[126.03484034100006,7.963941634000035],[126.0331511610001,7.967022762000056],[126.03318719100002,7.968011976000069],[126.03215167900008,7.968170578000072],[126.03159776700011,7.969465240000034],[126.03096342700006,7.96960131800006],[126.03065350000007,7.968205402000026],[126.02950942200006,7.968739062000051],[126.0291037940001,7.96938781800003],[126.02641732600011,7.969216179000059],[126.02584860500009,7.970128538000043],[126.02515371100004,7.970181397000036],[126.0242992950001,7.969243632000028],[126.02475280700004,7.967818159000045],[126.02309880000007,7.966216896000048],[126.02349876400001,7.963537122000049],[126.02301300200008,7.962680230000046],[126.02225495300002,7.962291377000039],[126.02065905400002,7.96207590900002],[126.02070929900003,7.960749058000032],[126.01926862200004,7.960448803000075],[126.01887118099998,7.958551580000063],[126.0194926570001,7.9582961160000405],[126.01953354000011,7.957327842000039],[126.01848673200004,7.956985205000024],[126.01878978600007,7.954098036000061],[126.01953866400002,7.953232183000067],[126.019876038,7.950182400000074],[126.02055377500005,7.9494246170000356],[126.02000863700005,7.948639846000048],[126.01993018500002,7.947744138000077],[126.01660190700012,7.949955156000043],[126.01736332300004,7.9508100700000455],[126.01751473600007,7.9518486560000365],[126.01701678700009,7.952605135000056],[126.016429506,7.955907692000039],[126.01553782100008,7.956917982000048],[126.01547321600003,7.957922282000028],[126.01396967900007,7.958865301000058],[126.0127457230001,7.958694904000028],[126.01248591000001,7.957585395000021],[126.01129374300001,7.956841143000075],[126.01085152900009,7.955374437000045],[126.01167339300002,7.954651469000053],[126.011517818,7.953039286000033],[126.0084229910001,7.9551737910000515],[126.00272997700007,7.959290081000061],[125.99786373700012,7.962695216000041],[125.99318020400007,7.97147678500005],[125.9887946130001,7.98169030500003],[125.98682793700006,7.988229529000025],[125.98666790500009,7.992883070000063],[125.98613254500003,7.995474377000049],[125.98085713600007,7.9982129450000325],[125.97310192316829,7.998290591345802],[125.97594542322135,8.000897808334553],[125.97949735718565,8.003564250800775],[125.98329443305704,8.005870796946388],[125.98730008112597,8.007795224885053],[125.9914757201175,8.009318992615942],[125.99578112893165,8.010427416931666],[126.00017483428186,8.011109815155153],[126.0046145104876,8.011359608327611],[126.00905738755549,8.011174384841684],[126.01346066360102,8.010555923896352],[126.01778191761852,8.009510178538747],[126.02197951860154,8.008047218449514],[126.02601302705146,8.006181133018353],[126.02880545105457,8.004540018977035],[126.02823074700008,8.003120581000077],[126.02829522600007,8.001456637000047],[126.0291069010001,7.999672508000058],[126.02908209200007,7.998907875000042],[126.02792817300009,7.998495663000029],[126.02768633600012,7.996910439000032],[126.02903871600007,7.995619490000024],[126.02932135600008,7.994929091000072],[126.03147985200009,7.993708728000058],[126.03218135400006,7.992594619000044],[126.03203625800006,7.991123417000038],[126.03266385100004,7.990392255000076],[126.03408232100003,7.990267157000063],[126.03373018500008,7.9893328400000305],[126.03401562600006,7.988782722000052],[126.03655599100011,7.986922129000053],[126.03759783200006,7.986771100000056],[126.03974894300005,7.984233869000038],[126.04112667900004,7.984116223000056],[126.04184132700006,7.985114794000022],[126.0437777850001,7.984359688000037],[126.04447524600006,7.984653324000019],[126.04503548000004,7.985844218000069],[126.04476816000012,7.986981436000066],[126.04502584543842,7.987198351876537],[126.04667825343839,7.983779274726123],[126.04690421475664,7.983163683524476],[126.04662813100005,7.982364624000069],[126.04729932906493,7.982087257960228],[126.04782001361198,7.980668722252144],[126.04769467800007,7.980693350000024],[126.04823996100005,7.979474248000032],[126.04809068100009,7.97885741500005],[126.0485337640264,7.978351492194952],[126.0492667807404,7.975520373746964],[126.047808572,7.975730681000074]],[[126.03505540800006,7.960154193000051],[126.03610302100005,7.960471597000037],[126.03629546300009,7.961865972000052],[126.0350016110001,7.961971012000047],[126.03409502800004,7.9612701730000595],[126.03505540800006,7.960154193000051]]],[[[126.04950827900008,7.961508322000043],[126.04824241600011,7.962840349000031],[126.04754192400003,7.964046576000046],[126.0464969210001,7.966483148000065],[126.0468031170001,7.967215980000048],[126.04787480400012,7.967771922000056],[126.047991485,7.968765936000066],[126.04700036300005,7.968959622000056],[126.0460449860001,7.9700994880000735],[126.04660585800002,7.972031285000072],[126.04788615100004,7.972036238000044],[126.04851058500005,7.97088445600002],[126.04921106499998,7.9702913760000325],[126.05000979216956,7.970795000765528],[126.05025123885706,7.9665190399806445],[126.05006477679025,7.962090294854403],[126.04995260728225,7.961297500446378],[126.04950827900008,7.961508322000043]]]]}},{"type":"Feature","properties":{"fid":195,"objectid":2253,"lccode":"01","liqcode":"<Null>","mappers":"DJLBuhay, MJVReyes, MITAbigania, KLPapiona, KMVitto","project":"MELP","province":"Davao Oriental","otherinfo":null,"datemapped":2018,"publishdate":null,"globalid":"{106618BF-C9C2-442C-8DFA-3A2107C26CAB}","st_area(shape)":0.03977934253941522,"st_perimeter(shape)":14.106801890447542,"liqcodepk":null,"creator":null,"createdate":null,"editor":null,"modifydate":null,"codemove":null},"geometry":{"type":"Polygon","coordinates":[]}},{"type":"Feature","properties":{"fid":204,"objectid":3530,"lccode":"01","liqcode":null,"mappers":"DJLBuhay, MJVReyes, MITAbigania, KLPapiona, KMVitto","project":"MELP","province":"Davao de Oro","otherinfo":null,"datemapped":2020,"publishdate":2021,"globalid":"{B133662C-BB56-4B68-925E-E0332BEC485E}","st_area(shape)":0.05410125761039176,"st_perimeter(shape)":8.444321327772833,"liqcodepk":null,"creator":null,"createdate":null,"editor":null,"modifydate":null,"codemove":null},"geometry":{"type":"Polygon","coordinates":[[[125.98067224300006,7.9981016320000435],[125.98099617800007,7.997935132000065],[125.9861668210001,7.995229017000042],[125.98688988100002,7.987590265000051],[125.98876316200004,7.9814221250000505],[125.99361083300005,7.970334527000034],[125.9979647250001,7.962415644000032],[126.01182394600005,7.952687255000057],[126.01177804900009,7.951655070000071],[126.0127101160001,7.950596667000069],[126.01306543000011,7.9493512430000255],[126.01294142400002,7.948128420000045],[126.01360638300004,7.947263163000062],[126.01244773000008,7.94618169100005],[126.01127911100002,7.946362253000073],[126.00968020200004,7.945398687000022],[126.00926533300002,7.943738188000053],[126.00811213300005,7.9434023660000435],[126.0066943370001,7.9436038380000555],[126.0052613700001,7.941721246000042],[126.0039105520001,7.940583764000051],[126.00289119100013,7.940189593000071],[126.00314550800009,7.938237428000036],[126.00233099900004,7.93700045500003],[126.00231599300002,7.936254849000022],[126.00301203100003,7.935045208000075],[126.00362812800007,7.932731916000024],[126.0045599240001,7.930315961000073],[126.0044917660001,7.928853709000066],[126.00362190200008,7.9279135060000385],[126.00365383000009,7.924385477000042],[126.00290029300004,7.923616517000031],[126.0019852900001,7.924383169000064],[126.00180629100011,7.9274677030000475],[126.00203996000005,7.927953600000019],[126.00206756000011,7.929774665000024],[126.00251850200006,7.931128993000073],[126.00180487700005,7.933218319000049],[126.00147494600004,7.935323998000058],[126.000561327,7.938925321000057],[126.00008437300006,7.939272940000021],[125.99851009700001,7.939054849000059],[125.99824743100011,7.939859823000062],[125.99971177900011,7.940786181000021],[125.99956432400006,7.941609445000039],[125.99974970600012,7.943367230000037],[125.99911305900002,7.945494249000037],[125.99841456200011,7.949667656000029],[125.997613225,7.950247071000038],[125.99707514000012,7.951642006000045],[125.9957511020001,7.952875308000048],[125.99495753900011,7.953206093000063],[125.99437264300003,7.954539224000027],[125.9935312660001,7.954889474000029],[125.99299806000012,7.956738499000039],[125.99207224600002,7.957347492000052],[125.99193270500008,7.957941251000022],[125.99265024800003,7.959025971000076],[125.99229118900006,7.959764722000044],[125.99062639700003,7.96162191600007],[125.99058920700008,7.963104066000026],[125.98936317900007,7.963313683000025],[125.98906449600008,7.964443981000044],[125.98849139900007,7.964763612000069],[125.98830311200004,7.966404604000045],[125.98779950800008,7.96721490800007],[125.98720160700009,7.969121742000025],[125.98604280200004,7.969837529000074],[125.98518990500008,7.971249082000039],[125.98534813100002,7.9719076210000726],[125.98403858200004,7.972837387000028],[125.9825630270001,7.975673176000041],[125.98185711600001,7.975534855000036],[125.98115713100005,7.976213921000067],[125.98027922100003,7.97616288100005],[125.97976790200006,7.977070042000037],[125.97896451200008,7.9773769870000715],[125.97715825800005,7.976271395000026],[125.97684917100004,7.977956291000056],[125.97747014400012,7.978946127000026],[125.97771139100007,7.980474092000065],[125.97710703500003,7.981778689000064],[125.97769062700003,7.9829026410000665],[125.97750404000011,7.985112490000062],[125.97683623600007,7.986264576000051],[125.97703333300001,7.987654229000043],[125.97574756600011,7.988896814000045],[125.97597343500001,7.990286260000062],[125.97542164500008,7.991566581000028],[125.97540337500003,7.993015150000078],[125.97502244500004,7.9940504450000285],[125.97419326300009,7.994773468000063],[125.97410503900007,7.996495021000046],[125.97335873600002,7.996744195000077],[125.97264597284253,7.997867170695452],[125.97267283705355,7.997897156976934],[125.97295167787743,7.9981528296845354],[125.98067224300006,7.9981016320000435]]]}}]}