{"type":"FeatureCollection","features":[{"type":"Feature","properties":{"fid":10,"objectid":1841,"lccode":"01","liqcode":"2010600010000000","mappers":"DJLBuhay, MJVReyes, MITAbigania, KLPapiona, KMVitto","project":"MELP","province":"Capiz","otherinfo":null,"datemapped":2017,"publishdate":null,"globalid":"{FE12B36A-531F-4D3F-AE5B-76F7E9CFE484}","st_area(shape)":0.04128187917080134,"st_perimeter(shape)":8.871881460062728,"liqcodepk":"201060001000000000013","creator":"SNOOPYPC","createdate":"2019-02-19T15:21:28","editor":"LENOVO","modifydate":"2019-03-10T17:53:06","codemove":"na"},"geometry":{"type":"MultiPolygon","coordinates":[[[[122.7759595330001,11.378911996000056],[122.77608218700006,11.377837026000064],[122.77680027200006,11.377493008000044],[122.77773207700012,11.376018053000053],[122.77735766323809,11.375081498867702],[122.77618967575636,11.377000911694385],[122.77524603520307,11.378965603349457],[122.7759595330001,11.378911996000056]]],[[[122.7729044990001,11.397654445000056],[122.77567314800002,11.39513547900003],[122.7749360700001,11.394413929000049],[122.77642907000006,11.393212472000071],[122.77784108700006,11.392495703000066],[122.77886062800007,11.391247432000059],[122.77950182500001,11.390013230000022],[122.78146663300004,11.389454782000028],[122.78286434000007,11.388379059000044],[122.78321412600008,11.387632764000044],[122.7850775080001,11.38647123100003],[122.78686727600007,11.386443820000066],[122.78740596500008,11.386027863000038],[122.78748061500005,11.383472407000056],[122.78780147400005,11.382467663000055],[122.78949155000008,11.381252316000028],[122.79024938300007,11.379606611000044],[122.79073459400001,11.379338963000066],[122.79432356400001,11.379532917000063],[122.79659228000004,11.378148373000046],[122.79859298300003,11.378113857000073],[122.79953915900013,11.377540230000019],[122.80175851000001,11.37693156900002],[122.80241295200005,11.377398605000051],[122.80306695300008,11.378511697000022],[122.80468315900009,11.380018536000023],[122.80652588300006,11.380517456000062],[122.80761264300008,11.380039608000061],[122.80871846700006,11.380059472000026],[122.81178242300008,11.382109687000025],[122.81331488600006,11.382416942000075],[122.81519603600009,11.383547533000067],[122.81619526500003,11.383868106000024],[122.81933136300006,11.384341323000058],[122.82022362700003,11.384629006000068],[122.82168856700002,11.38436190300007],[122.8222129090001,11.383529525000027],[122.82219413200006,11.38252453600006],[122.82097127600002,11.380203352000024],[122.81962611900009,11.378988182000056],[122.81983278100006,11.378144845000064],[122.8193908510001,11.37712165000005],[122.82079457200007,11.376180361000024],[122.82272257500006,11.376037960000074],[122.82417812600012,11.375189387000033],[122.82386345100008,11.374244040000066],[122.8223600560001,11.374039749000078],[122.81937678500002,11.374803631000077],[122.81733909700006,11.375831280000057],[122.81642521400012,11.378266009000074],[122.81537722400003,11.37882527000005],[122.81360197900005,11.378967719000059],[122.81255444100007,11.378823486000044],[122.80960128700006,11.37794582400005],[122.80808921100002,11.376207666000026],[122.80791561800004,11.374700086000077],[122.807450484,11.373996298000066],[122.8060829620001,11.37370826400007],[122.80443860700007,11.373979956000026],[122.8022738200001,11.375604857000038],[122.80160433000003,11.375079639000033],[122.80080593000004,11.375170903000027],[122.79958162100002,11.376177309000068],[122.79912143300011,11.375363443000024],[122.79941287300007,11.374741513000062],[122.79817677900009,11.373783547000073],[122.7989773060001,11.373401246000071],[122.79975304600009,11.373784623000063],[122.80208132000007,11.373427277000076],[122.80208250900013,11.37170445900006],[122.79993920100002,11.371934415000055],[122.79893008700004,11.37237400400005],[122.79819374500005,11.371148385000028],[122.79720917400006,11.37114677200003],[122.79684630800013,11.36989747900003],[122.79565331400012,11.369753085000072],[122.79502726600005,11.370312566000052],[122.79418337700007,11.370297621000077],[122.793295166,11.371215835000044],[122.79245146200003,11.370942462000073],[122.78967162100004,11.372017251000045],[122.78953959800003,11.373506415000062],[122.78892824900004,11.373836184000025],[122.78724148600008,11.372413646000041],[122.78603335800007,11.373044470000023],[122.78457826100009,11.373158264000036],[122.78347274500004,11.37276981900004],[122.7829045740001,11.373716950000071],[122.78309262900007,11.375167125000075],[122.78387817800001,11.375383055000045],[122.7841971040001,11.376948181000044],[122.78573870700006,11.377925569000071],[122.78610181200008,11.378801599000042],[122.78677094500007,11.379050935000066],[122.78739056300005,11.380668917000037],[122.7852555070001,11.38197862100003],[122.78388846200005,11.381039642000077],[122.78366646000008,11.379575086000044],[122.77985420100005,11.379629685000056],[122.77920375100008,11.380318324000028],[122.77733127800002,11.380718903000057],[122.77446604395898,11.380589548263934],[122.774263650394,11.381010929031897],[122.7727452027138,11.385187897528253],[122.77252283826844,11.386060890715575],[122.77495313500003,11.38574679100003],[122.77528240400011,11.386445739000067],[122.77396277800005,11.386894574000053],[122.77275993800004,11.38848970600003],[122.77192189298864,11.388420147043865],[122.77164897168818,11.389491597265092],[122.77098553241753,11.393880586274628],[122.77076129360589,11.398312599452955],[122.7707808140228,11.398711060486475],[122.7729044990001,11.397654445000056]],[[122.81920073900005,11.380561190000035],[122.82016380100002,11.381741652000073],[122.8199299810001,11.383349474000056],[122.8183100130001,11.383338906000061],[122.8172631110001,11.38217057000003],[122.81518770700008,11.381422718000069],[122.81509114800009,11.380733530000043],[122.81593325000007,11.380068640000047],[122.81740071400009,11.37961492100004],[122.81898915600004,11.37959197400005],[122.8192738050001,11.380064728000034],[122.81920073900005,11.380561190000035]]],[[[122.86180929400007,11.398566496000056],[122.861384412,11.399523418000056],[122.86074759400003,11.399911948000065],[122.8585343420001,11.400329632000023],[122.85623042100006,11.400178963000029],[122.85553293300008,11.400627272000062],[122.85483509300003,11.40176351000002],[122.85337997700003,11.40167305700004],[122.85322809100013,11.402271182000048],[122.85398571400002,11.402809941000042],[122.85398531700002,11.403587602000073],[122.8531359750001,11.404544301000044],[122.85264965200008,11.406996681000063],[122.85149734700008,11.40753448200007],[122.85070972800008,11.406367590000059],[122.85049820200003,11.40505144100007],[122.84955865100005,11.404572400000065],[122.84922482600008,11.405230250000043],[122.84695094800009,11.40552817400004],[122.84564797800012,11.404360999999996],[122.84458652300009,11.405078281000044],[122.84458570900007,11.406573783000054],[122.8439793330001,11.406663191000064],[122.84406931900001,11.408427931000062],[122.8418252140001,11.409653042000059],[122.84188505300007,11.411088756000028],[122.84255141300001,11.41219578500005],[122.8428236080001,11.413392332000056],[122.84473358500009,11.413393349000046],[122.84567317300002,11.413842495000036],[122.84649475300012,11.415749989000064],[122.84697954400006,11.416286230000024],[122.84913318200006,11.416497912000068],[122.85082069700002,11.417570750000035],[122.85155744200007,11.418681384000022],[122.85429333900005,11.418625328000074],[122.85493317100008,11.419563624000036],[122.8546609000001,11.42078860400005],[122.85357370800013,11.42195575000005],[122.85339860400008,11.422874499000045],[122.85434889200008,11.42383209300004],[122.85441420902802,11.423851537271117],[122.85468762314906,11.423488226415486],[122.8570020165957,11.419683154347243],[122.85892715950733,11.415672591442718],[122.86044452452343,11.411495169451387],[122.86153951427775,11.407191125719146],[122.86220160137123,11.40280191543329],[122.8623966647071,11.398922061236958],[122.86180929400007,11.398566496000056]]]]}},{"type":"Feature","properties":{"fid":32,"objectid":1878,"lccode":"07","liqcode":"2010600070000000","mappers":"PJDelosReyes, ACPidlaoan","project":"READY","province":"Iloilo","otherinfo":null,"datemapped":2010,"publishdate":null,"globalid":"{2F92972A-C07C-4633-B325-DF2A08960C6C}","st_area(shape)":0.031106077518548395,"st_perimeter(shape)":5.287074988133156,"liqcodepk":"201060007000000000071","creator":"SNOOPYPC","createdate":"2019-02-19T15:21:28","editor":"LENOVO","modifydate":"2019-03-10T17:50:55","codemove":"na"},"geometry":{"type":"Polygon","coordinates":[]}},{"type":"Feature","properties":{"fid":59,"objectid":1908,"lccode":"05","liqcode":"2010600050000000","mappers":"PJDelosReyes, ACPidlaoan","project":"READY","province":"Iloilo","otherinfo":null,"datemapped":2010,"publishdate":null,"globalid":"{282D04BA-68E2-41E5-9B8A-0D8D85396F2D}","st_area(shape)":0.06128738608791496,"st_perimeter(shape)":10.692281506054618,"liqcodepk":"201060005000000000103","creator":"SNOOPYPC","createdate":"2019-02-19T15:21:28","editor":"LENOVO","modifydate":"2019-03-10T17:50:55","codemove":"na"},"geometry":{"type":"Polygon","coordinates":[]}},{"type":"Feature","properties":{"fid":73,"objectid":1937,"lccode":"06","liqcode":"2010600060000000","mappers":"PJDelosReyes, ACPidlaoan","project":"READY","province":"Iloilo","otherinfo":null,"datemapped":2010,"publishdate":null,"globalid":"{DBB85F45-4FB4-4F72-8BD3-A1308397A487}","st_area(shape)":0.017575391436836466,"st_perimeter(shape)":7.287100410898002,"liqcodepk":"201060006000000000136","creator":"SNOOPYPC","createdate":"2019-02-19T15:21:28","editor":"LENOVO","modifydate":"2019-03-10T17:50:55","codemove":"na"},"geometry":{"type":"Polygon","coordinates":[]}}]}