{"type":"FeatureCollection","features":[{"type":"Feature","properties":{"fid":200,"objectid":3303,"lccode":"01","liqcode":null,"mappers":"DJLBuhay, MJVReyes, MITAbigania, KLPapiona, KMVitto","project":"MELP","province":"Quezon","otherinfo":null,"datemapped":2017,"publishdate":null,"globalid":"{BC782275-8EAF-4B58-974B-C12246047CD2}","st_area(shape)":0.045970309448805105,"st_perimeter(shape)":30.915538535941515,"liqcodepk":null,"creator":null,"createdate":null,"editor":null,"modifydate":null,"codemove":null},"geometry":{"type":"Polygon","coordinates":[]}},{"type":"Feature","properties":{"fid":201,"objectid":3456,"lccode":"01","liqcode":null,"mappers":"DJLBuhay, MJVReyes, MITAbigania, KLPapiona, KMVitto","project":"MELP","province":"Marinduque","otherinfo":null,"datemapped":2018,"publishdate":null,"globalid":"{C1C76F22-BF62-4BCA-9566-6C4AB9AA7AC0}","st_area(shape)":0.008373951507563988,"st_perimeter(shape)":5.3853957391960225,"liqcodepk":null,"creator":"SDE","createdate":"2019-10-29T15:36:34","editor":"SDE","modifydate":"2019-10-29T15:38:36","codemove":null},"geometry":{"type":"MultiPolygon","coordinates":[[[[121.83164212800011,13.338070463000063],[121.82910633400003,13.33913039200007],[121.82731508300003,13.340228790000024],[121.82578910400004,13.340871246000061],[121.82226151600003,13.342651060000039],[121.82068217000007,13.343570099000033],[121.8192222870001,13.347069633000046],[121.8188074740001,13.34895093400007],[121.81894877300009,13.352396393000047],[121.819635188,13.355521880000028],[121.82228223500012,13.363323912000059],[121.82277678300011,13.365400324000062],[121.8227767840001,13.367309581000027],[121.82231694000006,13.369190329000045],[121.82317427900013,13.369232750000037],[121.82365802000002,13.37124429200003],[121.82323000400005,13.372450364000029],[121.82305144200006,13.374872154000057],[121.82351287800009,13.376586474000021],[121.82352889200001,13.378320759000072],[121.82308187500009,13.379813686000034],[121.8219432630001,13.381382276000068],[121.82151539900009,13.382576838000032],[121.82293902200003,13.383738813000038],[121.82358931400006,13.38634968900004],[121.82364754900004,13.387840620000075],[121.82427401200003,13.39005528700005],[121.82462023500013,13.393858012000067],[121.82427865400008,13.395221811000052],[121.82480442500004,13.398193194000042],[121.82487137100009,13.40126245400006],[121.82433656900004,13.402709522000066],[121.82463452900004,13.404748902000051],[121.824394803,13.405809837000051],[121.8237676010001,13.406793498000066],[121.82362515600006,13.408716608000077],[121.82324901000005,13.409690793000037],[121.82209050000006,13.410757006000042],[121.822148147,13.412967489000039],[121.82137341900011,13.414499537000038],[121.82141881700011,13.416409747000046],[121.82065449700009,13.417785214000046],[121.82111357500001,13.419179928000064],[121.82081453800002,13.420902333000072],[121.82146171600004,13.42358272900003],[121.8213302111161,13.424613196189465],[121.82413735542083,13.425611205774135],[121.82852802121327,13.426709527218653],[121.83300755800612,13.427381215628591],[121.83563406179613,13.427519700808162],[121.83567460400003,13.427492648000054],[121.83475899400001,13.427081773000056],[121.83336074700004,13.427059148000067],[121.83213664800009,13.425629643000034],[121.83146142300006,13.426187952000076],[121.82989655100006,13.425734070000031],[121.82834294500003,13.42562160400007],[121.82567344300004,13.425838812000052],[121.8243328740001,13.42523480000005],[121.82308774300009,13.422882561000053],[121.82363753100003,13.420495385000038],[121.82448805800006,13.420294436000061],[121.82439632300009,13.41905973400003],[121.82532783400006,13.418451721000054],[121.82414653100011,13.416159457000049],[121.82289836000008,13.415560417000052],[121.82301509100012,13.414470844000048],[121.82390749,13.41386265400007],[121.82456233200004,13.411856420000051],[121.82617713500007,13.410618818000042],[121.82544940700006,13.409524675000053],[121.825542057,13.408470245000046],[121.82520700500004,13.407112400000074],[121.82562295700006,13.406066766000038],[121.82637760700004,13.405639715000065],[121.82660680700008,13.404731817000025],[121.8262183290001,13.404222904000049],[121.82655396900009,13.402390998000042],[121.82793275800009,13.400860257000033],[121.82779389000007,13.399338341000032],[121.82677275400012,13.398559604000068],[121.82700306000002,13.39379118000005],[121.82787595000003,13.392939844000065],[121.82755693000003,13.391425658000058],[121.82811773700008,13.390653247000044],[121.82924877399999,13.390191179000055],[121.83007616100008,13.389448702000042],[121.8321109420001,13.389458115000027],[121.8344692930001,13.389842160000054],[121.83561044400007,13.390321042000037],[121.83550509400004,13.391716378000066],[121.83680653000009,13.391840447000051],[121.83705646600004,13.389623730000036],[121.83530274900012,13.389271919000066],[121.83511566400013,13.388546274000076],[121.83313798000006,13.388264460000071],[121.83264243700012,13.387666558000037],[121.83156543700011,13.387568291000036],[121.83060236600011,13.38664530200003],[121.8299654230001,13.386491656000034],[121.82869473900008,13.387644463000074],[121.82695868100008,13.387923451000063],[121.8247685110001,13.386119265000046],[121.8247859500001,13.385042940000062],[121.82562353500009,13.383621194000058],[121.82568887700008,13.382741972000074],[121.82534218500008,13.381180032000032],[121.82600628700004,13.38066883300007],[121.8266925040001,13.381084642000076],[121.82771689700009,13.380923083000027],[121.82871809500011,13.380286729000035],[121.83111299900008,13.380839207000065],[121.83426487400004,13.381820135000055],[121.83439777800005,13.382634035000024],[121.83690390600007,13.38313816100003],[121.83767249500012,13.381220734000067],[121.83548813200002,13.380457537000037],[121.8347615880001,13.379124225000057],[121.83337145900009,13.379624924000039],[121.82992492000005,13.378958368000037],[121.82907010400004,13.378184708000047],[121.82932658500009,13.377286795000032],[121.82905709600004,13.376533629000045],[121.82923831200004,13.37543414100003],[121.82826293300002,13.37504689900004],[121.82831692600006,13.373985094000036],[121.82939815000009,13.373014301000069],[121.83052946800001,13.372474153000041],[121.83158444700007,13.37053454200003],[121.83387885800003,13.370151844000075],[121.83475566900006,13.371532063000073],[121.83584602800012,13.370360208000022],[121.83576620400004,13.369709232000048],[121.83396982500005,13.369459838000067],[121.83292454900004,13.368236983000028],[121.8314729220001,13.368330749000052],[121.8310739740001,13.368989105000024],[121.8296192240001,13.368946426000035],[121.82973029800007,13.36712638600005],[121.82936017300005,13.366140837000046],[121.8298852910001,13.365382603000059],[121.82945565600005,13.364806532000046],[121.82989895400011,13.364069447000077],[121.82952207400001,13.363192225000034],[121.82982854400008,13.360938564000035],[121.8297275990001,13.359716114000037],[121.83042815100008,13.358822342000053],[121.83175140600008,13.35797928200003],[121.83115756100005,13.357007773000081],[121.8308070400001,13.355741738000061],[121.83016467800007,13.355197212000062],[121.83049497400009,13.354420872000047],[121.83291951700005,13.353834507000041],[121.83383132300003,13.353318886000062],[121.83377677900013,13.354945385000063],[121.83446992300004,13.355872979000022],[121.83528934500009,13.354531419000068],[121.83627384700003,13.354475444000059],[121.8388976220001,13.357064598000024],[121.83884556700002,13.359014508000033],[121.8399387290001,13.359622268000068],[121.841109974,13.359242418000065],[121.842125053,13.359824854000065],[121.84327027100007,13.362154587000077],[121.84566481600007,13.361825387000067],[121.84636756300004,13.362281202000073],[121.84748675200001,13.363648643000035],[121.8485538860001,13.366104953000047],[121.84863196900007,13.367649630000072],[121.849098969,13.36849956000003],[121.84885320500008,13.369548809000039],[121.84992033900005,13.370435088000022],[121.84865799700005,13.371118786000066],[121.84861895600012,13.371637889000057],[121.84949088300004,13.372473515000022],[121.84936074400002,13.373688967000025],[121.85005047800007,13.37395484700005],[121.8515600820001,13.376651606000054],[121.85145597100006,13.37813291200007],[121.85277036900005,13.379297694000057],[121.85408476600003,13.379158426000057],[121.85525601100007,13.380335862000038],[121.85550327400006,13.381500633000028],[121.8565834220001,13.382285583000055],[121.85899098100003,13.382741360000066],[121.86042250200002,13.383450345000027],[121.8601752400001,13.384564459000048],[121.86076086300011,13.385362060000036],[121.86204923200013,13.38357694800004],[121.86420952800007,13.382804663000057],[121.86674722600003,13.382855304000028],[121.8682308020001,13.383349061000049],[121.86985753200008,13.382272923000073],[121.86948013100006,13.38138668800008],[121.86754106900003,13.382551453000074],[121.86659106000003,13.382272923000073],[121.86573214700002,13.380956230000036],[121.864196514,13.381310725000048],[121.86234855000009,13.380968891000066],[121.86201019000009,13.380525771000068],[121.86079990400003,13.380297881000045],[121.85995400500009,13.38072834000007],[121.85844440000005,13.380892928000035],[121.8578457640001,13.380627056000034],[121.85715603000007,13.379550905000029],[121.85599780000005,13.378917874000026],[121.85555532900003,13.376170497000032],[121.8537073650001,13.375309561000048],[121.85237995400007,13.374246048000034],[121.85265324500004,13.373131886000067],[121.8521066630001,13.372068364000027],[121.85301849900007,13.370738110000046],[121.85240598200005,13.369434859000025],[121.85273132700001,13.368890429000034],[121.85405873800005,13.36909300700006],[121.8556984810001,13.370549037000046],[121.85737726600009,13.370612343000062],[121.85843138500002,13.370181865000061],[121.85948550600007,13.369333569000046],[121.85867864900001,13.368586560000038],[121.85789781900006,13.369219619000036],[121.85631013200009,13.368447287000036],[121.85511285800011,13.368497932000022],[121.85489162400008,13.366965922000075],[121.85395462800011,13.367079873000023],[121.85385051700007,13.366193583000038],[121.85451422200003,13.365585839000062],[121.85429298699998,13.364699542000041],[121.85265324400008,13.362319188000074],[121.85129980500004,13.361306263000072],[121.85133884700008,13.360685845000031],[121.85293954800011,13.358697964000044],[121.85167720600009,13.358216819000061],[121.850857334,13.358761273000027],[121.84976417300005,13.357748334000062],[121.84956896500012,13.356330213000035],[121.84722647600006,13.357621716000038],[121.84587303800004,13.35734315700006],[121.84574289900003,13.356254242000032],[121.84524837300013,13.355494530000042],[121.846263453,13.355215968000037],[121.84464973700005,13.354253662000076],[121.84334835400013,13.354304310000034],[121.84306204900008,13.353721860000064],[121.84349291700003,13.352454962000026],[121.84076704900009,13.35160050700006],[121.83894964400008,13.351577832000032],[121.83797645900006,13.34997149700007],[121.83649406900008,13.35014570100003],[121.83581648000008,13.350845845000038],[121.83498034400009,13.350985522000032],[121.83319895200009,13.350071573000035],[121.83220400500011,13.349207425000033],[121.8319584950001,13.348445630000072],[121.83303768000007,13.346527413000043],[121.83409653800005,13.345532420000037],[121.83558638500007,13.344698498000069],[121.8359983040001,13.34367539600004],[121.83771183100009,13.342542853000053],[121.83860991100005,13.342720485000026],[121.83926704700004,13.343795011000056],[121.84041871400008,13.343853580000028],[121.83985015100006,13.342701664000058],[121.8403877830001,13.341478748000043],[121.84126277300003,13.341123944000058],[121.84314396600007,13.341072735000068],[121.8422238710001,13.339358230000071],[121.84178675400004,13.33751273200005],[121.84181460091988,13.337416813406684],[121.83796639749342,13.337214038378256],[121.83344074414092,13.33741093076833],[121.83274526919726,13.337508684489922],[121.83164212800011,13.338070463000063]]],[[[121.8589015570001,13.421537450000072],[121.85826170200004,13.42042465000003],[121.85701205400007,13.420112808000058],[121.85629637200007,13.41850211700006],[121.85628207700006,13.41739215000007],[121.85501036000005,13.417616015000021],[121.85441357200011,13.419794835000062],[121.85473990700007,13.421059309000041],[121.85561659500003,13.421694786000044],[121.85625580700003,13.422941542000046],[121.85613136429173,13.423843374647802],[121.85932656903607,13.422381742632316],[121.85999257864952,13.421995062679963],[121.8589015570001,13.421537450000072]]]]}}]}