{"type":"FeatureCollection","features":[{"type":"Feature","properties":{"fid":200,"objectid":3303,"lccode":"01","liqcode":null,"mappers":"DJLBuhay, MJVReyes, MITAbigania, KLPapiona, KMVitto","project":"MELP","province":"Quezon","otherinfo":null,"datemapped":2017,"publishdate":null,"globalid":"{BC782275-8EAF-4B58-974B-C12246047CD2}","st_area(shape)":0.045970309448805105,"st_perimeter(shape)":30.915538535941515,"liqcodepk":null,"creator":null,"createdate":null,"editor":null,"modifydate":null,"codemove":null},"geometry":{"type":"Polygon","coordinates":[]}},{"type":"Feature","properties":{"fid":201,"objectid":3456,"lccode":"01","liqcode":null,"mappers":"DJLBuhay, MJVReyes, MITAbigania, KLPapiona, KMVitto","project":"MELP","province":"Marinduque","otherinfo":null,"datemapped":2018,"publishdate":null,"globalid":"{C1C76F22-BF62-4BCA-9566-6C4AB9AA7AC0}","st_area(shape)":0.008373951507563988,"st_perimeter(shape)":5.3853957391960225,"liqcodepk":null,"creator":"SDE","createdate":"2019-10-29T15:36:34","editor":"SDE","modifydate":"2019-10-29T15:38:36","codemove":null},"geometry":{"type":"MultiPolygon","coordinates":[[[[121.90744192000011,13.272380686000073],[121.90506361800009,13.27290011600007],[121.899999911,13.273640386000064],[121.89843647600003,13.273741273000041],[121.89192020600001,13.274502269000038],[121.89023726900007,13.274864997000067],[121.88760091400002,13.274602630000059],[121.8858862950001,13.275370912000028],[121.8840212020001,13.275788823000024],[121.88357335400006,13.276361346000042],[121.88165335300005,13.27741980800005],[121.87934325300012,13.279505107000036],[121.87840263200007,13.280118120000054],[121.87612271100011,13.280928268000023],[121.87212802500004,13.281863200000032],[121.86912249900001,13.282899955000062],[121.86895129800006,13.283733057000063],[121.867790936,13.284334741000063],[121.86608531099999,13.284762985000041],[121.86420338000006,13.286511972000026],[121.86139677800008,13.290849697000054],[121.86078642700011,13.292460453000043],[121.85982961600007,13.293985589000043],[121.85783245100004,13.298526495000027],[121.85692558000005,13.301666446000072],[121.85573342600003,13.304076916000042],[121.854469289,13.305990230000072],[121.85425963300007,13.307441397000048],[121.85377458000006,13.308248226000044],[121.85379949600008,13.310169794000045],[121.8511678750001,13.31501048000007],[121.85023366592159,13.316304700855843],[121.85037652018927,13.319448947797508],[121.85100981085004,13.323767321356627],[121.85397880700009,13.323408197000049],[121.85511460200007,13.323413323000068],[121.85608983100006,13.323800447000052],[121.85787498900004,13.32336595700002],[121.85887981000008,13.324023060000057],[121.85972290300003,13.323743716000024],[121.85927465900009,13.325601884000035],[121.85874434100003,13.326699843000023],[121.86041898400003,13.326396403000045],[121.86105781100002,13.325597934000026],[121.86222757400003,13.326177273000043],[121.86541767300002,13.326066455000042],[121.86546598100007,13.324571752000054],[121.86641958900009,13.323313008000069],[121.86809373900007,13.32258372500007],[121.86900179900012,13.322712160000036],[121.87003394300007,13.32347264600003],[121.8715477510001,13.323634412000043],[121.87188807500002,13.321854293000058],[121.86917118300003,13.322004865000054],[121.86701426900004,13.321497701000057],[121.86454690100004,13.32261572600004],[121.8630191540001,13.324051894000036],[121.86120783600006,13.324857070000066],[121.86117517100003,13.324007746000065],[121.8598463940001,13.32313825700004],[121.85944613400011,13.322508936000075],[121.85736847200006,13.321936195000031],[121.85603759800006,13.322117277000075],[121.85442253700013,13.321494116000052],[121.85171328500007,13.32100019200004],[121.85109088500009,13.320385013000077],[121.8511384520001,13.31858641100007],[121.85283206600003,13.31580015700007],[121.85382148600003,13.315326430000026],[121.85429216500006,13.314649129000033],[121.85436806700011,13.313539728000025],[121.8550176010001,13.312537997000048],[121.85580441300012,13.310388697000066],[121.8558975300001,13.309283990000038],[121.85653587800005,13.307582129000025],[121.85713721800006,13.306832754000025],[121.85790542800011,13.304598222000038],[121.8597142100001,13.30275639100006],[121.86046103900003,13.301363022000034],[121.86113886800001,13.301326047000034],[121.86235660800003,13.302068253000073],[121.86340140300001,13.303332965000038],[121.8631564550001,13.304249683000023],[121.86371491500007,13.304957837000073],[121.86509364200003,13.305227124000053],[121.86618988400005,13.305841993000058],[121.86729545300011,13.307078832000057],[121.86737504700011,13.308346979000076],[121.8699765130001,13.30829876000007],[121.87144997600001,13.309214293000025],[121.87186087200008,13.310149021000031],[121.87178862500004,13.311539184000027],[121.87261222200004,13.311408189000076],[121.87332567900013,13.31029904500002],[121.87468978400011,13.310697934000077],[121.87465946900012,13.309730861000045],[121.87220686400006,13.309297882000061],[121.87204197400001,13.307961088000068],[121.87250013100004,13.30659964600005],[121.87096429000007,13.305970891000069],[121.86976839700004,13.305774210000036],[121.86767220500009,13.304843936000054],[121.86625706300003,13.30452665900003],[121.864725485,13.302988906000053],[121.86404736100008,13.301753967000025],[121.86416194600008,13.300749814000028],[121.863162611,13.30101935400006],[121.86222736000002,13.300577133000047],[121.86231992900004,13.29929019700006],[121.86116940600004,13.299258731000066],[121.86110301500001,13.298483686000054],[121.86234242300009,13.297281864000068],[121.86328836500003,13.295549460000075],[121.86471372300001,13.294709037000073],[121.86343027700003,13.293397241000037],[121.86337859800005,13.290597105000074],[121.86433998200006,13.29028377800006],[121.86525931900007,13.289514721000046],[121.8665315940001,13.289022844000042],[121.86819204900009,13.28908764500005],[121.8696596960001,13.288596620000021],[121.87126224500004,13.288508052000056],[121.872163021,13.28807190600003],[121.87198389000002,13.287150664000025],[121.87048444900006,13.287700866000023],[121.8689421150001,13.287445240000064],[121.86606715100004,13.287389674000051],[121.86568473200009,13.286263415000063],[121.86708711100005,13.284630954000022],[121.86882765300004,13.284038527000066],[121.86997850300008,13.282807388000036],[121.87246091500005,13.282011309000035],[121.87676947000011,13.281002321000072],[121.87793430000012,13.280981787000032],[121.87819843999999,13.282101850000062],[121.88117821700007,13.281905052000068],[121.8829313880001,13.283048988000075],[121.88294746100009,13.282204958000023],[121.8837858710001,13.281778956000037],[121.88525099200001,13.283149986000067],[121.88626353100005,13.283738154000044],[121.88753347500005,13.28374370800003],[121.88817185500011,13.285143471000026],[121.88765742200006,13.286557334000063],[121.8868329500001,13.287405308000075],[121.88645411000005,13.288931391000057],[121.88686584200002,13.290760739000063],[121.88826267600008,13.29031603900006],[121.889157812,13.28887569600005],[121.89178064000008,13.288489686000046],[121.89318132400001,13.287622206000039],[121.89397428200006,13.286379660000025],[121.89338414700002,13.284306970000047],[121.89179939600001,13.284164872000074],[121.89121833000002,13.283009981000077],[121.8926019390001,13.281446188000077],[121.89132041300002,13.281304263000035],[121.89051598200003,13.280557687000051],[121.89076959700003,13.27993953200007],[121.89241903100003,13.279773327000042],[121.89458021900009,13.279811425000045],[121.89600399300004,13.279279384000063],[121.89705544200001,13.279262412000035],[121.89858957800003,13.281386783000071],[121.89952955400008,13.281844013000066],[121.89961031800011,13.282619543000068],[121.9006830400001,13.282762776000025],[121.90100430400004,13.280675915000076],[121.89984468500008,13.27891618500007],[121.89989538600003,13.278070083000042],[121.902746782,13.276683013000024],[121.90332537800009,13.276170969000077],[121.90429175100007,13.27798139500004],[121.9037205530001,13.280095937000052],[121.90407054800004,13.281329471000046],[121.9057198590001,13.283334859000036],[121.9073787980001,13.28373668000006],[121.90751350100004,13.282539536000058],[121.90676996600007,13.282530843000073],[121.90563974400004,13.281320373000026],[121.90614868500006,13.280561875000046],[121.9059779910001,13.279412937000073],[121.90762685800007,13.279093028000034],[121.90803956600007,13.27989877700003],[121.90926261700008,13.279634273000054],[121.90924801400001,13.27889089900003],[121.90690722300008,13.276676940000069],[121.90525487300012,13.276501957000047],[121.90500480700007,13.275589540000057],[121.90604535300008,13.274051479000036],[121.90877028400007,13.272390725000035],[121.90987743159009,13.27201006515556],[121.90819989935738,13.271590834316752],[121.90744192000011,13.272380686000073]]],[[[121.85489425800007,13.333851311000045],[121.85508674000005,13.334685814000068],[121.85685899200007,13.335143512000059],[121.85817490100011,13.335819213000036],[121.85870933100011,13.336453120000044],[121.86054126800003,13.337523427000065],[121.86127121600009,13.336670199000027],[121.8627168800001,13.335545255000055],[121.86083754200001,13.334302175000058],[121.86066066600004,13.332912158000058],[121.85993868100003,13.333170635000046],[121.85743163900007,13.332747097000036],[121.85569759400005,13.331477826000024],[121.85633046000011,13.330409484000027],[121.85552319400006,13.329675769000062],[121.85453962900009,13.33027555800004],[121.85324125100011,13.33008118800006],[121.85270192500003,13.328565109000067],[121.8522359543176,13.328523325796017],[121.85311368439511,13.330960987420754],[121.853569375,13.331148302000031],[121.85406420400011,13.33188728700003],[121.85399560258924,13.333145472246386],[121.85431746369107,13.33381990328007],[121.85489425800007,13.333851311000045]]]]}}]}