{"type":"FeatureCollection","features":[{"type":"Feature","properties":{"fid":169,"objectid":9611,"lccode":"05","liqcode":"2010600050000000","mappers":"PJDelosReyes, ACPidlaoan","project":"READY","province":"Zambales","otherinfo":"hazard boundary with Pangasinan updated on 2024","datemapped":2009,"publishdate":null,"globalid":"{05DFCAB5-92FE-456B-AE95-AC75BF442301}","st_area(shape)":0.002185593290381342,"st_perimeter(shape)":1.003530961980007,"liqcodepk":"201060005000000000115","creator":"SNOOPYPC","createdate":"2019-02-19T15:21:28","editor":"LENOVO","modifydate":"2019-03-10T17:50:55","codemove":"na"},"geometry":{"type":"Polygon","coordinates":[]}},{"type":"Feature","properties":{"fid":172,"objectid":9614,"lccode":"07","liqcode":"2010600070000000","mappers":"PJDelosReyes, ACPidlaoan","project":"READY","province":"Zambales","otherinfo":"hazard boundary with Pangasinan updated on 2024","datemapped":2009,"publishdate":null,"globalid":"{E247AAA7-6CC5-43B6-B432-1A47723CF308}","st_area(shape)":0.03098955954725758,"st_perimeter(shape)":4.795855471632837,"liqcodepk":"201060007000000000080","creator":"SNOOPYPC","createdate":"2019-02-19T15:21:28","editor":"LENOVO","modifydate":"2019-03-10T17:50:55","codemove":"na"},"geometry":{"type":"MultiPolygon","coordinates":[[[[120.09914891000005,14.980295881000071],[120.10040919200003,14.977868451000063],[120.10129162800001,14.97310640300003],[120.10089477700001,14.972192207000038],[120.10102848100007,14.970943728000067],[120.10216338300006,14.969139770000021],[120.10471615900008,14.966217309000058],[120.10556262200011,14.964125513000056],[120.10741547799998,14.961080440000044],[120.10623319900003,14.95771280100007],[120.10472855400009,14.952238437000064],[120.1041609030001,14.950981139000074],[120.10391754200008,14.94734117300004],[120.10277166900006,14.945621917000034],[120.1025467292177,14.944542334684927],[120.10191058038332,14.94554433695705],[120.09990834281575,14.949524834111365],[120.09831696611661,14.953676944414488],[120.09715179355884,14.957960693081068],[120.09642406776656,14.962334836036995],[120.09614082162523,14.966757256705845],[120.09630480961262,14.971185371272368],[120.09691448024856,14.975576538533758],[120.097963989967,14.979888470401598],[120.09868035269587,14.981918136105582],[120.09914891000005,14.980295881000071]]],[[[120.18721020500004,14.978530411000065],[120.1820118590001,14.978182100000026],[120.17867795100007,14.978311322000025],[120.17140851900001,14.97986919200002],[120.16519869600008,14.98087167800003],[120.16184755000008,14.98230746300004],[120.16002288600009,14.983250796000048],[120.1592435020001,14.984718586000039],[120.1584716090001,14.985618234000068],[120.15796350500013,14.988680591000044],[120.15852772500013,14.99022193700006],[120.15827816800004,14.991412170000045],[120.15711061600007,14.991284001000052],[120.15594907700005,14.990701173000048],[120.1546616290001,14.990798769000035],[120.15170745400007,14.993148601000032],[120.15056974600009,14.99518008800004],[120.14856355300005,14.99657566400003],[120.14604101200008,14.997225951000075],[120.14303267000004,14.998985698000071],[120.13770504800006,15.003315891000057],[120.13712913300004,15.00453258100004],[120.13457003300005,15.007582904000058],[120.13240141300003,15.009323432000032],[120.13026355049458,15.01082637018349],[120.13293239412828,15.011512020611022],[120.13743301527921,15.012218955033191],[120.14198328945247,15.012493635639863],[120.14653936821257,15.012333410658735],[120.1507354355979,15.011782116419868],[120.15127588400001,15.010421981000038],[120.153818191813,15.011104286125036],[120.15549368456982,15.010718576950218],[120.15980563231969,15.00927952043422],[120.16301632613055,15.007852293523964],[120.16301653900008,15.007848870000032],[120.16247673100008,15.006346114000051],[120.16095524000002,15.005012512000064],[120.16148078600008,15.004067082000065],[120.16501641800004,15.00474586300004],[120.16899205200002,15.003888711000057],[120.16915343200003,15.002258704000038],[120.16754219000006,15.000652055000048],[120.16723136900009,14.999469549000027],[120.16780046400004,14.998751284000035],[120.16882748900002,14.998779504000028],[120.16998268900011,14.999524462000064],[120.1717978270001,15.000094949000069],[120.17268901200008,15.000909664000059],[120.17330496750606,15.00113923584914],[120.17500480252411,14.999679745522197],[120.17810921533679,14.996434639950733],[120.18087134842176,14.992909339711547],[120.18326460354308,14.989137809372455],[120.1852659403556,14.98515638476916],[120.1868560979824,14.98100342253537],[120.18751836187653,14.978565101466549],[120.18721020500004,14.978530411000065]]]]}},{"type":"Feature","properties":{"fid":173,"objectid":9615,"lccode":"06","liqcode":"2010600060000000","mappers":"PJDelosReyes, ACPidlaoan","project":"READY","province":"Zambales","otherinfo":"hazard boundary with Pangasinan updated on 2024","datemapped":2009,"publishdate":null,"globalid":"{872CAE87-9525-4926-8B67-3D6FB0BEE51C}","st_area(shape)":0.022446667670869943,"st_perimeter(shape)":5.391899889166991,"liqcodepk":"201060006000000000146","creator":"SNOOPYPC","createdate":"2019-02-19T15:21:28","editor":"LENOVO","modifydate":"2019-03-10T17:50:55","codemove":"na"},"geometry":{"type":"Polygon","coordinates":[[[120.13240141300003,15.009323432000032],[120.13457003300005,15.007582904000058],[120.13712913300004,15.00453258100004],[120.13770504800006,15.003315891000057],[120.14303267000004,14.998985698000071],[120.14604101200008,14.997225951000075],[120.14856355300005,14.99657566400003],[120.15056974600009,14.99518008800004],[120.15170745400007,14.993148601000032],[120.1546616290001,14.990798769000035],[120.15594907700005,14.990701173000048],[120.15455155700009,14.989933808000046],[120.15083295600004,14.989625447000034],[120.14956880900002,14.988919228000043],[120.1483975220001,14.988595031000044],[120.1463663720001,14.988474413000063],[120.14556713900005,14.98779774900004],[120.14538161200005,14.987009858000023],[120.14642900400008,14.985594611000064],[120.15011244000004,14.984855078000065],[120.1561063580001,14.98533470900003],[120.15772619900008,14.985069235000028],[120.1584716090001,14.985618234000068],[120.1592435020001,14.984718586000039],[120.16002288600009,14.983250796000048],[120.16184755000008,14.98230746300004],[120.16519869600008,14.98087167800003],[120.17140851900001,14.97986919200002],[120.17867795100007,14.978311322000025],[120.1820118590001,14.978182100000026],[120.18721020500004,14.978530411000065],[120.18751836187653,14.978565101466549],[120.18801977999875,14.976718930195588],[120.18874580106115,14.972344180402818],[120.18902719379598,14.967921313053864],[120.18886127495058,14.963492929129595],[120.18824967020691,14.959101680184085],[120.1871982974575,14.954789857444844],[120.18571730874682,14.950598984486595],[120.18382099147703,14.946569417402442],[120.18152762986938,14.942739956320224],[120.17885932805049,14.939147471998766],[120.17584179649961,14.935826551089868],[120.17250410393784,14.932809163469086],[120.16887839706874,14.930124354822935],[120.16499959088024,14.92779796743519],[120.16243285828327,14.926578367285765],[120.16039078300001,14.927799283000072],[120.15679472200009,14.929421074000057],[120.15528008100013,14.929164114000061],[120.15460588300004,14.92829872300007],[120.15437617600003,14.927153170000059],[120.154540612,14.925821999999997],[120.15548148800009,14.92502429900003],[120.1566590430001,14.92484842600004],[120.15723850229799,14.924525132907249],[120.15663414179951,14.924306351725585],[120.15222803230941,14.923174724103914],[120.14772911588977,14.922468396519273],[120.14318069512503,14.922194162593163],[120.13862654722506,14.922354656932157],[120.13513500432462,14.92281365880694],[120.13532906400008,14.923528544000016],[120.13460678700007,14.92464519200007],[120.1337547547279,14.923030252464514],[120.1296760280101,14.923969463195464],[120.12691649083257,14.924890613359034],[120.12661832100002,14.925670514000041],[120.1247360100001,14.926960074000018],[120.12249979600006,14.930683988000052],[120.12146836700005,14.930858626000031],[120.12029926700005,14.93171938000006],[120.11964038000009,14.932899244000057],[120.118734259,14.933325560000068],[120.11705901200004,14.933554537000076],[120.11428054800001,14.934519994000024],[120.1126678720001,14.934874783000057],[120.11111282900004,14.935730600000054],[120.10934903800013,14.937771923000073],[120.10732994210646,14.937974328389373],[120.10706669024844,14.938249443733953],[120.10430438332679,14.94177377394393],[120.1025467292177,14.944542334684927],[120.10277166900006,14.945621917000034],[120.10391754200008,14.94734117300004],[120.1041609030001,14.950981139000074],[120.10472855400009,14.952238437000064],[120.10623319900003,14.95771280100007],[120.10741547799998,14.961080440000044],[120.10556262200011,14.964125513000056],[120.10471615900008,14.966217309000058],[120.10216338300006,14.969139770000021],[120.10102848100007,14.970943728000067],[120.10089477700001,14.972192207000038],[120.10129162800001,14.97310640300003],[120.10040919200003,14.977868451000063],[120.09914891000005,14.980295881000071],[120.09868035269587,14.981918136105582],[120.09944325831869,14.984079639107426],[120.10133806401379,14.98810967719279],[120.10363018092004,14.991939766429569],[120.106297552744,14.995533011919377],[120.10931450474575,14.998854797759165],[120.11265199047601,15.001873120834603],[120.1162778711798,15.004558899510176],[120.12015722518886,15.006886254224428],[120.12425268432862,15.00883275726762],[120.12852479409604,15.0103796493153],[120.13026355049458,15.01082637018349],[120.13240141300003,15.009323432000032]],[[120.14488718300005,14.930034427000065],[120.14611880700011,14.92947842500007],[120.14822159100004,14.929695110000065],[120.14953474600009,14.930378146000068],[120.15097399800003,14.932633889000043],[120.150719191,14.933392534000065],[120.14973301400006,14.933904036000056],[120.14865524600009,14.933938172000074],[120.14597809000009,14.932714381000038],[120.14438501300003,14.930980404000021],[120.14488718300005,14.930034427000065]]]}}]}