{"type":"FeatureCollection","features":[{"type":"Feature","properties":{"fid":31,"objectid":1877,"lccode":"07","liqcode":"2010600070000000","mappers":"PJDelosReyes, ACPidlaoan","project":"READY","province":"Ilocos Sur","otherinfo":null,"datemapped":2012,"publishdate":null,"globalid":"{9BD19C39-D43F-480F-8D4D-C2FF10071B57}","st_area(shape)":0.01783800115070572,"st_perimeter(shape)":3.398456363100086,"liqcodepk":"201060007000000000070","creator":"SNOOPYPC","createdate":"2019-02-19T15:21:28","editor":"LENOVO","modifydate":"2019-03-10T17:50:55","codemove":"na"},"geometry":{"type":"Polygon","coordinates":[]}},{"type":"Feature","properties":{"fid":48,"objectid":1897,"lccode":"05","liqcode":"2010600050000000","mappers":"PJDelosReyes, ACPidlaoan","project":"READY","province":"Abra","otherinfo":null,"datemapped":2011,"publishdate":null,"globalid":"{6F1B2D48-A8B0-430F-BF24-324356CDBB9C}","st_area(shape)":0.01258216709511878,"st_perimeter(shape)":4.5647277548728225,"liqcodepk":"201060005000000000091","creator":"SNOOPYPC","createdate":"2019-02-19T15:21:28","editor":"LENOVO","modifydate":"2019-03-10T17:50:55","codemove":"na"},"geometry":{"type":"Polygon","coordinates":[]}},{"type":"Feature","properties":{"fid":58,"objectid":1907,"lccode":"05","liqcode":"2010600050000000","mappers":"PJDelosReyes, ACPidlaoan","project":"READY","province":"Ilocos Sur","otherinfo":null,"datemapped":2012,"publishdate":null,"globalid":"{7D41ABB3-20BB-4A8A-A22A-9DDDC45B8904}","st_area(shape)":0.029120699274048492,"st_perimeter(shape)":9.226907297832456,"liqcodepk":"201060005000000000102","creator":"SNOOPYPC","createdate":"2019-02-19T15:21:28","editor":"LENOVO","modifydate":"2019-03-10T17:50:55","codemove":"na"},"geometry":{"type":"MultiPolygon","coordinates":[[[[120.46835632400008,17.75427465800004],[120.47051503100012,17.753811502000076],[120.47241062200008,17.75383596300003],[120.47385404200007,17.753216268000074],[120.47371626200005,17.752085236000028],[120.47259950300008,17.751334284000055],[120.47066300000002,17.75057283900003],[120.46970204300011,17.749676608000073],[120.46926101800013,17.748247023000033],[120.46590050900011,17.74823458700007],[120.46578869500003,17.74721061100007],[120.46458976100006,17.74574322800003],[120.46426734900001,17.74403480000007],[120.46439618800004,17.742761659000053],[120.46482367600002,17.741926075000038],[120.46574503700003,17.741451107000046],[120.4679648670001,17.741267318000034],[120.47001591400009,17.741922352000074],[120.47417167100004,17.74270192200004],[120.47686606800004,17.742940236000035],[120.47827417200006,17.742343067000036],[120.47716889500008,17.73946037200005],[120.47721778800008,17.73861112200007],[120.47801135600002,17.738351250000054],[120.47906223300005,17.738847312000075],[120.48096455100006,17.740558247000024],[120.48341799600007,17.741842541000043],[120.48551714200006,17.742365209000067],[120.4873134830001,17.74241036100005],[120.48899426000001,17.742126507000027],[120.48955397100009,17.741744129000043],[120.489057419,17.740250381000063],[120.48713656600012,17.740190377000033],[120.48397973700003,17.738662511000026],[120.48266204000004,17.737760322000042],[120.48087457600002,17.734439520000024],[120.47928981200003,17.733148764000077],[120.4767064790001,17.73290307900004],[120.47437090500011,17.733439635000025],[120.47332236600006,17.733439404000027],[120.47272327400005,17.732679149000035],[120.47398282600011,17.73113720500004],[120.47503985500008,17.730203505000073],[120.47637462400007,17.728565168000046],[120.47728326900005,17.72700983200002],[120.4787924630001,17.723793328000056],[120.48248283900013,17.718847510000046],[120.48421827200002,17.71628462200004],[120.48587543600001,17.714371397000033],[120.48683642800006,17.714016278000027],[120.48841329400011,17.714545467000047],[120.49031798700003,17.71574731400005],[120.4916151970001,17.716790946000057],[120.4928848420001,17.717493253000043],[120.49564039600013,17.718626276000066],[120.49711792000005,17.718994758000058],[120.50077346900002,17.719183016000045],[120.50126774700004,17.718844006000044],[120.5004036810001,17.71654004600003],[120.49941232200001,17.71474790300005],[120.49755256800007,17.713635205000053],[120.49507417600012,17.71383377100005],[120.49456492900003,17.713583829000072],[120.49256210700003,17.71146884600006],[120.4919081290001,17.71100457700004],[120.49068493700008,17.71094912800003],[120.48845791600002,17.711341175000033],[120.48657138600005,17.712158072000022],[120.48547309900006,17.71293086700007],[120.48414298500005,17.712746686000056],[120.48254499200004,17.712079943000045],[120.48101970800006,17.71248974700006],[120.47912702000009,17.71572348500007],[120.47610375500007,17.71690194000007],[120.47518651500003,17.717093765000072],[120.4735161970001,17.716974935000053],[120.47228964600005,17.717490273000067],[120.47134549100008,17.71630948700004],[120.47127700800002,17.71394480500004],[120.47188720900009,17.709295944000072],[120.47107752000011,17.708409003000043],[120.4702845820001,17.708633383000063],[120.464855725,17.708457187000025],[120.46438191200002,17.70799073600006],[120.465146364,17.70650881000006],[120.4680872560001,17.70428028700007],[120.46993083900009,17.701913695000027],[120.47295712700009,17.698854002000072],[120.4747483320001,17.697584514000027],[120.47603374200003,17.69549393500006],[120.47719350100012,17.69181700600006],[120.47707224800003,17.69090804900003],[120.47556314000008,17.68951199500003],[120.475006086,17.688398153000033],[120.47330058000011,17.686853461000055],[120.47110945300007,17.687011210000037],[120.47025657200004,17.687894451000037],[120.46990760500013,17.689488580000045],[120.47122317100002,17.688905667000032],[120.47301432900008,17.689426240000042],[120.47295688700001,17.690216417000045],[120.47085058300001,17.691682122000028],[120.46982405100005,17.691836683000076],[120.46914471800005,17.69268097400004],[120.46877918200006,17.694951034000034],[120.46790151500011,17.69671686500004],[120.46628730100008,17.69811778400003],[120.46326711200003,17.699626051000052],[120.46158476900007,17.699933183000038],[120.45865188800008,17.69951313200005],[120.45483412400004,17.700050187000045],[120.45310965800002,17.700054476000048],[120.45176317750833,17.699748550214817],[120.45158069966241,17.700105764983313],[120.44996442774698,17.70425732429849],[120.44878041769061,17.708540718948676],[120.44804009887955,17.71291470897346],[120.44775063118446,17.717337179464955],[120.44791483484964,17.721765545807713],[120.44816810751284,17.723570244431425],[120.44840339900009,17.723559917000042],[120.4515406390001,17.723813152000048],[120.45597342100007,17.72390606500005],[120.45933685600005,17.723843452000036],[120.46110721600009,17.724078833000025],[120.46384014800005,17.724184965000063],[120.46623556500003,17.724640847000042],[120.46667243600007,17.72510691100007],[120.46660807700005,17.727053783000024],[120.46567202500013,17.727926964000066],[120.46414632300002,17.72868633000007],[120.45977722400005,17.729302607000022],[120.45463628400012,17.729625511000048],[120.45344859000011,17.729999635000066],[120.45185887500008,17.73004987400003],[120.4506501090001,17.730523034000043],[120.45150602200012,17.731206046000068],[120.45177255500005,17.73268015800005],[120.45123898500002,17.733695105000034],[120.4507967586998,17.73383507902402],[120.45109227955736,17.734661736375923],[120.4530124658005,17.73869277825884],[120.45306371795438,17.738777296503734],[120.45459661400002,17.738212697000048],[120.45650346000001,17.737135555000066],[120.45759290900001,17.73615443700003],[120.45904368700009,17.73585340900007],[120.46155633600006,17.73652569800004],[120.46533589400006,17.73678786400006],[120.465952796,17.737755509000067],[120.46457220700006,17.738341930000047],[120.46203262100005,17.73826013700005],[120.46005796200006,17.73757260700006],[120.45883271800007,17.737663374000025],[120.45621102200005,17.73945652700007],[120.4536889476457,17.739808335719857],[120.45533580222097,17.742524034368216],[120.4580399342402,17.746118596028357],[120.46109883438336,17.749441832032115],[120.46448305236363,17.75246172268267],[120.4677163840911,17.75482494252144],[120.46835632400008,17.75427465800004]]],[[[120.50150133100011,17.76228608000002],[120.50296769700002,17.760920591000055],[120.5044745670001,17.759894677000034],[120.50552754400007,17.75847784500007],[120.508717982,17.756098158000043],[120.51301408800009,17.752632240000025],[120.51383055200006,17.75170755000005],[120.51413198100012,17.750666159000044],[120.51144274400006,17.750027025000062],[120.51018990900003,17.749295944000036],[120.5086409610001,17.749221270000074],[120.50673777700003,17.74985715300005],[120.50395454900001,17.751856972000038],[120.502948349,17.754044462000028],[120.50135542000011,17.755069272000064],[120.50047954500008,17.75468706400005],[120.49760971800004,17.754699467000027],[120.49666367300004,17.75640594100003],[120.49548318300005,17.756538130000024],[120.49452821000013,17.755200253000055],[120.49294342200007,17.75493446100006],[120.49231761500006,17.755712046000042],[120.49193433000005,17.757474725000066],[120.48943672200005,17.760192396000036],[120.487307298,17.76222731400003],[120.4870294770213,17.76241667553457],[120.4896169609413,17.762818404289078],[120.49423278737949,17.76309495743715],[120.49885469067605,17.762936574627787],[120.50073249561959,17.76269413295705],[120.50150133100011,17.76228608000002]]]]}},{"type":"Feature","properties":{"fid":63,"objectid":1927,"lccode":"06","liqcode":"2010600060000000","mappers":"PJDelosReyes, ACPidlaoan","project":"READY","province":"Abra","otherinfo":null,"datemapped":2011,"publishdate":null,"globalid":"{2D7190C8-CD2C-4D21-8E96-CD4FC48D3C6E}","st_area(shape)":0.008103563302459305,"st_perimeter(shape)":1.7202435562194207,"liqcodepk":"201060006000000000125","creator":"SNOOPYPC","createdate":"2019-02-19T15:21:28","editor":"LENOVO","modifydate":"2019-03-10T17:50:55","codemove":"na"},"geometry":{"type":"Polygon","coordinates":[]}},{"type":"Feature","properties":{"fid":72,"objectid":1936,"lccode":"06","liqcode":"2010600060000000","mappers":"PJDelosReyes, ACPidlaoan","project":"READY","province":"Ilocos Sur","otherinfo":null,"datemapped":2012,"publishdate":null,"globalid":"{33CDE2C7-9AFF-4DEC-86B5-45B4892EBDFF}","st_area(shape)":0.017363484289297154,"st_perimeter(shape)":5.7193106480781575,"liqcodepk":"201060006000000000135","creator":"SNOOPYPC","createdate":"2019-02-19T15:21:28","editor":"LENOVO","modifydate":"2019-03-10T17:50:55","codemove":"na"},"geometry":{"type":"MultiPolygon","coordinates":[[[[120.46038441300004,17.697616188000044],[120.45893996200004,17.69683333300003],[120.45686049700011,17.697037500000018],[120.45598406900001,17.69673287100005],[120.4541225500001,17.69561473100003],[120.45396143246265,17.69558650884802],[120.45361364562886,17.69612600929652],[120.45176317750833,17.699748550214817],[120.45310965800002,17.700054476000048],[120.45483412400004,17.700050187000045],[120.45865188800008,17.69951313200005],[120.46158476900007,17.699933183000038],[120.46326711200003,17.699626051000052],[120.46628730100008,17.69811778400003],[120.46790151500011,17.69671686500004],[120.46877918200006,17.694951034000034],[120.46914471800005,17.69268097400004],[120.46982405100005,17.691836683000076],[120.47085058300001,17.691682122000028],[120.47295688700001,17.690216417000045],[120.47301432900008,17.689426240000042],[120.47122317100002,17.688905667000032],[120.46990760500013,17.689488580000045],[120.46887900300011,17.690473849000057],[120.4671787850001,17.692726712000024],[120.466173582,17.69466083100002],[120.46536179000007,17.695369036000045],[120.46233175300006,17.697249280000047],[120.46038441300004,17.697616188000044]]],[[[120.45621102200005,17.73945652700007],[120.45883271800007,17.737663374000025],[120.46005796200006,17.73757260700006],[120.46203262100005,17.73826013700005],[120.46457220700006,17.738341930000047],[120.465952796,17.737755509000067],[120.46533589400006,17.73678786400006],[120.46155633600006,17.73652569800004],[120.45904368700009,17.73585340900007],[120.45759290900001,17.73615443700003],[120.45650346000001,17.737135555000066],[120.45459661400002,17.738212697000048],[120.45306371795438,17.738777296503734],[120.4536889476457,17.739808335719857],[120.45621102200005,17.73945652700007]]],[[[120.45123898500002,17.733695105000034],[120.45177255500005,17.73268015800005],[120.45150602200012,17.731206046000068],[120.4506501090001,17.730523034000043],[120.44958563174534,17.73043694950745],[120.44959371067803,17.730469738967777],[120.4507967586998,17.73383507902402],[120.45123898500002,17.733695105000034]]]]}}]}