{"type":"FeatureCollection","features":[{"type":"Feature","properties":{"fid":5,"objectid":1834,"lccode":"01","liqcode":"2010600010000000","mappers":"DJLBuhay, MJVReyes, MITAbigania, KLPapiona, KMVitto","project":"MELP","province":"Apayao","otherinfo":null,"datemapped":2018,"publishdate":null,"globalid":"{1CF6B5C0-CFF1-4290-9A9E-3C6A72777FB9}","st_area(shape)":0.016612682616230664,"st_perimeter(shape)":4.8172609856160955,"liqcodepk":"201060001000000000006","creator":"SNOOPYPC","createdate":"2019-02-19T15:21:28","editor":"LENOVO","modifydate":"2019-03-10T17:53:06","codemove":"na"},"geometry":{"type":"MultiPolygon","coordinates":[[[[121.36084607900011,18.27297982400006],[121.36220114600009,18.27364168000003],[121.36314868500007,18.272932612000034],[121.36386170700007,18.273041375000048],[121.36384817900013,18.274124340000075],[121.36271303200009,18.275625486000028],[121.36275855886743,18.27585023627254],[121.36596226619443,18.277331463015802],[121.37031750601037,18.278862228694837],[121.37257598160475,18.279423157847962],[121.37238637900009,18.277774030000046],[121.3724736170001,18.27653148000007],[121.37308428100006,18.273369840000043],[121.37318605900009,18.271892548000036],[121.37426199100004,18.269462581000028],[121.37426199100004,18.269025559000045],[121.37554589200009,18.26724262200002],[121.38028699400002,18.264671719000034],[121.3814762390001,18.264515535000047],[121.38264904800009,18.263923568000052],[121.38404926600003,18.263782798000026],[121.38471371500009,18.264583363000042],[121.38691377600004,18.264929197000072],[121.38960273900011,18.26694260200003],[121.39004283600002,18.266998421000036],[121.3918155880001,18.268292109000072],[121.39178181400007,18.270269458000026],[121.3921766830001,18.273302710000046],[121.39154286700013,18.27447496500002],[121.390366502,18.271787556000053],[121.38971983700003,18.27167705800002],[121.38789698000005,18.27407751700002],[121.38693770500002,18.274555700000064],[121.38563788700004,18.27440129100006],[121.38537837600006,18.27540316400007],[121.38571762800005,18.27660134200005],[121.38463702200009,18.27709424600005],[121.38280928100004,18.277198325000025],[121.38048530900006,18.276843964000026],[121.3791366490001,18.276154793000046],[121.37890332100005,18.27702778200006],[121.3801444300001,18.277881073000064],[121.37943297200003,18.279679886000054],[121.3768735450001,18.280119567000042],[121.37600674600003,18.27993466500004],[121.37590564489751,18.28014266470101],[121.37939317716601,18.280667157720632],[121.38234479179768,18.28083075177053],[121.3828926760001,18.28049447400002],[121.38374340500002,18.280353284000054],[121.3836784990001,18.279299123000044],[121.38499731900004,18.27925360200004],[121.38620541400007,18.27990234300006],[121.38669819200004,18.27902475200005],[121.38855312300008,18.279771931000028],[121.38929837700006,18.280366308000055],[121.3894502560265,18.280640756369998],[121.39325951080977,18.280133681210515],[121.3977709197828,18.279094289583558],[121.40215389985565,18.277637363076174],[121.40636621167346,18.275776940694605],[121.41036726384277,18.27353094999111],[121.41411850479332,18.27092103399793],[121.4175837947904,18.267972342292726],[121.42072975448694,18.26471328822702],[121.42352608663926,18.261175274678138],[121.42594586787834,18.25739239098927],[121.42796580772811,18.253401084041148],[121.42956647238636,18.249239806647104],[121.43073247113414,18.244948646681138],[121.43145260360765,18.240568940531407],[121.43171996655086,18.236142874620313],[121.43168601913567,18.23534275737516],[121.43102561400009,18.235480121000023],[121.4297159790001,18.235051020000068],[121.43041896000011,18.233383306000068],[121.43139585900009,18.232554570000048],[121.4312841740001,18.23105948000006],[121.43054681800004,18.229589149000052],[121.43108358484993,18.228643291575672],[121.43089060577095,18.227322215852006],[121.43059377030244,18.22614716905651],[121.43051724500002,18.225913235000064],[121.42981349700007,18.227670597000042],[121.4292156150001,18.228084065000075],[121.42752838500006,18.22792080900007],[121.42601282900011,18.226055592000023],[121.42529443800004,18.225960039000032],[121.42546457800007,18.227903862000062],[121.42523950400005,18.228589332000066],[121.42588461200013,18.229879621000066],[121.4251867170001,18.230979574000063],[121.42560487000003,18.23316450200002],[121.42497568900001,18.23357769800003],[121.42271043600012,18.23161663800004],[121.42102264300001,18.23151308500007],[121.42120109700012,18.232530591000057],[121.42060048100008,18.233242842000042],[121.41810075900004,18.231942747000055],[121.41735895700003,18.231252889000075],[121.4170700090001,18.230007355000055],[121.41721637700005,18.226697046000023],[121.41565087600009,18.223167878000027],[121.41474400600009,18.221649478000074],[121.41260163000003,18.21954708600003],[121.41072523000003,18.219015155000015],[121.40977483400002,18.218169011000043],[121.40842406500009,18.218157801000075],[121.40728537100006,18.216833480000044],[121.40565750100006,18.217035109000054],[121.40399354500005,18.215706402000023],[121.40266613100003,18.21313734300003],[121.40202319700006,18.21231916200003],[121.40080540300005,18.211448374000042],[121.40026210000008,18.21067883200004],[121.39805146100004,18.208963013000073],[121.39696642900003,18.207256583000056],[121.39682707300004,18.206083998000054],[121.39591474700002,18.204641978000033],[121.39572734400008,18.203253831000037],[121.39391374200011,18.20189989100004],[121.39253814000007,18.201315610000048],[121.39215856800001,18.199065217000054],[121.39123841600008,18.198483748000054],[121.39117193900005,18.19755083700005],[121.39050256700011,18.196899748000078],[121.38915727500013,18.19358936300006],[121.38836770600005,18.19241131600006],[121.3877689970001,18.192238943000064],[121.38677490100007,18.19426264100002],[121.38507660700009,18.193985387000055],[121.38454455800002,18.194722009000035],[121.38344299100002,18.19483226600005],[121.3829268080001,18.193847753000053],[121.38284043600004,18.19236482600007],[121.38232051400007,18.191786690000068],[121.38111921900007,18.191322340000053],[121.38053483107389,18.19074246185349],[121.38022603651304,18.190754351032922],[121.37563203518052,18.191366065454655],[121.37112284706177,18.192405111213326],[121.36674186622625,18.193861486654804],[121.3625312551992,18.195721173950055],[121.36240594526551,18.19579151451578],[121.3633875490001,18.196914452000044],[121.36531955200007,18.198706130000062],[121.36580790700009,18.199581711000064],[121.36591486300006,18.200789679000025],[121.3680713670001,18.203820228000037],[121.37024891500006,18.207716511000058],[121.37012566600002,18.20969836600005],[121.36842077500013,18.21226574600007],[121.36757981300003,18.212826384000035],[121.36680175900007,18.214202712000034],[121.36675326200009,18.215396428000076],[121.36592149800005,18.21631808500007],[121.36431052800005,18.216165137000075],[121.36219798600006,18.217225375000055],[121.36117316200011,18.218434088000034],[121.3606710670001,18.22059898300006],[121.3612434170001,18.222017967000056],[121.36209616800011,18.22334682900004],[121.36299069600013,18.22396199500002],[121.36365340100008,18.225413358000022],[121.36395517200005,18.226775142000058],[121.36524485200005,18.227754855000054],[121.3664207590001,18.228979535000057],[121.36692218600001,18.230039925000018],[121.36676968200004,18.23093536500005],[121.36459333600011,18.232195489000045],[121.36159254400003,18.233389063000057],[121.3577388760001,18.233487548000028],[121.35631427400007,18.231630302000045],[121.35602629300001,18.230349720000046],[121.35432413400008,18.23036546000003],[121.35298300700005,18.229681781000064],[121.35222110500003,18.22882970900002],[121.3507684010001,18.228357357000053],[121.35020508200013,18.227415304000026],[121.34781445600004,18.22625120100003],[121.3461899130001,18.22602894800007],[121.34546006800008,18.22522683500006],[121.34374051800012,18.224530660000024],[121.34289908500011,18.22356714700004],[121.34134417500003,18.22529883200007],[121.3411321630001,18.226552060000067],[121.34243920200004,18.227220785000043],[121.34474304400011,18.226977734000055],[121.3448383120001,18.22880736600007],[121.34714949300007,18.229200751000064],[121.34671314700006,18.229966461000064],[121.34697674900008,18.23127889400007],[121.34824448100005,18.232780699000045],[121.34975626000005,18.233459132000068],[121.35145486600004,18.233823181000048],[121.35392088600008,18.234756617000073],[121.35450856600006,18.235324494000054],[121.35395872800007,18.236534480000042],[121.35509010400006,18.237944718000044],[121.35668305200011,18.23834420700007],[121.35763160700003,18.239599896000072],[121.35750411100003,18.240565804000028],[121.35919904500008,18.240385158000034],[121.36016660900009,18.24077987100003],[121.36050283500003,18.242276882000056],[121.36033804700001,18.243841321000048],[121.35955589300012,18.24453985200006],[121.35871578000001,18.246560845000037],[121.35798876700007,18.24618167600005],[121.35734229600008,18.24681681300006],[121.356636019,18.246361317000037],[121.35553353400007,18.246533536000072],[121.35445647000004,18.24587736600006],[121.35287553200011,18.24680781800003],[121.35252041800004,18.24732113300007],[121.35011826900006,18.247348257000052],[121.34960277700009,18.246827444000076],[121.34723526900007,18.24636714900004],[121.34653695400004,18.245447112000022],[121.344990326,18.24438113900004],[121.34461124800009,18.24287691900002],[121.34351170800005,18.243378472000074],[121.34391575000008,18.24445826000004],[121.34321950000003,18.246231919000024],[121.343795021,18.246318717000065],[121.34625764400005,18.24785833700002],[121.34674348700003,18.248566562000065],[121.34643507600002,18.24969001200003],[121.34492046200012,18.248620583000044],[121.34377286000007,18.248399041000024],[121.34232929200004,18.247728623000057],[121.34028684800012,18.248478946000034],[121.3393761027659,18.249289269378824],[121.33982454190082,18.250521929541314],[121.34004567400008,18.250504315000054],[121.34085636400005,18.250711156000023],[121.34217909100005,18.25166583200007],[121.34285782100005,18.252961043000024],[121.34433878900006,18.254206432000046],[121.34629066900006,18.254955991000035],[121.34728442100003,18.254873956000036],[121.34771878100003,18.254055969000035],[121.34881613700009,18.254009277000023],[121.34936737700002,18.25461641100003],[121.35049380500004,18.25444984600006],[121.35086777400012,18.255962644000018],[121.35167646900004,18.255448456000064],[121.35233744200002,18.254400586000028],[121.35376786500001,18.254295694000064],[121.35466135400007,18.254817762000073],[121.35664801800009,18.254742689000064],[121.35889891800001,18.254218832000046],[121.36052417000008,18.254870373000067],[121.36303039800009,18.254856267000036],[121.36469252700012,18.25409159700007],[121.36634991900007,18.253831992000073],[121.36829662200013,18.25432184500005],[121.36970985800006,18.25659279900003],[121.37016274000008,18.25863558800006],[121.37160961200006,18.26044684700002],[121.37258953900005,18.262246954000037],[121.37240304800004,18.26400008100007],[121.37137041000007,18.26579381700003],[121.36912385100005,18.265713022000053],[121.36762468500001,18.26624290500007],[121.36681038900007,18.26600493400002],[121.36666047500012,18.26517889200005],[121.36528915000008,18.26412009000006],[121.36424701400007,18.263982088000038],[121.36474554700011,18.265308358000024],[121.3645529900001,18.265830255000026],[121.3633188890001,18.266149603000034],[121.3629458920001,18.265099325000048],[121.36179025600006,18.26505691900007],[121.36091742700012,18.26447569600003],[121.35983837100002,18.26427280700006],[121.35928747800006,18.262984328000073],[121.35789974300009,18.262879187000067],[121.35583239900006,18.261606363000055],[121.35557855000002,18.260312007000042],[121.3541872090001,18.261925626000053],[121.35387739800001,18.26282350000002],[121.35503403500002,18.26320499300004],[121.35608251300005,18.26313244200003],[121.35641122700007,18.264589794000077],[121.3558865020001,18.265315460000068],[121.35366335100002,18.265382944000063],[121.35209188100009,18.26441771700007],[121.3507873200001,18.264248694000056],[121.35030425400011,18.26293926300008],[121.34757493100007,18.26261449100002],[121.34690213900001,18.261849583000068],[121.34603621500004,18.261765794000045],[121.34599307183453,18.26194799869359],[121.34705332681786,18.263339971169703],[121.348080363,18.26353231000007],[121.34881136300011,18.263988604000076],[121.34850985697597,18.26504131897381],[121.35071412654608,18.267407436398347],[121.35212881675382,18.268654807338585],[121.35221379900007,18.26865944300005],[121.35366243900012,18.26808963700006],[121.35577799600004,18.268056456000068],[121.35805851400004,18.26938800400006],[121.3600286850001,18.269460379000066],[121.36045078200003,18.27034374100003],[121.35926766000011,18.271624520000046],[121.35625717300003,18.27137873000004],[121.35584319230716,18.27165519006032],[121.35782641218832,18.273086960368087],[121.35814957705371,18.2732758002961],[121.36084607900011,18.27297982400006]],[[121.36936715400009,18.24967994600007],[121.36854716100005,18.249995959000046],[121.36713670300004,18.24911690400006],[121.36703789800005,18.246632642000066],[121.36741818400003,18.245899024000032],[121.36679663500001,18.24535889000003],[121.36607529700008,18.242276034000042],[121.36500929600004,18.240094402000064],[121.36511897900004,18.238948506000046],[121.36572937800008,18.238509675000046],[121.36809123600005,18.23875323300007],[121.36940280600004,18.238664256000046],[121.37075951700001,18.236795326000045],[121.36952294900004,18.233008165000054],[121.36991381700012,18.23214029100006],[121.37124309700006,18.23208877400003],[121.37395793200005,18.23247590400007],[121.3757013060001,18.233968832000073],[121.37589145000004,18.23539101700004],[121.37674709500003,18.237377542000047],[121.37579495100012,18.239478977000033],[121.3757250740001,18.24123765600007],[121.37601028900009,18.242230887000062],[121.37686593500008,18.243088674000035],[121.37672332700002,18.244127042000063],[121.37597612600007,18.244307777000074],[121.37406131900002,18.245662008000068],[121.37358596100013,18.24710667100004],[121.37280256800011,18.24724928000006],[121.37245393600006,18.248168017000065],[121.37099671700003,18.248971983000047],[121.37053178300005,18.250052390000068],[121.36936715400009,18.24967994600007]],[[121.35423857700005,18.248428353000058],[121.3538986000001,18.247241142000064],[121.35454651200007,18.24692815000003],[121.35476775100005,18.24853997900004],[121.35423857700005,18.248428353000058]]],[[[121.36036157600007,18.221785042000022],[121.35961385300004,18.220857676000037],[121.35958892700012,18.21847261600004],[121.36128011800008,18.217274218000053],[121.36144255800004,18.21640149900003],[121.36028032500009,18.214306805000035],[121.3601095900001,18.213356779000037],[121.3588287550001,18.213831574000036],[121.3577343720001,18.214587343000062],[121.35471259900008,18.21418794500005],[121.35499055900003,18.21479284500003],[121.3559262010001,18.215053673000057],[121.35602705300005,18.21567545000005],[121.35744281700012,18.215421038000038],[121.35849540900006,18.215642069000065],[121.35869634900007,18.216412634000047],[121.35714930800009,18.21695458000005],[121.35765504400003,18.21800471700004],[121.35748323200005,18.219882218000063],[121.35692509800002,18.220223573000055],[121.35525385200003,18.21864000700003],[121.35514820900006,18.21774707600002],[121.35633419700004,18.21739663900007],[121.35582703400007,18.216401107000024],[121.354947292,18.217186913000038],[121.35384744300008,18.21728768200006],[121.3540895860001,18.218102966000057],[121.35268832900012,18.21830947400002],[121.35412876000011,18.220977823000062],[121.35538839900003,18.22199942900005],[121.35742669800004,18.222187473000076],[121.35877097500008,18.222841630000055],[121.36001592800005,18.222897465000074],[121.36036157600007,18.221785042000022]]]]}},{"type":"Feature","properties":{"fid":26,"objectid":1872,"lccode":"07","liqcode":"2010600070000000","mappers":"PJDelosReyes, ACPidlaoan","project":"READY","province":"Cagayan","otherinfo":null,"datemapped":2012,"publishdate":null,"globalid":"{DED92A0E-07A3-4F4C-B4F3-8B0691B82188}","st_area(shape)":0.05559407556334115,"st_perimeter(shape)":12.110269661988962,"liqcodepk":"201060007000000000065","creator":"SNOOPYPC","createdate":"2019-02-19T15:21:28","editor":"LENOVO","modifydate":"2019-03-10T17:50:55","codemove":"na"},"geometry":{"type":"Polygon","coordinates":[]}},{"type":"Feature","properties":{"fid":53,"objectid":1902,"lccode":"05","liqcode":"2010600050000000","mappers":"PJDelosReyes, ACPidlaoan","project":"READY","province":"Cagayan","otherinfo":null,"datemapped":2012,"publishdate":null,"globalid":"{C3D84E80-F2D4-4567-B477-D6223763EFE3}","st_area(shape)":0.07022270502489089,"st_perimeter(shape)":22.490008235492827,"liqcodepk":"201060005000000000097","creator":"SNOOPYPC","createdate":"2019-02-19T15:21:28","editor":"LENOVO","modifydate":"2019-03-10T17:50:55","codemove":"na"},"geometry":{"type":"Polygon","coordinates":[]}},{"type":"Feature","properties":{"fid":67,"objectid":1931,"lccode":"06","liqcode":"2010600060000000","mappers":"PJDelosReyes, ACPidlaoan","project":"READY","province":"Cagayan","otherinfo":null,"datemapped":2012,"publishdate":null,"globalid":"{5942F6C7-E5B3-4D1E-B486-921A1828B34C}","st_area(shape)":0.07051556894172502,"st_perimeter(shape)":22.109814549125648,"liqcodepk":"201060006000000000130","creator":"SNOOPYPC","createdate":"2019-02-19T15:21:28","editor":"LENOVO","modifydate":"2019-03-10T17:50:55","codemove":"na"},"geometry":{"type":"Polygon","coordinates":[]}}]}