{"type":"FeatureCollection","features":[{"type":"Feature","properties":{"fid":26,"objectid":1872,"lccode":"07","liqcode":"2010600070000000","mappers":"PJDelosReyes, ACPidlaoan","project":"READY","province":"Cagayan","otherinfo":null,"datemapped":2012,"publishdate":null,"globalid":"{DED92A0E-07A3-4F4C-B4F3-8B0691B82188}","st_area(shape)":0.05559407556334115,"st_perimeter(shape)":12.110269661988962,"liqcodepk":"201060007000000000065","creator":"SNOOPYPC","createdate":"2019-02-19T15:21:28","editor":"LENOVO","modifydate":"2019-03-10T17:50:55","codemove":"na"},"geometry":{"type":"MultiPolygon","coordinates":[[[[121.72053898500008,17.81983096400006],[121.71889063600007,17.82310989500007],[121.71676914500007,17.825395196000045],[121.71387116000007,17.82781693700002],[121.71178930000008,17.829713391000034],[121.71119001500007,17.83087675500008],[121.70987120500001,17.834511484000075],[121.70884648200001,17.838325049000044],[121.70784973200011,17.843376849000038],[121.70698517800007,17.845458104000045],[121.70636790700007,17.84909753100004],[121.70491004200005,17.851493229000027],[121.70304896800006,17.85346177300005],[121.70126888500012,17.85444033800007],[121.69779305900012,17.85494778800006],[121.68992057500009,17.855602510000036],[121.68814844600001,17.85548453200005],[121.6855671300001,17.854901121000072],[121.67804925700013,17.85255113500006],[121.67127214200002,17.849958270000062],[121.66651289200001,17.849218288000028],[121.66540379000001,17.849352191000037],[121.66248947400004,17.84887245500005],[121.66097838000007,17.848437547000056],[121.65725998000006,17.84682024800002],[121.65520416900006,17.84514360200006],[121.65304566500004,17.842405003000067],[121.64428147,17.834067138000023],[121.64317995700004,17.833210582000053],[121.639389562,17.831415568000065],[121.63846498800002,17.831586025000032],[121.63686701300004,17.832883650000042],[121.63502884600007,17.83662022400006],[121.63413229400008,17.83795814000007],[121.63184003700007,17.843106425000023],[121.63148954600003,17.845491999999997],[121.63221705900003,17.84694735200003],[121.63306031600007,17.84776683600006],[121.63479083000004,17.848486369000053],[121.63637649200007,17.848815839000054],[121.63781233100009,17.84942721900006],[121.63924145600004,17.850922861000072],[121.64284021800005,17.858553007000072],[121.64423337800008,17.859942209000053],[121.6473171990001,17.862439684000037],[121.65033107900001,17.864441437000036],[121.65246116200001,17.86608332900005],[121.65341248000004,17.86729251800006],[121.6542492750001,17.868996198000048],[121.65437097900009,17.872378776000062],[121.65393874800009,17.875873682000076],[121.65364921512734,17.876611303274828],[121.65493592162736,17.877361898661384],[121.65910767389018,17.879286474456833],[121.65940506109037,17.879390674575408],[121.65990810100004,17.87791374100004],[121.6599595780001,17.875968548000056],[121.66095499600011,17.87130621800003],[121.66094407800006,17.86782154200006],[121.66069768900002,17.866192776000048],[121.6591900750001,17.860345856000034],[121.65581980900004,17.856608551000022],[121.65221883800007,17.854107636000034],[121.6474075980001,17.850466310000055],[121.645573516,17.84879110300005],[121.64373330300009,17.847929416000053],[121.6423316490001,17.84767202800003],[121.6399043010001,17.84631093800004],[121.6384358250001,17.845133411000063],[121.63745080300009,17.84353479800006],[121.63698366100004,17.84194274200007],[121.63706793900006,17.840472761000054],[121.63845623700001,17.837617263000027],[121.63953154300009,17.837058823000067],[121.64019439100004,17.83731108300003],[121.64199223600009,17.838879922000043],[121.64554089500007,17.843361600000037],[121.64645322600008,17.844818188000033],[121.64942184900008,17.847880758000027],[121.65162424100004,17.849699960000066],[121.65533626000001,17.852166321000027],[121.65780157100004,17.85342133300003],[121.6642880810001,17.85534066300005],[121.67225010800007,17.857552714000064],[121.68043448200001,17.85969530300002],[121.68865370300011,17.862156093000067],[121.69555166100008,17.863475732000037],[121.69776383500005,17.864056464000043],[121.69931058500003,17.864703567000053],[121.70140419600013,17.86634470700005],[121.70254462800006,17.866988989000042],[121.704095014,17.867140786000054],[121.70686643500005,17.867017701000066],[121.7091993900001,17.86621956500005],[121.70986840700003,17.865658046000075],[121.71061738900003,17.86424804000006],[121.711340102,17.861352242000066],[121.71229865600003,17.856476995000037],[121.71311252000011,17.851176413000076],[121.713455855,17.849657643000054],[121.71525334900002,17.84623828000002],[121.71798523300004,17.841268580000072],[121.72027126800003,17.836649628000032],[121.72132688800002,17.833649791000028],[121.72216031300002,17.83071923500006],[121.723109576448,17.826418834791966],[121.72271168680508,17.824852106350033],[121.72118189554328,17.820667079423007],[121.7205860852879,17.819438812881064],[121.72053898500008,17.81983096400006]]],[[[121.6707068930001,17.793094111000077],[121.67111873400007,17.79722964000007],[121.6717189310001,17.798346451000047],[121.67308863300003,17.800104176000048],[121.67473457900009,17.801916800000072],[121.67582897600005,17.803513719000023],[121.67758637500003,17.805221097000075],[121.67934802100001,17.806345649000036],[121.68132554700003,17.808213497000054],[121.6838008940001,17.810084589000038],[121.6857761000001,17.812270229000035],[121.6876501170001,17.813183509000055],[121.68974694300003,17.81388639700003],[121.693892204,17.81433796700003],[121.69450339700008,17.81397116600004],[121.69838327800005,17.812884387000047],[121.70126945700008,17.81152602600002],[121.70294721600011,17.808993914000045],[121.70385359500006,17.806032754000057],[121.70508528500011,17.803974527000037],[121.70597295700009,17.803609517000037],[121.70869951051557,17.803862181843236],[121.70765342369809,17.802941289181188],[121.7039546647399,17.800275358544386],[121.70000104281512,17.797969486381916],[121.69583062008357,17.796045864531337],[121.6914835408792,17.794523004870054],[121.68943596217943,17.794017077439282],[121.68861566900011,17.79457455600004],[121.68783482800006,17.795470012000063],[121.68626885500011,17.797843817000057],[121.68499016100009,17.798735917000045],[121.68289314200001,17.79808602100007],[121.68142363800007,17.794844066000053],[121.68138083300005,17.79321796400006],[121.6816003193636,17.79268964372057],[121.67780682774708,17.792485446367564],[121.6731823916316,17.79267172118804],[121.670711066876,17.793005782772838],[121.6707068930001,17.793094111000077]]],[[[121.67550438100012,17.881964003000064],[121.67325563900012,17.881312020000053],[121.67048777000004,17.880939439000027],[121.66697704900002,17.881092352000053],[121.66599745524061,17.88143814375723],[121.66794029248321,17.88191826836921],[121.67251604323306,17.882600119269462],[121.67671873714608,17.882826476831564],[121.67550438100012,17.881964003000064]]]]}},{"type":"Feature","properties":{"fid":53,"objectid":1902,"lccode":"05","liqcode":"2010600050000000","mappers":"PJDelosReyes, ACPidlaoan","project":"READY","province":"Cagayan","otherinfo":null,"datemapped":2012,"publishdate":null,"globalid":"{C3D84E80-F2D4-4567-B477-D6223763EFE3}","st_area(shape)":0.07022270502489089,"st_perimeter(shape)":22.490008235492827,"liqcodepk":"201060005000000000097","creator":"SNOOPYPC","createdate":"2019-02-19T15:21:28","editor":"LENOVO","modifydate":"2019-03-10T17:50:55","codemove":"na"},"geometry":{"type":"MultiPolygon","coordinates":[[[[121.72342472600006,17.833904931000056],[121.72272944000008,17.836493155000024],[121.72152145300004,17.841621006000025],[121.72145694000005,17.84336569000004],[121.72046142800002,17.84789662100007],[121.71978549800008,17.851407334000037],[121.71930765200011,17.852700625000065],[121.71979569000008,17.853626299000037],[121.72108974000002,17.854681849000034],[121.72112806261056,17.854742489901593],[121.722524604119,17.851083772491556],[121.72368027398383,17.84679000323616],[121.72439087100133,17.842408420136124],[121.7246495831091,17.837981227062627],[121.72445395192582,17.83355106418845],[121.72426094851976,17.832243518701453],[121.72342472600006,17.833904931000056]]],[[[121.64741656400008,17.80376704300005],[121.64480005200005,17.805666381000037],[121.64379058409824,17.806081138676422],[121.64122419730097,17.808754328466748],[121.63843982204759,17.812296471918263],[121.63603120084284,17.81608294237187],[121.63402154326448,17.820077289098244],[121.63275201050556,17.823399102335415],[121.63425800500012,17.823169503000024],[121.63633433900009,17.822161363000077],[121.63680675900002,17.821461667000047],[121.63828047700008,17.820704892000037],[121.64028419800003,17.820463252000017],[121.64161673000001,17.820728113000033],[121.64467351500001,17.822411194000036],[121.64566669200008,17.823440727000047],[121.64705394400005,17.825303823000073],[121.64970040700005,17.828326107000066],[121.65207955000005,17.831410482000024],[121.65465271300002,17.835327098000047],[121.65617693100012,17.83674367900005],[121.6571779200001,17.83675056600003],[121.65745108300007,17.835921514000063],[121.65787443200009,17.832856568000064],[121.65911671000003,17.82736841400003],[121.65999848400007,17.825457007000065],[121.66121294900006,17.82367562600006],[121.66355797900009,17.822413433000065],[121.6655597240001,17.822427115000032],[121.66827742400004,17.824874403000024],[121.6710710310001,17.82610780000005],[121.67186603200003,17.826880265000057],[121.6723889870001,17.828353880000062],[121.67289111900004,17.832639630000077],[121.67354231700006,17.834817116000067],[121.67446425100002,17.836485156000037],[121.67552719400011,17.837131585000062],[121.67699814800007,17.836758028000073],[121.67841790400006,17.83427492500005],[121.67962896100006,17.832940897000068],[121.68083576400011,17.832182083000077],[121.68237389,17.83174505900007],[121.68624325700011,17.831898970000058],[121.68764505700005,17.831844428000068],[121.68912202600006,17.83063996600003],[121.69006605400011,17.829304075000035],[121.69047442500005,17.828220276000025],[121.68981922000012,17.82655409400007],[121.68896299700009,17.825014313000057],[121.68710867100005,17.82308438400003],[121.68439017300011,17.82070121600003],[121.68280238200009,17.818837012000078],[121.68016070899999,17.815112086000052],[121.67433760100005,17.80848933000004],[121.6720227070001,17.805725305000063],[121.66605499900005,17.80069925600003],[121.66340148000005,17.79863583200006],[121.661005842,17.797788604000065],[121.65779868700008,17.79840575000003],[121.65324209430099,17.798963731429694],[121.65230601584784,17.7994924781281],[121.64741656400008,17.80376704300005]]],[[[121.64034335100006,17.86539559200002],[121.63981871400006,17.864177576000024],[121.637778894,17.86032846100005],[121.63626731400007,17.857249980000066],[121.63554098300006,17.85622235200003],[121.63346804403665,17.85386360544764],[121.63375779264081,17.8546573574837],[121.63570677817174,17.85867936407798],[121.638058136426,17.862499041344094],[121.64036561290702,17.865524214768406],[121.64034335100006,17.86539559200002]]]]}},{"type":"Feature","properties":{"fid":67,"objectid":1931,"lccode":"06","liqcode":"2010600060000000","mappers":"PJDelosReyes, ACPidlaoan","project":"READY","province":"Cagayan","otherinfo":null,"datemapped":2012,"publishdate":null,"globalid":"{5942F6C7-E5B3-4D1E-B486-921A1828B34C}","st_area(shape)":0.07051556894172502,"st_perimeter(shape)":22.109814549125648,"liqcodepk":"201060006000000000130","creator":"SNOOPYPC","createdate":"2019-02-19T15:21:28","editor":"LENOVO","modifydate":"2019-03-10T17:50:55","codemove":"na"},"geometry":{"type":"MultiPolygon","coordinates":[[[[121.68138083300005,17.79321796400006],[121.68142363800007,17.794844066000053],[121.68289314200001,17.79808602100007],[121.68499016100009,17.798735917000045],[121.68626885500011,17.797843817000057],[121.68783482800006,17.795470012000063],[121.68861566900011,17.79457455600004],[121.68943596217943,17.794017077439282],[121.68700164583151,17.793415561556476],[121.6824280698413,17.792734190352846],[121.6816003193636,17.79268964372057],[121.68138083300005,17.79321796400006]]],[[[121.65393874800009,17.875873682000076],[121.65437097900009,17.872378776000062],[121.6542492750001,17.868996198000048],[121.65341248000004,17.86729251800006],[121.65246116200001,17.86608332900005],[121.65033107900001,17.864441437000036],[121.6473171990001,17.862439684000037],[121.64423337800008,17.859942209000053],[121.64284021800005,17.858553007000072],[121.63924145600004,17.850922861000072],[121.63781233100009,17.84942721900006],[121.63637649200007,17.848815839000054],[121.63479083000004,17.848486369000053],[121.63306031600007,17.84776683600006],[121.63221705900003,17.84694735200003],[121.63148954600003,17.845491999999997],[121.63184003700007,17.843106425000023],[121.63413229400008,17.83795814000007],[121.63502884600007,17.83662022400006],[121.63686701300004,17.832883650000042],[121.63846498800002,17.831586025000032],[121.639389562,17.831415568000065],[121.64317995700004,17.833210582000053],[121.64428147,17.834067138000023],[121.65304566500004,17.842405003000067],[121.65520416900006,17.84514360200006],[121.65725998000006,17.84682024800002],[121.66097838000007,17.848437547000056],[121.66248947400004,17.84887245500005],[121.66540379000001,17.849352191000037],[121.66651289200001,17.849218288000028],[121.67127214200002,17.849958270000062],[121.67804925700013,17.85255113500006],[121.6855671300001,17.854901121000072],[121.68814844600001,17.85548453200005],[121.68992057500009,17.855602510000036],[121.69779305900012,17.85494778800006],[121.70126888500012,17.85444033800007],[121.70304896800006,17.85346177300005],[121.70491004200005,17.851493229000027],[121.70636790700007,17.84909753100004],[121.70698517800007,17.845458104000045],[121.70784973200011,17.843376849000038],[121.70884648200001,17.838325049000044],[121.70987120500001,17.834511484000075],[121.71119001500007,17.83087675500008],[121.71178930000008,17.829713391000034],[121.71387116000007,17.82781693700002],[121.71676914500007,17.825395196000045],[121.71889063600007,17.82310989500007],[121.72053898500008,17.81983096400006],[121.7205860852879,17.819438812881064],[121.71923128169574,17.816645812339807],[121.71687865406052,17.812827021429246],[121.71414668787479,17.80924747097441],[121.71106170574863,17.80594161964282],[121.70869951051557,17.803862181843236],[121.70597295700009,17.803609517000037],[121.70508528500011,17.803974527000037],[121.70385359500006,17.806032754000057],[121.70294721600011,17.808993914000045],[121.70126945700008,17.81152602600002],[121.69838327800005,17.812884387000047],[121.69450339700008,17.81397116600004],[121.693892204,17.81433796700003],[121.68974694300003,17.81388639700003],[121.6876501170001,17.813183509000055],[121.6857761000001,17.812270229000035],[121.6838008940001,17.810084589000038],[121.68132554700003,17.808213497000054],[121.67934802100001,17.806345649000036],[121.67758637500003,17.805221097000075],[121.67582897600005,17.803513719000023],[121.67473457900009,17.801916800000072],[121.67308863300003,17.800104176000048],[121.6717189310001,17.798346451000047],[121.67111873400007,17.79722964000007],[121.6707068930001,17.793094111000077],[121.670711066876,17.793005782772838],[121.66859926379342,17.79329121999957],[121.66410154944867,17.79433797890498],[121.65973253322876,17.795801922276745],[121.65553426350517,17.79766895959236],[121.65324209430099,17.798963731429694],[121.65779868700008,17.79840575000003],[121.661005842,17.797788604000065],[121.66340148000005,17.79863583200006],[121.66605499900005,17.80069925600003],[121.6720227070001,17.805725305000063],[121.67433760100005,17.80848933000004],[121.68016070899999,17.815112086000052],[121.68280238200009,17.818837012000078],[121.68439017300011,17.82070121600003],[121.68710867100005,17.82308438400003],[121.68896299700009,17.825014313000057],[121.68981922000012,17.82655409400007],[121.69047442500005,17.828220276000025],[121.69006605400011,17.829304075000035],[121.68912202600006,17.83063996600003],[121.68764505700005,17.831844428000068],[121.68624325700011,17.831898970000058],[121.68237389,17.83174505900007],[121.68083576400011,17.832182083000077],[121.67962896100006,17.832940897000068],[121.67841790400006,17.83427492500005],[121.67699814800007,17.836758028000073],[121.67552719400011,17.837131585000062],[121.67446425100002,17.836485156000037],[121.67354231700006,17.834817116000067],[121.67289111900004,17.832639630000077],[121.6723889870001,17.828353880000062],[121.67186603200003,17.826880265000057],[121.6710710310001,17.82610780000005],[121.66827742400004,17.824874403000024],[121.6655597240001,17.822427115000032],[121.66355797900009,17.822413433000065],[121.66121294900006,17.82367562600006],[121.65999848400007,17.825457007000065],[121.65911671000003,17.82736841400003],[121.65787443200009,17.832856568000064],[121.65745108300007,17.835921514000063],[121.6571779200001,17.83675056600003],[121.65617693100012,17.83674367900005],[121.65465271300002,17.835327098000047],[121.65207955000005,17.831410482000024],[121.64970040700005,17.828326107000066],[121.64705394400005,17.825303823000073],[121.64566669200008,17.823440727000047],[121.64467351500001,17.822411194000036],[121.64161673000001,17.820728113000033],[121.64028419800003,17.820463252000017],[121.63828047700008,17.820704892000037],[121.63680675900002,17.821461667000047],[121.63633433900009,17.822161363000077],[121.63425800500012,17.823169503000024],[121.63275201050556,17.823399102335415],[121.63243022242958,17.824241058109866],[121.63127258769619,17.82853416196447],[121.63055981592112,17.832915265368573],[121.63029880274131,17.837342182885394],[121.630492094967,17.841772284931633],[121.63113786478293,17.846162908163887],[121.632229926056,17.850471766309013],[121.63346804403665,17.85386360544764],[121.63554098300006,17.85622235200003],[121.63626731400007,17.857249980000066],[121.637778894,17.86032846100005],[121.63981871400006,17.864177576000024],[121.64034335100006,17.86539559200002],[121.64036561290702,17.865524214768406],[121.64078924094817,17.866079590936877],[121.64387380224144,17.869386515792527],[121.64728212046236,17.87238795290943],[121.6509813712043,17.87505498080456],[121.65364921512734,17.876611303274828],[121.65393874800009,17.875873682000076]]],[[[121.64480005200005,17.805666381000037],[121.64741656400008,17.80376704300005],[121.65230601584784,17.7994924781281],[121.65154714849965,17.799921120827758],[121.64780956802875,17.80253672911638],[121.64435750458802,17.805490609026144],[121.64379058409824,17.806081138676422],[121.64480005200005,17.805666381000037]]],[[[121.72108974000002,17.854681849000034],[121.71979569000008,17.853626299000037],[121.71930765200011,17.852700625000065],[121.71978549800008,17.851407334000037],[121.72046142800002,17.84789662100007],[121.72145694000005,17.84336569000004],[121.72152145300004,17.841621006000025],[121.72272944000008,17.836493155000024],[121.72342472600006,17.833904931000056],[121.72426094851976,17.832243518701453],[121.72380589515129,17.829160597194583],[121.723109576448,17.826418834791966],[121.72216031300002,17.83071923500006],[121.72132688800002,17.833649791000028],[121.72027126800003,17.836649628000032],[121.71798523300004,17.841268580000072],[121.71525334900002,17.84623828000002],[121.713455855,17.849657643000054],[121.71311252000011,17.851176413000076],[121.71229865600003,17.856476995000037],[121.711340102,17.861352242000066],[121.71061738900003,17.86424804000006],[121.70986840700003,17.865658046000075],[121.7091993900001,17.86621956500005],[121.70686643500005,17.867017701000066],[121.704095014,17.867140786000054],[121.70254462800006,17.866988989000042],[121.70140419600013,17.86634470700005],[121.69931058500003,17.864703567000053],[121.69776383500005,17.864056464000043],[121.69555166100008,17.863475732000037],[121.68865370300011,17.862156093000067],[121.68043448200001,17.85969530300002],[121.67225010800007,17.857552714000064],[121.6642880810001,17.85534066300005],[121.65780157100004,17.85342133300003],[121.65533626000001,17.852166321000027],[121.65162424100004,17.849699960000066],[121.64942184900008,17.847880758000027],[121.64645322600008,17.844818188000033],[121.64554089500007,17.843361600000037],[121.64199223600009,17.838879922000043],[121.64019439100004,17.83731108300003],[121.63953154300009,17.837058823000067],[121.63845623700001,17.837617263000027],[121.63706793900006,17.840472761000054],[121.63698366100004,17.84194274200007],[121.63745080300009,17.84353479800006],[121.6384358250001,17.845133411000063],[121.6399043010001,17.84631093800004],[121.6423316490001,17.84767202800003],[121.64373330300009,17.847929416000053],[121.645573516,17.84879110300005],[121.6474075980001,17.850466310000055],[121.65221883800007,17.854107636000034],[121.65581980900004,17.856608551000022],[121.6591900750001,17.860345856000034],[121.66069768900002,17.866192776000048],[121.66094407800006,17.86782154200006],[121.66095499600011,17.87130621800003],[121.6599595780001,17.875968548000056],[121.65990810100004,17.87791374100004],[121.65940506109037,17.879390674575408],[121.66345643256565,17.880810159653887],[121.66599745524061,17.88143814375723],[121.66697704900002,17.881092352000053],[121.67048777000004,17.880939439000027],[121.67325563900012,17.881312020000053],[121.67550438100012,17.881964003000064],[121.67671873714608,17.882826476831564],[121.67713958640184,17.88284913881175],[121.68176636147763,17.88266292481916],[121.68635177627672,17.8820432697688],[121.69085163769633,17.88099614356203],[121.69522257859398,17.87953163594162],[121.69942247663394,17.877663859113888],[121.70341086101917,17.87541081152199],[121.70714930315158,17.872794204094724],[121.71060178742262,17.869839250660558],[121.71373505853663,17.866574424564735],[121.7165189420039,17.863031183855345],[121.71892663470865,17.859243667708167],[121.72093496275498,17.855248367037902],[121.72112806261056,17.854742489901593],[121.72108974000002,17.854681849000034]]]]}}]}