{"type":"FeatureCollection","features":[{"type":"Feature","properties":{"fid":183,"objectid":9622,"lccode":"07","liqcode":null,"mappers":"DJLBuhay, MITAbigania, CJMLegaspi, JKAMarquez, BDBBrusas, HALVidal, EMAACortes","project":"LiquePhi","province":"Albay","otherinfo":null,"datemapped":2024,"publishdate":null,"globalid":"{8E5ED226-E547-4B83-B774-07D16C659D39}","st_area(shape)":0.007338373366357547,"st_perimeter(shape)":4.710497907819426,"liqcodepk":null,"creator":null,"createdate":null,"editor":null,"modifydate":null,"codemove":null},"geometry":{"type":"MultiPolygon","coordinates":[[[[123.32768714573388,13.201755190850955],[123.3258972614566,13.200707156210338],[123.32469174400002,13.202198723000038],[123.32530287800012,13.203892326000071],[123.32699321400004,13.203591958000061],[123.327113326,13.203436819000045],[123.327400194,13.202228815000066],[123.32754850100002,13.202212640000026],[123.32763386400006,13.202217661000075],[123.32763622200002,13.201854991000063],[123.32763177600009,13.201814983000077],[123.32763439400004,13.201794042000074],[123.32768714573388,13.201755190850955]]],[[[123.30645639200007,13.234099547000026],[123.30656162600009,13.233800463000023],[123.30623221700012,13.233363599000029],[123.30500017100007,13.235375350000027],[123.30209128000001,13.238962388000058],[123.30133461200012,13.239504905000045],[123.30073498700006,13.240846921000069],[123.29822227700004,13.245187058000054],[123.29693736800004,13.246514797000028],[123.29523843200002,13.249056061000031],[123.2939678,13.251226130000076],[123.29126949100011,13.254267081000023],[123.28929929800005,13.255380669000033],[123.2871720600001,13.257036774000023],[123.28587287400002,13.257593567000068],[123.28410255500013,13.25755073700003],[123.28154701400001,13.257907656000043],[123.28090455900006,13.258264575000053],[123.28191971900003,13.260312715000051],[123.28278031000004,13.26024539000002],[123.28337681900007,13.261091375000031],[123.28453680700012,13.260258564000024],[123.28874845300004,13.25774228400007],[123.2898905940001,13.256861883000054],[123.29091376200005,13.256576348000065],[123.29286492000006,13.254458628000066],[123.29343599100004,13.253245102000049],[123.29479228300012,13.251531890000024],[123.2954585330001,13.25029457100004],[123.29662446800012,13.248914483000021],[123.2971955390001,13.247534396000047],[123.29805214500003,13.246582612000052],[123.29800495000006,13.24594307800004],[123.30062196300003,13.24291824200003],[123.30133173800004,13.241669969000041],[123.3034190190001,13.24043765400006],[123.30402459200002,13.24032462900004],[123.30457186800004,13.241205030000058],[123.30464320300007,13.242557327000043],[123.30515009300008,13.24316347000007],[123.30607808300012,13.243163470000068],[123.30631602900007,13.242045123000024],[123.30593531500004,13.239998787000046],[123.305507012,13.238761467000076],[123.30584570900008,13.236342609000078],[123.3061651480001,13.235169295000045],[123.30645639200007,13.234099547000026]]]]}},{"type":"Feature","properties":{"fid":184,"objectid":9623,"lccode":"05","liqcode":null,"mappers":"DJLBuhay, MITAbigania, CJMLegaspi, JKAMarquez, BDBBrusas, HALVidal, EMAACortes","project":"LiquePhi","province":"Albay","otherinfo":null,"datemapped":2024,"publishdate":null,"globalid":"{55CC64ED-DF56-457A-ADBC-2E45CE875F47}","st_area(shape)":0.017499136663310114,"st_perimeter(shape)":9.399156011576952,"liqcodepk":null,"creator":null,"createdate":null,"editor":null,"modifydate":null,"codemove":null},"geometry":{"type":"MultiPolygon","coordinates":[[[[123.32696874100009,13.203610313000071],[123.32836790571166,13.20215401449307],[123.32836630632292,13.202152855455365],[123.3281648844329,13.20203491849704],[123.32730183000002,13.202678781000031],[123.32696874100009,13.203610313000071]]],[[[123.31476418800004,13.241791668000076],[123.3151211070001,13.24025691600002],[123.31497833900006,13.239650153000067],[123.31312236000008,13.237651406000053],[123.31269405700004,13.236866184000064],[123.31187314300007,13.236794800000041],[123.31212298600008,13.23790125000005],[123.31094957500011,13.238375581000069],[123.31044394000003,13.236817034000065],[123.30943266900009,13.237263183000039],[123.30794013700006,13.236954532000025],[123.30794010800003,13.236957437000058],[123.30795070300009,13.237493071000072],[123.30756998900006,13.23944422900007],[123.30768896200004,13.240919494000027],[123.3084979790001,13.243156188000055],[123.30864074700004,13.244988373000067],[123.30818864900004,13.246344665000038],[123.30662254200001,13.246526212000047],[123.30599897800005,13.246690359000068],[123.30573780400006,13.246796763000079],[123.30654757200011,13.248416906000045],[123.30814181100004,13.249725610000041],[123.3102833260001,13.248654852000074],[123.31104475400002,13.247607889000049],[123.31180618100008,13.243515216000048],[123.31274402600002,13.242398431000025],[123.31476418800004,13.241791668000076]]]]}},{"type":"Feature","properties":{"fid":185,"objectid":9624,"lccode":"06","liqcode":null,"mappers":"DJLBuhay, MITAbigania, CJMLegaspi, JKAMarquez, BDBBrusas, HALVidal, EMAACortes","project":"LiquePhi","province":"Albay","otherinfo":null,"datemapped":2024,"publishdate":null,"globalid":"{B1E6E99D-58E5-41F1-B1D1-4A852A7E4988}","st_area(shape)":0.006334232450352406,"st_perimeter(shape)":4.633656865648006,"liqcodepk":null,"creator":null,"createdate":null,"editor":null,"modifydate":null,"codemove":null},"geometry":{"type":"MultiPolygon","coordinates":[[[[123.32763439400004,13.201794042000074],[123.32763177600009,13.201814983000077],[123.32763622200002,13.201854991000063],[123.32763386400006,13.202217661000075],[123.32754850100002,13.202212640000026],[123.327400194,13.202228815000066],[123.32727655146982,13.202749476354693],[123.32730183000002,13.202678781000031],[123.3281648844329,13.20203491849704],[123.32768714573388,13.201755190850955],[123.32763439400004,13.201794042000074]]],[[[123.32696874100009,13.203610313000071],[123.32699321400004,13.203591958000061],[123.327113326,13.203436819000045],[123.32727655146982,13.202749476354693],[123.32696874100009,13.203610313000071]]],[[[123.30593531500004,13.239998787000046],[123.30631602900007,13.242045123000024],[123.30607808300012,13.243163470000068],[123.30515009300008,13.24316347000007],[123.30464320300007,13.242557327000043],[123.30448979200003,13.243124209000031],[123.3057984960001,13.24458162900004],[123.30547132000002,13.245890332000046],[123.30573780400006,13.246796763000079],[123.30599897800005,13.246690359000068],[123.30662254200001,13.246526212000047],[123.30818864900004,13.246344665000038],[123.30864074700004,13.244988373000067],[123.3084979790001,13.243156188000055],[123.30768896200004,13.240919494000027],[123.30756998900006,13.23944422900007],[123.30795070300009,13.237493071000072],[123.30794010800003,13.236957437000058],[123.30794013700006,13.236954532000025],[123.30796975400006,13.233933541000054],[123.30656162600009,13.233800463000023],[123.30645639200007,13.234099547000026],[123.3061651480001,13.235169295000045],[123.30584570900008,13.236342609000078],[123.305507012,13.238761467000076],[123.30593531500004,13.239998787000046]]]]}},{"type":"Feature","properties":{"fid":186,"objectid":9626,"lccode":"01","liqcode":"2010600010000000","mappers":"DJLBuhay, MJVReyes, MITAbigania, KLPapiona, KMVitto","project":"MELP","province":"Camarines Sur","otherinfo":"hazard boundary with Albay updated on 2024","datemapped":2017,"publishdate":null,"globalid":"{FACCEE19-027B-4BCC-AA3E-C446A7485A33}","st_area(shape)":0.06258623447864109,"st_perimeter(shape)":16.64832304604979,"liqcodepk":"201060001000000000012","creator":"SNOOPYPC","createdate":"2019-02-19T15:21:28","editor":"LENOVO","modifydate":"2019-03-10T17:53:06","codemove":"na"},"geometry":{"type":"Polygon","coordinates":[[[123.26945611300005,13.268070172000021],[123.27173609100011,13.267692362000048],[123.2728055660001,13.26696147000007],[123.27304324500005,13.266267461000039],[123.27422674000002,13.265427429000056],[123.27551848600001,13.26519846800005],[123.27731384700009,13.264013295000037],[123.27609440100002,13.262260728000056],[123.27493938300006,13.26324210400003],[123.27185291500007,13.264629613000068],[123.26989048000007,13.264593234000072],[123.26851529900013,13.266205080000075],[123.26781964300007,13.266612530000033],[123.2659122323304,13.26689262771557],[123.26713131405323,13.26849912218769],[123.26840587707007,13.269873614546857],[123.26945611300005,13.268070172000021]]]}}]}