{"type":"FeatureCollection","features":[{"type":"Feature","properties":{"fid":51,"objectid":1900,"lccode":"05","liqcode":"2010600050000000","mappers":"PJDelosReyes, ACPidlaoan","project":"READY","province":"Benguet","otherinfo":null,"datemapped":2012,"publishdate":null,"globalid":"{5A5CFA38-5B6A-4649-8413-034F4C94D7CB}","st_area(shape)":0.0014452279046905973,"st_perimeter(shape)":1.1763118363297829,"liqcodepk":"201060005000000000094","creator":"SNOOPYPC","createdate":"2019-02-19T15:21:28","editor":"LENOVO","modifydate":"2019-03-10T17:50:55","codemove":"na"},"geometry":{"type":"Polygon","coordinates":[]}},{"type":"Feature","properties":{"fid":170,"objectid":9612,"lccode":"01","liqcode":"2010600010000000","mappers":"DJLBuhay, MJVReyes, MITAbigania, KLPapiona, KMVitto","project":"MELP","province":"La Union","otherinfo":"hazard boundary with Pangasinan updated on 2024","datemapped":2017,"publishdate":null,"globalid":"{556DE1FA-9488-4F33-9543-8B7DFFAA63AD}","st_area(shape)":0.022191914159391556,"st_perimeter(shape)":5.763901795210022,"liqcodepk":"201060001000000000017","creator":"SNOOPYPC","createdate":"2019-02-19T15:21:28","editor":"LENOVO","modifydate":"2019-03-10T17:53:06","codemove":"na"},"geometry":{"type":"MultiPolygon","coordinates":[[[[120.40007767100009,16.434558205000027],[120.40118583700009,16.434558198000047],[120.40249241200002,16.434161163000056],[120.40388954900004,16.43464502800003],[120.40409794400011,16.435594426000023],[120.40674495200005,16.436244093000024],[120.40669607800011,16.43481386300004],[120.40532629800009,16.43330045400006],[120.40494007900007,16.432177268000036],[120.4033075131578,16.43161444234388],[120.4001143656395,16.43234446469343],[120.39770039661991,16.43314443289333],[120.40007767100009,16.434558205000027]]],[[[120.39022484400004,16.514407181000024],[120.39071748300013,16.511884306000066],[120.38922994000006,16.510339827000053],[120.38748761800002,16.51059046400007],[120.38630380200004,16.51020285500005],[120.38609227300002,16.509354248000022],[120.3874522210001,16.508185420000075],[120.38795858200001,16.507214746000045],[120.38778055800005,16.505299210000032],[120.388353,16.503499918000045],[120.3882687900001,16.50216863800005],[120.3895615130001,16.50153292300007],[120.38861198500003,16.499934281000034],[120.38745268300012,16.49993890600007],[120.38713841300012,16.50120630700008],[120.38608089400009,16.50248352500006],[120.38709811900004,16.502908465000075],[120.38673603700012,16.50380813000004],[120.38571254300008,16.504370114000036],[120.38589554100008,16.50509498200006],[120.38548165300006,16.505906275000026],[120.38480230200003,16.50575871500007],[120.38442931100008,16.504850822000037],[120.3836698,16.50460505200005],[120.3822594390001,16.505051209000044],[120.38117138700011,16.50589589500004],[120.38092214900009,16.506658478000073],[120.3800319180001,16.507081546000048],[120.37986660579284,16.507474499961326],[120.38296601872895,16.510256150524704],[120.38661978463557,16.512941932269673],[120.38976111359375,16.51481211839482],[120.39022484400004,16.514407181000024]]],[[[120.40327915700004,16.51952185000005],[120.40330791600002,16.518474086000026],[120.40392625100003,16.51759175500007],[120.40491846400005,16.516971363000035],[120.40423908300012,16.51569000200004],[120.4046174030001,16.51499305300007],[120.40357368100001,16.51350213300003],[120.40341240700003,16.511365136000055],[120.40416234100007,16.51060510800005],[120.4036540510001,16.50848172700006],[120.40439833100005,16.507663697000055],[120.40508815200006,16.508238058000074],[120.4062318020001,16.50799439000002],[120.40759329000001,16.50726338200008],[120.40875509300008,16.506201676000046],[120.40910000300005,16.505331421000047],[120.4100439680001,16.50587097900007],[120.41134858700002,16.505835501000035],[120.41138657900001,16.506993114000068],[120.41006818600012,16.507880007000036],[120.41194588500002,16.508010014000035],[120.41402859100002,16.509395477000055],[120.41440095500002,16.51106300800006],[120.41547275600011,16.511745108000067],[120.41686048699998,16.51144923000004],[120.41791337100005,16.511658084000032],[120.41929301200003,16.511222969000073],[120.4208178790001,16.510422355000056],[120.42139878100011,16.51066602000003],[120.4215077,16.51174510600003],[120.42232459300008,16.512597928000044],[120.42424883000001,16.513276701000052],[120.42533802000001,16.512824185000056],[120.42570108300005,16.511344800000074],[120.42666320100011,16.510961898000065],[120.42834330000005,16.51158076200005],[120.42911981400003,16.510588104000025],[120.4305721820001,16.509664375000057],[120.43093167900008,16.50905774400007],[120.43058964900003,16.508114625000076],[120.42859188500007,16.507145358000063],[120.42592367200007,16.506630832000038],[120.42489908900006,16.50618113400003],[120.42523603000006,16.50472059100002],[120.42474954700003,16.504045457000075],[120.42237451200003,16.50469612900002],[120.42199329500012,16.504173972000046],[120.42097671800002,16.503999920000066],[120.42079518600009,16.502973007000037],[120.41931274600006,16.502176160000033],[120.41973542200003,16.50109196000006],[120.42141860800007,16.501184434000038],[120.42232066300006,16.500406940000058],[120.42429693300005,16.500813677000053],[120.42489780200003,16.499665960000073],[120.42611406500009,16.49888270400004],[120.42497661900006,16.498121604000065],[120.4244917310001,16.49732700100003],[120.42382209200002,16.49739044100005],[120.42331632000003,16.498172831000034],[120.42219803300009,16.498445812000057],[120.4210889310001,16.49802586500004],[120.41738238800008,16.49942228200007],[120.41563968300012,16.499091575000016],[120.41525846600008,16.498186476000054],[120.414514186,16.498238694000065],[120.41312170000003,16.498973841000062],[120.41206857800012,16.49879240900003],[120.41364166000004,16.497379397000035],[120.41325620600004,16.49656210700004],[120.41243041600002,16.496819537000025],[120.4118472020001,16.49783945700005],[120.41043709300004,16.49827338600005],[120.40740451500005,16.49751253100004],[120.4055646700001,16.498134261000075],[120.40620003100003,16.496811416000075],[120.40618187700012,16.49333020300003],[120.40659940000012,16.492703578000036],[120.40836025800003,16.49249470200004],[120.40944944900002,16.492825421000077],[120.4104115670001,16.492512108000028],[120.40946760100007,16.491293663000018],[120.40941314100009,16.48964004800007],[120.40874147400008,16.48965745500004],[120.4082331850001,16.490858503000023],[120.4077793560001,16.490997755000024],[120.40682367600006,16.48971436000005],[120.40668600900004,16.488428161000062],[120.40614556900005,16.487011641000038],[120.40540128900011,16.48692460700005],[120.40558282100004,16.48861305900004],[120.40493255900004,16.489899997000066],[120.40507539200007,16.490797926000027],[120.40438040800007,16.491834812000032],[120.40470419700011,16.49309345000006],[120.40405125000008,16.49370129700003],[120.39817893700003,16.494834501000067],[120.39767923300008,16.49515686800004],[120.39660111700005,16.49705522800002],[120.39698997000004,16.498075710000027],[120.39703509600008,16.499330883000024],[120.39755276200005,16.502294628000072],[120.39906531100007,16.502642054000038],[120.40022721400011,16.503474699000034],[120.40009124000005,16.504381108000075],[120.39915925700006,16.504996812000062],[120.39776105400006,16.50489575700004],[120.39709753700004,16.505425180000028],[120.39653785100006,16.50744947700002],[120.39601476200005,16.50859002700003],[120.39675736000004,16.509555178000028],[120.39687389900008,16.512728894000073],[120.39721030300008,16.513726640000073],[120.39705338600005,16.514673074000026],[120.39598809237258,16.517694310388972],[120.39896071082448,16.51876234927691],[120.40340208067101,16.519894496570593],[120.40344426655032,16.519901070457337],[120.40327915700004,16.51952185000005]]]]}}]}