{"type":"FeatureCollection","features":[{"type":"Feature","properties":{"fid":21,"objectid":1867,"lccode":"07","liqcode":"2010600070000000","mappers":"DJLBuhay","project":"Negros Occidental Multi-Hazard Mapping","province":"Negros Occidental","otherinfo":null,"datemapped":2018,"publishdate":null,"globalid":"{BDFFB75F-E1DC-47A8-B9CF-113E0CE8D2E7}","st_area(shape)":0.051419613090430895,"st_perimeter(shape)":11.901738684521376,"liqcodepk":"201060007000000000059","creator":"SNOOPYPC","createdate":"2019-02-19T15:21:28","editor":"LENOVO","modifydate":"2019-03-10T17:50:55","codemove":"na"},"geometry":{"type":"Polygon","coordinates":[[[123.03023728600012,10.856271211000033],[123.02930929600008,10.856271211000035],[123.02918686385274,10.856432306549772],[123.03077008938551,10.857370118366223],[123.03023728600012,10.856271211000033]]]}},{"type":"Feature","properties":{"fid":32,"objectid":1878,"lccode":"07","liqcode":"2010600070000000","mappers":"PJDelosReyes, ACPidlaoan","project":"READY","province":"Iloilo","otherinfo":null,"datemapped":2010,"publishdate":null,"globalid":"{2F92972A-C07C-4633-B325-DF2A08960C6C}","st_area(shape)":0.031106077518548395,"st_perimeter(shape)":5.287074988133156,"liqcodepk":"201060007000000000071","creator":"SNOOPYPC","createdate":"2019-02-19T15:21:28","editor":"LENOVO","modifydate":"2019-03-10T17:50:55","codemove":"na"},"geometry":{"type":"Polygon","coordinates":[]}},{"type":"Feature","properties":{"fid":46,"objectid":1895,"lccode":"05","liqcode":"2010600050000000","mappers":"DJLBuhay","project":"Negros Occidental Multi-Hazard Mapping","province":"Negros Occidental","otherinfo":null,"datemapped":2018,"publishdate":null,"globalid":"{149718D2-4D93-4457-9604-37CB70EA27A9}","st_area(shape)":0.01745435689673941,"st_perimeter(shape)":6.697527242466418,"liqcodepk":"201060005000000000089","creator":"SNOOPYPC","createdate":"2019-02-19T15:21:28","editor":"LENOVO","modifydate":"2019-03-10T17:50:55","codemove":"na"},"geometry":{"type":"MultiPolygon","coordinates":[[[[123.02670378700009,10.85288047900002],[123.02888099300004,10.852309409000043],[123.03013021000005,10.85116726800004],[123.03080835700008,10.849596823000068],[123.03009451900006,10.846884238000028],[123.02880961000007,10.844492879000029],[123.02895237700011,10.841958753000025],[123.02852407400007,10.840673844000037],[123.02763177600004,10.839460319000068],[123.0277031600001,10.838460946000053],[123.029166529,10.837996951000036],[123.03009451900006,10.839281860000026],[123.03109389200004,10.841244915000061],[123.03212895800004,10.841780294000046],[123.0335209420001,10.841637526000056],[123.03469877600003,10.841066456000021],[123.03626922,10.840709536000075],[123.0379729440001,10.839911940000036],[123.04119470400008,10.840031390000034],[123.04247961300007,10.840281233000042],[123.04344329500009,10.841137839000055],[123.04328495900008,10.839288961000024],[123.042013987,10.838547560000054],[123.04148441500001,10.837700246000058],[123.04184268000006,10.834601070000076],[123.04287774600004,10.832459555000067],[123.04413227400006,10.83176904100003],[123.04462664900008,10.830532191000028],[123.04555970200009,10.830009533000062],[123.04616140200007,10.828783288000066],[123.04694662400003,10.827926682000053],[123.04662539700008,10.827284227000062],[123.0448051090001,10.82664177300006],[123.04355589200009,10.82664177300006],[123.04173560400011,10.827391303000068],[123.04020085200013,10.82771253000004],[123.03855902400007,10.82674884800002],[123.03602489800005,10.826677465000047],[123.03523967600006,10.827212843000039],[123.03445445400007,10.827141460000064],[123.03352646400003,10.826391929000065],[123.03313385300008,10.825249788000063],[123.03399045900005,10.823750728000052],[123.03556090300003,10.82335811700005],[123.03634612500004,10.821787672000024],[123.03627474100006,10.820359996000036],[123.03791656900012,10.818111405000025],[123.03827348900008,10.81632680900003],[123.03802364500008,10.814649289000045],[123.03802364500008,10.81129424900007],[123.03841625600012,10.810045032000058],[123.04152145300009,10.806939836000026],[123.04212821500005,10.804905396000038],[123.0407005390001,10.804227250000055],[123.03984393300004,10.804762629000036],[123.03780949400006,10.804869705000042],[123.0369171960001,10.805654927000031],[123.03477568100004,10.805940462000024],[123.0330981610001,10.806868452000062],[123.03245570600005,10.808046285000042],[123.03109941400011,10.809331194000036],[123.03063541900009,10.810651795000068],[123.0288151310001,10.811472709000043],[123.02735176300007,10.81286469400004],[123.02570993400002,10.814078219000066],[123.02317580900001,10.814934825000021],[123.0186786270001,10.81621973400007],[123.01650142000004,10.816719420000027],[123.01246823400004,10.816683728000042],[123.01125470900001,10.81650526900006],[123.0087919670001,10.814827749000072],[123.00846991480174,10.813926004879772],[123.00845373196634,10.81403388068251],[123.00823359871849,10.818466277794315],[123.0084539802986,10.822898661732497],[123.00877170878262,10.825015772379942],[123.0107138090001,10.825611856000025],[123.01353347000008,10.825826008000034],[123.0144971520001,10.826682614000045],[123.01571067700002,10.826753998000074],[123.019030025,10.825040786000043],[123.02088600400009,10.823256190000052],[123.0221709130001,10.823077730000024],[123.023780095,10.823431290000032],[123.026132716,10.823077730000023],[123.02723916500008,10.82339895800004],[123.02752470100006,10.82400572000006],[123.02734624100003,10.826147235000064],[123.02657659700004,10.82740694800003],[123.02577579700005,10.828003215000022],[123.02177830200004,10.828645669000027],[123.0198509390001,10.831322563000072],[123.01763804000007,10.832750239000063],[123.01599621200013,10.83399945600007],[123.01567498500002,10.834998830000073],[123.01578206100011,10.839852930000063],[123.01617034958986,10.843891157958453],[123.0186181924196,10.847153421661021],[123.0216332424429,10.85044136346869],[123.02439348611718,10.852913962261786],[123.02670378700009,10.85288047900002]]],[[[123.01086209800008,10.804334326000061],[123.01282515300011,10.804441402000066],[123.01528789500001,10.805226624000058],[123.01717956700007,10.804726937000053],[123.01760787,10.804227250000052],[123.01903554600005,10.804120174000044],[123.02057029900004,10.803513412000028],[123.02253335400009,10.80369187100007],[123.02346134400013,10.80294234100006],[123.0242822580001,10.80322787600005],[123.02556716700008,10.80212142700003],[123.02535301500006,10.799872836000075],[123.02406810600009,10.798195316000031],[123.0222478190001,10.79737440200006],[123.0201776880001,10.797731322000061],[123.0194281570001,10.798195316000031],[123.01746510200006,10.801014978000069],[123.0166798800001,10.80133620500004],[123.01450267300005,10.801229129000035],[123.0115759360001,10.80258542200005],[123.01121429212868,10.802544091705753],[123.01048220707365,10.804567162901012],[123.01086209800008,10.804334326000061]]]]}},{"type":"Feature","properties":{"fid":59,"objectid":1908,"lccode":"05","liqcode":"2010600050000000","mappers":"PJDelosReyes, ACPidlaoan","project":"READY","province":"Iloilo","otherinfo":null,"datemapped":2010,"publishdate":null,"globalid":"{282D04BA-68E2-41E5-9B8A-0D8D85396F2D}","st_area(shape)":0.06128738608791496,"st_perimeter(shape)":10.692281506054618,"liqcodepk":"201060005000000000103","creator":"SNOOPYPC","createdate":"2019-02-19T15:21:28","editor":"LENOVO","modifydate":"2019-03-10T17:50:55","codemove":"na"},"geometry":{"type":"Polygon","coordinates":[]}},{"type":"Feature","properties":{"fid":61,"objectid":1925,"lccode":"06","liqcode":"2010600060000000","mappers":"DJLBuhay","project":"Negros Occidental Multi-Hazard Mapping","province":"Negros Occidental","otherinfo":null,"datemapped":2018,"publishdate":null,"globalid":"{E5539A65-5F4C-46A4-8778-850E85BFF908}","st_area(shape)":0.021565408471292534,"st_perimeter(shape)":8.733756823540528,"liqcodepk":"201060006000000000123","creator":"SNOOPYPC","createdate":"2019-02-19T15:21:28","editor":"LENOVO","modifydate":"2019-03-10T17:50:55","codemove":"na"},"geometry":{"type":"MultiPolygon","coordinates":[[[[123.02930929600008,10.856271211000035],[123.03023728600012,10.856271211000033],[123.03077008938551,10.857370118366223],[123.03241694709536,10.85834560729642],[123.03647558544866,10.860242524193573],[123.04070282251183,10.861737017714521],[123.04505793260238,10.862814689126148],[123.04770494843515,10.863202399396148],[123.04751217300007,10.862874216000025],[123.04604880500004,10.86130377100005],[123.04365744600011,10.856485363000049],[123.04258668900003,10.853951237000048],[123.0416586990001,10.852130949000072],[123.04169439100008,10.84991805100003],[123.04255099700003,10.848740217000055],[123.04344329500009,10.848097763000055],[123.04372883000008,10.846705778000056],[123.04396410500009,10.843633274000068],[123.04355037100005,10.842851051000023],[123.04344329500009,10.841137839000055],[123.04247961300007,10.840281233000042],[123.04119470400008,10.840031390000034],[123.0379729440001,10.839911940000036],[123.03626922,10.840709536000075],[123.03469877600003,10.841066456000021],[123.0335209420001,10.841637526000056],[123.03212895800004,10.841780294000046],[123.03109389200004,10.841244915000061],[123.03009451900006,10.839281860000026],[123.029166529,10.837996951000036],[123.0277031600001,10.838460946000053],[123.02763177600004,10.839460319000068],[123.02852407400007,10.840673844000037],[123.02895237700011,10.841958753000025],[123.02880961000007,10.844492879000029],[123.03009451900006,10.846884238000028],[123.03080835700008,10.849596823000068],[123.03013021000005,10.85116726800004],[123.02888099300004,10.852309409000043],[123.02670378700009,10.85288047900002],[123.02439348611718,10.852913962261786],[123.02495986024147,10.853421306415914],[123.02856600673798,10.856064542635586],[123.02918686385274,10.856432306549772],[123.02930929600008,10.856271211000035]]],[[[123.01578206100011,10.839852930000063],[123.01567498500002,10.834998830000073],[123.01599621200013,10.83399945600007],[123.01763804000007,10.832750239000063],[123.0198509390001,10.831322563000072],[123.02177830200004,10.828645669000027],[123.02577579700005,10.828003215000022],[123.02657659700004,10.82740694800003],[123.02734624100003,10.826147235000064],[123.02752470100006,10.82400572000006],[123.02723916500008,10.82339895800004],[123.026132716,10.823077730000023],[123.023780095,10.823431290000032],[123.0221709130001,10.823077730000024],[123.02088600400009,10.823256190000052],[123.019030025,10.825040786000043],[123.01571067700002,10.826753998000074],[123.0144971520001,10.826682614000045],[123.01353347000008,10.825826008000034],[123.0107138090001,10.825611856000025],[123.00877170878262,10.825015772379942],[123.00911277357312,10.827288345281499],[123.01020365253659,10.831593050647713],[123.01171612852026,10.835771316719617],[123.01363565054295,10.839782898528947],[123.01594374486447,10.843589155059602],[123.01617034958986,10.843891157958453],[123.01578206100011,10.839852930000063]]]]}},{"type":"Feature","properties":{"fid":73,"objectid":1937,"lccode":"06","liqcode":"2010600060000000","mappers":"PJDelosReyes, ACPidlaoan","project":"READY","province":"Iloilo","otherinfo":null,"datemapped":2010,"publishdate":null,"globalid":"{DBB85F45-4FB4-4F72-8BD3-A1308397A487}","st_area(shape)":0.017575391436836466,"st_perimeter(shape)":7.287100410898002,"liqcodepk":"201060006000000000136","creator":"SNOOPYPC","createdate":"2019-02-19T15:21:28","editor":"LENOVO","modifydate":"2019-03-10T17:50:55","codemove":"na"},"geometry":{"type":"Polygon","coordinates":[]}}]}