{"type":"FeatureCollection","features":[{"type":"Feature","properties":{"fid":32,"objectid":1878,"lccode":"07","liqcode":"2010600070000000","mappers":"PJDelosReyes, ACPidlaoan","project":"READY","province":"Iloilo","otherinfo":null,"datemapped":2010,"publishdate":null,"globalid":"{2F92972A-C07C-4633-B325-DF2A08960C6C}","st_area(shape)":0.031106077518548395,"st_perimeter(shape)":5.287074988133156,"liqcodepk":"201060007000000000071","creator":"SNOOPYPC","createdate":"2019-02-19T15:21:28","editor":"LENOVO","modifydate":"2019-03-10T17:50:55","codemove":"na"},"geometry":{"type":"Polygon","coordinates":[[[123.02156802500008,11.169614048000028],[123.02152779900008,11.171049002000073],[123.02189113600001,11.171766451000053],[123.02281963000009,11.17232444800004],[123.02395030600007,11.176469713000076],[123.02447516500001,11.177545838000071],[123.02609004700004,11.179379309000067],[123.02718004700013,11.179857529000062],[123.02726088400004,11.180893814000054],[123.02645365900004,11.182886903000052],[123.02657486300008,11.183484743000065],[123.02766489700004,11.184162244000047],[123.0289163020001,11.18364393400003],[123.02992558900007,11.184201901000053],[123.03028899200002,11.185198372000055],[123.03210565000008,11.185238058000037],[123.03315512300003,11.184400844000038],[123.03497172300001,11.184002070000076],[123.0372321960001,11.182327690000019],[123.03981597000006,11.183881840000026],[123.04062349000002,11.184639081000055],[123.0405025880001,11.186432830000056],[123.03876687200012,11.18738960200005],[123.0391303680001,11.18882450400002],[123.03989748000004,11.189502002000042],[123.04191598000011,11.189501726000062],[123.04365199400002,11.190019669000037],[123.04518600800009,11.189820158000032],[123.0452669120001,11.190856528000038],[123.04433841900004,11.190976201000066],[123.04292564600006,11.192331606000035],[123.042724012,11.19360717500007],[123.0431278860001,11.194643499000053],[123.04409691800004,11.195799273000036],[123.04385518800008,11.19914743100003],[123.04288655600011,11.200781803000044],[123.04312889500011,11.201459457000054],[123.04486499300003,11.202535367000051],[123.047368043,11.202415447000021],[123.04853867800011,11.201498411000044],[123.05047594100006,11.19818984400007],[123.05116191000002,11.196316247000029],[123.05261474600003,11.193565723000061],[123.05426960600005,11.191652162000024],[123.05552067600003,11.189459725000061],[123.05644916800009,11.189379802000078],[123.05745860500008,11.190336242000054],[123.058024165,11.192129773000032],[123.05846876900011,11.194880049000062],[123.06004356900009,11.196434219000025],[123.06060875800006,11.196673263000033],[123.06125504500004,11.198227613000027],[123.06060916400008,11.19862640100007],[123.05935805500008,11.200260883000052],[123.0594390210001,11.201337033000069],[123.06121539700007,11.201496083000052],[123.06254751200004,11.201097240000022],[123.06295111400006,11.20049930600004],[123.06262778700012,11.198904927000058],[123.06274849600005,11.19683223000004],[123.06363651100003,11.19635372600004],[123.06702759200006,11.19579501000004],[123.06755215500004,11.194758510000042],[123.06670415700012,11.193802069000071],[123.06690540300008,11.191290910000017],[123.06670332700003,11.190174914000067],[123.06585523700005,11.188740153000026],[123.06468447800012,11.188620785000067],[123.06468469900004,11.189617292000035],[123.0633527980001,11.19109240000006],[123.06181892600011,11.191929729000032],[123.0612132110001,11.191092846000059],[123.06153586500011,11.189936864000058],[123.06274659900009,11.18802334800006],[123.06266552300009,11.186468792000026],[123.0644817640001,11.184913923000067],[123.0656524540001,11.184794134000072],[123.06835754200004,11.185989229000029],[123.06908414500003,11.185989062000035],[123.06997205800008,11.184952564000069],[123.06997186700006,11.184155340000073],[123.07089999800007,11.182680297000047],[123.07182829600004,11.181922817000043],[123.0751380580001,11.180128273000037],[123.07711609600005,11.179888611000024],[123.07772132400011,11.178812288000072],[123.07929579200004,11.179090908000033],[123.0824845090001,11.177934130000041],[123.08409854500007,11.175302941000043],[123.08514796100006,11.174904077000065],[123.08455579200007,11.17412451000007],[123.0834406350001,11.17401031000003],[123.08240594300003,11.17451268900004],[123.08115746300005,11.17616905500006],[123.0796391030001,11.176610671000047],[123.07892034300006,11.175859625000045],[123.07646485300008,11.174400623000054],[123.07660453900006,11.172335441000028],[123.07589533300006,11.17133559000007],[123.07624932200008,11.169485440000074],[123.0772646050001,11.168457878000028],[123.07826019100004,11.168959593000066],[123.07923689000008,11.168933168000025],[123.08017695100011,11.167793336000043],[123.07999514700008,11.167276352000044],[123.0784133720001,11.16635877300007],[123.08030441000004,11.164976002000058],[123.08269842100003,11.16626265700006],[123.0838417330001,11.165956340000035],[123.08384757200008,11.165326901000071],[123.0811661050001,11.164686658000052],[123.079726144,11.162736163000032],[123.07921775900002,11.161510035000049],[123.0768183570001,11.160061513000073],[123.07683073400005,11.162127957000049],[123.0762112100001,11.163098870000052],[123.0752709520001,11.163478969000037],[123.07523908400003,11.164217595000023],[123.07436318200007,11.165557878000072],[123.0718309,11.166729734000054],[123.07084779900003,11.16677217400007],[123.06863595300001,11.167437445000077],[123.06128320300002,11.167618438000032],[123.05960894200008,11.168291016000067],[123.05929636300006,11.16938119800005],[123.05857884400007,11.169799218000039],[123.05810430400005,11.170718645000019],[123.05863451200001,11.172128429000052],[123.05739798000003,11.171954250000056],[123.05647069800011,11.172419543000046],[123.05520566100004,11.170848137000062],[123.05296174400007,11.170333954000057],[123.05265768100004,11.169990948000073],[123.04997958700007,11.170048584000028],[123.04928478100011,11.170363170000028],[123.04821372900007,11.171521169000073],[123.04634656300004,11.17103841900007],[123.04554679700003,11.171051488000048],[123.04183652100006,11.17191293600007],[123.03907275600011,11.172152810000055],[123.03603934800003,11.171777239000049],[123.03358759100003,11.169737027000052],[123.0322091390001,11.169320495000019],[123.03064152600008,11.170054184000037],[123.02788223100002,11.168799637000063],[123.02896188900002,11.167302849000064],[123.02812774900008,11.16596906800004],[123.02843518800012,11.16526665400005],[123.02782200700007,11.164262438000037],[123.02595834700001,11.16191490500006],[123.025569559,11.16046753100005],[123.0258477770001,11.160098301000062],[123.0258233645218,11.159695516285984],[123.02397803400503,11.162152866529462],[123.0232973082604,11.163274533582147],[123.02361701400002,11.163554094000062],[123.02316542700011,11.164195111000028],[123.02288647444367,11.163951480786576],[123.0216679142057,11.165959329010528],[123.02062496859376,11.168137137893776],[123.02156802500008,11.169614048000028]],[[123.04269918500006,11.181388862000063],[123.0436086730001,11.181152376000053],[123.04497312300009,11.181743062000068],[123.0454519340001,11.182428366000066],[123.04526076900005,11.18486256400007],[123.04463856000005,11.185406257000068],[123.04351354500011,11.184957402000066],[123.04246017700007,11.183752268000033],[123.04236432900008,11.183232282000063],[123.04269918500006,11.181388862000063]],[[123.02832928800001,11.166564281000035],[123.02820824000003,11.167540819000065],[123.02732018800009,11.16732163500006],[123.02756231100011,11.166384961000059],[123.02832928800001,11.166564281000035]]]}},{"type":"Feature","properties":{"fid":59,"objectid":1908,"lccode":"05","liqcode":"2010600050000000","mappers":"PJDelosReyes, ACPidlaoan","project":"READY","province":"Iloilo","otherinfo":null,"datemapped":2010,"publishdate":null,"globalid":"{282D04BA-68E2-41E5-9B8A-0D8D85396F2D}","st_area(shape)":0.06128738608791496,"st_perimeter(shape)":10.692281506054618,"liqcodepk":"201060005000000000103","creator":"SNOOPYPC","createdate":"2019-02-19T15:21:28","editor":"LENOVO","modifydate":"2019-03-10T17:50:55","codemove":"na"},"geometry":{"type":"MultiPolygon","coordinates":[[[[123.04544894300011,11.223742652000052],[123.04604290300006,11.221756693000033],[123.0455399220001,11.221034596000038],[123.0433455200001,11.220673881000037],[123.04174547600007,11.220899794000045],[123.04115120800009,11.221441485000069],[123.03758560500012,11.22392422200005],[123.03610170710569,11.224492965792324],[123.03662055476161,11.22487275799578],[123.04047637465884,11.22715365002094],[123.04210949309892,11.227915910563153],[123.04544894300011,11.223742652000052]]],[[[123.05180333600003,11.231086600000028],[123.0523968330001,11.229621080000072],[123.05273579400011,11.227569419000078],[123.0512935810001,11.226397302000064],[123.04951221900001,11.225769554000065],[123.04928935700003,11.224780049000058],[123.04869498900007,11.224689908000073],[123.04604374700011,11.227082448000035],[123.04444323717688,11.229005166626056],[123.04454014176001,11.229050395477524],[123.0487727069294,11.230544720159616],[123.05180337297048,11.231293609451315],[123.05180333600003,11.231086600000028]]],[[[123.02025759900005,11.20483450900002],[123.02098895000005,11.204022045000043],[123.02007456,11.202397370000028],[123.02007450100008,11.201539837000041],[123.02076014900001,11.20077249600007],[123.021857253,11.200366256000054],[123.02300014300012,11.201088255000057],[123.02418860500008,11.200230628000043],[123.02478284200004,11.199463285000038],[123.02624553900012,11.198425151000036],[123.02729694600009,11.198199371000042],[123.02894240400008,11.196258464000039],[123.02912508000009,11.194362813000055],[123.02885061200006,11.193008906000045],[123.02706780300002,11.191970973000025],[123.02615357200013,11.192061292000062],[123.02519336800003,11.189849908000042],[123.02510187800011,11.188721577000026],[123.02391324000008,11.186826040000028],[123.02359309600003,11.185336684000049],[123.02405003800004,11.183305655000026],[123.02382116400008,11.17937904700005],[123.02359253000009,11.178340964000027],[123.0224954570001,11.177077351000037],[123.02075842900001,11.176626105000027],[123.01819861900005,11.175182008000034],[123.01797102857225,11.175182021770606],[123.01751006651001,11.17699955987552],[123.0176380170001,11.177094314000044],[123.01951356600013,11.180996865000056],[123.0215621000001,11.182449487000039],[123.02268741600005,11.184415022000053],[123.02283173900003,11.185184116000073],[123.02219712800002,11.187092818000052],[123.0223414530001,11.187890393000032],[123.02369754300004,11.188915821000021],[123.02384194100011,11.190539554000054],[123.02271700100006,11.193815611000048],[123.02326533400004,11.195296902000052],[123.0233520160001,11.196806711000022],[123.02237108000008,11.197974727000032],[123.02115934100004,11.198601509000069],[123.02092860000005,11.199854913000024],[123.02000541300004,11.200823543000068],[123.01951481500008,11.199655635000054],[123.01844734000007,11.200396324000051],[123.01858076517709,11.201357482224635],[123.01974905151907,11.204580517782386],[123.0197913748187,11.20466885117626],[123.02025759900005,11.20483450900002]]],[[[123.0741994450001,11.210908903000071],[123.07257176600002,11.215711806000057],[123.0715231910001,11.216813631000035],[123.07049690300003,11.217342554000025],[123.07299602400008,11.217055597000073],[123.07435696200004,11.21601978500007],[123.07516053800009,11.216900805000023],[123.07469206800012,11.217561884000077],[123.07491577100006,11.219742818000045],[123.07476003200009,11.221593367000025],[123.07565287800001,11.222342170000045],[123.07728179600008,11.22225359400005],[123.0786205060001,11.221394086000032],[123.0786870280001,11.21989601100006],[123.0798916780001,11.21861798300006],[123.08053825200012,11.216569011000047],[123.0804487040001,11.215621718000023],[123.07852943900002,11.21480710500003],[123.07745785400004,11.212802620000048],[123.07627476700007,11.211282804000064],[123.07471260500006,11.210468164000075],[123.07404288700002,11.209542985000041],[123.0741994450001,11.210908903000071]]]]}},{"type":"Feature","properties":{"fid":73,"objectid":1937,"lccode":"06","liqcode":"2010600060000000","mappers":"PJDelosReyes, ACPidlaoan","project":"READY","province":"Iloilo","otherinfo":null,"datemapped":2010,"publishdate":null,"globalid":"{DBB85F45-4FB4-4F72-8BD3-A1308397A487}","st_area(shape)":0.017575391436836466,"st_perimeter(shape)":7.287100410898002,"liqcodepk":"201060006000000000136","creator":"SNOOPYPC","createdate":"2019-02-19T15:21:28","editor":"LENOVO","modifydate":"2019-03-10T17:50:55","codemove":"na"},"geometry":{"type":"MultiPolygon","coordinates":[[[[123.01819861900005,11.175182008000034],[123.02075842900001,11.176626105000027],[123.0224954570001,11.177077351000037],[123.02359253000009,11.178340964000027],[123.02382116400008,11.17937904700005],[123.02405003800004,11.183305655000026],[123.02359309600003,11.185336684000049],[123.02391324000008,11.186826040000028],[123.02510187800011,11.188721577000026],[123.02519336800003,11.189849908000042],[123.02615357200013,11.192061292000062],[123.02706780300002,11.191970973000025],[123.02885061200006,11.193008906000045],[123.02912508000009,11.194362813000055],[123.02894240400008,11.196258464000039],[123.02729694600009,11.198199371000042],[123.02624553900012,11.198425151000036],[123.02478284200004,11.199463285000038],[123.02418860500008,11.200230628000043],[123.02300014300012,11.201088255000057],[123.021857253,11.200366256000054],[123.02076014900001,11.20077249600007],[123.02007450100008,11.201539837000041],[123.02007456,11.202397370000028],[123.02098895000005,11.204022045000043],[123.02025759900005,11.20483450900002],[123.0197913748187,11.20466885117626],[123.02167108254025,11.208591947726704],[123.02398216624528,11.212398045754302],[123.02666005509683,11.215962148444946],[123.02967896537704,11.21924992219452],[123.03300982527033,11.22222969422688],[123.03610170710569,11.224492965792324],[123.03758560500012,11.22392422200005],[123.04115120800009,11.221441485000069],[123.04174547600007,11.220899794000045],[123.0433455200001,11.220673881000037],[123.0455399220001,11.221034596000038],[123.04604290300006,11.221756693000033],[123.04544894300011,11.223742652000052],[123.04210949309892,11.227915910563153],[123.04444323717688,11.229005166626056],[123.04604374700011,11.227082448000035],[123.04869498900007,11.224689908000073],[123.04928935700003,11.224780049000058],[123.04938045400003,11.222974733000056],[123.04887737900003,11.221756242000025],[123.05015715800005,11.220356890000062],[123.0502942280001,11.219725020000057],[123.0494252960001,11.21791977400005],[123.04997369400009,11.216520542000067],[123.0529448740001,11.215030651000061],[123.05372215900002,11.215436764000062],[123.05660235700009,11.216248553000067],[123.05733406500008,11.21724139300005],[123.05820265200009,11.217466910000038],[123.05971122600009,11.21706036000006],[123.06048850600007,11.217737259000046],[123.06195155900002,11.218188239000025],[123.06281992600007,11.21701460300005],[123.06263690199998,11.21633767600002],[123.06391673900009,11.215615230000024],[123.06446517200004,11.214712461000033],[123.06551670600004,11.215253840000058],[123.06615697500003,11.216291797000052],[123.07049690300003,11.217342554000025],[123.0715231910001,11.216813631000035],[123.07257176600002,11.215711806000057],[123.0741994450001,11.210908903000071],[123.07404288700002,11.209542985000041],[123.07355181900006,11.208926270000063],[123.07250297400003,11.208530040000028],[123.0698922480001,11.20835443600004],[123.06873208200012,11.208971543000075],[123.06748274000006,11.21007331000004],[123.06701410000005,11.210029381000023],[123.06432651800003,11.208032802000044],[123.06364052500008,11.206769165000027],[123.0637315150001,11.204557591000025],[123.06290858500006,11.204332170000045],[123.06245113600006,11.202887916000066],[123.06290810700013,11.202120616000059],[123.06377669900007,11.202210669000065],[123.06491940700005,11.20162369500002],[123.06528488700008,11.20081120200007],[123.06665598700012,11.19950208600005],[123.06866701800006,11.19796704200007],[123.071684075,11.198056571000052],[123.0736501360001,11.199545563000072],[123.07479290600008,11.199319593000041],[123.07538687400007,11.198326464000047],[123.07675824900004,11.19828099600005],[123.07845018300009,11.200176188000057],[123.07963881100012,11.200536916000031],[123.0824270810001,11.199746351000044],[123.08377542000005,11.199159248000058],[123.08427814700006,11.19854977400007],[123.0855572690001,11.195841456000041],[123.08528240200008,11.193765337000057],[123.08482519400002,11.19347214800007],[123.08276844800004,11.194533338000038],[123.07959147200006,11.194534201000065],[123.07872285000008,11.194263627000055],[123.0776253910001,11.192955100000065],[123.07661968400008,11.192684555000028],[123.07552235800006,11.191827302000037],[123.07442539500005,11.192369186000063],[123.07314553900005,11.19250485900005],[123.07241373800004,11.19110589500002],[123.07108790400002,11.190068113000052],[123.0704476310001,11.188849689000053],[123.06925914900013,11.188849967000065],[123.06788768900005,11.188353791000052],[123.06660771000008,11.188218722000041],[123.06585523700005,11.188740153000026],[123.06670332700003,11.190174914000067],[123.06690540300008,11.191290910000017],[123.06670415700012,11.193802069000071],[123.06755215500004,11.194758510000042],[123.06702759200006,11.19579501000004],[123.06363651100003,11.19635372600004],[123.06274849600005,11.19683223000004],[123.06262778700012,11.198904927000058],[123.06295111400006,11.20049930600004],[123.06254751200004,11.201097240000022],[123.06121539700007,11.201496083000052],[123.0594390210001,11.201337033000069],[123.05935805500008,11.200260883000052],[123.06060916400008,11.19862640100007],[123.06125504500004,11.198227613000027],[123.06060875800006,11.196673263000033],[123.06004356900009,11.196434219000025],[123.05846876900011,11.194880049000062],[123.058024165,11.192129773000032],[123.05745860500008,11.190336242000054],[123.05644916800009,11.189379802000078],[123.05552067600003,11.189459725000061],[123.05426960600005,11.191652162000024],[123.05261474600003,11.193565723000061],[123.05116191000002,11.196316247000029],[123.05047594100006,11.19818984400007],[123.04853867800011,11.201498411000044],[123.047368043,11.202415447000021],[123.04486499300003,11.202535367000051],[123.04312889500011,11.201459457000054],[123.04288655600011,11.200781803000044],[123.04385518800008,11.19914743100003],[123.04409691800004,11.195799273000036],[123.0431278860001,11.194643499000053],[123.042724012,11.19360717500007],[123.04292564600006,11.192331606000035],[123.04433841900004,11.190976201000066],[123.0452669120001,11.190856528000038],[123.04518600800009,11.189820158000032],[123.04365199400002,11.190019669000037],[123.04191598000011,11.189501726000062],[123.03989748000004,11.189502002000042],[123.0391303680001,11.18882450400002],[123.03876687200012,11.18738960200005],[123.0405025880001,11.186432830000056],[123.04062349000002,11.184639081000055],[123.03981597000006,11.183881840000026],[123.0372321960001,11.182327690000019],[123.03497172300001,11.184002070000076],[123.03315512300003,11.184400844000038],[123.03210565000008,11.185238058000037],[123.03028899200002,11.185198372000055],[123.02992558900007,11.184201901000053],[123.0289163020001,11.18364393400003],[123.02766489700004,11.184162244000047],[123.02657486300008,11.183484743000065],[123.02645365900004,11.182886903000052],[123.02726088400004,11.180893814000054],[123.02718004700013,11.179857529000062],[123.02609004700004,11.179379309000067],[123.02447516500001,11.177545838000071],[123.02395030600007,11.176469713000076],[123.02281963000009,11.17232444800004],[123.02189113600001,11.171766451000053],[123.02152779900008,11.171049002000073],[123.02156802500008,11.169614048000028],[123.02062496859376,11.168137137893776],[123.01974670752917,11.169971035391598],[123.01823292894444,11.174149358198614],[123.01797102857225,11.175182021770606],[123.01819861900005,11.175182008000034]],[[123.05609479300007,11.19183157800006],[123.05714630400009,11.192372989000033],[123.05714655200006,11.19363668300002],[123.05527272600011,11.195532668000055],[123.05477003200008,11.19661588900004],[123.05481611100005,11.198240708000071],[123.05618746400012,11.198059887000056],[123.05614189000005,11.199097995000045],[123.05522798900006,11.200993797000024],[123.05408523000006,11.201400168000076],[123.05280525800003,11.201174711000021],[123.05216514300002,11.200542977000056],[123.0514791720001,11.199008597000043],[123.05253039100012,11.197834957000053],[123.05253000800008,11.195713639000074],[123.05348978200004,11.194765698000023],[123.05417518300011,11.193231075000027],[123.05508916100005,11.191831765000074],[123.05609479300007,11.19183157800006]]],[[[123.0910848430001,11.221416399000075],[123.09055163800008,11.220294375000037],[123.08952129300006,11.219593308000068],[123.08870429500007,11.219453222000027],[123.08799400900011,11.219979489000021],[123.08806554800005,11.221487380000042],[123.08849203200009,11.222188632000043],[123.08972759367406,11.223241462334878],[123.09112506244004,11.222217598551639],[123.09185568154109,11.221563444446852],[123.0910848430001,11.221416399000075]]],[[[123.09964252900012,11.21292714400005],[123.098825926,11.213909363000026],[123.09811561400011,11.214260241000035],[123.09591338200006,11.21447136100005],[123.09516766500006,11.215137896000046],[123.09445769400007,11.21633047300003],[123.09282386100007,11.216751795000052],[123.09296624,11.217663533000062],[123.094849167,11.218750044000046],[123.09486010208592,11.218794509440475],[123.09747214822386,11.215947418261749],[123.09984334949183,11.212788722537244],[123.09964252900012,11.21292714400005]]]]}}]}