{"type":"FeatureCollection","features":[{"type":"Feature","properties":{"fid":10,"objectid":1841,"lccode":"01","liqcode":"2010600010000000","mappers":"DJLBuhay, MJVReyes, MITAbigania, KLPapiona, KMVitto","project":"MELP","province":"Capiz","otherinfo":null,"datemapped":2017,"publishdate":null,"globalid":"{FE12B36A-531F-4D3F-AE5B-76F7E9CFE484}","st_area(shape)":0.04128187917080134,"st_perimeter(shape)":8.871881460062728,"liqcodepk":"201060001000000000013","creator":"SNOOPYPC","createdate":"2019-02-19T15:21:28","editor":"LENOVO","modifydate":"2019-03-10T17:53:06","codemove":"na"},"geometry":{"type":"Polygon","coordinates":[[[122.74967237300005,11.513504192000026],[122.74978036800007,11.514844238000023],[122.74911254300002,11.515537567000026],[122.74856512200007,11.517247926000039],[122.74866125800008,11.518276901000037],[122.74807856400004,11.518719060000025],[122.74731290500007,11.520273697000052],[122.7473599130001,11.521972606000075],[122.74819646900005,11.522547596000036],[122.74898588200006,11.521567242000058],[122.74996903200007,11.520993824000072],[122.75118381000004,11.519128504000035],[122.75341286300011,11.51712286600002],[122.75481519600011,11.517162335000021],[122.75581438600011,11.517651301000058],[122.75628928700009,11.51839824500007],[122.75516090300005,11.520056802000054],[122.75352996900006,11.520610548000038],[122.75345172800007,11.521299600000077],[122.75404427700006,11.522023798000076],[122.75379402800002,11.522947709000048],[122.752440739,11.523193817000047],[122.75296399800006,11.524132228000044],[122.75447767700007,11.52451635400007],[122.75426341400009,11.525377571000032],[122.75358394700005,11.525491849000046],[122.7517198700001,11.527582624000045],[122.75203001200009,11.52807101400003],[122.75303940000005,11.528033589000074],[122.75516540700005,11.52741326600005],[122.75779517,11.527855739000074],[122.75928971700012,11.52794312100002],[122.76092048900013,11.527619049000064],[122.76151336100008,11.526614572000026],[122.76252301700003,11.52625169700008],[122.76355168100008,11.526367389000029],[122.76431783100008,11.527047558000046],[122.7645883690001,11.528502583000034],[122.7663933120001,11.528810314000054],[122.76690703400003,11.529614699000037],[122.76597450700001,11.530590201000052],[122.764712443,11.531019881000079],[122.76392682200003,11.530397123000052],[122.7621504640001,11.53071152000007],[122.76132489600003,11.53142867500003],[122.76032510400013,11.531580989000076],[122.75702654000008,11.530075590000024],[122.75627867100003,11.53071622600004],[122.75450267800011,11.53059987900002],[122.75329013500004,11.52987144900004],[122.75146475500003,11.530740863000062],[122.74951360800003,11.531141173000035],[122.74960988200009,11.532021795000047],[122.75052216300001,11.532060864000071],[122.75126897000007,11.532645340000046],[122.752870367,11.532656278000049],[122.75466521000008,11.533433056000035],[122.75580874900002,11.535415233000034],[122.75706016900004,11.536114972000066],[122.75757377800005,11.53703422400002],[122.757465249,11.539091916000075],[122.75817346300006,11.539446637000026],[122.75813300900008,11.541351248000067],[122.7586942270001,11.543361641000043],[122.75906264200013,11.54384050100003],[122.76060534900013,11.544463897000071],[122.76155673000007,11.544225403000041],[122.76232489000006,11.542570236000072],[122.76359697200007,11.54183430200004],[122.76507233500001,11.541739788000028],[122.76609094600008,11.54234358900004],[122.76701217100005,11.543349293000063],[122.76726330000008,11.544833013000074],[122.76863155300009,11.545178665000035],[122.76895148000004,11.545628761000046],[122.76882400200009,11.547217459000022],[122.76940584600005,11.547849614000029],[122.7681814550001,11.549590575000025],[122.76876375000008,11.549677179000067],[122.76823801700004,11.551629260000027],[122.76822748500003,11.552634215000069],[122.76867349900012,11.553208835000019],[122.76818685900004,11.554825959000027],[122.76761384300006,11.55524662700003],[122.76771962600004,11.556443097000056],[122.76919431300009,11.557267387000026],[122.77169842800004,11.557422506000023],[122.77228961900005,11.558533216000056],[122.7734441340001,11.55921366700005],[122.77361825000003,11.559960346000024],[122.77312256600008,11.56077350000004],[122.77190927299999,11.560753406000059],[122.77122925300012,11.561451559000034],[122.77135454400002,11.562552331000061],[122.77243115000012,11.563567712000065],[122.7724205080001,11.56472580400003],[122.77286679600002,11.564994144000025],[122.77324380600011,11.566918224000062],[122.77191382,11.56712774400006],[122.7713710060001,11.566189351000048],[122.77005192400009,11.564934498000067],[122.76911068900006,11.564560477000043],[122.76679241900003,11.562615694000046],[122.76575957300008,11.562317677000065],[122.7650428390001,11.563369915000065],[122.76578196000003,11.564578860000038],[122.76689784200003,11.565034386000034],[122.76716393400011,11.566051526000026],[122.76628893600002,11.567737722000059],[122.7667975180001,11.568970406000062],[122.7666135930001,11.571291242000028],[122.76600615100007,11.572211967000044],[122.76533803000007,11.572357866000061],[122.7633580060001,11.57214569100006],[122.76238782100006,11.571551491000035],[122.76166422400001,11.569971191000034],[122.75988203100006,11.568294783000052],[122.75855908000005,11.568772237000076],[122.75842464800007,11.569896724000046],[122.7593944570001,11.570914456000024],[122.75947876799998,11.571644320000072],[122.75832549600011,11.572325298000065],[122.75726987500002,11.572324415000024],[122.75651704500001,11.572957866000023],[122.755933367,11.574416960000065],[122.75420920000009,11.575707060000068],[122.7532859260001,11.576974439000026],[122.75241227300013,11.576997621000029],[122.75122358600005,11.576518049000073],[122.75088483700007,11.575393159000045],[122.75222063900003,11.574150069000043],[122.75205190600002,11.57285783200007],[122.75287820800008,11.571470735000046],[122.75387576500009,11.57058727800006],[122.754207241,11.568931766000048],[122.75332447200003,11.56830889700006],[122.75328654200007,11.56728476200004],[122.75372449800012,11.565964328000064],[122.75434594800005,11.565706437000074],[122.7551914390001,11.564539483000033],[122.75625146900008,11.562214608000033],[122.75703794400012,11.561928137000052],[122.75751473200012,11.560569445000056],[122.75854450200006,11.559536629000036],[122.75875986100004,11.55741203100007],[122.759556287,11.556819286000064],[122.76035325500006,11.555585278000024],[122.76007263600003,11.554570512000057],[122.75831601000004,11.554329777000019],[122.7584235820001,11.553391902000042],[122.7593012860001,11.552143126000031],[122.75916892900011,11.550850921000064],[122.75959458100012,11.549666854000067],[122.76073583700008,11.548734617000033],[122.76125862000004,11.547454916000047],[122.76101666900003,11.546629212000026],[122.75977971700001,11.545970179000049],[122.75917301300001,11.546065387000057],[122.75879597700008,11.547153784000045],[122.75814036100007,11.547691611000063],[122.7575470290001,11.54633920200007],[122.75662598400004,11.545154011000019],[122.75544898500004,11.545332479000022],[122.754816967,11.546636005000039],[122.75377347100006,11.546754760000054],[122.75449967000007,11.548765300000069],[122.75557953000009,11.548694428000031],[122.75620980300006,11.549412789000028],[122.75617252600011,11.550429684000049],[122.756742141,11.551147992000038],[122.753696708,11.551300953000068],[122.75299394500007,11.550235574000054],[122.75238695700011,11.550641827000051],[122.75250729700008,11.55176653000006],[122.75321054300001,11.552281574000062],[122.75390077100006,11.553813532000047],[122.75304543900006,11.554421048000053],[122.75325791300008,11.555636755000021],[122.75275193600011,11.557062412000047],[122.75122743400003,11.557750225000063],[122.75016940800003,11.55778760000004],[122.74844304300005,11.556254737000074],[122.74817242900008,11.554952838000077],[122.74675604600007,11.554138065000075],[122.74584367800004,11.554118124000068],[122.74424120600007,11.555159962000058],[122.74328873800006,11.556537353000063],[122.74329782500001,11.557216906000063],[122.74578184300002,11.558109203000072],[122.74663446300008,11.559823168000035],[122.746166452,11.562158097000067],[122.74464129100012,11.563525419000026],[122.74364100300012,11.564089228000059],[122.74308816500002,11.563610186000062],[122.74203024800009,11.563503964000061],[122.74066245300004,11.562603065000076],[122.74007219200007,11.560611757000059],[122.73888978000002,11.560442005000025],[122.73795883600009,11.559500809000042],[122.7374124700001,11.559909477000076],[122.73685888600006,11.561116124000021],[122.73668259600002,11.562800469000022],[122.73752643900002,11.563471208000069],[122.73777766000002,11.564706100000024],[122.73694271500005,11.564896765000071],[122.736164604,11.56410495000006],[122.73439906500005,11.56427083100004],[122.73328354100012,11.563498141000023],[122.73225178300004,11.563957796000066],[122.7317972730001,11.563448914000046],[122.73306809500004,11.560381370000073],[122.73390636500005,11.559227633000033],[122.73526581000012,11.558642651000067],[122.73621173900005,11.559116083000047],[122.73648601100001,11.557746476000034],[122.73614103500005,11.556878785000038],[122.73634916200001,11.554881017000069],[122.73816745700003,11.553306847000044],[122.73986291600012,11.554064486000069],[122.7414529350001,11.553383970000029],[122.74187845600011,11.552427243000068],[122.74139539600004,11.549974228000053],[122.7406795510001,11.549997517000063],[122.73973179600011,11.551528038000072],[122.73833925800011,11.548595649000049],[122.7384736360001,11.547602772000058],[122.73700609500008,11.547075038000056],[122.73625334600001,11.547648618000038],[122.73536761800007,11.547707631000037],[122.73553992600011,11.54610606800003],[122.73500565400002,11.545565776000048],[122.73478903500008,11.54368725800003],[122.7358567240001,11.543640376000043],[122.73621807600013,11.54486484000006],[122.73583859800011,11.545876635000072],[122.73676357000011,11.546351188000072],[122.73828121400003,11.545772133000073],[122.74112039700005,11.54555933000006],[122.74264970200011,11.544878752000045],[122.74304947100006,11.545537117000038],[122.74416520800004,11.546028619000023],[122.74505155700001,11.545275678000054],[122.74326994400008,11.543240256000047],[122.74186202800001,11.543257135000033],[122.74017619300004,11.542651458000025],[122.73976222400006,11.544248258000037],[122.73922155600009,11.544354778000068],[122.7388786900001,11.542542437000064],[122.73811475600009,11.542111051000063],[122.73522291600011,11.542214425000052],[122.73439635100011,11.542594120000043],[122.73429716800003,11.543563099000039],[122.73336013600012,11.54528862000006],[122.73349674700012,11.54708690800004],[122.73288848600009,11.54691335500007],[122.73267151600008,11.545420070000036],[122.73127512100005,11.544097975000057],[122.73040153800002,11.544771272000046],[122.73104102000003,11.545933424000053],[122.73080718700008,11.546866385000042],[122.73138869099999,11.547764211000068],[122.73149679800008,11.548905659000068],[122.73232600300004,11.549602719000061],[122.73184410700003,11.551124072000048],[122.73197453200011,11.551763060000043],[122.73136133000004,11.553564244000029],[122.73180444000003,11.554562436000026],[122.73126391100006,11.556485717000042],[122.73054286900003,11.556851141000037],[122.72956429313659,11.555743280818614],[122.73015567395176,11.559700225354772],[122.73124503586833,11.564005722285414],[122.73275717738939,11.568185193772866],[122.73467755216896,11.572198383213228],[122.73698767954818,11.576006633921555],[122.73966532200622,11.579573261703246],[122.74268469891962,11.582863908475789],[122.7460167345874,11.585846873522552],[122.7496293381436,11.58849341917418],[122.75348771266576,11.59077804795875],[122.75755469050075,11.592678748536246],[122.76179109157029,11.594177208033985],[122.76615610119214,11.595258988724156],[122.77060766375857,11.59591366732949],[122.77510288845767,11.596134935605187],[122.77959846310218,11.595920661220479],[122.78405107205123,11.595272908348377],[122.78841781416826,11.594197917763188],[122.792656616759,11.592706046638419],[122.79672664147282,11.590811668628819],[122.80058867822979,11.588533035205728],[122.80420552335619,11.585892099590543],[122.80754233826593,11.582914304993597],[122.81056698521894,11.579628339211233],[122.81325033691365,11.576065857958989],[122.81556655692911,11.57226117962048],[122.81749334831864,11.568250954366928],[122.81901216797041,11.564073810848429],[122.82010840468519,11.559769983872856],[122.8207715192756,11.555380926669773],[122.82099514536225,11.550948911483001],[122.82077714992327,11.546516622345434],[122.82011965304315,11.542126743962182],[122.81902900670158,11.537821550662787],[122.81751573283714,11.533642499379745],[122.81559442131113,11.529629830568771],[122.81328358878102,11.52582218090735],[122.81060549986627,11.522256211492216],[122.80758595234747,11.518966255105246],[122.80425402848199,11.51598398593195],[122.80064181483931,11.513338114899646],[122.79678409335789,11.511054113555003],[122.79271800659487,11.50915396912584],[122.78848270038519,11.507655973112332],[122.78411894733617,11.506574545430821],[122.77966875476613,11.505920095792627],[122.77517496083875,11.50569892364344],[122.7706808227574,11.505913157619933],[122.76622960095656,11.506560735101969],[122.76186414326543,11.507635422055406],[122.75762647301835,11.509126872975155],[122.75355738505074,11.51102073035475],[122.75003232179132,11.513100381295537],[122.74967237300005,11.513504192000026]],[[122.78743679200011,11.57033786800002],[122.78736176900007,11.569631524000041],[122.78555452900002,11.568690645000059],[122.78466335100008,11.566278073000033],[122.78419562700005,11.56863221000003],[122.78343776500004,11.56958875200007],[122.78217610500009,11.569300674000031],[122.78054764900004,11.566370696000035],[122.78049009500012,11.565490113000067],[122.77953923400003,11.564991695000058],[122.7794047200001,11.563230515000043],[122.77860956400002,11.562234517000036],[122.77909571500004,11.56118206900004],[122.78022177300011,11.561048930000027],[122.78165690800007,11.562888798000074],[122.78381472500007,11.564289741000039],[122.78447000700011,11.563669397000067],[122.78555320200007,11.563347368000052],[122.78635962600003,11.562677464000046],[122.78681231300006,11.563522130000022],[122.78668546800009,11.564738868000063],[122.78799450699998,11.565509661000021],[122.78829601800011,11.566453547000036],[122.78934135100008,11.567104624000022],[122.78994222500012,11.568368443000056],[122.79060202700009,11.568713480000039],[122.79143563200013,11.570302880000042],[122.78994019700008,11.571086628000046],[122.78947374000006,11.571794549000062],[122.78799806600011,11.572099747000037],[122.78671732400004,11.571352263000051],[122.78743679200011,11.57033786800002]],[[122.7732476650001,11.519492072000048],[122.77183584600004,11.519160765000038],[122.77013319400011,11.518441592000043],[122.76912824500005,11.519029419000047],[122.7682994170001,11.517865871000026],[122.76730969600011,11.51763537500005],[122.76690163700005,11.518180601000038],[122.76783252900009,11.519143241000053],[122.76720573800002,11.520133349000048],[122.76592458600008,11.52023281700002],[122.76315983000006,11.518809271000066],[122.76311758800011,11.517100796000024],[122.76252168400003,11.515966135000042],[122.76290088600001,11.515119402000037],[122.76375969700005,11.515206240000055],[122.76445775700007,11.516039492000065],[122.76541875900011,11.515781849000064],[122.766263965,11.514720137000037],[122.76459015900004,11.514374228000063],[122.7643578630001,11.513627494000048],[122.76518135100004,11.51262521500007],[122.76627493400008,11.512136043000057],[122.76755022500005,11.512235074000046],[122.76726776300006,11.51331296500007],[122.76751565000005,11.513999237000064],[122.76832693400003,11.51439192600003],[122.76860707000003,11.516156339000075],[122.769982,11.515961408000067],[122.77261463900005,11.517155939000077],[122.7731778000001,11.517156379000028],[122.774535323,11.51802319400002],[122.77610844100002,11.518563467000035],[122.77632305800012,11.51946206200006],[122.77569318400003,11.520033306000073],[122.7754447860001,11.521101722000024],[122.77410526700011,11.521115041000032],[122.77368373800003,11.520310741000058],[122.7732476650001,11.519492072000048]],[[122.79352696800002,11.576763140000024],[122.79488681600003,11.57703727300003],[122.79539106100003,11.576317464000056],[122.7968265930001,11.57641780800003],[122.79700230400012,11.577237430000023],[122.79647231800004,11.57872705500006],[122.79410441300003,11.579271713000027],[122.79307261500003,11.578128646000037],[122.79352696800002,11.576763140000024]],[[122.78941935700006,11.579814675000023],[122.79047673800005,11.580411441000024],[122.7914842670001,11.580312835000028],[122.79216385900008,11.580909323000071],[122.79193657500004,11.58172865800003],[122.79088701300009,11.581896216000077],[122.78954400700002,11.581528262000061],[122.78899066800011,11.580509694000053],[122.78941935700006,11.579814675000023]],[[122.74996693500009,11.565333437000048],[122.75067229600006,11.565340426000036],[122.7515000320001,11.566004749000058],[122.75182234700004,11.567421581000076],[122.7511937370001,11.567680385000072],[122.75014658600004,11.567075573000066],[122.74956506000001,11.566073273000027],[122.74996693500009,11.565333437000048]],[[122.76438074400005,11.531603230000028],[122.76500572000009,11.532838406000051],[122.76478660500004,11.53372834000004],[122.7639418990001,11.534115284000052],[122.76293831400004,11.532994650000036],[122.76438074400005,11.531603230000028]],[[122.79165872000011,11.577403800000068],[122.79050886100003,11.576828706000073],[122.79048032800006,11.576039071000025],[122.79183441300006,11.57609747500004],[122.7921542570001,11.576758109000025],[122.79165872000011,11.577403800000068]],[[122.7536527530001,11.556890501000055],[122.7541919790001,11.557680572000036],[122.75326010600008,11.558445465000032],[122.75274185100012,11.557954507000035],[122.7536527530001,11.556890501000055]]]}},{"type":"Feature","properties":{"fid":32,"objectid":1878,"lccode":"07","liqcode":"2010600070000000","mappers":"PJDelosReyes, ACPidlaoan","project":"READY","province":"Iloilo","otherinfo":null,"datemapped":2010,"publishdate":null,"globalid":"{2F92972A-C07C-4633-B325-DF2A08960C6C}","st_area(shape)":0.031106077518548395,"st_perimeter(shape)":5.287074988133156,"liqcodepk":"201060007000000000071","creator":"SNOOPYPC","createdate":"2019-02-19T15:21:28","editor":"LENOVO","modifydate":"2019-03-10T17:50:55","codemove":"na"},"geometry":{"type":"Polygon","coordinates":[]}},{"type":"Feature","properties":{"fid":59,"objectid":1908,"lccode":"05","liqcode":"2010600050000000","mappers":"PJDelosReyes, ACPidlaoan","project":"READY","province":"Iloilo","otherinfo":null,"datemapped":2010,"publishdate":null,"globalid":"{282D04BA-68E2-41E5-9B8A-0D8D85396F2D}","st_area(shape)":0.06128738608791496,"st_perimeter(shape)":10.692281506054618,"liqcodepk":"201060005000000000103","creator":"SNOOPYPC","createdate":"2019-02-19T15:21:28","editor":"LENOVO","modifydate":"2019-03-10T17:50:55","codemove":"na"},"geometry":{"type":"Polygon","coordinates":[]}},{"type":"Feature","properties":{"fid":73,"objectid":1937,"lccode":"06","liqcode":"2010600060000000","mappers":"PJDelosReyes, ACPidlaoan","project":"READY","province":"Iloilo","otherinfo":null,"datemapped":2010,"publishdate":null,"globalid":"{DBB85F45-4FB4-4F72-8BD3-A1308397A487}","st_area(shape)":0.017575391436836466,"st_perimeter(shape)":7.287100410898002,"liqcodepk":"201060006000000000136","creator":"SNOOPYPC","createdate":"2019-02-19T15:21:28","editor":"LENOVO","modifydate":"2019-03-10T17:50:55","codemove":"na"},"geometry":{"type":"Polygon","coordinates":[]}}]}