{"type":"FeatureCollection","features":[{"type":"Feature","properties":{"fid":187,"objectid":10016,"lccode":"01","liqcode":null,"mappers":"DJLBuhay, MJVReyes, MITAbigania, KLPapiona, KMVitto","project":"MELP","province":"Sultan Kudarat","otherinfo":null,"datemapped":2020,"publishdate":2021,"globalid":"{1B7E7CC9-093D-4716-9F84-3DA25042BFE2}","st_area(shape)":0.08978084284158963,"st_perimeter(shape)":9.534125484685708,"liqcodepk":null,"creator":null,"createdate":null,"editor":null,"modifydate":null,"codemove":null},"geometry":{"type":"Polygon","coordinates":[]}},{"type":"Feature","properties":{"fid":212,"objectid":10021,"lccode":"04","liqcode":null,"mappers":"OPCHalasan, KSSochayseng, AATMagnaye, RPADizon, MJVReyes, HALVidal, MITAbigania, DJLBuhay","project":"ACER-DeLTA Liquefaction","province":"Sarangani","otherinfo":null,"datemapped":2025,"publishdate":2025,"globalid":"{4B0F16AF-9FC5-426E-BE2A-C2A0BDACB3B7}","st_area(shape)":0.00681203411406619,"st_perimeter(shape)":4.420543025412032,"liqcodepk":null,"creator":null,"createdate":null,"editor":"DJLB","modifydate":"2025-07-07T08:00:00","codemove":null},"geometry":{"type":"Polygon","coordinates":[[[124.42155847000004,6.091696885000033],[124.42212079700003,6.091098048000049],[124.42189203000011,6.08977455300004],[124.42339039400008,6.089245919000064],[124.4250682510001,6.08802531200007],[124.42574563800008,6.087783063000074],[124.42890119800006,6.087510627000028],[124.42974563900007,6.086826106000047],[124.43019936000009,6.085933666000074],[124.4319189250001,6.0849469920000265],[124.43445858100006,6.08270052200004],[124.43573254400007,6.082449999999999],[124.43551863200004,6.081551901000067],[124.43604628199999,6.081154846000061],[124.43693045000009,6.081405369000038],[124.43764824300001,6.081003587000054],[124.43796435600005,6.080215385000031],[124.43940826100005,6.079828964000058],[124.4400214750001,6.07896394900007],[124.44122294600002,6.078432176000034],[124.44182902900002,6.07747143900002],[124.44321589000005,6.07619872600003],[124.44442449200007,6.074319784000067],[124.44569726700001,6.073972357000059],[124.4461036990001,6.07328813700002],[124.4471118130001,6.0729496890000405],[124.44709210400003,6.071431795000024],[124.44744641200009,6.0705501190000755],[124.44840840000005,6.069630713000037],[124.44905695300008,6.069455138000023],[124.45025988200008,6.070439690000057],[124.45130444600011,6.069227044000059],[124.45205436300012,6.067269086000067],[124.45257131700009,6.068433101000038],[124.45326950100002,6.068701946000034],[124.45431529200005,6.067818596000051],[124.45583941400004,6.067023875000075],[124.45711793800002,6.067297424000059],[124.4584049570001,6.068431190000069],[124.4598545980001,6.069087257000034],[124.459384149,6.0710416420000675],[124.46043697400013,6.07322097900004],[124.4611131280001,6.0739944000000605],[124.4621614350001,6.074494042000025],[124.46369658900005,6.074705235000067],[124.46527744800005,6.075906891000044],[124.46598338400008,6.077082202000043],[124.46598567600007,6.077929223000068],[124.46676888800005,6.081157286000063],[124.46780322200006,6.081786157000068],[124.46916989400007,6.082125884000049],[124.46999231900008,6.082872972000077],[124.47083845900012,6.0831471290000545],[124.47051521500009,6.083941236000044],[124.47081479500002,6.084803530000046],[124.47179868500005,6.084423371000072],[124.47205040900008,6.085275358000046],[124.47119973200006,6.08622428500007],[124.47122825400005,6.087292541000067],[124.47220749400003,6.08862549400004],[124.47133456100005,6.089667104000057],[124.47159903400006,6.090601285000048],[124.47243566600004,6.090591831000039],[124.4740423820001,6.09124412400007],[124.47566580500008,6.0910617300000345],[124.47680909300006,6.091575085000044],[124.47709133700003,6.092203497000072],[124.47637829800011,6.09345135700005],[124.4774287660001,6.094408115000024],[124.47797837600002,6.097039910000036],[124.47899625600006,6.097754932000041],[124.47987183000008,6.098877104000052],[124.48147536100011,6.099590511000031],[124.48228707500004,6.099217407000025],[124.48157885600006,6.098106743000073],[124.48133541800007,6.096504294000056],[124.48163024300005,6.095055891000071],[124.48164994600006,6.093524499000067],[124.47936532300004,6.090536686000062],[124.4796021960001,6.089745961000064],[124.4814804570001,6.090411245000042],[124.48227899300002,6.089595528000075],[124.4832170420001,6.089460201000065],[124.48383878300002,6.0885028680000355],[124.48407299500003,6.08718366000005],[124.483673887,6.08642771500007],[124.48237669000001,6.086479203000067],[124.48186276700005,6.086938208000048],[124.48193161400002,6.08858556000007],[124.4814202970001,6.089538069000071],[124.48038010200003,6.089397361000068],[124.47878279400004,6.088761690000069],[124.47845755700008,6.09001875900003],[124.47772217900001,6.0907770020000385],[124.47607196300011,6.089887506000025],[124.47587897300002,6.088703132000035],[124.47636740400004,6.086632799000029],[124.47773588700011,6.086148091000041],[124.47714818200008,6.0850055960000295],[124.47569001700003,6.084721988000069],[124.47520377900004,6.0834900890000645],[124.47533149400009,6.082479670000055],[124.47588432000009,6.081721398000069],[124.47538678600006,6.080474759000027],[124.47585223300005,6.079502142000023],[124.47450355200012,6.077730943000062],[124.47370396500004,6.0770706390000555],[124.47356135800011,6.076408876000072],[124.47191542600001,6.075475315000062],[124.47127963200012,6.074748554000053],[124.4698476120001,6.073850442000037],[124.47110460300007,6.073061881000059],[124.4698713800001,6.072473728000034],[124.46791874900009,6.0725941730000255],[124.467797624,6.071492890000059],[124.46866515500007,6.070718855000052],[124.46844530200008,6.069838462000063],[124.46736980100002,6.069135329000061],[124.46667458800006,6.069489850000024],[124.4662051700001,6.07035842600004],[124.4653079290001,6.070429330000023],[124.46449159100008,6.069264866000025],[124.46495735100007,6.067545890000077],[124.46461865800006,6.0666418560000475],[124.46520691500008,6.066104163000033],[124.46448498200004,6.064300484000057],[124.46510295000007,6.062622398000029],[124.46437457600007,6.061646346000031],[124.46299710800007,6.061757355000054],[124.46270238500006,6.061303561000047],[124.46333841600006,6.060120859000051],[124.4642995920001,6.060410154000066],[124.46482724200008,6.059984721000035],[124.46572679900011,6.060784416000048],[124.4669185140001,6.060407241000065],[124.46811310500004,6.060841141000026],[124.46914463400003,6.059447060000024],[124.47158798200009,6.0593997900000405],[124.472880959,6.060151389000054],[124.47621322900012,6.060543731000053],[124.47702134000006,6.059900856000071],[124.47832857900005,6.05948960400002],[124.47870411300005,6.0590499900000605],[124.48007981900003,6.060657981000078],[124.48038906400006,6.061593721000065],[124.48112587100003,6.0622365950000585],[124.48166778100006,6.061957701000041],[124.48347414700004,6.062472946000071],[124.4845389520001,6.0614377290000325],[124.48359298700005,6.060388331000069],[124.48529477400008,6.0595847360000334],[124.48526735300005,6.0573315570000545],[124.48573796000005,6.056501959000057],[124.48779864300003,6.054984569000055],[124.48666491000006,6.05460522200002],[124.48647238900004,6.05402379100002],[124.48794125000006,6.053903251000066],[124.48938523900006,6.052639290000058],[124.49076750000006,6.052276186000028],[124.49144726400004,6.05332560000005],[124.49245977900013,6.053127062000043],[124.4921365350001,6.054346651000059],[124.492108013,6.056029489000024],[124.49250731600013,6.057258524000076],[124.493058732,6.0570836230000396],[124.4935140120001,6.055194969000071],[124.49420766000004,6.055577362000066],[124.49391556800005,6.056370013000049],[124.494730881,6.058706111000049],[124.49433348800007,6.060676175000025],[124.49512377300005,6.061568399000066],[124.49647854800004,6.0621120060000635],[124.49887749000005,6.06119771300007],[124.4994923270001,6.061404726000034],[124.500377683,6.060896571000059],[124.5012808670001,6.061841976000039],[124.50434337000002,6.063736324000046],[124.50580325126612,6.064419230168014],[124.50547136303433,6.063721804712629],[124.50318196661543,6.059922158226765],[124.50053158617995,6.056365419561441],[124.49754574682638,6.053085836334094],[124.49425320217337,6.050114987322614],[124.49068565751404,6.0474814785497575],[124.48687746462225,6.045210667975905],[124.4859119519187,6.044756754960915],[124.48412264900003,6.046184366000033],[124.48079750900001,6.049117556000055],[124.47718715400003,6.051706715000022],[124.47578531900001,6.0524739230000355],[124.47380930900012,6.053142334000026],[124.471488367,6.054291016000036],[124.46764849200008,6.055460263000042],[124.4599220250001,6.0585990690000235],[124.457462727,6.059349447000044],[124.45648586400011,6.059193454000023],[124.4557371730001,6.059941508000065],[124.45579778100013,6.0607001960000275],[124.4527572940001,6.064123006000044],[124.45081669100013,6.067098328000042],[124.45026230200007,6.06769266200007],[124.44807798400005,6.069093850000058],[124.44649735700013,6.070540156000049],[124.44508611300013,6.071562849000031],[124.44224667200001,6.074029709000057],[124.43779710700005,6.077426513000033],[124.43170973500004,6.08295935600006],[124.42928540200012,6.084902079000073],[124.42526782000006,6.087527757000031],[124.4235351960001,6.08853756700006],[124.42156183800012,6.089460491000069],[124.420752701075,6.0897166130904],[124.42105131409502,6.091695772030379],[124.42155847000004,6.091696885000033]]]}},{"type":"Feature","properties":{"fid":213,"objectid":10022,"lccode":"03","liqcode":null,"mappers":"OPCHalasan, KSSochayseng, AATMagnaye, RPADizon, MJVReyes, HALVidal, MITAbigania, DJLBuhay","project":"ACER-DeLTA Liquefaction","province":"Sarangani","otherinfo":null,"datemapped":2025,"publishdate":2025,"globalid":"{6B71C9FC-C348-4B94-AE03-7E47FA7930C0}","st_area(shape)":0.011541225204631354,"st_perimeter(shape)":8.576922001598057,"liqcodepk":null,"creator":null,"createdate":null,"editor":"DJLB","modifydate":"2025-07-07T08:00:00","codemove":null},"geometry":{"type":"Polygon","coordinates":[[[124.4226768840001,6.096524466000061],[124.42296942100005,6.09745643100007],[124.42417049600009,6.098225929000022],[124.4244775940001,6.099100012000065],[124.42392767300011,6.100279233000037],[124.42538049100006,6.100698725000028],[124.4258989870001,6.099140867000075],[124.42668465600002,6.098564255000042],[124.42708226600007,6.097419793000029],[124.42835980700009,6.097068628000045],[124.42894212100009,6.095877497000061],[124.42996746000006,6.095711333000053],[124.43100633800009,6.094663467000032],[124.43119094100007,6.093363042000021],[124.43244076700013,6.09181959600005],[124.43224184300004,6.0908117130000505],[124.43294824700001,6.089539236000065],[124.43417820600007,6.089193880000039],[124.43462742000008,6.089794179000022],[124.43539512600012,6.088891366000041],[124.43673066100007,6.089093005000051],[124.43771799600006,6.088447184000075],[124.43877984600009,6.08732949900002],[124.44012257600002,6.08704555600002],[124.44033727200008,6.086474222000049],[124.43828888000009,6.085225493000052],[124.4379140650001,6.08396749700006],[124.43666939800006,6.082250921000027],[124.43688687500003,6.081786510000028],[124.43806339000001,6.081414271000027],[124.43920068800001,6.082006307000029],[124.44058041900006,6.081364639000071],[124.44036650700002,6.080134477000058],[124.44075511300002,6.079510531000039],[124.44175477400005,6.079866504000051],[124.4424202770001,6.080551897000021],[124.44338926100012,6.078512198000055],[124.44355311800008,6.076978730000064],[124.44440294900006,6.074575125000024],[124.44576960700012,6.074114252000073],[124.44609047500012,6.073535205000041],[124.44728215100008,6.07322203800004],[124.44780314500007,6.071660736000069],[124.4474006380001,6.070862402000046],[124.44825199500006,6.069964451000032],[124.44891786200002,6.069779415000028],[124.45036677900009,6.07146910900002],[124.45021084000007,6.072485584000048],[124.450498433,6.074503976000072],[124.45307012800005,6.075168105000045],[124.4538616010001,6.074199090000036],[124.4540089620001,6.073074085000031],[124.45541250900008,6.073447606000059],[124.45627082400007,6.074228387000062],[124.45773042300006,6.074677982000025],[124.45812795200003,6.075347728000055],[124.45985247100009,6.076095903000067],[124.46013484800007,6.077655897000055],[124.46188164999998,6.078450345000022],[124.46291098700011,6.081503440000063],[124.46411234100003,6.082766954000023],[124.46412422600008,6.084045561000038],[124.46531121600005,6.084869954000054],[124.46574995500009,6.087590664000062],[124.46623719800003,6.089193043000024],[124.466970176,6.089481848000048],[124.466168271,6.090648887000042],[124.46679812200013,6.091766765000044],[124.46726219200002,6.093571790000055],[124.46855338800003,6.095014822000053],[124.47008526800005,6.0954078460000565],[124.47080243200001,6.096234906000065],[124.47227604600005,6.096291035000035],[124.47348274600006,6.097200218000068],[124.47304640000004,6.0989254910000446],[124.47223742300001,6.100403259000075],[124.47286430300007,6.10171195600003],[124.47279299900002,6.103059053000039],[124.4736337920001,6.103475590000073],[124.47485772300001,6.102564999999999],[124.47531050300006,6.102852145000043],[124.47630346900007,6.10212413000005],[124.47697941100012,6.100335352000059],[124.4791281040001,6.10053995900006],[124.47945491500003,6.10090923000007],[124.47998276200009,6.10277413500006],[124.48048188900007,6.103227894000042],[124.48307076100002,6.104178168000031],[124.48374487300009,6.105098345000043],[124.48392301300011,6.106141611000056],[124.4853316760001,6.1073955790000705],[124.48718420500006,6.107341699000074],[124.48789143400006,6.107601785000041],[124.48894312900008,6.108738190000053],[124.48844623800005,6.109642582000048],[124.48848678300011,6.110794258000054],[124.48910640000008,6.112187514000028],[124.49028988300006,6.113257794000049],[124.49137102700003,6.113552213000046],[124.49189867600012,6.113236715000028],[124.492041759,6.112206954000043],[124.49333949100003,6.11229675800007],[124.49336863100007,6.113409717000025],[124.49434438800006,6.117240593000076],[124.49489786000004,6.117698451000025],[124.4970962669172,6.117602359833529],[124.49772279245134,6.117030791612691],[124.49962305493648,6.114920426068469],[124.4985492630001,6.115822370000046],[124.4970634570001,6.115761324000059],[124.49644612200005,6.114590416000055],[124.49642305700002,6.113511958000061],[124.49578682500011,6.112522814000044],[124.49416378300009,6.111245978000056],[124.49376052800007,6.109965058000057],[124.491995599,6.1096828340000675],[124.49084666500005,6.109133307000037],[124.4904662030001,6.106543409000038],[124.48896460900006,6.10420995000004],[124.48845368600008,6.103926798000033],[124.48643076900011,6.103793704000054],[124.48534721300008,6.1027758580000295],[124.48533140700012,6.101826922000043],[124.48483418200011,6.099950642000066],[124.4839528650001,6.098707315000069],[124.4836819100001,6.097761976000072],[124.48392434300001,6.096594480000021],[124.48284840500003,6.094409967000047],[124.48291335600005,6.093494183000075],[124.4840780080001,6.092799003000038],[124.48558599700004,6.093127428000059],[124.48587477800005,6.0924432320000514],[124.4848337410001,6.091361988000075],[124.48423743300008,6.090053487000034],[124.48476837800001,6.089337357000034],[124.48635489100003,6.088262015000054],[124.48728778400005,6.0860817810000745],[124.48801080500006,6.0854904570000485],[124.4884648330001,6.084160999000062],[124.48821083300002,6.083707209000066],[124.4889795140001,6.082106623000072],[124.49112042900003,6.080619757000021],[124.49144842700002,6.079300964000027],[124.49011522400006,6.077857704000053],[124.48986356000012,6.076348627000073],[124.48898995600007,6.0789327380000495],[124.48933309600011,6.080527378000056],[124.48854635700003,6.081933819000027],[124.48729378500003,6.081988178000074],[124.48695732600002,6.083442108000041],[124.48657002400013,6.083760084000063],[124.48489084300003,6.083810372000072],[124.4841092150001,6.0843698460000715],[124.48350754700006,6.085805087000039],[124.48129517200005,6.086302131000024],[124.48164722500009,6.087412063000044],[124.48135098400007,6.088453626000047],[124.48005325200005,6.088740779000033],[124.47960760300008,6.08795731500004],[124.47859929700007,6.088589635000061],[124.47834314700003,6.089833845000044],[124.47729260300004,6.090211986000044],[124.47614612300004,6.089239886000031],[124.47629154000003,6.087536534000037],[124.47733063100009,6.086544004000076],[124.47920830100007,6.085433205000071],[124.47911798300002,6.084606013000042],[124.47680523500001,6.0845641350000506],[124.47566211900006,6.083764639000037],[124.47564785900012,6.082724737000034],[124.47752117100003,6.081080388000031],[124.47695074,6.079597338000043],[124.47665364000011,6.078132010000046],[124.47789987400007,6.07764061200004],[124.47727239900007,6.076750777000029],[124.47706918300004,6.074598859000046],[124.47652595700004,6.073308495000049],[124.47645607400011,6.071135638000044],[124.476962178,6.070073864000051],[124.47960755400005,6.068717624000044],[124.48080545900007,6.068916156000057],[124.48121545700008,6.068434006000074],[124.48055589500007,6.067448435000072],[124.4791547740001,6.067494523000051],[124.47858723900003,6.067028777000074],[124.47777411800007,6.065340045000028],[124.47693275200004,6.064567304000036],[124.47681287400007,6.063319057000056],[124.47624078100013,6.062675833000071],[124.47737570100003,6.0622385850000455],[124.47925337100004,6.063479423000047],[124.47960989,6.063095354000042],[124.4822900260001,6.062680855000053],[124.48323851200007,6.06296605600005],[124.48513267600003,6.06213252200007],[124.48705788200003,6.0603362550000375],[124.48564131000012,6.059003231000076],[124.48555321800006,6.057257540000022],[124.48847942900012,6.056147122000028],[124.48929942300002,6.056702552000047],[124.49092239800005,6.056715489000054],[124.49153955500005,6.057003903000065],[124.49137912100002,6.057878407000032],[124.49020854900004,6.0589065400000655],[124.48996492700007,6.059615595000025],[124.49115332500004,6.059716045000072],[124.49228111600007,6.060996675000068],[124.49389258500003,6.061159757000041],[124.49466266700006,6.061620642000038],[124.49592557800007,6.06427264900003],[124.49632165100003,6.065599872000063],[124.49608304100002,6.066080721000048],[124.49445493400003,6.066089584000053],[124.49605630100008,6.067085203000034],[124.49679977100004,6.066691826000067],[124.4978413240001,6.066724393000073],[124.49895088100004,6.067471443000044],[124.49913655200011,6.068833232000031],[124.4980857180001,6.069461815000068],[124.49880122200011,6.070362874000068],[124.49877974300011,6.071480219000024],[124.5003104010001,6.072345246000052],[124.5011850620001,6.071366772000033],[124.50108523700011,6.07053483200002],[124.502007434,6.069182926000052],[124.50404118000007,6.069979416000023],[124.50465914700008,6.069809246000032],[124.50483978400008,6.068263533000048],[124.50612060600008,6.0685590190000775],[124.5062759440001,6.069871711000077],[124.50801393886971,6.0694921966978965],[124.50759715885218,6.068336334872469],[124.50755717600009,6.068320020000045],[124.50757882189521,6.068285480568852],[124.50737772469292,6.067727772166803],[124.50580325126612,6.064419230168014],[124.50434337000002,6.063736324000046],[124.5012808670001,6.061841976000039],[124.500377683,6.060896571000059],[124.4994923270001,6.061404726000034],[124.49887749000005,6.06119771300007],[124.49647854800004,6.0621120060000635],[124.49512377300005,6.061568399000066],[124.49433348800007,6.060676175000025],[124.494730881,6.058706111000049],[124.49391556800005,6.056370013000049],[124.49420766000004,6.055577362000066],[124.4935140120001,6.055194969000071],[124.493058732,6.0570836230000396],[124.49250731600013,6.057258524000076],[124.492108013,6.056029489000024],[124.4921365350001,6.054346651000059],[124.49245977900013,6.053127062000043],[124.49144726400004,6.05332560000005],[124.49076750000006,6.052276186000028],[124.48938523900006,6.052639290000058],[124.48794125000006,6.053903251000066],[124.48647238900004,6.05402379100002],[124.48666491000006,6.05460522200002],[124.48779864300003,6.054984569000055],[124.48573796000005,6.056501959000057],[124.48526735300005,6.0573315570000545],[124.48529477400008,6.0595847360000334],[124.48359298700005,6.060388331000069],[124.4845389520001,6.0614377290000325],[124.48347414700004,6.062472946000071],[124.48166778100006,6.061957701000041],[124.48112587100003,6.0622365950000585],[124.48038906400006,6.061593721000065],[124.48007981900003,6.060657981000078],[124.47870411300005,6.0590499900000605],[124.47832857900005,6.05948960400002],[124.47702134000006,6.059900856000071],[124.47621322900012,6.060543731000053],[124.472880959,6.060151389000054],[124.47158798200009,6.0593997900000405],[124.46914463400003,6.059447060000024],[124.46811310500004,6.060841141000026],[124.4669185140001,6.060407241000065],[124.46572679900011,6.060784416000048],[124.46482724200008,6.059984721000035],[124.4642995920001,6.060410154000066],[124.46333841600006,6.060120859000051],[124.46270238500006,6.061303561000047],[124.46299710800007,6.061757355000054],[124.46437457600007,6.061646346000031],[124.46510295000007,6.062622398000029],[124.46448498200004,6.064300484000057],[124.46520691500008,6.066104163000033],[124.46461865800006,6.0666418560000475],[124.46495735100007,6.067545890000077],[124.46449159100008,6.069264866000025],[124.4653079290001,6.070429330000023],[124.4662051700001,6.07035842600004],[124.46667458800006,6.069489850000024],[124.46736980100002,6.069135329000061],[124.46844530200008,6.069838462000063],[124.46866515500007,6.070718855000052],[124.467797624,6.071492890000059],[124.46791874900009,6.0725941730000255],[124.4698713800001,6.072473728000034],[124.47110460300007,6.073061881000059],[124.4698476120001,6.073850442000037],[124.47127963200012,6.074748554000053],[124.47191542600001,6.075475315000062],[124.47356135800011,6.076408876000072],[124.47370396500004,6.0770706390000555],[124.47450355200012,6.077730943000062],[124.47585223300005,6.079502142000023],[124.47538678600006,6.080474759000027],[124.47588432000009,6.081721398000069],[124.47533149400009,6.082479670000055],[124.47520377900004,6.0834900890000645],[124.47569001700003,6.084721988000069],[124.47714818200008,6.0850055960000295],[124.47773588700011,6.086148091000041],[124.47636740400004,6.086632799000029],[124.47587897300002,6.088703132000035],[124.47607196300011,6.089887506000025],[124.47772217900001,6.0907770020000385],[124.47845755700008,6.09001875900003],[124.47878279400004,6.088761690000069],[124.48038010200003,6.089397361000068],[124.4814202970001,6.089538069000071],[124.48193161400002,6.08858556000007],[124.48186276700005,6.086938208000048],[124.48237669000001,6.086479203000067],[124.483673887,6.08642771500007],[124.48407299500003,6.08718366000005],[124.48383878300002,6.0885028680000355],[124.4832170420001,6.089460201000065],[124.48227899300002,6.089595528000075],[124.4814804570001,6.090411245000042],[124.4796021960001,6.089745961000064],[124.47936532300004,6.090536686000062],[124.48164994600006,6.093524499000067],[124.48163024300005,6.095055891000071],[124.48133541800007,6.096504294000056],[124.48157885600006,6.098106743000073],[124.48228707500004,6.099217407000025],[124.48147536100011,6.099590511000031],[124.47987183000008,6.098877104000052],[124.47899625600006,6.097754932000041],[124.47797837600002,6.097039910000036],[124.4774287660001,6.094408115000024],[124.47637829800011,6.09345135700005],[124.47709133700003,6.092203497000072],[124.47680909300006,6.091575085000044],[124.47566580500008,6.0910617300000345],[124.4740423820001,6.09124412400007],[124.47243566600004,6.090591831000039],[124.47159903400006,6.090601285000048],[124.47133456100005,6.089667104000057],[124.47220749400003,6.08862549400004],[124.47122825400005,6.087292541000067],[124.47119973200006,6.08622428500007],[124.47205040900008,6.085275358000046],[124.47179868500005,6.084423371000072],[124.47081479500002,6.084803530000046],[124.47051521500009,6.083941236000044],[124.47083845900012,6.0831471290000545],[124.46999231900008,6.082872972000077],[124.46916989400007,6.082125884000049],[124.46780322200006,6.081786157000068],[124.46676888800005,6.081157286000063],[124.46598567600007,6.077929223000068],[124.46598338400008,6.077082202000043],[124.46527744800005,6.075906891000044],[124.46369658900005,6.074705235000067],[124.4621614350001,6.074494042000025],[124.4611131280001,6.0739944000000605],[124.46043697400013,6.07322097900004],[124.459384149,6.0710416420000675],[124.4598545980001,6.069087257000034],[124.4584049570001,6.068431190000069],[124.45711793800002,6.067297424000059],[124.45583941400004,6.067023875000075],[124.45431529200005,6.067818596000051],[124.45326950100002,6.068701946000034],[124.45257131700009,6.068433101000038],[124.45205436300012,6.067269086000067],[124.45130444600011,6.069227044000059],[124.45025988200008,6.070439690000057],[124.44905695300008,6.069455138000023],[124.44840840000005,6.069630713000037],[124.44744641200009,6.0705501190000755],[124.44709210400003,6.071431795000024],[124.4471118130001,6.0729496890000405],[124.4461036990001,6.07328813700002],[124.44569726700001,6.073972357000059],[124.44442449200007,6.074319784000067],[124.44321589000005,6.07619872600003],[124.44182902900002,6.07747143900002],[124.44122294600002,6.078432176000034],[124.4400214750001,6.07896394900007],[124.43940826100005,6.079828964000058],[124.43796435600005,6.080215385000031],[124.43764824300001,6.081003587000054],[124.43693045000009,6.081405369000038],[124.43604628199999,6.081154846000061],[124.43551863200004,6.081551901000067],[124.43573254400007,6.082449999999999],[124.43445858100006,6.08270052200004],[124.4319189250001,6.0849469920000265],[124.43019936000009,6.085933666000074],[124.42974563900007,6.086826106000047],[124.42890119800006,6.087510627000028],[124.42574563800008,6.087783063000074],[124.4250682510001,6.08802531200007],[124.42339039400008,6.089245919000064],[124.42189203000011,6.08977455300004],[124.42212079700003,6.091098048000049],[124.42155847000004,6.091696885000033],[124.42105131409502,6.091695772030379],[124.42141194751345,6.0940859571999235],[124.42201343990409,6.096462989997707],[124.4226768840001,6.096524466000061]],[[124.4750694160001,6.063342341000065],[124.47406165300004,6.063895399000045],[124.47301110900001,6.0639521230000355],[124.47201891000009,6.063445621000027],[124.47139627300011,6.0622004730000745],[124.47364968100011,6.061769489000027],[124.47413345200005,6.061046490000025],[124.47531660200002,6.060889022000028],[124.47592022300013,6.061301403000072],[124.47597735200009,6.062274037000066],[124.4750694160001,6.063342341000065]],[[124.49905996400003,6.0667431890000225],[124.49906105600007,6.064863520000074],[124.49977988000012,6.064060018000021],[124.50135512100009,6.064048064000076],[124.5013979040001,6.065065549000052],[124.5007597340001,6.067306136000069],[124.49972258700008,6.067373501000018],[124.49905996400003,6.0667431890000225]]]}},{"type":"Feature","properties":{"fid":214,"objectid":10023,"lccode":"02","liqcode":null,"mappers":"OPCHalasan, KSSochayseng, AATMagnaye, RPADizon, MJVReyes, HALVidal, MITAbigania, DJLBuhay","project":"ACER-DeLTA Liquefaction","province":"Sarangani","otherinfo":null,"datemapped":2025,"publishdate":2025,"globalid":"{80FA53E4-996E-4B30-88CB-5CF3D52CBB3A}","st_area(shape)":0.00512214156560372,"st_perimeter(shape)":11.803879412251622,"liqcodepk":null,"creator":null,"createdate":null,"editor":"DJLB","modifydate":"2025-07-07T08:00:00","codemove":null},"geometry":{"type":"MultiPolygon","coordinates":[[[[124.44062285100006,6.079689019000058],[124.44062441183114,6.0797203850173345],[124.44064126065832,6.079693332520559],[124.44062285100006,6.079689019000058]]],[[[124.44058041900006,6.081364639000071],[124.43920579033782,6.082003934077179],[124.4394998140001,6.082206065000035],[124.44070802000012,6.0814005330000205],[124.44062441183114,6.0797203850173345],[124.44036650700002,6.080134477000058],[124.44058041900006,6.081364639000071]]],[[[124.43920068800001,6.082006307000029],[124.43920579033782,6.082003934077179],[124.43853721100004,6.081544308000048],[124.4383638938446,6.081570702775044],[124.43920068800001,6.082006307000029]]],[[[124.4237858580001,6.0992161240000655],[124.42335803500009,6.1003889310000545],[124.42383478400008,6.101095596000049],[124.42441785700011,6.10321279100003],[124.42515396400006,6.103801495000028],[124.42727677900007,6.104356370000062],[124.42844206600012,6.100826888000029],[124.42923928400012,6.099571244000061],[124.42982886500012,6.097712444000025],[124.42951393900012,6.096433280000042],[124.43259486200009,6.094684394000069],[124.43352478500005,6.094371248000074],[124.43475319000004,6.093417652000028],[124.43589564000001,6.093065488000036],[124.43588375600007,6.091301820000068],[124.43725868500007,6.091022449000035],[124.43842098700009,6.090453958000069],[124.43964800900005,6.090258978000064],[124.44014713600008,6.089381572000037],[124.44210799400004,6.0881821520000585],[124.44070585300007,6.0876185640000235],[124.44048583000004,6.086081683000031],[124.43835895200006,6.084935806000032],[124.43816880800013,6.084049528000037],[124.43682591700008,6.08231241900006],[124.43721808900013,6.08174519800002],[124.4383638938446,6.081570702775044],[124.43806339000001,6.081414271000027],[124.43688687500003,6.081786510000028],[124.43666939800006,6.082250921000027],[124.4379140650001,6.08396749700006],[124.43828888000009,6.085225493000052],[124.44033727200008,6.086474222000049],[124.44012257600002,6.08704555600002],[124.43877984600009,6.08732949900002],[124.43771799600006,6.088447184000075],[124.43673066100007,6.089093005000051],[124.43539512600012,6.088891366000041],[124.43462742000008,6.089794179000022],[124.43417820600007,6.089193880000039],[124.43294824700001,6.089539236000065],[124.43224184300004,6.0908117130000505],[124.43244076700013,6.09181959600005],[124.43119094100007,6.093363042000021],[124.43100633800009,6.094663467000032],[124.42996746000006,6.095711333000053],[124.42894212100009,6.095877497000061],[124.42835980700009,6.097068628000045],[124.42708226600007,6.097419793000029],[124.42668465600002,6.098564255000042],[124.4258989870001,6.099140867000075],[124.42538049100006,6.100698725000028],[124.42392767300011,6.100279233000037],[124.4244775940001,6.099100012000065],[124.42417049600009,6.098225929000022],[124.42296942100005,6.09745643100007],[124.4226768840001,6.096524466000061],[124.42201343990409,6.096462989997707],[124.42238074879324,6.097914539199202],[124.4237858580001,6.0992161240000655]]],[[[124.4857686843411,6.057175776984032],[124.48633675003308,6.056960212600347],[124.48576624500002,6.0571342360000235],[124.4857686843411,6.057175776984032]]],[[[124.48555321800006,6.057257540000022],[124.48564131000012,6.059003231000076],[124.48705788200003,6.0603362550000375],[124.48513267600003,6.06213252200007],[124.48323851200007,6.06296605600005],[124.4822900260001,6.062680855000053],[124.47960989,6.063095354000042],[124.47925337100004,6.063479423000047],[124.47737570100003,6.0622385850000455],[124.47702672051673,6.062373036204426],[124.47797985700004,6.063090294000062],[124.47926332800013,6.063671715000055],[124.48147374900009,6.062962665000045],[124.48341321600005,6.063161199000035],[124.48556659400003,6.062111803000051],[124.48600867800008,6.061459475000049],[124.48712101900003,6.06094895700005],[124.48704971600012,6.060055549000025],[124.48588033100008,6.059077053000066],[124.4857686843411,6.057175776984032],[124.48555321800006,6.057257540000022]]],[[[124.49596123000003,6.065646430000072],[124.49434797900005,6.065870962000076],[124.4945647754439,6.066088986205055],[124.49608304100002,6.066080721000048],[124.49632165100003,6.065599872000063],[124.49592557800007,6.06427264900003],[124.49466266700006,6.061620642000038],[124.49389258500003,6.061159757000041],[124.49228111600007,6.060996675000068],[124.49115332500004,6.059716045000072],[124.48996492700007,6.059615595000025],[124.49020854900004,6.0589065400000655],[124.49137912100002,6.057878407000032],[124.49153955500005,6.057003903000065],[124.49092239800005,6.056715489000054],[124.48929942300002,6.056702552000047],[124.48847942900012,6.056147122000028],[124.48633675003308,6.056960212600347],[124.48809075300005,6.05642517800004],[124.4890319650001,6.0568506130000515],[124.49094291000006,6.056836432000067],[124.49119960400003,6.057715664000057],[124.48981630800006,6.058921061000036],[124.48995891500012,6.059857014000044],[124.49119960400003,6.060069730000064],[124.49248307400002,6.061346027000069],[124.49438971700009,6.062014358000055],[124.49571451800011,6.064199646000021],[124.49596123000003,6.065646430000072]]],[[[124.47693393228553,6.0624087845465136],[124.47702672051673,6.062373036204426],[124.47692455900005,6.062296157000048],[124.47693393228553,6.0624087845465136]]],[[[124.47139627300011,6.0622004730000745],[124.47166982788679,6.0627475284268835],[124.47256551300006,6.0623079740000225],[124.4737063760001,6.061929813000064],[124.47459767500004,6.061232578000045],[124.4753107140001,6.061197126000024],[124.47552462600004,6.06247342000006],[124.4737301440001,6.063879703000055],[124.47254174500007,6.063501543000029],[124.47169189867793,6.06279166555527],[124.47201891000009,6.063445621000027],[124.47301110900001,6.0639521230000355],[124.47406165300004,6.063895399000045],[124.4750694160001,6.063342341000065],[124.47597735200009,6.062274037000066],[124.47592022300013,6.061301403000072],[124.47531660200002,6.060889022000028],[124.47413345200005,6.061046490000025],[124.47364968100011,6.061769489000027],[124.47139627300011,6.0622004730000745]]],[[[124.47169189867793,6.06279166555527],[124.47166982788679,6.0627475284268835],[124.47165044600003,6.062757040000065],[124.47169189867793,6.06279166555527]]],[[[124.49906105600007,6.064863520000074],[124.49905996400003,6.0667431890000225],[124.49972258700008,6.067373501000018],[124.5007597340001,6.067306136000069],[124.5013979040001,6.065065549000052],[124.50135512100009,6.064048064000076],[124.49977988000012,6.064060018000021],[124.49906105600007,6.064863520000074]],[[124.49924120000004,6.065520363000076],[124.5004010770001,6.0641873520000305],[124.50112362400013,6.064688413000057],[124.50048664200006,6.065907975000072],[124.50047713500008,6.067070811000064],[124.49943134400007,6.066550844000063],[124.49924120000004,6.065520363000076]]],[[[124.49445493400003,6.066089584000053],[124.49474420937703,6.066269436075933],[124.4945647754439,6.066088986205055],[124.49445493400003,6.066089584000053]]],[[[124.49561848600003,6.076612114000056],[124.49501846100009,6.077313455000024],[124.49721699900012,6.077927949000071],[124.49729561800008,6.075723591000043],[124.49798351600009,6.074914559000035],[124.4989995960001,6.075221807000047],[124.49944177300007,6.0738315140000605],[124.5005959350001,6.073216944000025],[124.50236870700007,6.0729647090000745],[124.50138827800004,6.0715939010000275],[124.50151738000011,6.070838980000075],[124.50278896600003,6.0699999480000315],[124.50476170800006,6.070011765000059],[124.5052014150001,6.06835733300005],[124.5059263390001,6.06861731500004],[124.50600655100006,6.07072830200002],[124.50707932100012,6.070417840000061],[124.5083122850001,6.071123926000042],[124.50842967962689,6.070645169145493],[124.50801393886971,6.0694921966978965],[124.5062759440001,6.069871711000077],[124.50612060600008,6.0685590190000775],[124.50483978400008,6.068263533000048],[124.50465914700008,6.069809246000032],[124.50404118000007,6.069979416000023],[124.502007434,6.069182926000052],[124.50108523700011,6.07053483200002],[124.5011850620001,6.071366772000033],[124.5003104010001,6.072345246000052],[124.49877974300011,6.071480219000024],[124.49880122200011,6.070362874000068],[124.4980857180001,6.069461815000068],[124.49913655200011,6.068833232000031],[124.49895088100004,6.067471443000044],[124.4978413240001,6.066724393000073],[124.49679977100004,6.066691826000067],[124.49605630100008,6.067085203000034],[124.49474420937703,6.066269436075933],[124.49572568500004,6.067256465000071],[124.49768202100007,6.066966817000035],[124.49870002600005,6.067684272000065],[124.49849963900012,6.06893323300005],[124.49777198100004,6.069825632000061],[124.49745106500006,6.071705213000029],[124.49785313000005,6.073226216000023],[124.49765789500009,6.074030234000077],[124.49530486600008,6.074781812000026],[124.49561848600003,6.076612114000056]]],[[[124.45387218500247,6.074118288068256],[124.45394806370018,6.073539003802312],[124.45364787000005,6.073604585000055],[124.45387218500247,6.074118288068256]]],[[[124.47662746000002,6.071140322000074],[124.47738328100002,6.0700625800000685],[124.4781676240001,6.069637155000065],[124.48108858400009,6.069015716000024],[124.48147215100005,6.068483640000068],[124.48135449900008,6.067466161000025],[124.48067711200008,6.067097458000035],[124.47930451200011,6.067196724000042],[124.47794260600006,6.065179487000024],[124.47709568900005,6.0643524030000435],[124.47693393228553,6.0624087845465136],[124.47624078100013,6.062675833000071],[124.47681287400007,6.063319057000056],[124.47693275200004,6.064567304000036],[124.47777411800007,6.065340045000028],[124.47858723900003,6.067028777000074],[124.4791547740001,6.067494523000051],[124.48055589500007,6.067448435000072],[124.48121545700008,6.068434006000074],[124.48080545900007,6.068916156000057],[124.47960755400005,6.068717624000044],[124.476962178,6.070073864000051],[124.47645607400011,6.071135638000044],[124.47652595700004,6.073308495000049],[124.47706918300004,6.074598859000046],[124.47727239900007,6.076750777000029],[124.47789987400007,6.07764061200004],[124.47665364000011,6.078132010000046],[124.47695074,6.079597338000043],[124.47752117100003,6.081080388000031],[124.47564785900012,6.082724737000034],[124.47566211900006,6.083764639000037],[124.47680523500001,6.0845641350000506],[124.47911798300002,6.084606013000042],[124.47918033070488,6.085177035109362],[124.47920034300012,6.084460655000044],[124.47653833000005,6.084354301000077],[124.47581340600004,6.083798900000033],[124.47588471000006,6.082723547000056],[124.47779803200001,6.081151873000067],[124.47676412500005,6.078268490000028],[124.47804759600002,6.077748534000023],[124.47760788800008,6.076720437000063],[124.47729022600002,6.074219525000047],[124.4767130240001,6.0735368710000435],[124.47662746000002,6.071140322000074]]],[[[124.4538616010001,6.074199090000036],[124.4533716277411,6.074798973753055],[124.45396160800011,6.074323075000051],[124.45387218500247,6.074118288068256],[124.4538616010001,6.074199090000036]]],[[[124.45394806370018,6.073539003802312],[124.45490281900004,6.073330424000062],[124.45611974000008,6.074304167000037],[124.45733666,6.0746634120000635],[124.45817329200008,6.075542615000074],[124.45936052063762,6.075882473337209],[124.45812795200003,6.075347728000055],[124.45773042300006,6.074677982000025],[124.45627082400007,6.074228387000062],[124.45541250900008,6.073447606000059],[124.4540089620001,6.073074085000031],[124.45394806370018,6.073539003802312]]],[[[124.45049793680816,6.074500493638936],[124.450498433,6.074503976000072],[124.45051671560043,6.074508697453586],[124.45049793680816,6.074500493638936]]],[[[124.45295186865293,6.0751375653623105],[124.45051671560043,6.074508697453586],[124.45260208,6.075419716000055],[124.45295186865293,6.0751375653623105]]],[[[124.45307012800005,6.075168105000045],[124.4533716277411,6.074798973753055],[124.45295186865293,6.0751375653623105],[124.45307012800005,6.075168105000045]]],[[[124.44793405000007,6.071666547000063],[124.44762982000009,6.0706549840000426],[124.44898934800005,6.069974304000025],[124.45024429700004,6.071553101000062],[124.45007316700004,6.072829370000021],[124.45032986100011,6.074427067000044],[124.45049793680816,6.074500493638936],[124.45021084000007,6.072485584000048],[124.45036677900009,6.07146910900002],[124.44891786200002,6.069779415000028],[124.44825199500006,6.069964451000032],[124.4474006380001,6.070862402000046],[124.44780314500007,6.071660736000069],[124.44728215100008,6.07322203800004],[124.44609047500012,6.073535205000041],[124.44576960700012,6.074114252000073],[124.44440294900006,6.074575125000024],[124.44355311800008,6.076978730000064],[124.44338926100012,6.078512198000055],[124.4424202770001,6.080551897000021],[124.44175477400005,6.079866504000051],[124.44075511300002,6.079510531000039],[124.44064126065832,6.079693332520559],[124.44165675800002,6.07993127000003],[124.44290855000008,6.081699103000061],[124.44373211100003,6.081224055000062],[124.44324938800003,6.080543493000049],[124.44363419600006,6.078707313000052],[124.4436748290001,6.077431479000039],[124.44440212900008,6.074893139000039],[124.445970815,6.074141561000034],[124.44628244700004,6.073576426000044],[124.4474016470001,6.073320970000054],[124.44793405000007,6.071666547000063]]],[[[124.45936052063762,6.075882473337209],[124.45943932786484,6.075916663417118],[124.45942824100007,6.075901859000056],[124.45936052063762,6.075882473337209]]],[[[124.50755717600009,6.068320020000045],[124.50759715885218,6.068336334872469],[124.50757882189521,6.068285480568852],[124.50755717600009,6.068320020000045]]],[[[124.48795983100003,6.085632510000039],[124.48897163900007,6.084962539000059],[124.49105216600002,6.084581318000061],[124.49251602500009,6.0855053480000265],[124.49311543100009,6.08552863700004],[124.49324023500004,6.084250852000025],[124.49376758200003,6.0839400420000525],[124.49422066400007,6.082208863000061],[124.49357179800006,6.081875621000052],[124.4930372680001,6.083289495000032],[124.49161094000011,6.083609186000046],[124.49125266300007,6.082405118000055],[124.49190090900004,6.080243677000055],[124.4918391120001,6.078116589000048],[124.49089790100005,6.077142852000065],[124.49023715100007,6.076930143000025],[124.49017535500002,6.075644429000022],[124.48873501500009,6.0756302480000395],[124.48854011900004,6.07614075300006],[124.48886336300006,6.077473733000032],[124.48802673000012,6.079577190000065],[124.48851635000004,6.081151232000024],[124.48767496399999,6.0815010190000285],[124.48649607300001,6.0808676210000385],[124.48686793200012,6.0825320910000755],[124.48599694500001,6.08354773700006],[124.48485132900011,6.083538284000043],[124.48396796300005,6.084097360000044],[124.48343000400006,6.085381742000038],[124.48291661600001,6.0857457060000675],[124.48185656400005,6.085216303000038],[124.48107801200001,6.086150489000033],[124.48147018400006,6.087757599000043],[124.48061839500942,6.088615728534094],[124.48135098400007,6.088453626000047],[124.48164722500009,6.087412063000044],[124.48129517200005,6.086302131000024],[124.48350754700006,6.085805087000039],[124.4841092150001,6.0843698460000715],[124.48489084300003,6.083810372000072],[124.48657002400013,6.083760084000063],[124.48695732600002,6.083442108000041],[124.48729378500003,6.081988178000074],[124.48854635700003,6.081933819000027],[124.48933309600011,6.080527378000056],[124.48898995600007,6.0789327380000495],[124.48986356000012,6.076348627000073],[124.49011522400006,6.077857704000053],[124.49144842700002,6.079300964000027],[124.49112042900003,6.080619757000021],[124.4889795140001,6.082106623000072],[124.48821083300002,6.083707209000066],[124.4884648330001,6.084160999000062],[124.48801080500006,6.0854904570000485],[124.48728778400005,6.0860817810000745],[124.48635489100003,6.088262015000054],[124.48476837800001,6.089337357000034],[124.48423743300008,6.090053487000034],[124.4848337410001,6.091361988000075],[124.48587477800005,6.0924432320000514],[124.48558599700004,6.093127428000059],[124.4840780080001,6.092799003000038],[124.48357416241548,6.093099748562712],[124.48457289500006,6.093077178000044],[124.48600693000004,6.0936186230000535],[124.48768233200008,6.093393306000053],[124.48610473300005,6.092131266000025],[124.4854219980001,6.090979120000044],[124.484454055,6.090241126000024],[124.48477492300003,6.089555745000041],[124.4859157850001,6.088988532000029],[124.4874131670001,6.086991465000039],[124.48795983100003,6.085632510000039]]],[[[124.47920830100007,6.085433205000071],[124.47918033070488,6.085177035109362],[124.47917258430968,6.085454334504778],[124.47920830100007,6.085433205000071]]],[[[124.47614612300004,6.089239886000031],[124.47729260300004,6.090211986000044],[124.47834314700003,6.089833845000044],[124.47859929700007,6.088589635000061],[124.47960760300008,6.08795731500004],[124.48005325200005,6.088740779000033],[124.48052661100708,6.08863603782891],[124.47941425400005,6.0877694160000715],[124.4784516510001,6.0886675050000445],[124.4782020880001,6.089731029000063],[124.477120645,6.090002818000073],[124.4762293460001,6.088939295000045],[124.47662151800012,6.087344005000032],[124.47916469100005,6.085736894000035],[124.47917258430968,6.085454334504778],[124.47733063100009,6.086544004000076],[124.47629154000003,6.087536534000037],[124.47614612300004,6.089239886000031]]],[[[124.48061839500942,6.088615728534094],[124.48052661100708,6.08863603782891],[124.48056700100007,6.088667505000044],[124.48061839500942,6.088615728534094]]],[[[124.48349760779034,6.0931454439759625],[124.48357416241548,6.093099748562712],[124.483527104,6.093100812000045],[124.48349760779034,6.0931454439759625]]],[[[124.48349760779034,6.0931454439759625],[124.48291335600005,6.093494183000075],[124.48284840500003,6.094409967000047],[124.4839150874365,6.096575688227445],[124.48400246300002,6.095913215000052],[124.48333696000007,6.095097856000051],[124.48298044100011,6.093927990000055],[124.48349760779034,6.0931454439759625]]],[[[124.4642889270001,6.086829551000049],[124.4627499520001,6.087308139000071],[124.46301377600003,6.088396482000065],[124.46405872100003,6.088670895000065],[124.46540958800007,6.08940328500006],[124.46561993400009,6.090470353000056],[124.4651528930001,6.0912396330000425],[124.46481776500002,6.092966078000073],[124.46130961200005,6.093320584000026],[124.46390329200007,6.094541854000056],[124.46538641400002,6.094236979000073],[124.46630501700008,6.094722733000027],[124.46870501700005,6.0954736090000665],[124.47008058800009,6.095704036000027],[124.47049528600007,6.097334372000033],[124.47221376400012,6.09675573000004],[124.4729618880001,6.097143801000071],[124.4731761690001,6.09787005100003],[124.4717353840001,6.100924080000026],[124.47012213300003,6.101405609000038],[124.4701554080001,6.102438385000027],[124.46926410900006,6.103072938000025],[124.46914289200004,6.10449802200003],[124.46791289900013,6.105795483000066],[124.46675064600004,6.106096806000041],[124.46674351500009,6.10683132300005],[124.465785503,6.108449981000035],[124.46402921300012,6.11050743800007],[124.463462347,6.112171194000041],[124.46162815300012,6.113379028000054],[124.46208340800001,6.114026370000034],[124.46308206000003,6.113063334000059],[124.46399712600008,6.11264385100003],[124.46444379400009,6.111793743000019],[124.46711290900008,6.1101218270000555],[124.46738505300003,6.109492008000074],[124.46938512700001,6.107081439000069],[124.4715278110001,6.106780118000074],[124.47327832100008,6.105447209000033],[124.47407116700005,6.105253599000037],[124.47554935100004,6.104199377000042],[124.47548925100011,6.102994339000077],[124.47624831000009,6.102601785000047],[124.47656901323967,6.101421408452742],[124.47630346900007,6.10212413000005],[124.47531050300006,6.102852145000043],[124.47485772300001,6.102564999999999],[124.4736337920001,6.103475590000073],[124.47279299900002,6.103059053000039],[124.47286430300007,6.10171195600003],[124.47223742300001,6.100403259000075],[124.47304640000004,6.0989254910000446],[124.47348274600006,6.097200218000068],[124.47227604600005,6.096291035000035],[124.47080243200001,6.096234906000065],[124.47008526800005,6.0954078460000565],[124.46855338800003,6.095014822000053],[124.46726219200002,6.093571790000055],[124.46679812200013,6.091766765000044],[124.466168271,6.090648887000042],[124.466970176,6.089481848000048],[124.46623719800003,6.089193043000024],[124.46574995500009,6.087590664000062],[124.46531121600005,6.084869954000054],[124.46412422600008,6.084045561000038],[124.46411234100003,6.082766954000023],[124.46291098700011,6.081503440000063],[124.46188164999998,6.078450345000022],[124.46013484800007,6.077655897000055],[124.45985247100009,6.076095903000067],[124.45943932786484,6.075916663417118],[124.45976099300002,6.076346186000023],[124.4595721730001,6.078140449000045],[124.46130485900005,6.07845951300004],[124.46196442000009,6.079111821000027],[124.46210346200009,6.080164729000045],[124.46267599900013,6.081649276000062],[124.46363475200008,6.082552465000048],[124.46330493300002,6.083880023000063],[124.46499483700006,6.084897470000043],[124.46502335800007,6.086336783000036],[124.4642889270001,6.086829551000049]]],[[[124.48389218044072,6.096749366872289],[124.48392434300001,6.096594480000021],[124.4839150874365,6.096575688227445],[124.48389218044072,6.096749366872289]]],[[[124.47656901323967,6.101421408452742],[124.47685599806401,6.100661946255161],[124.47676321400003,6.100706634000062],[124.47656901323967,6.101421408452742]]],[[[124.48833298800004,6.111245279000059],[124.48923141700004,6.112899579000042],[124.49081436400002,6.113778720000028],[124.49202653100008,6.113693642000043],[124.49215487800006,6.112545087000058],[124.49257175128798,6.112243630241319],[124.492041759,6.112206954000043],[124.49189867600012,6.113236715000028],[124.49137102700003,6.113552213000046],[124.49028988300006,6.113257794000049],[124.48910640000008,6.112187514000028],[124.48848678300011,6.110794258000054],[124.48844623800005,6.109642582000048],[124.48894312900008,6.108738190000053],[124.48789143400006,6.107601785000041],[124.48718420500006,6.107341699000074],[124.4853316760001,6.1073955790000705],[124.48392301300011,6.106141611000056],[124.48374487300009,6.105098345000043],[124.48307076100002,6.104178168000031],[124.48048188900007,6.103227894000042],[124.47998276200009,6.10277413500006],[124.47945491500003,6.10090923000007],[124.4791281040001,6.10053995900006],[124.47697941100012,6.100335352000059],[124.47685599806401,6.100661946255161],[124.4773716740001,6.100413580000065],[124.47845685800006,6.100602232000028],[124.4793412250001,6.101567495000039],[124.47957276400008,6.102605157000027],[124.48019667400003,6.103342515000064],[124.48308741400001,6.104503648000046],[124.48359787000004,6.106054424000035],[124.48532871600003,6.107719238000073],[124.48778404400004,6.1076666850000265],[124.4884179500001,6.1086914020000345],[124.48833298800004,6.111245279000059]]],[[[124.49696076200007,6.115310122000038],[124.49667554600002,6.114374266000028],[124.49675216800006,6.11322106600005],[124.49622543800001,6.112376741000047],[124.49525800700009,6.111885108000024],[124.49414305400013,6.1108469020000475],[124.49377449200006,6.109828636000032],[124.491191145,6.109225667000032],[124.49067037200007,6.106933278000041],[124.49072806300002,6.105607698000028],[124.49034296900005,6.104952386000036],[124.48903124800006,6.103905528000041],[124.48620470500009,6.103559551000047],[124.48547607800005,6.102601475000029],[124.48513144200001,6.099954541000044],[124.48419260700005,6.09873742000002],[124.48381232000008,6.097354861000041],[124.48389218044072,6.096749366872289],[124.4836819100001,6.097761976000072],[124.4839528650001,6.098707315000069],[124.48483418200011,6.099950642000066],[124.48533140700012,6.101826922000043],[124.48534721300008,6.1027758580000295],[124.48643076900011,6.103793704000054],[124.48845368600008,6.103926798000033],[124.48896460900006,6.10420995000004],[124.4904662030001,6.106543409000038],[124.49084666500005,6.109133307000037],[124.491995599,6.1096828340000675],[124.49376052800007,6.109965058000057],[124.49416378300009,6.111245978000056],[124.49578682500011,6.112522814000044],[124.49642305700002,6.113511958000061],[124.49644612200005,6.114590416000055],[124.4970634570001,6.115761324000059],[124.4985492630001,6.115822370000046],[124.49962305493648,6.114920426068469],[124.50009980978822,6.114390955641429],[124.49844658200004,6.115561015000025],[124.49696076200007,6.115310122000038]]],[[[124.49257175128798,6.112243630241319],[124.49283258178268,6.112261679895861],[124.49278235300004,6.112091336000049],[124.49257175128798,6.112243630241319]]],[[[124.49489786000004,6.117698451000025],[124.49434438800006,6.117240593000076],[124.49336863100007,6.113409717000025],[124.49333949100003,6.11229675800007],[124.49283258178268,6.112261679895861],[124.49437956000008,6.117507961000057],[124.4948501660001,6.117749013000035],[124.49704866833468,6.117645783114983],[124.4970962669172,6.117602359833529],[124.49489786000004,6.117698451000025]]]]}}]}