{"type":"FeatureCollection","features":[{"type":"Feature","properties":{"fid":171,"objectid":9613,"lccode":"01","liqcode":"2010600010000000","mappers":"DJLBuhay, MJVReyes, MITAbigania, KLPapiona, KMVitto","project":"MELP","province":"Nueva Ecija","otherinfo":"hazard boundary with Pangasinan updated on 2024","datemapped":2018,"publishdate":null,"globalid":"{142EC992-C228-490B-8C06-5B4A68BA1242}","st_area(shape)":0.21874224791512728,"st_perimeter(shape)":7.9099228422392365,"liqcodepk":"201060001000000000019","creator":"SNOOPYPC","createdate":"2019-02-19T15:21:28","editor":"LENOVO","modifydate":"2019-03-10T17:53:06","codemove":"na"},"geometry":{"type":"Polygon","coordinates":[]}},{"type":"Feature","properties":{"fid":174,"objectid":9616,"lccode":"07","liqcode":null,"mappers":"DJLBuhay, MITAbigania","project":"LiquePhi","province":"Pangasinan","otherinfo":null,"datemapped":2024,"publishdate":null,"globalid":"{4C1C6B5C-6BC5-4098-AF34-1358D72BE295}","st_area(shape)":0.0990952810399136,"st_perimeter(shape)":16.14272038398808,"liqcodepk":null,"creator":null,"createdate":null,"editor":null,"modifydate":null,"codemove":null},"geometry":{"type":"MultiPolygon","coordinates":[[[[120.5798419990001,16.01822300200007],[120.58017347100008,16.019473491000042],[120.58027582300008,16.021611401000033],[120.5801379840001,16.023078502000033],[120.58058325900005,16.025632062000053],[120.58151662900002,16.027603889000034],[120.58259570200006,16.029020860000056],[120.58531050300007,16.031552731000033],[120.58649890200002,16.033408767000026],[120.58813295000006,16.03637839000004],[120.59003438800005,16.04203197100003],[120.59089597700007,16.046828824000045],[120.59098510700005,16.050369283000066],[120.59077713700003,16.052282248000036],[120.58949500900007,16.058237545000054],[120.58941136500005,16.05920070500002],[120.589618448,16.062160845000047],[120.59021264800003,16.06461614300002],[120.5916595860001,16.067351117000044],[120.59157911700005,16.069101526000054],[120.5922750430001,16.070603434000073],[120.5936726000001,16.071370828000052],[120.595070157,16.07254932000006],[120.59725391000006,16.07298105800004],[120.59803596400002,16.073367207000047],[120.60126475500012,16.076549601000067],[120.60318358900007,16.078759125000033],[120.60460111400005,16.08089449000005],[120.60469015500009,16.081356495000026],[120.60381322900002,16.08247806700007],[120.60340917400003,16.083768398000075],[120.60185237200007,16.086474640000063],[120.6017691840001,16.088244525000047],[120.6022445430001,16.089237938000053],[120.60277932300006,16.08924935600004],[120.60250599100004,16.08770785200005],[120.6043480090001,16.08357427800007],[120.60441931300011,16.082969079000065],[120.60552988500001,16.081253776000036],[120.6056204140001,16.08038908300006],[120.60471995400009,16.079341502000034],[120.60411466300002,16.07779063300006],[120.60429692400011,16.07692178400003],[120.60525500800009,16.075551054000073],[120.60691133700006,16.074493317000076],[120.60923428400008,16.074666325000067],[120.61163419600008,16.076080350000037],[120.61313218500004,16.077497797000035],[120.6154987120001,16.077818054000033],[120.61655006600007,16.07844837600004],[120.61791910100011,16.07966793500003],[120.62027213100009,16.079928289000065],[120.62194064200004,16.08059972700005],[120.62370898000007,16.080983405000037],[120.62459507520376,16.08102185935364],[120.62463971893709,16.08093324596241],[120.62616476009912,16.076956863716756],[120.62387403900004,16.076207023000052],[120.62238854100006,16.075892994000064],[120.62027913300004,16.075750253000017],[120.61909073400011,16.074948998000025],[120.61867479500005,16.07420674100007],[120.61724871700007,16.073178995000035],[120.61451540000009,16.07260802300004],[120.61291340600006,16.071815010000023],[120.61109392100002,16.07018542900005],[120.60928644600006,16.069353450000055],[120.60661856200011,16.068821372000055],[120.60370097200008,16.068839565000072],[120.60076515200001,16.068644178000053],[120.59782514500012,16.06773283900003],[120.59573786500006,16.066289708000053],[120.59508508200008,16.064043243000068],[120.59472856200011,16.059932017000047],[120.59518917300011,16.056270554000033],[120.59570673000007,16.055127758000022],[120.59722804000012,16.05407928700003],[120.59763709800006,16.05330887700006],[120.59752129900005,16.05159510500005],[120.59782015700013,16.050159068000028],[120.59863135800003,16.048081595000042],[120.59912563700004,16.044228639000035],[120.59894737800006,16.038061156000026],[120.59900679700003,16.03526288300003],[120.59859085800007,16.033492527000018],[120.59579812100003,16.030465752000058],[120.59346213700009,16.02878188300002],[120.592485882,16.02740320600003],[120.59188578700001,16.025819631000047],[120.590168274,16.023710308000034],[120.58959176400003,16.02205648000006],[120.5897460430001,16.021376738000072],[120.59135866400003,16.020034329000055],[120.59312630000012,16.01954369400005],[120.59349769587662,16.019524787574312],[120.5913382776651,16.018975820379552],[120.58681322104786,16.01827458066528],[120.58223891750568,16.01800558881897],[120.57975676158945,16.018095488688623],[120.5798419990001,16.01822300200007]]],[[[120.57729110900006,16.10746224500001],[120.57903086600004,16.106400318000052],[120.58015028400006,16.105417302000035],[120.58190209600002,16.103443259000073],[120.58256759900007,16.101776269000027],[120.58249629500006,16.098579264000023],[120.58187832800002,16.09501682600006],[120.58168818400009,16.092185099000055],[120.58180032200003,16.09049864200006],[120.58154557600007,16.088691058000055],[120.58064239300008,16.086704222000034],[120.57900240300012,16.084306291000072],[120.57760009300011,16.082936032000077],[120.57546451100006,16.08168631800004],[120.57265635500005,16.07919060800003],[120.57115897200003,16.07823140300007],[120.56664305700008,16.07471427700005],[120.56559726700003,16.073800728000037],[120.56288771800007,16.071836583000046],[120.55982409600006,16.069862815000022],[120.55711660900009,16.068435273000034],[120.55447385500008,16.066629220000042],[120.55292089900001,16.06515175500005],[120.55188699200005,16.06447341200004],[120.55007914200007,16.063854658000025],[120.54535602800001,16.06308763700002],[120.54140804000008,16.061469040000077],[120.53923858500004,16.059800060000036],[120.53790757800004,16.05897780500004],[120.53684788600003,16.057866342000064],[120.53538530999526,16.05750841952931],[120.53526878518404,16.05821033374287],[120.53498938021711,16.062634173081136],[120.53515297385775,16.066887261171015],[120.5362243730001,16.067297921000034],[120.53924290600003,16.067880328000054],[120.54061034100005,16.06926590100005],[120.54132260300003,16.070609626000078],[120.54372316900005,16.071580287000078],[120.54590982200013,16.073350305000076],[120.54731350000009,16.075525023000065],[120.54816357500012,16.07645129200006],[120.54920117000006,16.076976604000038],[120.55017884700011,16.07704859300003],[120.5524892300001,16.076459525000075],[120.55396653300012,16.076290534000066],[120.55745399300007,16.076834008000052],[120.56090741300012,16.078157822000037],[120.56273940700008,16.08007991900007],[120.56345220700005,16.08299693200007],[120.56383843700006,16.083682063000026],[120.56505654500005,16.08473830100007],[120.5654724850001,16.086222735000035],[120.56630436400008,16.086650935000026],[120.56817609200006,16.08613709500003],[120.5699612180001,16.084120420000026],[120.571875438,16.084148247000027],[120.57324491000008,16.084620482000048],[120.57548968200001,16.08621676700005],[120.57655430200009,16.088306633000055],[120.57702966200009,16.089905225000052],[120.5772302370001,16.092081437000044],[120.57703602100003,16.09446176600005],[120.57697024200002,16.098497435000066],[120.57517810000002,16.105896424000033],[120.57399976472101,16.107660197646585],[120.57657102057166,16.10805881075771],[120.57665492860154,16.10806375101505],[120.57729110900006,16.10746224500001]]],[[[120.60552034100012,16.02447453700006],[120.60617887500007,16.025351363000027],[120.60648785900001,16.026744863000026],[120.6071628950001,16.02667095400005],[120.60730968135029,16.025442865626893],[120.6054630895035,16.02434423964395],[120.60552034100012,16.02447453700006]]]]}},{"type":"Feature","properties":{"fid":175,"objectid":9617,"lccode":"06","liqcode":null,"mappers":"DJLBuhay, MITAbigania","project":"LiquePhi","province":"Pangasinan","otherinfo":null,"datemapped":2024,"publishdate":null,"globalid":"{66023685-1332-44EF-8443-E51FD3597412}","st_area(shape)":0.04411879143836554,"st_perimeter(shape)":22.502158641584156,"liqcodepk":null,"creator":null,"createdate":null,"editor":null,"modifydate":null,"codemove":null},"geometry":{"type":"MultiPolygon","coordinates":[[[[120.6071628950001,16.02667095400005],[120.60648785900001,16.026744863000026],[120.60617887500007,16.025351363000027],[120.60552034100012,16.02447453700006],[120.6054630895035,16.02434423964395],[120.60418730996156,16.023585201972296],[120.60006733313674,16.021643967536598],[120.59577053545816,16.020102562900167],[120.59349769587662,16.019524787574312],[120.59312630000012,16.01954369400005],[120.59135866400003,16.020034329000055],[120.5897460430001,16.021376738000072],[120.58959176400003,16.02205648000006],[120.590168274,16.023710308000034],[120.59188578700001,16.025819631000047],[120.592485882,16.02740320600003],[120.59346213700009,16.02878188300002],[120.59579812100003,16.030465752000058],[120.59859085800007,16.033492527000018],[120.59900679700003,16.03526288300003],[120.59894737800006,16.038061156000026],[120.59912563700004,16.044228639000035],[120.59863135800003,16.048081595000042],[120.59782015700013,16.050159068000028],[120.59752129900005,16.05159510500005],[120.59763709800006,16.05330887700006],[120.59722804000012,16.05407928700003],[120.59570673000007,16.055127758000022],[120.59518917300011,16.056270554000033],[120.59472856200011,16.059932017000047],[120.59508508200008,16.064043243000068],[120.59573786500006,16.066289708000053],[120.59782514500012,16.06773283900003],[120.60076515200001,16.068644178000053],[120.60370097200008,16.068839565000072],[120.60661856200011,16.068821372000055],[120.60928644600006,16.069353450000055],[120.61109392100002,16.07018542900005],[120.61291340600006,16.071815010000023],[120.61451540000009,16.07260802300004],[120.61724871700007,16.073178995000035],[120.61867479500005,16.07420674100007],[120.61909073400011,16.074948998000025],[120.62027913300004,16.075750253000017],[120.62238854100006,16.075892994000064],[120.62387403900004,16.076207023000052],[120.62616476009912,16.076956863716756],[120.62623358019054,16.07677741784722],[120.62663033802356,16.075317254308583],[120.62486156900002,16.074457759000044],[120.62205627700007,16.073947029000063],[120.61557950500003,16.07109216200007],[120.61379690700005,16.070121498000045],[120.61195488900012,16.068636944000044],[120.60904331200004,16.067494972000073],[120.60580492600002,16.06680978600002],[120.60146727100006,16.06715237900005],[120.59879337400001,16.066638489000074],[120.59671367600004,16.06492551100007],[120.59603034700002,16.063583668000035],[120.59570353800007,16.06129965900004],[120.5958223770001,16.058273307000032],[120.59632744700002,16.056103441000058],[120.59787236500006,16.05487574400007],[120.59870424400003,16.05373369300003],[120.59870424400003,16.052077707000024],[120.59912018400006,16.05099274300005],[120.60042742200005,16.04879424600006],[120.6008433620001,16.047052562000033],[120.60063539200007,16.04362625500005],[120.60042742200005,16.043112304000033],[120.5998035130001,16.038972093000037],[120.5998035130001,16.03791561100007],[120.6004571320001,16.03534576800007],[120.60111075100006,16.03460336300003],[120.6033984190001,16.033089990000065],[120.603992618,16.032347576000063],[120.60405203800006,16.030948405000057],[120.60357667900007,16.029834771000022],[120.6033984190001,16.028235697000067],[120.60384406800007,16.027064938000024],[120.6047353670001,16.026722275000058],[120.60672593500011,16.027835926000023],[120.60770636400002,16.027150603000052],[120.60812230300007,16.02620828100004],[120.6081320053466,16.025937855852618],[120.6080908033139,16.02590758464055],[120.60730968135029,16.025442865626893],[120.6071628950001,16.02667095400005]]],[[[120.62194064200004,16.08059972700005],[120.62027213100009,16.079928289000065],[120.61791910100011,16.07966793500003],[120.61655006600007,16.07844837600004],[120.6154987120001,16.077818054000033],[120.61313218500004,16.077497797000035],[120.61163419600008,16.076080350000037],[120.60923428400008,16.074666325000067],[120.60691133700006,16.074493317000076],[120.60525500800009,16.075551054000073],[120.60429692400011,16.07692178400003],[120.60411466300002,16.07779063300006],[120.60471995400009,16.079341502000034],[120.6056204140001,16.08038908300006],[120.60564863400009,16.08029803700003],[120.60483758900013,16.078504909000063],[120.60513468900002,16.077123191000055],[120.60657265100009,16.076141137000032],[120.60805815000003,16.075821398000073],[120.60987640000009,16.07650655300006],[120.61246710900001,16.079201475000048],[120.61421405500006,16.079144379000073],[120.61552129300003,16.079692494000025],[120.6164838960001,16.080902910000074],[120.61792185800005,16.08137108800003],[120.61941924100006,16.08132541200007],[120.622211977,16.082204670000067],[120.62400888436605,16.082185380626022],[120.62459507520376,16.08102185935364],[120.62370898000007,16.080983405000037],[120.62194064200004,16.08059972700005]]],[[[120.5790249060001,16.10808569000005],[120.5794526310001,16.106806649000074],[120.58223348400007,16.104317620000078],[120.58289898700002,16.10333570000006],[120.5843111160001,16.10240244300007],[120.58420622500012,16.10157736800005],[120.58470535300013,16.099727676000043],[120.58432506500004,16.097284230000064],[120.5841111540001,16.094680899000025],[120.5837308660001,16.09244292100004],[120.58372394500009,16.09008823400006],[120.58342684500009,16.08814708700004],[120.58262467600002,16.085863360000072],[120.57944570900008,16.081781133000042],[120.5756725440001,16.078897831000063],[120.57442472500009,16.077470439000024],[120.572285608,16.075700458000025],[120.56916606100003,16.07238883800005],[120.56616535500007,16.069990734000047],[120.56560086500008,16.06924845800006],[120.56387768700006,16.067735348000042],[120.56172443700008,16.066514981000065],[120.56047073400009,16.06556954500007],[120.55666785800008,16.063687543000064],[120.554748775,16.062385723000034],[120.55392978800013,16.061896883000024],[120.55219947900004,16.061184269000023],[120.54953746600007,16.06045338000007],[120.54763602900005,16.060234113000032],[120.5450500730001,16.05946667600005],[120.53723516400011,16.056177627000068],[120.53564841979026,16.055923489812404],[120.53538530999526,16.05750841952931],[120.53684788600003,16.057866342000064],[120.53790757800004,16.05897780500004],[120.53923858500004,16.059800060000036],[120.54140804000008,16.061469040000077],[120.54535602800001,16.06308763700002],[120.55007914200007,16.063854658000025],[120.55188699200005,16.06447341200004],[120.55292089900001,16.06515175500005],[120.55447385500008,16.066629220000042],[120.55711660900009,16.068435273000034],[120.55982409600006,16.069862815000022],[120.56288771800007,16.071836583000046],[120.56559726700003,16.073800728000037],[120.56664305700008,16.07471427700005],[120.57115897200003,16.07823140300007],[120.57265635500005,16.07919060800003],[120.57546451100006,16.08168631800004],[120.57760009300011,16.082936032000077],[120.57900240300012,16.084306291000072],[120.58064239300008,16.086704222000034],[120.58154557600007,16.088691058000055],[120.58180032200003,16.09049864200006],[120.58168818400009,16.092185099000055],[120.58187832800002,16.09501682600006],[120.58249629500006,16.098579264000023],[120.58256759900007,16.101776269000027],[120.58190209600002,16.103443259000073],[120.58015028400006,16.105417302000035],[120.57903086600004,16.106400318000052],[120.57729110900006,16.10746224500001],[120.57665492860154,16.10806375101505],[120.57844321794805,16.10816903237719],[120.5790249060001,16.10808569000005]]],[[[120.57861719800007,16.018811739000057],[120.57909255700008,16.020153884000024],[120.57891429700011,16.023666262000063],[120.57894400700002,16.026550363000073],[120.57956791600007,16.028377891000044],[120.5828063030001,16.033517724000035],[120.5839352810001,16.03631602100006],[120.58524252000008,16.040570500000058],[120.5863120790001,16.044767783000054],[120.58660917800013,16.046395277000048],[120.58678743800012,16.049536018000026],[120.58672801800003,16.05250540000003],[120.58649033900008,16.057187797000044],[120.58678743800012,16.061213428000027],[120.58752543400011,16.064216895000072],[120.58859023900004,16.066446056000075],[120.59020646100008,16.06860210500002],[120.59113816600006,16.07145243900004],[120.59189874100004,16.072146745000058],[120.59309664700004,16.072475626000028],[120.59425652400012,16.073407453000073],[120.59663332100003,16.07375460300005],[120.59726079500001,16.07412002300003],[120.59880096000006,16.075800948000047],[120.60134888700007,16.078249226000022],[120.60311722400002,16.079382001000056],[120.60383977000005,16.08062439200006],[120.6038207560001,16.081391747000048],[120.60144395900012,16.086178516000075],[120.60132987200008,16.08787760800004],[120.60203340400007,16.089375721000064],[120.60305423900003,16.089653951000056],[120.6028640950001,16.087571209000032],[120.60455637500002,16.084538406000032],[120.60552988500001,16.081253776000036],[120.60441931300011,16.082969079000065],[120.6043480090001,16.08357427800007],[120.60250599100004,16.08770785200005],[120.60277932300006,16.08924935600004],[120.6022445430001,16.089237938000053],[120.6017691840001,16.088244525000047],[120.60185237200007,16.086474640000063],[120.60340917400003,16.083768398000075],[120.60381322900002,16.08247806700007],[120.60469015500009,16.081356495000026],[120.60460111400005,16.08089449000005],[120.60318358900007,16.078759125000033],[120.60126475500012,16.076549601000067],[120.59803596400002,16.073367207000047],[120.59725391000006,16.07298105800004],[120.595070157,16.07254932000006],[120.5936726000001,16.071370828000052],[120.5922750430001,16.070603434000073],[120.59157911700005,16.069101526000054],[120.5916595860001,16.067351117000044],[120.59021264800003,16.06461614300002],[120.589618448,16.062160845000047],[120.58941136500005,16.05920070500002],[120.58949500900007,16.058237545000054],[120.59077713700003,16.052282248000036],[120.59098510700005,16.050369283000066],[120.59089597700007,16.046828824000045],[120.59003438800005,16.04203197100003],[120.58813295000006,16.03637839000004],[120.58649890200002,16.033408767000026],[120.58531050300007,16.031552731000033],[120.58259570200006,16.029020860000056],[120.58151662900002,16.027603889000034],[120.58058325900005,16.025632062000053],[120.5801379840001,16.023078502000033],[120.58027582300008,16.021611401000033],[120.58017347100008,16.019473491000042],[120.5798419990001,16.01822300200007],[120.57975676158945,16.018095488688623],[120.57819860809987,16.018151907805333],[120.57861719800007,16.018811739000057]]],[[[120.57517810000002,16.105896424000033],[120.57697024200002,16.098497435000066],[120.57703602100003,16.09446176600005],[120.5772302370001,16.092081437000044],[120.57702966200009,16.089905225000052],[120.57655430200009,16.088306633000055],[120.57548968200001,16.08621676700005],[120.57324491000008,16.084620482000048],[120.571875438,16.084148247000027],[120.5699612180001,16.084120420000026],[120.56817609200006,16.08613709500003],[120.56630436400008,16.086650935000026],[120.5654724850001,16.086222735000035],[120.56505654500005,16.08473830100007],[120.56383843700006,16.083682063000026],[120.56345220700005,16.08299693200007],[120.56273940700008,16.08007991900007],[120.56090741300012,16.078157822000037],[120.55745399300007,16.076834008000052],[120.55396653300012,16.076290534000066],[120.5524892300001,16.076459525000075],[120.55017884700011,16.07704859300003],[120.54920117000006,16.076976604000038],[120.54816357500012,16.07645129200006],[120.54731350000009,16.075525023000065],[120.54590982200013,16.073350305000076],[120.54372316900005,16.071580287000078],[120.54132260300003,16.070609626000078],[120.54061034100005,16.06926590100005],[120.53924290600003,16.067880328000054],[120.5362243730001,16.067297921000034],[120.53515297385775,16.066887261171015],[120.53515974078398,16.06706319055505],[120.53535738284506,16.068466486393962],[120.53702509400013,16.06871044000007],[120.53982971500011,16.070446225000065],[120.54177868900001,16.072227672000054],[120.54406041400011,16.073735038000052],[120.5449160610001,16.07469426500006],[120.54648474800003,16.076978120000035],[120.5486459660001,16.077934616000054],[120.55090559100006,16.078074361000063],[120.55437571500009,16.077526241000047],[120.55660990400008,16.07757191800005],[120.55821424200008,16.07800013700006],[120.5605371580001,16.079263321000045],[120.56160117800005,16.080540881000044],[120.56325305200005,16.084160673000042],[120.56409719700002,16.084956334000026],[120.56481030000009,16.08679106000005],[120.5656475620001,16.087541766000072],[120.56675226500012,16.087634982000047],[120.56890308100002,16.086477306000063],[120.57002968300004,16.08517557400006],[120.57077124400007,16.08479190400004],[120.57195488900004,16.085011144000077],[120.57350931400005,16.087011698000023],[120.57434376800008,16.089162577000025],[120.57466463600008,16.09104662200002],[120.57480724400013,16.09419807600006],[120.57427246400006,16.100295311000025],[120.57352377300005,16.103617884000073],[120.5719864968973,16.107342350279264],[120.5720440902721,16.107356994691404],[120.57399976472101,16.107660197646585],[120.57517810000002,16.105896424000033]]]]}},{"type":"Feature","properties":{"fid":176,"objectid":9618,"lccode":"05","liqcode":null,"mappers":"DJLBuhay, MITAbigania","project":"LiquePhi","province":"Pangasinan","otherinfo":null,"datemapped":2024,"publishdate":null,"globalid":"{5ACB73C5-6107-4512-9787-F18573022798}","st_area(shape)":0.06533832536059311,"st_perimeter(shape)":23.271340040578984,"liqcodepk":null,"creator":null,"createdate":null,"editor":null,"modifydate":null,"codemove":null},"geometry":{"type":"MultiPolygon","coordinates":[[[[120.60812230300007,16.02620828100004],[120.60770636400002,16.027150603000052],[120.60672593500011,16.027835926000023],[120.6047353670001,16.026722275000058],[120.60384406800007,16.027064938000024],[120.6033984190001,16.028235697000067],[120.60357667900007,16.029834771000022],[120.60405203800006,16.030948405000057],[120.603992618,16.032347576000063],[120.6033984190001,16.033089990000065],[120.60111075100006,16.03460336300003],[120.6004571320001,16.03534576800007],[120.5998035130001,16.03791561100007],[120.5998035130001,16.038972093000037],[120.60042742200005,16.043112304000033],[120.60063539200007,16.04362625500005],[120.6008433620001,16.047052562000033],[120.60042742200005,16.04879424600006],[120.59912018400006,16.05099274300005],[120.59870424400003,16.052077707000024],[120.59870424400003,16.05373369300003],[120.59787236500006,16.05487574400007],[120.59632744700002,16.056103441000058],[120.5958223770001,16.058273307000032],[120.59570353800007,16.06129965900004],[120.59603034700002,16.063583668000035],[120.59671367600004,16.06492551100007],[120.59879337400001,16.066638489000074],[120.60146727100006,16.06715237900005],[120.60580492600002,16.06680978600002],[120.60904331200004,16.067494972000073],[120.61195488900012,16.068636944000044],[120.61379690700005,16.070121498000045],[120.61557950500003,16.07109216200007],[120.62205627700007,16.073947029000063],[120.62486156900002,16.074457759000044],[120.62663033802356,16.075317254308583],[120.62739839623009,16.072490536351122],[120.62812297319317,16.068113896941323],[120.62840036004732,16.063689657272622],[120.62822791449035,16.059260430873614],[120.6276073272783,16.05486887654068],[120.62654460478976,16.050557287402047],[120.62505001003885,16.04636718361325],[120.62313796274863,16.04233891260619],[120.62082689948853,16.038511260737142],[120.61813909526094,16.034921080065093],[120.61510044828727,16.031602933842954],[120.61174023009256,16.02858876412022],[120.6081320053466,16.025937855852618],[120.60812230300007,16.02620828100004]]],[[[120.59880096000006,16.075800948000047],[120.59726079500001,16.07412002300003],[120.59663332100003,16.07375460300005],[120.59425652400012,16.073407453000073],[120.59309664700004,16.072475626000028],[120.59189874100004,16.072146745000058],[120.59113816600006,16.07145243900004],[120.59020646100008,16.06860210500002],[120.58859023900004,16.066446056000075],[120.58752543400011,16.064216895000072],[120.58678743800012,16.061213428000027],[120.58649033900008,16.057187797000044],[120.58672801800003,16.05250540000003],[120.58678743800012,16.049536018000026],[120.58660917800013,16.046395277000048],[120.5863120790001,16.044767783000054],[120.58524252000008,16.040570500000058],[120.5839352810001,16.03631602100006],[120.5828063030001,16.033517724000035],[120.57956791600007,16.028377891000044],[120.57894400700002,16.026550363000073],[120.57891429700011,16.023666262000063],[120.57909255700008,16.020153884000024],[120.57861719800007,16.018811739000057],[120.57819860809987,16.018151907805333],[120.57765939114545,16.01817142963037],[120.57311871541165,16.018770502944538],[120.56866058977805,16.019797039188614],[120.56432792003423,16.021241154943986],[120.56016240616613,16.023088948028402],[120.55620414175775,16.025322631175715],[120.55249122873457,16.02792070303379],[120.54905941112524,16.03085815484478],[120.54594173134203,16.034106710832244],[120.54316821226985,16.03763509999718],[120.54076556821383,16.041409356725076],[120.53875694748557,16.045393147329904],[120.53716170911144,16.049548119411664],[120.5359952358278,16.053834270684384],[120.53564841979026,16.055923489812404],[120.53723516400011,16.056177627000068],[120.5450500730001,16.05946667600005],[120.54763602900005,16.060234113000032],[120.54953746600007,16.06045338000007],[120.55219947900004,16.061184269000023],[120.55392978800013,16.061896883000024],[120.554748775,16.062385723000034],[120.55666785800008,16.063687543000064],[120.56047073400009,16.06556954500007],[120.56172443700008,16.066514981000065],[120.56387768700006,16.067735348000042],[120.56560086500008,16.06924845800006],[120.56616535500007,16.069990734000047],[120.56916606100003,16.07238883800005],[120.572285608,16.075700458000025],[120.57442472500009,16.077470439000024],[120.5756725440001,16.078897831000063],[120.57944570900008,16.081781133000042],[120.58262467600002,16.085863360000072],[120.58342684500009,16.08814708700004],[120.58372394500009,16.09008823400006],[120.5837308660001,16.09244292100004],[120.5841111540001,16.094680899000025],[120.58432506500004,16.097284230000064],[120.58470535300013,16.099727676000043],[120.58420622500012,16.10157736800005],[120.5843111160001,16.10240244300007],[120.58289898700002,16.10333570000006],[120.58223348400007,16.104317620000078],[120.5794526310001,16.106806649000074],[120.5790249060001,16.10808569000005],[120.57844321794805,16.10816903237719],[120.58114734222879,16.10832820293487],[120.58572895358147,16.10816257104864],[120.59027170105998,16.10756350722508],[120.59417514215339,16.106664931758324],[120.59431257500012,16.105557788000056],[120.59606858200003,16.10418725000005],[120.59661244000006,16.103371173000028],[120.59637100900011,16.102068233000068],[120.59547306200012,16.101082957000074],[120.59543883900005,16.098998393000038],[120.5959301370001,16.09736411800003],[120.59805496700007,16.095989300000042],[120.59864967900012,16.095118181000032],[120.5988266830001,16.093587035000038],[120.598449662,16.091821973000034],[120.5984667140001,16.09042205500003],[120.59938274100011,16.088837006000063],[120.59998877900011,16.088431454000045],[120.60104041700002,16.08849062100006],[120.60160055000006,16.09020147800004],[120.6023505810001,16.090623419000057],[120.60340720900001,16.090334117000054],[120.60441414000003,16.089241168000054],[120.6044344270001,16.087477954000065],[120.60513801900004,16.087012120000054],[120.60666872700006,16.086602295000027],[120.607051629,16.08496019400007],[120.60679387700009,16.084025650000054],[120.60570953900003,16.082016335000045],[120.60552988500001,16.081253776000036],[120.60455637500002,16.084538406000032],[120.6028640950001,16.087571209000032],[120.60305423900003,16.089653951000056],[120.60203340400007,16.089375721000064],[120.60132987200008,16.08787760800004],[120.60144395900012,16.086178516000075],[120.6038207560001,16.081391747000048],[120.60383977000005,16.08062439200006],[120.60311722400002,16.079382001000056],[120.60134888700007,16.078249226000022],[120.59880096000006,16.075800948000047]]],[[[120.61941924100006,16.08132541200007],[120.61792185800005,16.08137108800003],[120.6164838960001,16.080902910000074],[120.61552129300003,16.079692494000025],[120.61421405500006,16.079144379000073],[120.61246710900001,16.079201475000048],[120.60987640000009,16.07650655300006],[120.60805815000003,16.075821398000073],[120.60657265100009,16.076141137000032],[120.60513468900002,16.077123191000055],[120.60483758900013,16.078504909000063],[120.60564863400009,16.08029803700003],[120.60677374900001,16.079954213000065],[120.60876956900006,16.08050237400005],[120.61038530500002,16.08057329400003],[120.61248694400001,16.082372277000047],[120.61495426700003,16.082841294000048],[120.61654256600004,16.08388719800007],[120.61825439200005,16.08452936400005],[120.62214974700008,16.084982454000052],[120.62260495630345,16.08496071571691],[120.62263214228402,16.084917985513876],[120.62400888436605,16.082185380626022],[120.622211977,16.082204670000067],[120.61941924100006,16.08132541200007]]],[[[120.57352377300005,16.103617884000073],[120.57427246400006,16.100295311000025],[120.57480724400013,16.09419807600006],[120.57466463600008,16.09104662200002],[120.57434376800008,16.089162577000025],[120.57350931400005,16.087011698000023],[120.57195488900004,16.085011144000077],[120.57077124400007,16.08479190400004],[120.57002968300004,16.08517557400006],[120.56890308100002,16.086477306000063],[120.56675226500012,16.087634982000047],[120.5656475620001,16.087541766000072],[120.56481030000009,16.08679106000005],[120.56409719700002,16.084956334000026],[120.56325305200005,16.084160673000042],[120.56160117800005,16.080540881000044],[120.5605371580001,16.079263321000045],[120.55821424200008,16.07800013700006],[120.55660990400008,16.07757191800005],[120.55437571500009,16.077526241000047],[120.55090559100006,16.078074361000063],[120.5486459660001,16.077934616000054],[120.54648474800003,16.076978120000035],[120.5449160610001,16.07469426500006],[120.54406041400011,16.073735038000052],[120.54177868900001,16.072227672000054],[120.53982971500011,16.070446225000065],[120.53702509400013,16.06871044000007],[120.53535738284506,16.068466486393962],[120.53577825625348,16.071454735397094],[120.53683899986278,16.07576651484378],[120.5383317846449,16.07995700142619],[120.54024226043282,16.083985833001904],[120.54255205104907,16.0878142016724],[120.5452389303983,16.091405227832425],[120.54827703580173,16.094724315737487],[120.55163711654674,16.097739487149795],[120.55528681527836,16.100421689831297],[120.55919097953559,16.102745077892568],[120.56331200043476,16.10468726127573],[120.56761017523404,16.106229521946524],[120.5719864968973,16.107342350279264],[120.57352377300005,16.103617884000073]]]]}}]}