{"type":"FeatureCollection","features":[{"type":"Feature","properties":{"fid":187,"objectid":10016,"lccode":"01","liqcode":null,"mappers":"DJLBuhay, MJVReyes, MITAbigania, KLPapiona, KMVitto","project":"MELP","province":"Sultan Kudarat","otherinfo":null,"datemapped":2020,"publishdate":2021,"globalid":"{1B7E7CC9-093D-4716-9F84-3DA25042BFE2}","st_area(shape)":0.08978084284158963,"st_perimeter(shape)":9.534125484685708,"liqcodepk":null,"creator":null,"createdate":null,"editor":null,"modifydate":null,"codemove":null},"geometry":{"type":"Polygon","coordinates":[[[124.93107308100004,6.674374310000076],[124.93062150600007,6.674940887000047],[124.930205611,6.676475341000071],[124.92930843500007,6.678694397000073],[124.92859541200005,6.679213763000065],[124.928310236,6.680559348000031],[124.92762707900012,6.68165506400004],[124.92609771400011,6.68255361100006],[124.92573322300008,6.68405640700007],[124.9282791380001,6.6858490600000655],[124.9297331250001,6.686664800000074],[124.93233004300009,6.687835123000069],[124.93644202800009,6.689220955000053],[124.93985976300007,6.689887612000062],[124.94188113800008,6.690399662000061],[124.94505341700005,6.691898611000055],[124.9509654090001,6.695163756000056],[124.95186918099999,6.694742065000068],[124.95251111500009,6.693720497000072],[124.95321400700004,6.693588532000034],[124.95460391100004,6.694061356000021],[124.95485349000012,6.6945924820000755],[124.9570882050001,6.695548952000022],[124.95743235500004,6.696091379000051],[124.9590657780001,6.695875959000034],[124.95970215999999,6.694934627000067],[124.95998735600006,6.694261851000021],[124.96132937200002,6.694733096000049],[124.96172879400001,6.694100001000037],[124.96108065200008,6.693258568000035],[124.96212642600005,6.692739207000045],[124.96260176500006,6.692042816000026],[124.96182928500004,6.691287446000046],[124.96203128600006,6.690343197000061],[124.96365936300005,6.68942251200002],[124.9643129440001,6.688112351000028],[124.9648952440001,6.687628407000034],[124.9653725190001,6.686287382000044],[124.96729256700007,6.684149682000054],[124.9677116040001,6.6827182070000495],[124.96822259700002,6.6821162270000505],[124.96981503600011,6.68165585500003],[124.97150257900013,6.68230498500003],[124.97261967500002,6.682422985000073],[124.97473498400007,6.681100960000037],[124.9750024292865,6.680455467210471],[124.97254438134128,6.6786480160625326],[124.96872963192719,6.676382648269162],[124.96471119148424,6.674501990758553],[124.96052774965278,6.673024153102017],[124.95621958400895,6.671963366762082],[124.95182817259938,6.671329848067938],[124.94739579494012,6.67112969980964],[124.94296512530501,6.671364852399615],[124.93857882220301,6.672033045170724],[124.93427911798139,6.6731278479953495],[124.93109633503767,6.674280566605881],[124.93107308100004,6.674374310000076]]]}},{"type":"Feature","properties":{"fid":236,"objectid":9211,"lccode":"01","liqcode":"2010600010000000","mappers":"DJLBuhay, MJVReyes, MITAbigania, KLPapiona, KMVitto","project":"MELP","province":"Maguindanao","otherinfo":"Boundaries with Cotabato revised using PSA data","datemapped":2018,"publishdate":null,"globalid":"{4B045317-8F59-4441-A1F1-C67178742A3F}","st_area(shape)":0.1595152742764989,"st_perimeter(shape)":10.614199563912065,"liqcodepk":"201060001000000001352","creator":"SDE","createdate":"2019-06-04T13:29:47","editor":"DJLB-PC","modifydate":"2024-07-12T08:00:00","codemove":"na"},"geometry":{"type":"Polygon","coordinates":[[[124.94025522100003,6.760011086000077],[124.93935797000006,6.759179602000073],[124.941278495,6.758158525000056],[124.94298678300004,6.757493940000074],[124.9437231610001,6.756127545000025],[124.94376703500006,6.755122704000029],[124.9429371010001,6.753991759000028],[124.94127279100009,6.753697340000029],[124.93979329800004,6.754731781000031],[124.9368584550001,6.755036189000066],[124.93684062900002,6.7558327880000215],[124.93564629100001,6.757957043000031],[124.93414891100008,6.758275680000053],[124.93204544900003,6.7574613840000675],[124.93118980400004,6.756416959000034],[124.92949057600003,6.756026788000042],[124.92733589800004,6.754294737000067],[124.92511115700006,6.752770303000034],[124.92452290200005,6.751672759000031],[124.92464768300012,6.750433595000061],[124.92347117100007,6.748362414000042],[124.9232037810001,6.746574464000049],[124.92243966900003,6.744952459000044],[124.92125913400004,6.744658559000072],[124.92010692800011,6.743730145000028],[124.91896392500007,6.741304323000065],[124.91970548400002,6.739283851000037],[124.92086535900012,6.739132787000073],[124.9215498750001,6.7386607130000575],[124.9212266310001,6.736829060000046],[124.92185410400009,6.736470282000027],[124.92350835200013,6.736300334000019],[124.92447115600008,6.737085827000045],[124.92541419800011,6.737068124000074],[124.92575204300009,6.73628145200007],[124.924839356,6.735072933000025],[124.92364145200008,6.734279842000036],[124.92183509000004,6.732674770000073],[124.92010478400006,6.732372639000062],[124.91955336900001,6.7315795430000644],[124.9180322220001,6.7312018770000455],[124.91711953300012,6.731390710000024],[124.91633994600011,6.732013857000025],[124.91517532800005,6.731961890000036],[124.91458910800007,6.731351792000054],[124.91565354500005,6.729414830000054],[124.91725263400008,6.728256077000025],[124.92010478500005,6.7251969590000735],[124.92168297500008,6.724894823000054],[124.92438301100003,6.725593512000045],[124.92529909200005,6.725550226000053],[124.92649519100007,6.722338654000055],[124.92633264300004,6.720382894000068],[124.92727319100004,6.7188520580000395],[124.92913659600003,6.7176246140000435],[124.93235002000006,6.7157551140000455],[124.93295847900004,6.715113061000067],[124.93326270800003,6.713054712000029],[124.93273030700003,6.7112040790000265],[124.9330725640001,6.710429832000044],[124.93421342500005,6.705217798000035],[124.934574698,6.7046890380000255],[124.93454108200002,6.702599443000052],[124.93512933700003,6.702156840000043],[124.93719714800011,6.702369289000046],[124.93744671000002,6.701572603000045],[124.9382488780001,6.701625715000035],[124.93975013400006,6.700667442000054],[124.94109661600011,6.698702677000029],[124.94532818000005,6.696622046000071],[124.94592528300007,6.695684108000023],[124.94739036200008,6.695397873000046],[124.94839812300006,6.696379874000058],[124.94957701200008,6.6963232200000675],[124.95028257500007,6.695853853000075],[124.95049436800004,6.694955996000032],[124.94301370000005,6.690930862000074],[124.93974325100011,6.689759605000063],[124.93640356100002,6.689234455000074],[124.93281013400008,6.688064408000058],[124.93052974600006,6.687114888000052],[124.92860354900006,6.686107326000069],[124.92569491100005,6.684069603000068],[124.92565697300006,6.685898794000025],[124.92613233000009,6.687541789000022],[124.92611331600006,6.688599346000046],[124.92533372800004,6.689826865000043],[124.9252766850001,6.690657799000063],[124.92450379400009,6.691310455000065],[124.9243981190001,6.692295542000067],[124.92653723300009,6.695199068000021],[124.9262876700001,6.697518336000028],[124.92643027600003,6.699926115000038],[124.92553898000004,6.700952958000072],[124.92454968100003,6.703109363000067],[124.92496855000003,6.704175106000038],[124.92610941100008,6.704511483000033],[124.92691157800006,6.705290460000072],[124.9264481030001,6.706175659000053],[124.9245674230001,6.705616288000043],[124.92397531700009,6.7059439200000375],[124.92302482200012,6.707631657000035],[124.92107771200007,6.708997944000032],[124.92053640900006,6.709680831000071],[124.92054771500011,6.711433713000075],[124.91885425100007,6.713310312000033],[124.91632890900009,6.713292607000027],[124.91550297300012,6.714514163000045],[124.91548905400009,6.7165529560000445],[124.91469033600004,6.719394927000052],[124.9137371380001,6.720019975000071],[124.91229430400007,6.7195596850000365],[124.91014631000007,6.719962734000036],[124.90821318600001,6.72007591500005],[124.90527835300009,6.721406080000066],[124.9037191770001,6.721103941000023],[124.90295860300013,6.720159757000031],[124.90255264556879,6.720171493796],[124.90259348771426,6.720941537158145],[124.90326167069276,6.72532722129555],[124.9043566543951,6.729626304185021],[124.90586790233327,6.733797377612852],[124.90778086733555,6.737800265585126],[124.9100771313713,6.741596411483831],[124.91273458273466,6.745149249641644],[124.91572762888835,6.748424557747294],[124.91902744292246,6.751390786677682],[124.92260224125535,6.7540193645704765],[124.9264175898994,6.75628497219951],[124.93043673633612,6.758165786992488],[124.93462096379416,6.759643693333795],[124.93892996450616,6.760704457121373],[124.93989823907349,6.760844095119876],[124.94025522100003,6.760011086000077]]]}}]}