{"type":"FeatureCollection","features":[{"type":"Feature","properties":{"fid":207,"objectid":7271,"lccode":"01","liqcode":null,"mappers":"DJLBuhay, MJVReyes, MITAbigania, KLPapiona, KMVitto","project":"MELP","province":"Zamboanga del Norte","otherinfo":null,"datemapped":2020,"publishdate":2021,"globalid":"{6B0290BE-0A77-4263-894C-1C10E652B59E}","st_area(shape)":0.033021563613966895,"st_perimeter(shape)":18.189103020785044,"liqcodepk":null,"creator":null,"createdate":null,"editor":null,"modifydate":null,"codemove":null},"geometry":{"type":"MultiPolygon","coordinates":[[[[123.46175644300003,8.534655224000062],[123.4611803790001,8.535421716000032],[123.4604994895886,8.535240281765695],[123.45935062370367,8.535927600167424],[123.45577265270416,8.538575648126738],[123.45454289129819,8.53968778101933],[123.4557622210001,8.541964931000052],[123.45569577900005,8.542755529000031],[123.45648606300004,8.54425979600006],[123.45662577600002,8.545167209000056],[123.45781121800007,8.54644534400006],[123.45791776400006,8.54798002100006],[123.45902328900002,8.548384750000023],[123.45887629900007,8.545356001000075],[123.45852644000003,8.542293190000064],[123.45919657800005,8.539765235000058],[123.45914212800004,8.537067463000028],[123.45987893400002,8.536244802000052],[123.4610197940001,8.536003880000065],[123.46216065500005,8.535269359000038],[123.46243763949165,8.534080754746373],[123.46172493896316,8.534507140340867],[123.46175644300003,8.534655224000062]]],[[[123.4808244180001,8.52895829800002],[123.48089572200001,8.529709726000021],[123.48011743500003,8.532509812000054],[123.48012599100001,8.535188921000042],[123.47970972300006,8.536826343000028],[123.47779221700011,8.537008452000066],[123.475496528,8.535855132000048],[123.47452870100005,8.535827063000056],[123.4725482880001,8.53649690700007],[123.4714420040001,8.536175180000042],[123.47009570800004,8.536176815000033],[123.46794265400001,8.535042677000034],[123.46731632300009,8.53400241500003],[123.46569722890344,8.532448790284691],[123.46510946822686,8.532726378869148],[123.46513164500004,8.532736721000049],[123.46530084700011,8.533233367000037],[123.46678945800011,8.53503431200005],[123.46688611700007,8.53608496700002],[123.46787144900009,8.535796602000062],[123.46892263000007,8.536538610000035],[123.47098449700002,8.537226119000024],[123.47211941500007,8.538489488000039],[123.4721491250001,8.54024056800006],[123.47285027900011,8.540405099000054],[123.47495448300003,8.540047667000065],[123.47699778200001,8.539065347000077],[123.4784357420001,8.538007645000048],[123.47988558500003,8.537690334000047],[123.48171623700011,8.538015637000058],[123.4822656540001,8.539034431000063],[123.48255417200005,8.540380104000063],[123.48402120400011,8.539993772000056],[123.48535220800011,8.539935011000068],[123.48646930000008,8.540992708000033],[123.4892317650001,8.540121756000078],[123.49038473900009,8.539335351000034],[123.49180574300011,8.537591348000035],[123.49305619499998,8.537838646000068],[123.4939799650001,8.539030091000026],[123.49484749400004,8.539100604000053],[123.4971529830001,8.537043959000073],[123.49995759800004,8.53779610500004],[123.50009122600012,8.536340844000051],[123.49899654700005,8.535839959000043],[123.49770768300004,8.535631020000038],[123.49707228600006,8.535076628000068],[123.49644588700005,8.533341970000038],[123.49468111800002,8.53310104500002],[123.49409286200012,8.533876704000022],[123.49283910400005,8.534017732000054],[123.49132984100005,8.533153931000072],[123.48993941700007,8.533682789000068],[123.48970524800006,8.534363301000042],[123.48968976700007,8.537306851000038],[123.48890551300009,8.538912568000057],[123.48785972400003,8.538924321000025],[123.48738436500004,8.537890123000064],[123.487264879,8.536084621000045],[123.48693704900006,8.535395809000024],[123.48525713600009,8.534528961000033],[123.48494815300013,8.53358877000005],[123.48586321800008,8.532460539000054],[123.48562689900008,8.530069133000039],[123.48581884100008,8.52867416500004],[123.48614703463551,8.528349687631383],[123.48458176066953,8.52827510180302],[123.48012899924197,8.528498406825747],[123.48009416497709,8.528503594594197],[123.4808244180001,8.52895829800002]]],[[[123.4831655590001,8.617879370000024],[123.48289222800008,8.616069898000035],[123.48390236400007,8.615223908000075],[123.48473424200006,8.613778671000036],[123.48446091100004,8.610476931000049],[123.4850551090001,8.609924679000075],[123.48645741600001,8.610418180000067],[123.48648118400001,8.611334681000075],[123.48734871400008,8.611581431000046],[123.48907188800003,8.610888181000066],[123.48952347900001,8.61005393000005],[123.490402892,8.609478178000076],[123.49144868100007,8.609654428000054],[123.49504952100007,8.608749674000022],[123.49532285300006,8.607739166000046],[123.49407503600003,8.60768041600005],[123.4928509880001,8.607151661000046],[123.49241128200003,8.606305651000072],[123.49291040800006,8.605295137000041],[123.49269649700011,8.604554875000074],[123.49178143200004,8.603908613000042],[123.48961855000006,8.604496124000038],[123.48917132400004,8.60345294700005],[123.48960666600011,8.60275709000007],[123.48933333500007,8.602052073000037],[123.48734871400008,8.602075574000025],[123.48673074800003,8.601217803000052],[123.48675451500004,8.600089772000047],[123.4862316210001,8.599443502000039],[123.4862316210001,8.598550474000035],[123.48482931400007,8.598045207000043],[123.48440149100009,8.597351932000038],[123.48440149100009,8.596364895000024],[123.484971921,8.596035882000026],[123.48520960000008,8.594990089000019],[123.4866356760001,8.59486083400003],[123.48891739700004,8.595624616000068],[123.48869160100003,8.593204009000035],[123.48764581300009,8.593227510000077],[123.48702784700004,8.592122957000072],[123.48850145800009,8.591699935000065],[123.48799044800013,8.590959647000032],[123.48921449600005,8.589984343000026],[123.48758639300003,8.588033730000065],[123.48661388900007,8.587824828000066],[123.486795733,8.586972445000074],[123.48756262500002,8.586282869000058],[123.48747943700006,8.584990282000035],[123.48652198200011,8.583683075000067],[123.48575435500004,8.58130048400005],[123.4863871010001,8.57972022100006],[123.48515979800004,8.578874597000038],[123.48329628200007,8.579032576000031],[123.48304671900007,8.578233507000046],[123.48310613900003,8.576529606000065],[123.48185832300011,8.576130069000042],[123.48006384400003,8.576811631000055],[123.47886737300006,8.576800432000026],[123.47726654100006,8.577175744000044],[123.47715251200009,8.578281513000034],[123.47898542700011,8.578911029000038],[123.48172571500004,8.578361984000024],[123.48233186800007,8.578562249000072],[123.48402213000008,8.580455493000043],[123.48368845300003,8.582346341000061],[123.48457975000008,8.582687117000035],[123.48513821600011,8.583485295000061],[123.48448005500006,8.584161879000021],[123.48309517700011,8.584206693000056],[123.48048280900004,8.583262276000028],[123.47914031200004,8.582589083000075],[123.47814543900004,8.582773860000032],[123.47787239300011,8.583868589000076],[123.47679070100004,8.584099669000068],[123.4767539280001,8.585775256000035],[123.47754308100004,8.585864871000068],[123.47782333400005,8.586936647000073],[123.47640634100003,8.588230693000073],[123.47703286700005,8.589330759000063],[123.47876405700005,8.58932861200003],[123.4792524820001,8.589590031000053],[123.47922285200002,8.590883578000048],[123.4802233270001,8.59203213300003],[123.4811334010001,8.59244022200005],[123.48298729900011,8.59405004800004],[123.4832130950001,8.59687016400005],[123.48277338800007,8.597645693000059],[123.48156310100002,8.598444944000052],[123.4807531140001,8.600254276000044],[123.48189397500003,8.599913516000072],[123.48324874600006,8.600054520000072],[123.48393801600002,8.601441058000034],[123.48329628200007,8.60219307700004],[123.48244063700008,8.60224007800002],[123.48027775600009,8.601805317000071],[123.48038471100007,8.603344602000048],[123.48225049400003,8.60491913100003],[123.48252382500004,8.60544788900006],[123.4823714470001,8.607338401000048],[123.48253570900012,8.608585173000051],[123.4818107870001,8.609102176000023],[123.47975967900004,8.60854178100004],[123.4773105500001,8.607238619000041],[123.4767109730001,8.60613829300007],[123.47555813000008,8.60570918600007],[123.47484772300004,8.604459976000044],[123.47407432700004,8.60439037200007],[123.47294535100004,8.60494263100003],[123.47267202000013,8.606587654000068],[123.47351578100007,8.607257412000026],[123.47273403000008,8.608641861000022],[123.47349046800004,8.609657072000063],[123.47470417700004,8.610547431000045],[123.47542909900005,8.612063180000064],[123.4749418570001,8.612439179000036],[123.4745140340001,8.614037170000074],[123.47550040300007,8.614507166000065],[123.47641546800003,8.615470656000069],[123.47562967900001,8.61644441900006],[123.47467248200006,8.616692639000062],[123.473325638,8.616539892000047],[123.4721820210001,8.615780773000042],[123.4708400940001,8.615653190000048],[123.47072653238261,8.616518474520742],[123.47150284066973,8.616793843018927],[123.475829986072,8.61786689338772],[123.48024199176376,8.618512616428923],[123.48236300936087,8.618613653877045],[123.4831655590001,8.617879370000024]]]]}}]}