{"type":"FeatureCollection","features":[{"type":"Feature","properties":{"fid":171,"objectid":9613,"lccode":"01","liqcode":"2010600010000000","mappers":"DJLBuhay, MJVReyes, MITAbigania, KLPapiona, KMVitto","project":"MELP","province":"Nueva Ecija","otherinfo":"hazard boundary with Pangasinan updated on 2024","datemapped":2018,"publishdate":null,"globalid":"{142EC992-C228-490B-8C06-5B4A68BA1242}","st_area(shape)":0.21874224791512728,"st_perimeter(shape)":7.9099228422392365,"liqcodepk":"201060001000000000019","creator":"SNOOPYPC","createdate":"2019-02-19T15:21:28","editor":"LENOVO","modifydate":"2019-03-10T17:53:06","codemove":"na"},"geometry":{"type":"Polygon","coordinates":[]}},{"type":"Feature","properties":{"fid":174,"objectid":9616,"lccode":"07","liqcode":null,"mappers":"DJLBuhay, MITAbigania","project":"LiquePhi","province":"Pangasinan","otherinfo":null,"datemapped":2024,"publishdate":null,"globalid":"{4C1C6B5C-6BC5-4098-AF34-1358D72BE295}","st_area(shape)":0.0990952810399136,"st_perimeter(shape)":16.14272038398808,"liqcodepk":null,"creator":null,"createdate":null,"editor":null,"modifydate":null,"codemove":null},"geometry":{"type":"Polygon","coordinates":[]}},{"type":"Feature","properties":{"fid":175,"objectid":9617,"lccode":"06","liqcode":null,"mappers":"DJLBuhay, MITAbigania","project":"LiquePhi","province":"Pangasinan","otherinfo":null,"datemapped":2024,"publishdate":null,"globalid":"{66023685-1332-44EF-8443-E51FD3597412}","st_area(shape)":0.04411879143836554,"st_perimeter(shape)":22.502158641584156,"liqcodepk":null,"creator":null,"createdate":null,"editor":null,"modifydate":null,"codemove":null},"geometry":{"type":"Polygon","coordinates":[]}},{"type":"Feature","properties":{"fid":176,"objectid":9618,"lccode":"05","liqcode":null,"mappers":"DJLBuhay, MITAbigania","project":"LiquePhi","province":"Pangasinan","otherinfo":null,"datemapped":2024,"publishdate":null,"globalid":"{5ACB73C5-6107-4512-9787-F18573022798}","st_area(shape)":0.06533832536059311,"st_perimeter(shape)":23.271340040578984,"liqcodepk":null,"creator":null,"createdate":null,"editor":null,"modifydate":null,"codemove":null},"geometry":{"type":"Polygon","coordinates":[]}},{"type":"Feature","properties":{"fid":180,"objectid":9619,"lccode":"07","liqcode":null,"mappers":"DJLBuhay, MITAbigania","project":"EHM","province":"Tarlac","otherinfo":"merged into one feature in 2024","datemapped":2021,"publishdate":null,"globalid":"{86B5AD80-4B79-45B5-89D4-1FDEF062B016}","st_area(shape)":0.06253734240529021,"st_perimeter(shape)":3.2108098594058267,"liqcodepk":null,"creator":null,"createdate":null,"editor":null,"modifydate":null,"codemove":null},"geometry":{"type":"Polygon","coordinates":[]}},{"type":"Feature","properties":{"fid":181,"objectid":9620,"lccode":"06","liqcode":null,"mappers":"DJLBuhay, MITAbigania","project":"EHM","province":"Tarlac","otherinfo":"merged into one feature in 2024","datemapped":2021,"publishdate":null,"globalid":"{BE285D85-973D-44E5-B8BA-72B267ABCE71}","st_area(shape)":0.021797029366581382,"st_perimeter(shape)":4.340907487629056,"liqcodepk":null,"creator":null,"createdate":null,"editor":null,"modifydate":null,"codemove":null},"geometry":{"type":"Polygon","coordinates":[]}}]}