{"type":"FeatureCollection","features":[{"type":"Feature","properties":{"fid":5,"objectid":1834,"lccode":"01","liqcode":"2010600010000000","mappers":"DJLBuhay, MJVReyes, MITAbigania, KLPapiona, KMVitto","project":"MELP","province":"Apayao","otherinfo":null,"datemapped":2018,"publishdate":null,"globalid":"{1CF6B5C0-CFF1-4290-9A9E-3C6A72777FB9}","st_area(shape)":0.016612682616230664,"st_perimeter(shape)":4.8172609856160955,"liqcodepk":"201060001000000000006","creator":"SNOOPYPC","createdate":"2019-02-19T15:21:28","editor":"LENOVO","modifydate":"2019-03-10T17:53:06","codemove":"na"},"geometry":{"type":"Polygon","coordinates":[[[121.26963168600003,17.808887812000023],[121.26859983800013,17.81003089100005],[121.26835158900009,17.812354649000042],[121.26727128000005,17.812701390000022],[121.2665233470001,17.81201445100004],[121.26560489100007,17.812516754000058],[121.26448954500006,17.81615122900007],[121.26331861700011,17.81792326000004],[121.26362182000003,17.819602060000022],[121.26073117400006,17.82176],[121.25841397200008,17.824435958000034],[121.25777774900007,17.825754529000047],[121.258752167,17.82661920300006],[121.2593376220001,17.82801575200006],[121.25815687700005,17.827775728000063],[121.25751995400002,17.827052866000027],[121.25587644000007,17.826647428000054],[121.25521080000009,17.825237510000022],[121.25295133500005,17.823842635000062],[121.25231152100001,17.822904532000045],[121.2521000900001,17.821738553000046],[121.25143048400004,17.821268437000064],[121.25049395000009,17.818851669000026],[121.25106280600005,17.817000322000073],[121.25028373900011,17.816332553000052],[121.24895980600003,17.818957433000033],[121.24973465000005,17.820705760000063],[121.24987161700007,17.821702517000066],[121.25112883500003,17.824346139000053],[121.2534854290001,17.825807150000053],[121.25359033400004,17.827137781000033],[121.25243855200006,17.828646041000074],[121.2511530480001,17.828875218000068],[121.251270018,17.82967711500004],[121.25044218100003,17.830902748000025],[121.24912556700006,17.83205058400005],[121.24778909400004,17.83252592700006],[121.24709292600004,17.833418292000026],[121.24628740300011,17.83347456700005],[121.24491105100003,17.834729054000036],[121.24387869100009,17.834627734000033],[121.24186214700002,17.83366602500007],[121.2410881290001,17.833821916000034],[121.2420583170001,17.835200651000033],[121.24365090800006,17.836220603000072],[121.24450146600009,17.837050668000067],[121.24447693700006,17.838273975000046],[121.24591563800006,17.83845167800007],[121.24760504600009,17.840260371000056],[121.24795837500005,17.84241507300004],[121.24749623500009,17.84398114100002],[121.25035405100006,17.841711816000046],[121.25290195300012,17.83880214800007],[121.25401830900012,17.838057442000036],[121.2562757810001,17.83709913200005],[121.25737182800003,17.836045102000064],[121.25816530000009,17.834020172000066],[121.259486336,17.832827080000072],[121.26045434500008,17.832325010000034],[121.2614370660001,17.832861673000025],[121.26074223600006,17.834214037000038],[121.26048791500011,17.836455387000058],[121.26074527800006,17.83822672600007],[121.26110306600005,17.83905280100003],[121.26199080300013,17.838795057000027],[121.26239861600004,17.837474972000052],[121.26335675300004,17.83662436400005],[121.26407840700007,17.834602997000047],[121.2639581420001,17.833808797000074],[121.26459020300001,17.832977703000036],[121.26424743000007,17.83076442900006],[121.26669601400012,17.828936196000022],[121.26751407100006,17.827295490000036],[121.26752003400009,17.82580224300006],[121.26845288800008,17.82501472900003],[121.26992338600007,17.822705705000033],[121.27131925600008,17.82082469300008],[121.27246611700004,17.819916840000076],[121.27453247100004,17.817754367000077],[121.27616874900002,17.81692779500003],[121.27782331200001,17.815125509000033],[121.27968625900007,17.814491666000038],[121.2810828370001,17.813654386000056],[121.2817069132705,17.81268135719979],[121.27761076844412,17.81078131591462],[121.27326766865504,17.809249405556937],[121.2699054324647,17.808411004912255],[121.26963168600003,17.808887812000023]]]}},{"type":"Feature","properties":{"fid":26,"objectid":1872,"lccode":"07","liqcode":"2010600070000000","mappers":"PJDelosReyes, ACPidlaoan","project":"READY","province":"Cagayan","otherinfo":null,"datemapped":2012,"publishdate":null,"globalid":"{DED92A0E-07A3-4F4C-B4F3-8B0691B82188}","st_area(shape)":0.05559407556334115,"st_perimeter(shape)":12.110269661988962,"liqcodepk":"201060007000000000065","creator":"SNOOPYPC","createdate":"2019-02-19T15:21:28","editor":"LENOVO","modifydate":"2019-03-10T17:50:55","codemove":"na"},"geometry":{"type":"Polygon","coordinates":[]}},{"type":"Feature","properties":{"fid":53,"objectid":1902,"lccode":"05","liqcode":"2010600050000000","mappers":"PJDelosReyes, ACPidlaoan","project":"READY","province":"Cagayan","otherinfo":null,"datemapped":2012,"publishdate":null,"globalid":"{C3D84E80-F2D4-4567-B477-D6223763EFE3}","st_area(shape)":0.07022270502489089,"st_perimeter(shape)":22.490008235492827,"liqcodepk":"201060005000000000097","creator":"SNOOPYPC","createdate":"2019-02-19T15:21:28","editor":"LENOVO","modifydate":"2019-03-10T17:50:55","codemove":"na"},"geometry":{"type":"Polygon","coordinates":[]}},{"type":"Feature","properties":{"fid":67,"objectid":1931,"lccode":"06","liqcode":"2010600060000000","mappers":"PJDelosReyes, ACPidlaoan","project":"READY","province":"Cagayan","otherinfo":null,"datemapped":2012,"publishdate":null,"globalid":"{5942F6C7-E5B3-4D1E-B486-921A1828B34C}","st_area(shape)":0.07051556894172502,"st_perimeter(shape)":22.109814549125648,"liqcodepk":"201060006000000000130","creator":"SNOOPYPC","createdate":"2019-02-19T15:21:28","editor":"LENOVO","modifydate":"2019-03-10T17:50:55","codemove":"na"},"geometry":{"type":"Polygon","coordinates":[]}}]}