{"type":"FeatureCollection","features":[{"type":"Feature","properties":{"fid":174,"objectid":9616,"lccode":"07","liqcode":null,"mappers":"DJLBuhay, MITAbigania","project":"LiquePhi","province":"Pangasinan","otherinfo":null,"datemapped":2024,"publishdate":null,"globalid":"{4C1C6B5C-6BC5-4098-AF34-1358D72BE295}","st_area(shape)":0.0990952810399136,"st_perimeter(shape)":16.14272038398808,"liqcodepk":null,"creator":null,"createdate":null,"editor":null,"modifydate":null,"codemove":null},"geometry":{"type":"MultiPolygon","coordinates":[[[[120.39788422200002,16.012195323000064],[120.40148506900006,16.009556611000047],[120.40268463300004,16.00888348100005],[120.40726068700009,16.005272912000066],[120.40907893700012,16.004176270000077],[120.41179002400008,16.003156361000038],[120.41384815600009,16.00311944900005],[120.41653019600007,16.003559407000065],[120.41880871500008,16.00365378400005],[120.42066582300005,16.00338805500007],[120.42305450500011,16.00232567400008],[120.42965011700004,16.00016662300004],[120.43125445500004,15.999926727000057],[120.433964004,16.00002953900002],[120.4353187790001,16.00061214300007],[120.43984657700004,16.004107730000044],[120.44152222000004,16.00475886200007],[120.44505176300004,16.004998752000063],[120.4497221700001,16.00458751100007],[120.4518969400001,16.003970649000046],[120.45439257700002,16.002976811000057],[120.45597609100003,16.003140164000058],[120.45718499600004,16.002996056000026],[120.4601064960001,16.003379402000068],[120.46244526500004,16.003342847000052],[120.46390457200005,16.003859184000078],[120.46519185900002,16.004702309000038],[120.46634321300007,16.00504264600005],[120.46795810000003,16.004857001000058],[120.468986211,16.004421216000022],[120.47005101600008,16.003233182000027],[120.47030058700012,16.001804201000024],[120.47006763400009,16.000737247000078],[120.4701436910001,15.998854632000077],[120.47267260300008,15.99629571000003],[120.4749733430001,15.995473192000077],[120.47695083900011,15.994943123000036],[120.47830085900011,15.99426682700005],[120.48033539800007,15.993645363000038],[120.48164739000003,15.993608806000047],[120.48313051100003,15.99322496000008],[120.48387207200005,15.991122931000065],[120.48454504200004,15.990329472000038],[120.48613478300001,15.990355228000055],[120.48816932200009,15.991287439000072],[120.48854789740223,15.99126736242036],[120.48825085411737,15.990058495330269],[120.48675955584442,15.985867870448592],[120.48485086569865,15.981838812482529],[120.48258391626561,15.978077689555803],[120.48188408900012,15.97825020000005],[120.47817628600001,15.97825020000005],[120.476773975,15.978501546000079],[120.47549050500004,15.978181650000073],[120.47482500100013,15.976970611000072],[120.47606093600007,15.97477701100007],[120.47644122400004,15.973565951000069],[120.47736817400005,15.97230918200006],[120.47781036976582,15.972178350362093],[120.47687858117351,15.971159250131073],[120.47267153400003,15.971570723000069],[120.47028285300007,15.971570723000072],[120.4680855270001,15.972562638000054],[120.46683057800011,15.973604613000079],[120.46352207600012,15.974811103000036],[120.46158260900008,15.975359505000027],[120.46027061700012,15.97535950500003],[120.45519377800008,15.974646582000046],[120.45314022500008,15.974756263000074],[120.45045919800009,15.97541434500005],[120.44509714300013,15.977443419000055],[120.44156046900001,15.97952731200007],[120.4387653550001,15.980240218000064],[120.43511459500009,15.980185379000034],[120.43306104200008,15.981117637000066],[120.430722273,15.98320149100004],[120.42764194400003,15.984298248000073],[120.42604473600012,15.984078897000078],[120.4211390270001,15.984078897000078],[120.41937069000006,15.98479178600007],[120.41777348200003,15.985669185000061],[120.41446498000005,15.986930439000048],[120.41087126300012,15.986327232000068],[120.40950222700009,15.985669185000065],[120.40653598400002,15.985724023000042],[120.4047676470001,15.986107883000042],[120.40254296500008,15.98693043900005],[120.4014591450001,15.987752992000027],[120.39899113872602,15.98876980316388],[120.39890431843058,15.988995569174],[120.3977355562329,15.993280614339527],[120.39700658143624,15.997655827316603],[120.39685785035225,15.999987613547868],[120.39822194700004,15.998472374000075],[120.40019468900005,15.997627017000069],[120.40337959800003,15.995502187000058],[120.40616045000002,15.99419986100003],[120.40851348000001,15.993925686000074],[120.41015347000007,15.993514423000025],[120.41253026700008,15.992440565000036],[120.41516851200004,15.991800817000067],[120.41661835800005,15.99186936100005],[120.419256603,15.992417716000036],[120.42065891400011,15.992052146000049],[120.42160963300012,15.990978280000036],[120.42225136800006,15.989059016000052],[120.42277426300006,15.98846495500004],[120.42403396600004,15.988167923000045],[120.42745655400006,15.988739137000039],[120.42850234500008,15.988533500000074],[120.42928668800005,15.987779497000078],[120.43204377300003,15.98661421300005],[120.43327970700011,15.985768806000069],[120.43598925600008,15.98341535900005],[120.43667852700003,15.983164018000029],[120.43867503700005,15.983118320000074],[120.44029125900012,15.983598152000074],[120.44271559200001,15.983026923000065],[120.44409413500011,15.98151887200004],[120.44544890900012,15.980901938000045],[120.44856251400006,15.980216454000068],[120.44977468000003,15.979530968000063],[120.45146220600009,15.97921107400003],[120.45374393200005,15.978502734000074],[120.45588304900002,15.977657294000032],[120.45704768000009,15.977702993000038],[120.45909172600011,15.978959728000063],[120.46175373900007,15.979051126000055],[120.46410676800008,15.98012505600008],[120.46572299000003,15.980513498000054],[120.46643602900008,15.981176131000039],[120.46626965300003,15.982638487000031],[120.46479603900003,15.984283624000055],[120.46153982700004,15.985243282000056],[120.46006621300012,15.98700264100006],[120.45875897400002,15.98736822100005],[120.45735666400005,15.987322523000044],[120.454884794,15.987779497000075],[120.45101061500009,15.988784834000057],[120.44746918700004,15.98853350000007],[120.44575789300006,15.987870891000059],[120.44335732800005,15.987870891000059],[120.44088545900001,15.988487803000059],[120.43934054000009,15.989264653000074],[120.43824721400006,15.990544163000042],[120.4365596880001,15.991229611000051],[120.4341828900001,15.991366701000054],[120.43097421400012,15.992166387000053],[120.4280032170001,15.993948534000028],[120.42643453100006,15.993994230000055],[120.42517482900007,15.993720054000049],[120.42355860600003,15.994336948000065],[120.42137195300008,15.996210466000033],[120.42046877000008,15.996621724000018],[120.41821081300009,15.996895896000071],[120.41455054500013,15.99666741900006],[120.41236389100006,15.996895896000067],[120.4093453590001,15.997786950000032],[120.40616045000002,15.999569047000021],[120.40380742100001,16.00135112700007],[120.401905983,16.002607713000025],[120.39734253200005,16.005029474000025],[120.39684119614358,16.005167162072173],[120.39689188147823,16.006507783147274],[120.39750731973106,16.010899286263726],[120.39782959268541,16.01221333641531],[120.39788422200002,16.012195323000064]]],[[[120.48247352600002,16.02077726000004],[120.48085356000001,16.021126051000067],[120.47878574600009,16.023867411000023],[120.47693184400009,16.027248370000052],[120.4755533020001,16.027933692000033],[120.47386577600003,16.028390573000024],[120.47291505700004,16.029532769000074],[120.47289128900003,16.03053789600005],[120.47228995900001,16.031527028000024],[120.4704194200001,16.032593823000074],[120.46857740200007,16.032759438000024],[120.46765045100007,16.032234037000023],[120.4668661080001,16.030757196000025],[120.46719511900007,16.027847187000074],[120.4669790600001,16.02630822500004],[120.46636698000009,16.025083877000046],[120.4646537000001,16.02424171100006],[120.461851066,16.024421389000054],[120.46009657300009,16.023699985000064],[120.456798767,16.024042653000034],[120.45581833800009,16.023785652000065],[120.4543922590001,16.022986092000053],[120.45067851400005,16.02270053400002],[120.44764809700007,16.023100315000026],[120.44699447800008,16.023328761000073],[120.4446473910001,16.02327165000003],[120.44357783200006,16.02344298400004],[120.44182494400003,16.02429965300007],[120.44048799500003,16.025413317000073],[120.4393293070001,16.027269411000077],[120.43900249700005,16.028497279000074],[120.43906191700012,16.03058178100002],[120.4396264060001,16.031838183000048],[120.44087422500003,16.033180240000036],[120.44167639400007,16.03457939600003],[120.44179523400008,16.03546457100003],[120.44129016400007,16.036977926000077],[120.44033944600005,16.03803441200006],[120.43864597800008,16.03863403700006],[120.43741903800003,16.038438527000036],[120.4349111580001,16.03873929000002],[120.43171318700001,16.039536612000063],[120.42759062200004,16.04129766700004],[120.42582287900007,16.042494041000058],[120.42442167502344,16.043868200011833],[120.42500856006649,16.044145308997546],[120.42930401293833,16.04569002364907],[120.43373542025351,16.046820071827288],[120.43826008143787,16.04752455978655],[120.44283439465366,16.047796694363797],[120.44741427774687,16.047633848731262],[120.44792464241576,16.047566844510506],[120.44711202500002,16.04616112600007],[120.44725463300007,16.044653551000064],[120.44811236500006,16.04358848800007],[120.4506793060001,16.04139562000006],[120.4520340800001,16.041011865000034],[120.4529610310001,16.04119003700003],[120.45397354700003,16.04202607200006],[120.45477337700004,16.044125010000073],[120.4549738368917,16.046344508619473],[120.4564145778723,16.046013653904605],[120.46074825860046,16.044571910253023],[120.46491487417418,16.04272624709892],[120.46887427501777,16.04049444713112],[120.47258831143382,16.03789801403394],[120.47602120171689,16.034961964997745],[120.47913987726797,16.03171458932017],[120.48191430136707,16.02818717544107],[120.48431775852187,16.02441370906034],[120.48553457562326,16.022001623345695],[120.48247352600002,16.02077726000004]]],[[[120.42593065000007,15.963897588000068],[120.42861167700003,15.964336334000054],[120.43260469700009,15.963952432000042],[120.43505755200012,15.963239468000038],[120.4368769670001,15.96207611900007],[120.43836587500004,15.957786299000077],[120.43836613706358,15.957782771550486],[120.43486671389417,15.958242456525584],[120.4304097092649,15.959266217671146],[120.42607784312344,15.96070759480053],[120.42246457810133,15.96230828370863],[120.42593065000007,15.963897588000068]]]]}},{"type":"Feature","properties":{"fid":175,"objectid":9617,"lccode":"06","liqcode":null,"mappers":"DJLBuhay, MITAbigania","project":"LiquePhi","province":"Pangasinan","otherinfo":null,"datemapped":2024,"publishdate":null,"globalid":"{66023685-1332-44EF-8443-E51FD3597412}","st_area(shape)":0.04411879143836554,"st_perimeter(shape)":22.502158641584156,"liqcodepk":null,"creator":null,"createdate":null,"editor":null,"modifydate":null,"codemove":null},"geometry":{"type":"MultiPolygon","coordinates":[[[[120.4776580370001,15.974373952000064],[120.47757297600003,15.973049896000077],[120.47800053762589,15.972386335986153],[120.47781036976582,15.972178350362093],[120.47736817400005,15.97230918200006],[120.47644122400004,15.973565951000069],[120.47606093600007,15.97477701100007],[120.47482500100013,15.976970611000072],[120.47549050500004,15.978181650000073],[120.476773975,15.978501546000079],[120.47817628600001,15.97825020000005],[120.48188408900012,15.97825020000005],[120.48258391626561,15.978077689555803],[120.48254318804246,15.978010115575621],[120.48155701640259,15.976690738817998],[120.48038438600008,15.977276896000037],[120.47924714600003,15.977224757000046],[120.47832563700003,15.976775780000025],[120.47704560100011,15.97729768900007],[120.47649173500008,15.976980852000056],[120.47679184100002,15.975449808000063],[120.4776580370001,15.974373952000064]]],[[[120.40616045000002,15.999569047000021],[120.4093453590001,15.997786950000032],[120.41236389100006,15.996895896000067],[120.41455054500013,15.99666741900006],[120.41821081300009,15.996895896000071],[120.42046877000008,15.996621724000018],[120.42137195300008,15.996210466000033],[120.42355860600003,15.994336948000065],[120.42517482900007,15.993720054000049],[120.42643453100006,15.993994230000055],[120.4280032170001,15.993948534000028],[120.43097421400012,15.992166387000053],[120.4341828900001,15.991366701000054],[120.4365596880001,15.991229611000051],[120.43824721400006,15.990544163000042],[120.43934054000009,15.989264653000074],[120.44088545900001,15.988487803000059],[120.44335732800005,15.987870891000059],[120.44575789300006,15.987870891000059],[120.44746918700004,15.98853350000007],[120.45101061500009,15.988784834000057],[120.454884794,15.987779497000075],[120.45735666400005,15.987322523000044],[120.45875897400002,15.98736822100005],[120.46006621300012,15.98700264100006],[120.46153982700004,15.985243282000056],[120.46479603900003,15.984283624000055],[120.46626965300003,15.982638487000031],[120.46643602900008,15.981176131000039],[120.46572299000003,15.980513498000054],[120.46410676800008,15.98012505600008],[120.46175373900007,15.979051126000055],[120.45909172600011,15.978959728000063],[120.45704768000009,15.977702993000038],[120.45588304900002,15.977657294000032],[120.45374393200005,15.978502734000074],[120.45146220600009,15.97921107400003],[120.44977468000003,15.979530968000063],[120.44856251400006,15.980216454000068],[120.44544890900012,15.980901938000045],[120.44409413500011,15.98151887200004],[120.44271559200001,15.983026923000065],[120.44029125900012,15.983598152000074],[120.43867503700005,15.983118320000074],[120.43667852700003,15.983164018000029],[120.43598925600008,15.98341535900005],[120.43327970700011,15.985768806000069],[120.43204377300003,15.98661421300005],[120.42928668800005,15.987779497000078],[120.42850234500008,15.988533500000074],[120.42745655400006,15.988739137000039],[120.42403396600004,15.988167923000045],[120.42277426300006,15.98846495500004],[120.42225136800006,15.989059016000052],[120.42160963300012,15.990978280000036],[120.42065891400011,15.992052146000049],[120.419256603,15.992417716000036],[120.41661835800005,15.99186936100005],[120.41516851200004,15.991800817000067],[120.41253026700008,15.992440565000036],[120.41015347000007,15.993514423000025],[120.40851348000001,15.993925686000074],[120.40616045000002,15.99419986100003],[120.40337959800003,15.995502187000058],[120.40019468900005,15.997627017000069],[120.39822194700004,15.998472374000075],[120.39685785035225,15.999987613547868],[120.39672444117346,16.002079081006386],[120.39684119614358,16.005167162072173],[120.39734253200005,16.005029474000025],[120.401905983,16.002607713000025],[120.40380742100001,16.00135112700007],[120.40616045000002,15.999569047000021]]],[[[120.45477337700004,16.044125010000073],[120.45397354700003,16.04202607200006],[120.4529610310001,16.04119003700003],[120.4520340800001,16.041011865000034],[120.4506793060001,16.04139562000006],[120.44811236500006,16.04358848800007],[120.44725463300007,16.044653551000064],[120.44711202500002,16.04616112600007],[120.44792464241576,16.047566844510506],[120.45195559390369,16.04703758792644],[120.4549738368917,16.046344508619473],[120.45477337700004,16.044125010000073]]],[[[120.43836587500004,15.957786299000077],[120.4368769670001,15.96207611900007],[120.43505755200012,15.963239468000038],[120.43260469700009,15.963952432000042],[120.42861167700003,15.964336334000054],[120.42593065000007,15.963897588000068],[120.42246457810133,15.96230828370863],[120.42191280765027,15.962552711871798],[120.41795469169875,15.964783807181822],[120.41424159558855,15.96737940412596],[120.41080926488986,15.970314517646763],[120.40769074669726,15.973560894397954],[120.40491607168369,15.97708728432787],[120.40251196498403,15.980859741086398],[120.40050158868857,15.984841948382895],[120.39899113872602,15.98876980316388],[120.4014591450001,15.987752992000027],[120.40254296500008,15.98693043900005],[120.4047676470001,15.986107883000042],[120.40653598400002,15.985724023000042],[120.40950222700009,15.985669185000065],[120.41087126300012,15.986327232000068],[120.41446498000005,15.986930439000048],[120.41777348200003,15.985669185000061],[120.41937069000006,15.98479178600007],[120.4211390270001,15.984078897000078],[120.42604473600012,15.984078897000078],[120.42764194400003,15.984298248000073],[120.430722273,15.98320149100004],[120.43306104200008,15.981117637000066],[120.43511459500009,15.980185379000034],[120.4387653550001,15.980240218000064],[120.44156046900001,15.97952731200007],[120.44509714300013,15.977443419000055],[120.45045919800009,15.97541434500005],[120.45314022500008,15.974756263000074],[120.45519377800008,15.974646582000046],[120.46027061700012,15.97535950500003],[120.46158260900008,15.975359505000027],[120.46352207600012,15.974811103000036],[120.46683057800011,15.973604613000079],[120.4680855270001,15.972562638000054],[120.47028285300007,15.971570723000072],[120.47267153400003,15.971570723000069],[120.47687858117351,15.971159250131073],[120.47682346379685,15.971098967671484],[120.47580534562084,15.97018429120243],[120.47560494400011,15.97025029200006],[120.47414003300003,15.969746697000064],[120.47071067600008,15.968472172000078],[120.46723104500008,15.968622988000046],[120.46647522300007,15.968389909000054],[120.46537714300008,15.967347908000018],[120.46470475000002,15.965259108000053],[120.46389663900005,15.96452786800006],[120.4631836000001,15.963065380000048],[120.46268091369438,15.961546427464398],[120.4618027396352,15.961131862507745],[120.4575086443238,15.959588014469482],[120.45307887674672,15.9584587097174],[120.44855607446377,15.957754813427648],[120.44398376787616,15.957483096025706],[120.43940596202414,15.95764616830752],[120.43836613706358,15.957782771550486],[120.43836587500004,15.957786299000077]]],[[[120.48816932200009,15.991287439000072],[120.48613478300001,15.990355228000055],[120.48454504200004,15.990329472000038],[120.48387207200005,15.991122931000065],[120.48313051100003,15.99322496000008],[120.48164739000003,15.993608806000047],[120.48033539800007,15.993645363000038],[120.47830085900011,15.99426682700005],[120.47695083900011,15.994943123000036],[120.4749733430001,15.995473192000077],[120.47267260300008,15.99629571000003],[120.4701436910001,15.998854632000077],[120.47006763400009,16.000737247000078],[120.47030058700012,16.001804201000024],[120.47005101600008,16.003233182000027],[120.468986211,16.004421216000022],[120.46795810000003,16.004857001000058],[120.46634321300007,16.00504264600005],[120.46519185900002,16.004702309000038],[120.46390457200005,16.003859184000078],[120.46244526500004,16.003342847000052],[120.4601064960001,16.003379402000068],[120.45718499600004,16.002996056000026],[120.45597609100003,16.003140164000058],[120.45439257700002,16.002976811000057],[120.4518969400001,16.003970649000046],[120.4497221700001,16.00458751100007],[120.44505176300004,16.004998752000063],[120.44152222000004,16.00475886200007],[120.43984657700004,16.004107730000044],[120.4353187790001,16.00061214300007],[120.433964004,16.00002953900002],[120.43125445500004,15.999926727000057],[120.42965011700004,16.00016662300004],[120.42305450500011,16.00232567400008],[120.42066582300005,16.00338805500007],[120.41880871500008,16.00365378400005],[120.41653019600007,16.003559407000065],[120.41384815600009,16.00311944900005],[120.41179002400008,16.003156361000038],[120.40907893700012,16.004176270000077],[120.40726068700009,16.005272912000066],[120.40268463300004,16.00888348100005],[120.40148506900006,16.009556611000047],[120.39788422200002,16.012195323000064],[120.39782959268541,16.01221333641531],[120.39856485875049,16.015211298252165],[120.40005434243757,16.019402289655208],[120.4019614524828,16.023431893703183],[120.4042678452461,16.027261295266964],[120.4069513275314,16.030853604969057],[120.40998606959765,16.034174214838384],[120.41334285338236,16.03719113206882],[120.41698935356902,16.039875287649124],[120.42089044880349,16.042200816871773],[120.42442167502344,16.043868200011833],[120.42582287900007,16.042494041000058],[120.42759062200004,16.04129766700004],[120.43171318700001,16.039536612000063],[120.4349111580001,16.03873929000002],[120.43741903800003,16.038438527000036],[120.43864597800008,16.03863403700006],[120.44033944600005,16.03803441200006],[120.44129016400007,16.036977926000077],[120.44179523400008,16.03546457100003],[120.44167639400007,16.03457939600003],[120.44087422500003,16.033180240000036],[120.4396264060001,16.031838183000048],[120.43906191700012,16.03058178100002],[120.43900249700005,16.028497279000074],[120.4393293070001,16.027269411000077],[120.44048799500003,16.025413317000073],[120.44182494400003,16.02429965300007],[120.44357783200006,16.02344298400004],[120.4446473910001,16.02327165000003],[120.44699447800008,16.023328761000073],[120.44764809700007,16.023100315000026],[120.45067851400005,16.02270053400002],[120.4543922590001,16.022986092000053],[120.45581833800009,16.023785652000065],[120.456798767,16.024042653000034],[120.46009657300009,16.023699985000064],[120.461851066,16.024421389000054],[120.4646537000001,16.02424171100006],[120.46636698000009,16.025083877000046],[120.4669790600001,16.02630822500004],[120.46719511900007,16.027847187000074],[120.4668661080001,16.030757196000025],[120.46765045100007,16.032234037000023],[120.46857740200007,16.032759438000024],[120.4704194200001,16.032593823000074],[120.47228995900001,16.031527028000024],[120.47289128900003,16.03053789600005],[120.47291505700004,16.029532769000074],[120.47386577600003,16.028390573000024],[120.4755533020001,16.027933692000033],[120.47693184400009,16.027248370000052],[120.47878574600009,16.023867411000023],[120.48085356000001,16.021126051000067],[120.48247352600002,16.02077726000004],[120.48553457562326,16.022001623345695],[120.48632711160393,16.020430545267793],[120.48792302430147,16.01627605786436],[120.48834849147012,16.014713729020198],[120.48781918300004,16.015251154000055],[120.48644064100006,16.017238703000032],[120.48503833000007,16.018586569000032],[120.48273283700006,16.01961459600005],[120.48159197400003,16.019751666000044],[120.48071255900004,16.019774511000037],[120.47902503300008,16.019317611000076],[120.47750388300005,16.01856372400005],[120.47560244500006,16.01719301200006],[120.47386738300008,16.01541107300005],[120.47260768000001,16.01452009700006],[120.4716331940001,16.013240740000075],[120.47078586500005,16.01122802200007],[120.47121368900002,16.009857259000054],[120.4710710810001,16.007869638000045],[120.47214064000002,16.00375725400005],[120.47192316300006,16.002598917000054],[120.47044004100007,16.000748306000045],[120.47042102700006,15.999441444000068],[120.47237000100006,15.99733948100004],[120.47315434400004,15.99681398700005],[120.47745634700004,15.995168953000077],[120.47990444800007,15.994552061000034],[120.48182965400007,15.994620605000016],[120.48363602000005,15.995374583000059],[120.48598904900007,15.997545109000045],[120.48817570300004,15.998253381000035],[120.48941163700012,15.999715612000047],[120.489982069,16.002571501000034],[120.48960178100005,16.003439683000067],[120.48838961400008,16.00481048900002],[120.48815193500003,16.00775769100005],[120.48841338200009,16.00855731100006],[120.489482941,16.009265544000073],[120.48953230001146,16.009329412087077],[120.4898172626588,16.007614464627732],[120.49009739629557,16.00319079376308],[120.48992787875194,15.998761864972996],[120.4893103724744,15.994370334443031],[120.48854789740223,15.99126736242036],[120.48816932200009,15.991287439000072]]]]}},{"type":"Feature","properties":{"fid":176,"objectid":9618,"lccode":"05","liqcode":null,"mappers":"DJLBuhay, MITAbigania","project":"LiquePhi","province":"Pangasinan","otherinfo":null,"datemapped":2024,"publishdate":null,"globalid":"{5ACB73C5-6107-4512-9787-F18573022798}","st_area(shape)":0.06533832536059311,"st_perimeter(shape)":23.271340040578984,"liqcodepk":null,"creator":null,"createdate":null,"editor":null,"modifydate":null,"codemove":null},"geometry":{"type":"MultiPolygon","coordinates":[[[[120.4631836000001,15.963065380000048],[120.46389663900005,15.96452786800006],[120.46470475000002,15.965259108000053],[120.46537714300008,15.967347908000018],[120.46647522300007,15.968389909000054],[120.46723104500008,15.968622988000046],[120.47071067600008,15.968472172000078],[120.47414003300003,15.969746697000064],[120.47324400200013,15.96860696500005],[120.47299469637323,15.967735857868412],[120.46982027337701,15.965399917736496],[120.4659198276857,15.963075398136644],[120.46268091369438,15.961546427464398],[120.4631836000001,15.963065380000048]]],[[[120.48815193500003,16.00775769100005],[120.48838961400008,16.00481048900002],[120.48960178100005,16.003439683000067],[120.489982069,16.002571501000034],[120.48941163700012,15.999715612000047],[120.48817570300004,15.998253381000035],[120.48598904900007,15.997545109000045],[120.48363602000005,15.995374583000059],[120.48182965400007,15.994620605000016],[120.47990444800007,15.994552061000034],[120.47745634700004,15.995168953000077],[120.47315434400004,15.99681398700005],[120.47237000100006,15.99733948100004],[120.47042102700006,15.999441444000068],[120.47044004100007,16.000748306000045],[120.47192316300006,16.002598917000054],[120.47214064000002,16.00375725400005],[120.4710710810001,16.007869638000045],[120.47121368900002,16.009857259000054],[120.47078586500005,16.01122802200007],[120.4716331940001,16.013240740000075],[120.47260768000001,16.01452009700006],[120.47386738300008,16.01541107300005],[120.47560244500006,16.01719301200006],[120.47750388300005,16.01856372400005],[120.47902503300008,16.019317611000076],[120.48071255900004,16.019774511000037],[120.48159197400003,16.019751666000044],[120.48273283700006,16.01961459600005],[120.48503833000007,16.018586569000032],[120.48644064100006,16.017238703000032],[120.48781918300004,16.015251154000055],[120.48834849147012,16.014713729020198],[120.48909014676197,16.011990269273593],[120.48953230001146,16.009329412087077],[120.489482941,16.009265544000073],[120.48841338200009,16.00855731100006],[120.48815193500003,16.00775769100005]],[[120.47400527600009,16.003673056000025],[120.4739341840001,16.002041183000074],[120.47300656800009,16.00124227300006],[120.47131523700013,16.001072948000058],[120.47052028700011,16.000012055000067],[120.47210913700009,15.998983823000058],[120.47274331500012,15.997911178000036],[120.47357414700002,15.997278950000066],[120.47622059800005,15.996470300000054],[120.47808514600003,15.99556011900006],[120.47964123700001,15.99560228300004],[120.4821015240001,15.996443723000027],[120.48215572200002,15.997202808000052],[120.48103172500011,15.997221617000037],[120.48063583800001,15.998448353000068],[120.48198830700005,15.999267447000028],[120.48405044400012,15.999844295000058],[120.48757089500009,15.999889574000063],[120.48837311600006,16.000515522000057],[120.48799681000003,16.001170527000053],[120.48465782700009,16.002006444000074],[120.48508255800006,16.002763456000025],[120.48643508900012,16.003281186000038],[120.48679969500006,16.003763448000026],[120.4860704560001,16.00576248000004],[120.48482874500007,16.007501525000063],[120.4838714020001,16.00674050000003],[120.48296082300011,16.006879004000037],[120.48277085500001,16.007803079000038],[120.48370558800002,16.009166148000073],[120.48359004500003,16.011230096000077],[120.48428788400008,16.011365313000052],[120.48544793000009,16.009597850000038],[120.48671267100008,16.00923624500006],[120.48805839900001,16.00980766600003],[120.48870084400004,16.010681213000055],[120.48860280600002,16.011461848000067],[120.48691959200005,16.01343305500006],[120.48552416500003,16.014524219000066],[120.484376225,16.016655145000065],[120.48299283000006,16.017608632000076],[120.48117977000004,16.017434654000056],[120.4798367210001,16.01664812200005],[120.47914202000004,16.01588712600005],[120.47778506800012,16.015035974000057],[120.47667324500001,16.01316861700007],[120.47712284900003,16.012294846000035],[120.47525843300002,16.01249235100005],[120.47486392100006,16.010852986000035],[120.47506450200001,16.008954033000066],[120.47616053500008,16.00795728200006],[120.47374806900007,16.007627769000074],[120.47281122900007,16.006684945000075],[120.47287269800007,16.005323120000067],[120.47365217300012,16.004643990000037],[120.47400527600009,16.003673056000025]]]]}}]}