{"type":"FeatureCollection","features":[{"type":"Feature","properties":{"fid":207,"objectid":7271,"lccode":"01","liqcode":null,"mappers":"DJLBuhay, MJVReyes, MITAbigania, KLPapiona, KMVitto","project":"MELP","province":"Zamboanga del Norte","otherinfo":null,"datemapped":2020,"publishdate":2021,"globalid":"{6B0290BE-0A77-4263-894C-1C10E652B59E}","st_area(shape)":0.033021563613966895,"st_perimeter(shape)":18.189103020785044,"liqcodepk":null,"creator":null,"createdate":null,"editor":null,"modifydate":null,"codemove":null},"geometry":{"type":"MultiPolygon","coordinates":[[[[122.95775522400004,8.27970536300006],[122.95920579000006,8.279238481000046],[122.9602995450001,8.27920029900002],[122.95995369700006,8.277955774000077],[122.95911503194897,8.277907118808688],[122.95682904452008,8.279595555169397],[122.95775522400004,8.27970536300006]]],[[[122.98982264700011,8.35938638700003],[122.98888067400003,8.35808443900004],[122.9883424190001,8.356916522000061],[122.98811283500005,8.355204628000024],[122.9888675620001,8.354377906000025],[122.98970867500009,8.352702660000034],[122.99088620000009,8.351338541000077],[122.99136683800009,8.349926539000021],[122.9921321390001,8.348567427000036],[122.99288079700011,8.348414592000038],[122.9940454250001,8.348873155000033],[122.99594685900001,8.348520414000065],[122.99690342500001,8.349012403000074],[122.99820481200004,8.349225896000062],[122.99918149300005,8.348725225000065],[122.99959962100002,8.34632719700005],[122.99886429900005,8.346829777000039],[122.99830198800008,8.34833751700006],[122.99664390800001,8.347964161000048],[122.9957142200001,8.347298047000038],[122.99548338500004,8.346121769000035],[122.99398600500001,8.345992430000024],[122.9921558750001,8.343664318000037],[122.99111008600006,8.34346442900005],[122.99037328100007,8.342864761000044],[122.9906788940001,8.340531851000035],[122.98960082300006,8.338549477000072],[122.98954140300009,8.337796943000058],[122.99046835200011,8.33719726700002],[122.9907179160001,8.336480006000045],[122.98946729500005,8.335303701000043],[122.98925651200011,8.334022193000067],[122.98858373300006,8.332567082000025],[122.98703533900004,8.33159725400003],[122.98654156300006,8.330483983000024],[122.9871037580001,8.325674493000063],[122.98696258300004,8.323698424000042],[122.98741417400004,8.322945861000052],[122.98831735500005,8.323063449000074],[122.98849561500003,8.321699427000055],[122.99027820900007,8.32167590900002],[122.98974343100008,8.320817513000064],[122.98846875900007,8.320064769000055],[122.98831499000005,8.319624407000047],[122.98885213400003,8.31770140200007],[122.98982661800005,8.317195766000054],[122.99020690500005,8.316196252000056],[122.99087240700011,8.315514230000074],[122.9921558750001,8.31569061500005],[122.99460397100005,8.315161459000022],[122.99591120700006,8.31539663900003],[122.99692134400004,8.316372637000029],[122.99786017699999,8.316701889000056],[122.99820536400011,8.315946934000067],[122.99764070800006,8.314846038000042],[122.9960198440001,8.313824435000072],[122.99430284600008,8.313850957000056],[122.99371213200004,8.313098925000078],[122.99440897400007,8.311100575000069],[122.99498565000012,8.31063390000003],[122.99448108600008,8.30911418100004],[122.9956584690001,8.307211565000046],[122.99760451400006,8.305948130000047],[122.9995365430001,8.303018619000053],[122.9992089330001,8.302647453000073],[122.99806606400011,8.302889379000023],[122.99720108300005,8.302042164000053],[122.99574483200003,8.303461046000049],[122.99383151400002,8.303343452000036],[122.9934413210001,8.304143437000048],[122.99130472800003,8.303736499000026],[122.99069921900002,8.304440100000022],[122.989978403,8.304081095000072],[122.98950575100004,8.303120024000066],[122.98971966300007,8.302402700000073],[122.99154979300012,8.300297759000046],[122.9924409250001,8.299609596000039],[122.99274473800006,8.298801268000034],[122.99360251000009,8.29819954000004],[122.99505135500011,8.298150340000062],[122.99576257100011,8.296886713000049],[122.99566647800009,8.295546493000073],[122.99518595600011,8.29411053800004],[122.99583950600004,8.292349115000034],[122.99589718600011,8.290817436000054],[122.995455106,8.289802694000059],[122.99455643600004,8.288890899000021],[122.99427122000009,8.28795011300002],[122.99334078400013,8.28855817400006],[122.99387896000007,8.289802673000054],[122.99419991700007,8.29238355000007],[122.99410484500005,8.293441923000044],[122.99311003300011,8.294072216000076],[122.99327418000009,8.295268913000031],[122.99380197000005,8.296484622000035],[122.9922450040001,8.297173850000036],[122.9910982020001,8.298992455000077],[122.9901712530001,8.298910138000052],[122.98969589500007,8.299486354000067],[122.98872141000005,8.299745063000048],[122.98902980400008,8.301007767000042],[122.9883292390001,8.303731512000068],[122.98705765500007,8.30454290800003],[122.98626143000001,8.306483196000041],[122.98578607100002,8.306883012000071],[122.98271715200008,8.307305348000055],[122.98098709500006,8.308626341000036],[122.97894090900003,8.309575878000034],[122.97801396000011,8.310975221000035],[122.97747297900004,8.311273411000057],[122.97633832100009,8.310951702000068],[122.97541137200005,8.309928654000032],[122.97428239500005,8.309963932000072],[122.97265429200003,8.310704760000021],[122.9720100940001,8.311804042000063],[122.97113314500008,8.312115857000038],[122.97007547300005,8.310975221000035],[122.96901780000007,8.311810120000077],[122.9680314310001,8.311810120000075],[122.96774844400011,8.312948549000053],[122.96694999000009,8.313327045000047],[122.96513174400003,8.313103623000076],[122.96405030400001,8.31383268600007],[122.9632060670001,8.313737068000023],[122.96251412900007,8.31299031100002],[122.96138233800002,8.313714159000028],[122.95928186400012,8.314059048000045],[122.95770885700006,8.312367039000035],[122.95773315600003,8.30983020100007],[122.95826185800003,8.308992621000073],[122.95773329700012,8.308513916000038],[122.95679613900008,8.309207857000045],[122.95678401900011,8.310177120000048],[122.95563928600008,8.31081178100004],[122.95516190600007,8.312223166000024],[122.95619565400011,8.31409569300007],[122.95847737800011,8.314142665000077],[122.96162300400012,8.315329025000041],[122.96441688400013,8.31702345800005],[122.96554842700004,8.317141016000049],[122.96739047000005,8.318093440000041],[122.96865017000005,8.318069886000044],[122.96949934900012,8.318575497000039],[122.97197769200011,8.318399042000069],[122.97336812300011,8.318610663000074],[122.97631158200011,8.320103161000079],[122.97889040200005,8.322325584000057],[122.98051850500008,8.324254026000062],[122.98230109900011,8.32712315300006],[122.98320835100003,8.329063941000072],[122.98316091200002,8.332426894000038],[122.98354236500006,8.332662197000047],[122.9842814770001,8.33511115600004],[122.98591382400002,8.337306032000072],[122.98715415500011,8.34041073700007],[122.98810496100009,8.34349136800006],[122.98818819500003,8.34510223500007],[122.98898447200008,8.346877687000074],[122.98951932800003,8.34955850700004],[122.98932922900009,8.35112232500006],[122.98835478600006,8.352615611000036],[122.98840234300008,8.35333284100005],[122.98755016900009,8.355099641000033],[122.98668350900004,8.355475031000024],[122.986465339,8.35623708600002],[122.98756569500004,8.359164226000075],[122.98760549787228,8.35997152132184],[122.98967177181467,8.35987048732796],[122.99037313738339,8.359766894048368],[122.98982264700011,8.35938638700003]]],[[[123.00269639000011,8.298203811000064],[123.00348447200008,8.297323089000031],[123.00416994700004,8.297423291000026],[123.00571417900005,8.296863560000077],[123.00444552900001,8.294987269000046],[123.00670883300006,8.29296015600005],[123.00793416400006,8.29112211900002],[123.0087414510001,8.290648238000074],[123.00936131900004,8.289757936000058],[123.01202824500002,8.288781419000033],[123.01352744200007,8.287015153000027],[123.0133400100001,8.286239746000035],[123.01197050800012,8.286383385000022],[123.01126409900007,8.28523464500006],[123.00920265000002,8.285751640000058],[123.00892876400006,8.286397824000062],[123.00920268800006,8.28740298200006],[123.00882788600006,8.287905573000046],[123.00683851000008,8.289025653000067],[123.00657905000004,8.290662639000061],[123.00581500500006,8.290892403000042],[123.00503653300008,8.290346753000051],[123.00430132400004,8.291007298000068],[123.00292699800002,8.291196377000063],[123.00235035300011,8.29054541800002],[123.00062043100002,8.289626416000033],[122.99996690700006,8.288152175000048],[122.99927494300005,8.288094737000051],[122.99840998400009,8.289300932000062],[122.99846764500013,8.289990188000047],[122.99927493700012,8.29177076700006],[122.99816009000007,8.292957815000024],[122.99758343200006,8.29521703900002],[122.99789097100007,8.296518967000054],[122.998717499,8.297150788000067],[122.99875593600007,8.298988803000041],[122.99921725600007,8.299888665000024],[123.00065889200006,8.300271585000074],[123.00108176800008,8.29900794900004],[123.00171608300003,8.298261254000067],[123.00269639000011,8.298203811000064]]],[[[122.94443178300003,8.296005530000059],[122.94566882100003,8.295964616000047],[122.94559903800005,8.297172403000046],[122.94627650200005,8.297904829000062],[122.94635385300013,8.298907011000038],[122.94719937700006,8.299283689000047],[122.94876259800003,8.297254999999998],[122.94876384600002,8.295992410000052],[122.94688911300013,8.295650482000044],[122.94587867000007,8.294857573000057],[122.94549758564678,8.293008384313518],[122.94517896856973,8.293537712076512],[122.94407849360313,8.295854489464213],[122.94443178300003,8.296005530000059]]],[[[122.94092458900003,8.308475250000072],[122.94241018100003,8.311803059000056],[122.94380469200007,8.31281401800004],[122.94331386700003,8.311107359000061],[122.94214161600006,8.308981988000028],[122.94186294500001,8.30721227200007],[122.94054449961509,8.306997052394737],[122.94040410383441,8.307938798563644],[122.94092458900003,8.308475250000072]]]]}}]}