{"type":"FeatureCollection","features":[{"type":"Feature","properties":{"fid":207,"objectid":7271,"lccode":"01","liqcode":null,"mappers":"DJLBuhay, MJVReyes, MITAbigania, KLPapiona, KMVitto","project":"MELP","province":"Zamboanga del Norte","otherinfo":null,"datemapped":2020,"publishdate":2021,"globalid":"{6B0290BE-0A77-4263-894C-1C10E652B59E}","st_area(shape)":0.033021563613966895,"st_perimeter(shape)":18.189103020785044,"liqcodepk":null,"creator":null,"createdate":null,"editor":null,"modifydate":null,"codemove":null},"geometry":{"type":"Polygon","coordinates":[]}},{"type":"Feature","properties":{"fid":208,"objectid":7461,"lccode":"01","liqcode":null,"mappers":"DJLBuhay, MJVReyes, MITAbigania, KLPapiona, KMVitto","project":"MELP","province":"Zamboanga del Sur","otherinfo":null,"datemapped":2020,"publishdate":2021,"globalid":"{956CA67A-D8B3-4AFB-A15B-79E0A6393BB2}","st_area(shape)":0.059065434056611577,"st_perimeter(shape)":16.76855550220317,"liqcodepk":null,"creator":null,"createdate":null,"editor":null,"modifydate":null,"codemove":null},"geometry":{"type":"Polygon","coordinates":[]}},{"type":"Feature","properties":{"fid":209,"objectid":7568,"lccode":"01","liqcode":null,"mappers":"DJLBuhay, MJVReyes, MITAbigania, KLPapiona, KMVitto","project":"MELP","province":"Zamboanga Sibugay","otherinfo":null,"datemapped":2021,"publishdate":2021,"globalid":"{08423ED1-E932-4EA1-95BF-6D5A5DF8C9A2}","st_area(shape)":0.03611593413386012,"st_perimeter(shape)":14.29973412419831,"liqcodepk":null,"creator":null,"createdate":null,"editor":null,"modifydate":null,"codemove":null},"geometry":{"type":"MultiPolygon","coordinates":[[[[122.92167394900002,7.682874705000075],[122.92203046800012,7.683546009000053],[122.92319509600009,7.684040654000057],[122.92402697300008,7.683958213000039],[122.92418146500005,7.682639159000073],[122.9233971230001,7.682650936000074],[122.92315944400002,7.681649865000056],[122.92220872700011,7.6814260960000516],[122.92192144077221,7.681121408536756],[122.92189400541658,7.681230587919981],[122.92164740980287,7.68288690253949],[122.92167394900002,7.682874705000075]]],[[[122.93392631400002,7.659166373000059],[122.93486797199999,7.660368832000073],[122.9351147110001,7.661345287000073],[122.93656455400001,7.662475961000043],[122.93668619000003,7.663383014000034],[122.93634378200011,7.664390551000051],[122.93551876500008,7.664631302000032],[122.93488891500012,7.663571300000058],[122.93415211000001,7.663677300000074],[122.93405703800009,7.664654858000061],[122.93467500400004,7.6659504120000275],[122.9344848610001,7.6674318060000255],[122.93487500700007,7.668202888000052],[122.93447158700008,7.670701451000068],[122.93570947200011,7.670859597000059],[122.93694484100001,7.66894195100002],[122.93766976300003,7.668718175000041],[122.93902453400007,7.669024394000079],[122.93993150600011,7.669823955000026],[122.94030800200004,7.669201059000045],[122.94133002300009,7.668741730000023],[122.94279175000008,7.669024394000077],[122.94343488800008,7.667241984000043],[122.94362703200012,7.665557112000048],[122.94474023400005,7.665116886000019],[122.94596835900006,7.6664764470000355],[122.94713880200004,7.668755033000026],[122.94842474900008,7.670025495000062],[122.94952995700011,7.670331713000054],[122.94987459200003,7.670885262000071],[122.94983894000006,7.672133687000042],[122.94870996400005,7.673170113000025],[122.94926345700003,7.673753735000046],[122.95062613600011,7.673677307000048],[122.9518735910001,7.6741944060000264],[122.951989937,7.674901409000027],[122.95303572600005,7.675772944000074],[122.95303572600005,7.677504230000069],[122.95353485300008,7.679070625000066],[122.95526991100007,7.679341505000025],[122.95655596200004,7.6802069210000345],[122.95730440000011,7.681030297000062],[122.95826388000013,7.682696141000065],[122.95877568000002,7.684617739000033],[122.95817830200009,7.687433779000061],[122.95828843800007,7.6886102020000635],[122.95747881400005,7.689427605000048],[122.95679630000006,7.68838139600007],[122.95738658600011,7.687419341000066],[122.95688283000004,7.686787455000059],[122.9555585280001,7.686571922000041],[122.95469479100008,7.687016988000042],[122.95352863200003,7.688639533000072],[122.95331259100008,7.689716502000065],[122.95054869300009,7.690333668000049],[122.94956973900004,7.691152069000054],[122.94919527500008,7.692789053000071],[122.94933911800003,7.693693744000028],[122.94851838300008,7.695488634000073],[122.94659964800007,7.697261828000024],[122.9455239120001,7.697714048000021],[122.9440844180001,7.697512824000057],[122.94314847600002,7.699422567000057],[122.9419103690001,7.700269634000049],[122.94163668500005,7.701533268000048],[122.94231307500002,7.702940629000068],[122.94323431500005,7.703428988000037],[122.9443139560001,7.703529649000073],[122.94549426800006,7.704391394000025],[122.94586845500008,7.705138156000031],[122.94423526500009,7.7059438950000745],[122.94321316300011,7.706116080000073],[122.94315432300004,7.70698926400007],[122.94230604900008,7.707580667000061],[122.94235872900002,7.709315672000059],[122.94367330800003,7.709978950000049],[122.94469515200001,7.711860229000025],[122.94436395000001,7.712635620000072],[122.94518440800006,7.713396800000054],[122.94407565000006,7.71557935800007],[122.942484411,7.715200636000076],[122.94167148200006,7.716081633000045],[122.9418584450001,7.717417128000021],[122.94348527500007,7.716684992000068],[122.94630679500005,7.71720231100005],[122.94748727600006,7.71703013900003],[122.94773190900003,7.717819963000065],[122.94719410700007,7.72068230000002],[122.94601344000012,7.7222330190000426],[122.94643565900003,7.722750028000063],[122.94851821200008,7.723372545000076],[122.94819173500001,7.724731908000024],[122.94893070100011,7.7250191940000255],[122.94963312400012,7.72618527000003],[122.94892760000006,7.727118578000046],[122.95053984800005,7.728195759000074],[122.95169132800005,7.730120114000043],[122.95156154500013,7.732015602000045],[122.9506483503626,7.732430729918079],[122.9531940876756,7.733339622215623],[122.9575104150916,7.7344185407054376],[122.96191199579603,7.735070219107791],[122.96635642711155,7.73528837938912],[122.9697343270725,7.735123109188193],[122.96934816300008,7.733266559000074],[122.96792300100003,7.73217510400002],[122.96703044600007,7.731916558000024],[122.9663552930001,7.731228650000046],[122.9652720150001,7.730999032000055],[122.96455231400013,7.729620425000065],[122.9647396350001,7.727581338000051],[122.96535874700008,7.726662356000078],[122.96599231900005,7.724910501000066],[122.9654069720001,7.723745210000059],[122.96472319800013,7.723254525000073],[122.96555116000002,7.720933078000029],[122.96569536900004,7.71784571400002],[122.966060147,7.7161612450000225],[122.96707755900002,7.714782775000058],[122.96732716200005,7.713787175000053],[122.96845969000005,7.712944813000036],[122.96918906900011,7.71300230600002],[122.96986081900002,7.713710775000039],[122.97197211400011,7.714955442000075],[122.97295089600003,7.717023329000029],[122.97306601000001,7.717846637000034],[122.97377617000006,7.718459369000073],[122.97415612100009,7.720111737000025],[122.97480389300006,7.720901569000031],[122.97487581200006,7.721930698000052],[122.97601780500008,7.72355402900007],[122.97682388100007,7.7254782980000405],[122.97709729800012,7.727517416000071],[122.97647820500003,7.728522574000067],[122.97693883600006,7.7294129120000425],[122.97650685100005,7.731164793000062],[122.97528315200009,7.731337043000054],[122.97447687300007,7.732729903000062],[122.97405927400008,7.734438703000023],[122.97411863286291,7.734580249058282],[122.97520257766409,7.734419935275134],[122.97951907695094,7.7333416969730395],[122.9828615066576,7.732148955802915],[122.98276922600007,7.731949500000042],[122.98289881800008,7.731332031000023],[122.98397856600002,7.730757677000042],[122.9844680770001,7.729752504000033],[122.9840074350001,7.72873293500004],[122.98407945600002,7.727655947000076],[122.98484247500006,7.727110299000059],[122.98582142100007,7.7269810940000525],[122.98665653100011,7.722840688000077],[122.98663257700002,7.7215722310000405],[122.98548096900002,7.719418210000072],[122.98519309100006,7.71824547600005],[122.9829857520001,7.717455600000051],[122.98214605700001,7.715923844000029],[122.98264995600006,7.714799007000067],[122.9813543590001,7.71427242300007],[122.97890719200008,7.71197472700004],[122.97634876600013,7.70896284500003],[122.975581153,7.706320582000044],[122.9760802720001,7.704980353000052],[122.97506308400011,7.70342942600007],[122.97351392900008,7.703082062000021],[122.97314377500003,7.702203932000032],[122.97243364000008,7.701648638000054],[122.97331661900013,7.700614781000069],[122.97366222200003,7.6987384420000335],[122.97557951700004,7.697560950000025],[122.97622742300005,7.695378281000045],[122.9750182770001,7.694617138000067],[122.97444252100001,7.693812949000063],[122.9744137980001,7.6926928750000325],[122.97340619200008,7.691931739000041],[122.97353578600007,7.691314271000069],[122.97167886700005,7.690782836000037],[122.9705561610001,7.689318050000052],[122.9694046400001,7.688298416000065],[122.96914559600009,7.687408083000036],[122.96957747600005,7.686934237000063],[122.96850673000004,7.685840255000073],[122.96859192500007,7.684760060000028],[122.96811217200002,7.683783551000035],[122.96851535000009,7.682079538000036],[122.96934069800012,7.681332883000039],[122.96937914400007,7.680490437000058],[122.96864983400008,7.680260626000063],[122.96790022100002,7.6809881400000695],[122.96659615700003,7.680834868000033],[122.96707608300007,7.67947550000002],[122.96645729400007,7.677192226000044],[122.9682278250001,7.677120561000038],[122.96828548400003,7.67602921200006],[122.96660129400004,7.676488601000074],[122.96527701200012,7.676359257000055],[122.96359290200009,7.675827801000024],[122.96291648100011,7.674463552000078],[122.96336281900005,7.67315683800007],[122.96337735600002,7.671491089000027],[122.9644714220001,7.670313667000075],[122.96497516200009,7.671046064000053],[122.96602598400013,7.670572271000025],[122.96504727300011,7.669337240000061],[122.96372302800013,7.66903557200004],[122.96291701000007,7.668346227000029],[122.96117536200008,7.667771677000076],[122.96012458200005,7.6678146610000235],[122.95905951600001,7.666723207000076],[122.95917474200007,7.665962142000069],[122.95995207700003,7.665402178000022],[122.9591748580001,7.664741549000043],[122.95812405500011,7.66508608600003],[122.95694380400006,7.664434986000061],[122.95539662700001,7.662639839000068],[122.9553367540001,7.661658571000032],[122.95402930700006,7.661598601000035],[122.9533096890001,7.6608446280000635],[122.95263811500001,7.659540195000035],[122.951630668,7.658415222000029],[122.95128298400004,7.656931324000028],[122.95253050000008,7.6564767330000345],[122.95245859600006,7.655890361000045],[122.95117517100006,7.655698752000035],[122.95047957600002,7.654789211000033],[122.94971192600009,7.654645523000056],[122.94924438700002,7.652467546000026],[122.9480689290001,7.6522520070000715],[122.94773314500004,7.651689536000051],[122.94800923100003,7.6499783450000205],[122.94719357600002,7.650121845000059],[122.946173842,7.651617544000032],[122.94521430300006,7.651318258000063],[122.94482914732578,7.650267548291764],[122.9411762860691,7.652451204627447],[122.93760247482795,7.655094721562911],[122.93430554686084,7.65807495446474],[122.9339269890382,7.658491515167712],[122.93392631400002,7.659166373000059]],[[122.96071412500011,7.67456387500005],[122.95996561300001,7.674578166000059],[122.95803689200011,7.673242510000022],[122.95698643199998,7.669953986000054],[122.95639630100004,7.669623648000026],[122.95594423700005,7.668108332000029],[122.95672778700009,7.665488026000046],[122.95772094100006,7.665890202000074],[122.95805191100011,7.666866709000035],[122.95772066900008,7.668647306000027],[122.95892974700008,7.669035141000055],[122.95996618800007,7.668432122000067],[122.96173662400008,7.669021040000074],[122.96264338100002,7.669940154000074],[122.96291676200008,7.671218211000051],[122.96215367700007,7.673329052000043],[122.96071412500011,7.67456387500005]],[[122.94228844400004,7.665073484000061],[122.94231694600012,7.667198756000061],[122.94128248700008,7.667752405000044],[122.94075959300005,7.667175297000031],[122.9400937690001,7.665204752000022],[122.93927409700007,7.663677300000073],[122.9395682380001,7.663091443000041],[122.94102104000001,7.663182632000028],[122.94254469900011,7.664477169000065],[122.94228844400004,7.665073484000061]],[[122.96186390700008,7.7274027890000525],[122.96278755900005,7.72859952700003],[122.9627755050001,7.7292457200000495],[122.96161171300002,7.730286708000051],[122.96051526200006,7.72964110700002],[122.96012428800009,7.728228323000049],[122.9605202130001,7.727917229000068],[122.96052032500008,7.726708606000045],[122.95938066400005,7.726325569000038],[122.95947669000009,7.725787082000069],[122.96178010000006,7.725500097000065],[122.96152809300008,7.726325768000036],[122.96186390700008,7.7274027890000525]],[[122.96208152300005,7.6753825130000415],[122.96251329700009,7.676057467000022],[122.96354966300011,7.676488354000068],[122.96455719700009,7.677450552000038],[122.96488815400004,7.678872210000064],[122.96428354300006,7.679346038000064],[122.9626714330001,7.678383787000029],[122.961275268,7.677206150000073],[122.96080036600006,7.675928075000058],[122.96113151400006,7.675109590000034],[122.96208152300005,7.6753825130000415]],[[122.97733457200002,7.732451543000024],[122.9773106350001,7.731374551000045],[122.97775457300008,7.730405282000049],[122.97831842000005,7.730572843000061],[122.97859429400012,7.731685748000075],[122.9785222170001,7.733564495000049],[122.97800634700003,7.733540535000029],[122.97733457200002,7.732451543000024]],[[122.938881927,7.664466413000071],[122.93887004300008,7.66554996900004],[122.93807381700002,7.665655968000066],[122.937372663,7.665078858000072],[122.93791932600004,7.664407524000068],[122.938881927,7.664466413000071]]],[[[122.98328744300011,7.672482200000047],[122.98433823100004,7.6724965990000555],[122.98461175000011,7.67176425300005],[122.98347461900003,7.6712041740000245],[122.98358980900001,7.67029950400007],[122.98150266100004,7.669753742000069],[122.98084042500011,7.671979501000065],[122.9816896430001,7.673113971000022],[122.98261087300013,7.673372488000043],[122.98328744300011,7.672482200000047]]],[[[122.99207996500002,7.674200855000036],[122.99301559700005,7.674516789000051],[122.99282844400011,7.676024578000068],[122.993576962,7.67569431100003],[122.993648946,7.67489015700005],[122.99431109300009,7.674660408000023],[122.99461339100004,7.6734828980000325],[122.9955922160001,7.672836713000037],[122.99389369200003,7.672018177000041],[122.993591422,7.671300177000035],[122.99239669800012,7.671070399000031],[122.99215198600005,7.6715011920000515],[122.99318836600003,7.672247925000023],[122.99313078000012,7.672750521000069],[122.99190725800007,7.672793580000076],[122.99207996500002,7.674200855000036]]],[[[123.00955487100009,7.678038031000031],[123.00884712900007,7.677571349000063],[123.00879913100005,7.676769588000071],[123.00765956300008,7.676578144000073],[123.00714375000007,7.675967856000057],[123.00506854500007,7.675812320000037],[123.00442078500008,7.67503449800006],[123.00304132100007,7.675489241000036],[123.00226162000001,7.675190081000038],[123.00018642000009,7.675405486000048],[122.99943520800002,7.676552783000034],[122.99948318900012,7.677282745000069],[122.9979357740001,7.6781563020000485],[122.99696414300001,7.677952864000075],[122.99684418200002,7.6788982240000205],[122.99478095100005,7.679592267000032],[122.99403722000011,7.680298286000038],[122.99460099900011,7.681171855000062],[122.99527272800003,7.683062585000073],[122.99601645500003,7.6831104590000345],[122.99610041400001,7.684211386000071],[122.99775580700009,7.6848216940000516],[122.99729998000011,7.683553233000054],[122.99753989900012,7.68241640800005],[122.99941120900007,7.682248882000067],[122.99923127800001,7.681052222000061],[122.99843957400005,7.680513723000047],[122.99883757100008,7.679324066000049],[122.99968711000008,7.678335806000064],[123.00064674700003,7.67804860700005],[123.00050280000004,7.676696382000046],[123.0013859620001,7.676494444000069],[123.0024655530001,7.677176535000059],[123.0032812400001,7.676913264000062],[123.00396707900006,7.677652618000024],[123.0046847120001,7.677631247000021],[123.00491261500008,7.676769650000042],[123.00587225400011,7.67712863600002],[123.00625613000012,7.678648388000056],[123.00701184200013,7.6785047770000565],[123.008403326,7.679007349000074],[123.00920706100008,7.680778389000065],[123.01032265800005,7.681292927000073],[123.01033467800005,7.682310087000074],[123.01106257244331,7.682818817305789],[123.01082740437874,7.6812375501219545],[123.01003541001937,7.678083675449033],[123.00955487100009,7.678038031000031]]],[[[122.9889396100001,7.692476186000022],[122.98819589000003,7.691650472000049],[122.98744012300006,7.692631710000057],[122.98721215900002,7.694055727000032],[122.9875240240001,7.695048963000032],[122.98763193100001,7.696987553000044],[122.98899944900008,7.697920984000065],[122.98951529900013,7.697035470000061],[122.989095485,7.6952883380000685],[122.98804981800005,7.694928400000039],[122.98815633700006,7.693446070000049],[122.9889396100001,7.692476186000022]]]]}}]}