{"type":"FeatureCollection","features":[{"type":"Feature","properties":{"fid":200,"objectid":3303,"lccode":"01","liqcode":null,"mappers":"DJLBuhay, MJVReyes, MITAbigania, KLPapiona, KMVitto","project":"MELP","province":"Quezon","otherinfo":null,"datemapped":2017,"publishdate":null,"globalid":"{BC782275-8EAF-4B58-974B-C12246047CD2}","st_area(shape)":0.045970309448805105,"st_perimeter(shape)":30.915538535941515,"liqcodepk":null,"creator":null,"createdate":null,"editor":null,"modifydate":null,"codemove":null},"geometry":{"type":"Polygon","coordinates":[]}},{"type":"Feature","properties":{"fid":201,"objectid":3456,"lccode":"01","liqcode":null,"mappers":"DJLBuhay, MJVReyes, MITAbigania, KLPapiona, KMVitto","project":"MELP","province":"Marinduque","otherinfo":null,"datemapped":2018,"publishdate":null,"globalid":"{C1C76F22-BF62-4BCA-9566-6C4AB9AA7AC0}","st_area(shape)":0.008373951507563988,"st_perimeter(shape)":5.3853957391960225,"liqcodepk":null,"creator":"SDE","createdate":"2019-10-29T15:36:34","editor":"SDE","modifydate":"2019-10-29T15:38:36","codemove":null},"geometry":{"type":"Polygon","coordinates":[[[122.09146062500007,13.417959322000057],[122.09136727748212,13.418264731913307],[122.09254427387863,13.417002866222441],[122.09146062500007,13.417959322000057]]]}}]}