{"type":"FeatureCollection","features":[{"type":"Feature","properties":{"fid":16,"objectid":1861,"lccode":"07","liqcode":"2010600070000000","mappers":"MITAbigania, DJLBuhay","project":"Cebu Multi-Hazard Mapping","province":"Cebu","otherinfo":null,"datemapped":2016,"publishdate":null,"globalid":"{C53CB127-C117-49E0-BEC2-5269D4100696}","st_area(shape)":0.02168908556211633,"st_perimeter(shape)":9.044842936189752,"liqcodepk":"201060007000000000053","creator":"SNOOPYPC","createdate":"2019-02-19T15:21:28","editor":"LENOVO","modifydate":"2019-03-10T17:50:55","codemove":"na"},"geometry":{"type":"Polygon","coordinates":[]}},{"type":"Feature","properties":{"fid":25,"objectid":1871,"lccode":"07","liqcode":"2010600070000000","mappers":"PJDelosReyes, ACPidlaoan","project":"READY","province":"Bohol","otherinfo":null,"datemapped":2008,"publishdate":null,"globalid":"{24D4EC03-5006-45F6-AD98-9C84307BF998}","st_area(shape)":0.043795715989879205,"st_perimeter(shape)":13.054531899785706,"liqcodepk":"201060007000000000063","creator":"SNOOPYPC","createdate":"2019-02-19T15:21:28","editor":"LENOVO","modifydate":"2019-03-10T17:50:55","codemove":"na"},"geometry":{"type":"Polygon","coordinates":[]}},{"type":"Feature","properties":{"fid":40,"objectid":1888,"lccode":"05","liqcode":"2010600050000000","mappers":"MITAbigania, DJLBuhay","project":"Cebu Multi-Hazard Mapping","province":"Cebu","otherinfo":null,"datemapped":2016,"publishdate":null,"globalid":"{6B113CA7-0A16-415A-8510-4591ABBD34CB}","st_area(shape)":0.011277825227989341,"st_perimeter(shape)":7.92725888477651,"liqcodepk":"201060005000000000082","creator":"SNOOPYPC","createdate":"2019-02-19T15:21:28","editor":"LENOVO","modifydate":"2019-03-10T17:50:55","codemove":"na"},"geometry":{"type":"Polygon","coordinates":[]}},{"type":"Feature","properties":{"fid":52,"objectid":1901,"lccode":"05","liqcode":"2010600050000000","mappers":"PJDelosReyes, ACPidlaoan","project":"READY","province":"Bohol","otherinfo":null,"datemapped":2008,"publishdate":null,"globalid":"{6E90D3A1-B401-4667-B32C-C40E7388D630}","st_area(shape)":0.010533775520257218,"st_perimeter(shape)":3.327242015595593,"liqcodepk":"201060005000000000095","creator":"SNOOPYPC","createdate":"2019-02-19T15:21:28","editor":"LENOVO","modifydate":"2019-03-10T17:50:55","codemove":"na"},"geometry":{"type":"Polygon","coordinates":[[[124.2809483640001,9.915697078000049],[124.28276531000006,9.917271767000047],[124.28514326100004,9.918972669000027],[124.28373056400005,9.920037532000036],[124.28493356100012,9.920469670000045],[124.28662170300004,9.922173109000026],[124.2880471520001,9.922851546000063],[124.28874017100009,9.923661167000036],[124.28947879500005,9.925111760000048],[124.29086234200008,9.926089583000019],[124.29185918200007,9.927410980000047],[124.29221480400008,9.930145516000037],[124.29195995600003,9.931129646000045],[124.29122868000002,9.93155998800006],[124.2894616420001,9.931737750000025],[124.28985314500005,9.932633959000041],[124.28968555400002,9.93387432000003],[124.29046570300012,9.934897224000053],[124.29005899898861,9.937038913855126],[124.29043780409148,9.937541208120864],[124.29345606292031,9.940817093480826],[124.29678371555171,9.94378385847926],[124.30038871076626,9.946412923197306],[124.30407024010792,9.948581148422951],[124.30526487400004,9.948305520000075],[124.30917753200004,9.945511578000039],[124.31084956900008,9.94311114100003],[124.31209921300002,9.942935290000037],[124.31408539400002,9.943611489000032],[124.31667118600001,9.943302087000063],[124.31813438800009,9.942612334000044],[124.32011260700007,9.94132207300004],[124.32106205000002,9.941532130000043],[124.3235245520001,9.94271933900006],[124.32602078200011,9.941597949000027],[124.32740018100003,9.941507050000041],[124.3289059980001,9.940688802000066],[124.32963343200004,9.939318024000043],[124.33053459200005,9.938245789000064],[124.3310003680001,9.936149300000068],[124.33233318700002,9.935203537000064],[124.33449188800013,9.935921690000043],[124.33746946000008,9.936550945000024],[124.33850272000005,9.936162152000064],[124.3402745950001,9.937180954000038],[124.34156987000007,9.937603280000074],[124.34290676900002,9.937683350000043],[124.34393925000008,9.937123502000077],[124.34665401200006,9.936727931000064],[124.35039448800002,9.934147970000025],[124.3520262180001,9.932517038000071],[124.35275353500003,9.931146134000073],[124.35387030200002,9.930115737000053],[124.3545186330001,9.93049786900002],[124.35593876500003,9.929850901000066],[124.35856101099999,9.927959372000034],[124.35945931900007,9.926245864000066],[124.36053754600006,9.926327009000033],[124.36303534000001,9.925632878000046],[124.36372251400009,9.92498886200002],[124.3651371110001,9.923016773000029],[124.36573943700012,9.92271508900006],[124.36785323100003,9.92300570100002],[124.36892203600007,9.920821301000046],[124.36967403650148,9.920006829911868],[124.37033042198796,9.917362509764242],[124.37096876297889,9.912971141397792],[124.37116991307633,9.908538881521672],[124.37093195288196,9.904108413628352],[124.37025719135538,9.89972240227523],[124.36915214291471,9.895423082331083],[124.36762746408314,9.89125185241977],[124.36569785031453,9.887248876469078],[124.3633818940133,9.883452697192434],[124.36070190513212,9.87989986521494],[124.35768369608861,9.876624587403292],[124.35435633308036,9.873658397773639],[124.35086634349238,9.87111334465411],[124.35082745600006,9.871350581000057],[124.34984331600003,9.873149922000037],[124.3484247890001,9.874138824000054],[124.34803548800005,9.873798388000068],[124.34824524300006,9.872386905000042],[124.34887111569397,9.869922217773905],[124.34731832455154,9.869007708297097],[124.34659984900009,9.870598086000028],[124.34660401800012,9.871623960000022],[124.34569880300012,9.871627577000027],[124.34467112500009,9.87334165000004],[124.3445471760001,9.874667270000028],[124.343943,9.874498729000038],[124.34264372599999,9.87300774300007],[124.34178297400001,9.87335316700006],[124.34153193600001,9.875235],[124.34231216600006,9.87630063500006],[124.34089169600009,9.876819240000033],[124.34037030000003,9.875795332000054],[124.34019106500013,9.874128924000047],[124.33941551500004,9.874217530000067],[124.33920599200009,9.875714533000064],[124.33821520900007,9.875889424000038],[124.33817678900003,9.877043752000075],[124.33735807000005,9.877132526000025],[124.33575775700002,9.875813658000027],[124.33294370100009,9.872832460000039],[124.33066297300002,9.873824704000072],[124.328815458,9.875370934000044],[124.3281298390001,9.876399536000065],[124.3270964730001,9.876702845000066],[124.32619441400004,9.877518584000029],[124.32620708700007,9.880681932000073],[124.3258668750001,9.881837453000058],[124.32435993000003,9.882313574000023],[124.32432095000001,9.88333971700007],[124.32152586000008,9.885103359000027],[124.32148618900011,9.885958462000076],[124.32222347400011,9.887066987000026],[124.32042122800011,9.889168717000075],[124.32085351600006,9.88946625600005],[124.31979315000002,9.893830675000059],[124.32010386500009,9.896052389000031],[124.31990467000003,9.900156951000039],[124.31965572600006,9.902594486000055],[124.319749666,9.904517815000077],[124.31876253700011,9.905633114000068],[124.3176864190001,9.906064857000048],[124.31574738300003,9.90632893600002],[124.31544782300011,9.906885821000058],[124.31558551400008,9.908979935000046],[124.31511249800008,9.90928102400005],[124.31377307900006,9.908559513000052],[124.3125658990001,9.90856423500003],[124.30937291300006,9.907892708000077],[124.30889972100009,9.90815112000007],[124.30734716600011,9.908028886000068],[124.30579681000007,9.908462440000052],[124.30333665200011,9.907788002000077],[124.30273444900003,9.90813233800003],[124.30048989400005,9.907457042000033],[124.29859324000006,9.90754990600004],[124.29695904200003,9.90858213100006],[124.29618213700007,9.908371415000033],[124.29622177700004,9.90747354700005],[124.29703648700001,9.90635897000004],[124.29423357600001,9.906198740000034],[124.29366507300006,9.904149021000022],[124.29404867000005,9.90303611100006],[124.29430015100003,9.901196949000054],[124.29309674500008,9.902142061000063],[124.29185736000011,9.904925503000072],[124.29069377300004,9.905058170000073],[124.28755359800004,9.90686566000005],[124.28673961000004,9.908194023000021],[124.28591978600002,9.908026118000066],[124.28544191000005,9.907087468000041],[124.2833691530001,9.906240439000046],[124.28340210600005,9.903632677000076],[124.28313760700007,9.902137488000047],[124.28175443000009,9.901202287000045],[124.28070447992333,9.900848919040982],[124.28017760141367,9.904466565292957],[124.27997521704552,9.908898930278164],[124.28021197639805,9.913329619787621],[124.28055946832836,9.915592299705018],[124.2809483640001,9.915697078000049]]]}},{"type":"Feature","properties":{"fid":66,"objectid":1930,"lccode":"06","liqcode":"2010600060000000","mappers":"PJDelosReyes, ACPidlaoan","project":"READY","province":"Bohol","otherinfo":null,"datemapped":2008,"publishdate":null,"globalid":"{D63C31C2-E045-4C3D-A292-79031F3364A0}","st_area(shape)":0.006668240995906857,"st_perimeter(shape)":3.000289637999567,"liqcodepk":"201060006000000000128","creator":"SNOOPYPC","createdate":"2019-02-19T15:21:28","editor":"LENOVO","modifydate":"2019-03-10T17:50:55","codemove":"na"},"geometry":{"type":"Polygon","coordinates":[]}},{"type":"Feature","properties":{"fid":91,"objectid":1919,"lccode":"06","liqcode":"2010600060000000","mappers":"MITAbigania, DJLBuhay","project":"Cebu Multi-Hazard Mapping","province":"Cebu","otherinfo":null,"datemapped":2016,"publishdate":null,"globalid":"{EDC44F95-33EE-45BE-975C-40D829DF5178}","st_area(shape)":0.012637099910309046,"st_perimeter(shape)":9.940336299625505,"liqcodepk":"201060006000000000117","creator":"SNOOPYPC","createdate":"2019-02-19T15:21:28","editor":"LENOVO","modifydate":"2019-03-10T17:50:55","codemove":"na"},"geometry":{"type":"Polygon","coordinates":[]}}]}