{"type":"FeatureCollection","features":[{"type":"Feature","properties":{"fid":207,"objectid":7271,"lccode":"01","liqcode":null,"mappers":"DJLBuhay, MJVReyes, MITAbigania, KLPapiona, KMVitto","project":"MELP","province":"Zamboanga del Norte","otherinfo":null,"datemapped":2020,"publishdate":2021,"globalid":"{6B0290BE-0A77-4263-894C-1C10E652B59E}","st_area(shape)":0.033021563613966895,"st_perimeter(shape)":18.189103020785044,"liqcodepk":null,"creator":null,"createdate":null,"editor":null,"modifydate":null,"codemove":null},"geometry":{"type":"Polygon","coordinates":[]}},{"type":"Feature","properties":{"fid":208,"objectid":7461,"lccode":"01","liqcode":null,"mappers":"DJLBuhay, MJVReyes, MITAbigania, KLPapiona, KMVitto","project":"MELP","province":"Zamboanga del Sur","otherinfo":null,"datemapped":2020,"publishdate":2021,"globalid":"{956CA67A-D8B3-4AFB-A15B-79E0A6393BB2}","st_area(shape)":0.059065434056611577,"st_perimeter(shape)":16.76855550220317,"liqcodepk":null,"creator":null,"createdate":null,"editor":null,"modifydate":null,"codemove":null},"geometry":{"type":"Polygon","coordinates":[]}},{"type":"Feature","properties":{"fid":209,"objectid":7568,"lccode":"01","liqcode":null,"mappers":"DJLBuhay, MJVReyes, MITAbigania, KLPapiona, KMVitto","project":"MELP","province":"Zamboanga Sibugay","otherinfo":null,"datemapped":2021,"publishdate":2021,"globalid":"{08423ED1-E932-4EA1-95BF-6D5A5DF8C9A2}","st_area(shape)":0.03611593413386012,"st_perimeter(shape)":14.29973412419831,"liqcodepk":null,"creator":null,"createdate":null,"editor":null,"modifydate":null,"codemove":null},"geometry":{"type":"MultiPolygon","coordinates":[[[[122.92309360600007,7.571370028000045],[122.92367592000006,7.570745669000076],[122.92319232100012,7.5689985960000286],[122.92314114100009,7.566009935000069],[122.92354519600009,7.563806976000023],[122.92468605700003,7.563689170000028],[122.92493562000004,7.562310842000043],[122.924590985,7.561368393000067],[122.92577938100011,7.560720458000048],[122.92583880100007,7.559624857000075],[122.92634834100012,7.559412441000063],[122.92600785900004,7.557495145000075],[122.92562990706459,7.557086516790868],[122.92128471380937,7.557728919645584],[122.92033638514623,7.557965776716033],[122.92030087400006,7.55819939300005],[122.92074058100003,7.558811990000038],[122.92254694300004,7.558305420000065],[122.92290346200004,7.5586352790000415],[122.9229757600001,7.560309176000031],[122.92335505300002,7.562558235000038],[122.92296288200009,7.563477120000072],[122.92163187800008,7.565267763000065],[122.92096637600002,7.564396003000068],[122.91978986400011,7.564313540000058],[122.9193858090001,7.563406437000028],[122.91980174800007,7.562216597000031],[122.91893421900012,7.561710031000076],[122.91825683300011,7.562687821000057],[122.91748437500009,7.562711382000033],[122.91675945300007,7.562039888000072],[122.91658119400005,7.560602652000057],[122.91729423200002,7.559377463000034],[122.91907682600005,7.559165411000039],[122.91891035315705,7.558321941850606],[122.91696983939457,7.558806595279989],[122.91278157108322,7.560301074184916],[122.90876023381213,7.56219796770195],[122.9060751190279,7.563803154464031],[122.9063010120001,7.564211827000065],[122.90626591400007,7.565432690000023],[122.9068601130001,7.5672468850000305],[122.90588562800009,7.568401369000071],[122.9063847540001,7.5697914580000525],[122.90558852900006,7.5707456690000745],[122.90776329400002,7.573891016000059],[122.90866647500002,7.573572949000041],[122.90918936900006,7.574173743000074],[122.91010907300006,7.57438435200004],[122.91124529500009,7.573796774000071],[122.91223166400006,7.574939460000054],[122.91216252700009,7.576784402000044],[122.91259861300011,7.578397712000027],[122.9127852800001,7.580479944000046],[122.91385039600004,7.57966163800006],[122.9137788170001,7.577766109000036],[122.91498503700006,7.577350594000052],[122.91585099600003,7.5785419530000695],[122.91576442000006,7.579719453000052],[122.9144688340001,7.581614715000059],[122.91460845600011,7.582608338000057],[122.91369339100005,7.582902839000041],[122.91390708800009,7.584055798000065],[122.91323050000005,7.5850177810000305],[122.91459757700012,7.585563730000048],[122.91637916700006,7.583644981000022],[122.91698679500008,7.584314876000064],[122.91618068300012,7.585319919000025],[122.91684245700003,7.586526283000068],[122.91770137200002,7.586187063000071],[122.91924573300003,7.587058054000064],[122.91989317400011,7.5880059310000565],[122.92062722900003,7.587532187000022],[122.92101602500009,7.5862973010000605],[122.91987926900003,7.585378056000026],[122.92005131100007,7.58320912000005],[122.91962348800006,7.582455197000059],[122.92026847200009,7.581931736000058],[122.92031222200002,7.578801271000033],[122.92079244800004,7.576618524000025],[122.92282660000001,7.575470092000048],[122.92351027000007,7.573684249000054],[122.92309360600007,7.571370028000045]],[[122.91647614900013,7.571199223000063],[122.91743563000013,7.570759033000061],[122.91812589300001,7.573420545000032],[122.9178290100001,7.573973478000026],[122.9163197470001,7.574103061000071],[122.91578496900001,7.573726092000075],[122.91654554200012,7.573125297000043],[122.91647614900013,7.571199223000063]]],[[[122.88540495600012,7.595826923000063],[122.88578829700009,7.597490384000023],[122.88703554100006,7.597670210000048],[122.88717990900011,7.595947054000021],[122.88773163400003,7.595791631000055],[122.88758789100007,7.595121463000056],[122.88817612600008,7.592907791000072],[122.88913578200003,7.592082340000046],[122.88927990700006,7.59126864600006],[122.89055121700007,7.591065535000041],[122.89016790300002,7.589246512000043],[122.88907679500005,7.588264972000048],[122.88827315200001,7.588719498000046],[122.88682721210536,7.5887249886946195],[122.88674584960198,7.588951696061114],[122.88638323422478,7.5903945568714315],[122.88683702700006,7.590460361000053],[122.8875616790001,7.592148749000046],[122.88708174200008,7.592974321000041],[122.88570813943264,7.5930807580356605],[122.88566386719953,7.593256915934409],[122.88528864339628,7.595776298215253],[122.88540495600012,7.595826923000063]]],[[[122.9264631860001,7.647046702000069],[122.92742578700008,7.64662268400002],[122.92780607400005,7.647129150000067],[122.92808780531688,7.647218961497528],[122.93011266374145,7.647318537836471],[122.93038953745331,7.647305012489121],[122.93019017600011,7.647194007000051],[122.92942505500004,7.646384142000045],[122.92954514500003,7.645498633000047],[122.92796197500002,7.64485217500004],[122.92780616500012,7.644146119000023],[122.9291735930001,7.643811281000072],[122.929161711,7.643129182000051],[122.93007330800003,7.643021632000058],[122.92988156100013,7.642016406000039],[122.92881417100011,7.641322168000041],[122.92974999900002,7.639706829000036],[122.92732715200009,7.639610695000043],[122.92629552000005,7.640292617000057],[122.92496425700006,7.639634224000074],[122.924723963,7.6419557040000505],[122.92582729000003,7.642889290000028],[122.92580311300003,7.6439782470000655],[122.92621082500013,7.644564681000077],[122.92546701400012,7.645438115000044],[122.92561593310849,7.64709212013876],[122.9256691686562,7.647100007843543],[122.9264931736689,7.647140535677711],[122.9264631860001,7.647046702000069]]],[[[122.9396639480001,7.646262678000029],[122.93798492400005,7.644778581000025],[122.93661785800009,7.642684226000031],[122.93728972100007,7.641499630000056],[122.93673834700009,7.63898656200007],[122.93561104400011,7.637873500000068],[122.93395570500002,7.638675013000069],[122.93411127200011,7.64102049300004],[122.93292378600006,7.641271609000057],[122.93240785100011,7.642384423000067],[122.93232360882878,7.647210527657307],[122.93455623012416,7.647101446986732],[122.93895706038322,7.6464508265280005],[122.93966911351002,7.646272988567516],[122.9396639480001,7.646262678000029]]]]}}]}