{"type":"FeatureCollection","features":[{"type":"Feature","properties":{"fid":99,"objectid":1955,"lccode":"01","liqcode":"2010600010000000","mappers":"DJLBuhay, MJVReyes, MITAbigania, KLPapiona, KMVitto","project":"MELP","province":"Palawan","otherinfo":null,"datemapped":2018,"publishdate":null,"globalid":"{E70402A7-ADA2-4D45-93BC-46C7B654BDC8}","st_area(shape)":0.142808258668549,"st_perimeter(shape)":79.69829854453282,"liqcodepk":"201060001000000000950","creator":"SDE","createdate":"2019-06-04T11:09:46","editor":"SDE","modifydate":"2019-06-04T11:12:34","codemove":"na"},"geometry":{"type":"MultiPolygon","coordinates":[[[[120.16301367500013,12.115472202000033],[120.16153499690397,12.115904317610807],[120.16259993200246,12.116874146818164],[120.16503899522117,12.118693158304486],[120.16531644600003,12.11820602900002],[120.16469275500003,12.117927187000076],[120.16453941300006,12.115889336000064],[120.16543231600008,12.114134645000036],[120.16509017900012,12.113414144000044],[120.16428861600002,12.113420285000071],[120.16301367500013,12.115472202000033]]],[[[120.1674835460001,12.120267346000047],[120.1685089770001,12.119763975000069],[120.16978310400008,12.119860644000026],[120.17023852400008,12.118132535000031],[120.16904385700002,12.118562485000039],[120.16790637100007,12.11932761400004],[120.1674835460001,12.120267346000047]]],[[[120.17726179100009,12.039891348000024],[120.17754680729493,12.039475379507016],[120.17708249253342,12.039633624401578],[120.17726179100009,12.039891348000024]]],[[[120.1804258420001,12.039176477000067],[120.18077034125137,12.038540421238801],[120.17972627686987,12.03878665174274],[120.1804258420001,12.039176477000067]]],[[[120.1709662820001,12.099840183000023],[120.17173160900008,12.099812134000045],[120.1728502630001,12.10082734200006],[120.17401364500007,12.10105429500004],[120.17536707700003,12.100530320000077],[120.1761053990001,12.099605724000073],[120.17738747400006,12.098937609000075],[120.17877393100002,12.098736604000067],[120.17974489700009,12.097764308000025],[120.18024486900003,12.09640706700003],[120.17949009600011,12.094272268000054],[120.1794525590001,12.093220271000064],[120.17993023900009,12.091671600000039],[120.17925483900001,12.08891619900004],[120.17980260200011,12.087631142000076],[120.18172473200003,12.087292145000047],[120.18414655300013,12.087938119000059],[120.18681947100005,12.087797900000051],[120.18764360700006,12.087949649000054],[120.18870208700001,12.088916386000049],[120.18880677000004,12.090518780000027],[120.187924812,12.091250767000076],[120.18702885100004,12.093321035000027],[120.18556456400007,12.093999309000028],[120.18419015000005,12.095371598000042],[120.18396333300005,12.096158011000059],[120.18549022800005,12.096460303000068],[120.18628034700009,12.097543835000065],[120.18724218600005,12.096143456000052],[120.18761794900001,12.095047840000062],[120.18838225100001,12.093956158000026],[120.18948227400007,12.093274180000034],[120.19069996600003,12.092951896000042],[120.19258538000008,12.093807488000037],[120.19294306900008,12.092114162000026],[120.19406835700009,12.091336815000034],[120.1961342300001,12.09119037700003],[120.197516629,12.092494014000064],[120.19907379400001,12.09222291700007],[120.20054110800004,12.09311726300007],[120.2017513720001,12.09257496400005],[120.2032354590001,12.089989510000066],[120.20573838300005,12.090320636000055],[120.20733975300006,12.089533674000052],[120.20848655000009,12.089487841000048],[120.20903962300008,12.090487678000045],[120.20857136400004,12.09254801000003],[120.20991522800013,12.092236463000063],[120.21165794600006,12.092808472000055],[120.21277562400007,12.093699250000043],[120.21279545200004,12.095535044000027],[120.21416847800003,12.096160691000023],[120.21560692600008,12.096098641000026],[120.21701819500002,12.094908180000061],[120.21404357900006,12.095088674000067],[120.2136199360001,12.094721126000023],[120.21389389,12.092658830000063],[120.21376582200004,12.091892713000052],[120.21284182500005,12.091061246000036],[120.21118554400005,12.091522637000024],[120.21049012400012,12.091133236000072],[120.20978658600008,12.089653872000042],[120.21009108200008,12.088394961000063],[120.21109190000004,12.086782934000041],[120.21283109600006,12.08593397900006],[120.215472266,12.085930589000043],[120.21665289000008,12.086163072000032],[120.21841791500005,12.085840593000057],[120.22014443700006,12.086216392000038],[120.21934523100003,12.084236552000052],[120.217777908,12.083145313000042],[120.21644849000008,12.082534472000079],[120.2172156900001,12.081735494000043],[120.21707781600003,12.080389678000076],[120.21517539500006,12.079414581000039],[120.21527819900007,12.078280311000071],[120.21608037300005,12.077033541000047],[120.21551415400006,12.076012076000039],[120.21585545700009,12.075298462000035],[120.21709810100005,12.07549016100006],[120.2178414010001,12.07406353500005],[120.21991345700008,12.073307472000067],[120.22058854200009,12.072657768000058],[120.22252756300009,12.072414593000074],[120.22431390400003,12.071179156000028],[120.22560053100005,12.069734866000031],[120.22662733500012,12.069071091000069],[120.22686708900004,12.068428146000032],[120.22626874900004,12.067102831000057],[120.22571658800007,12.066953919000067],[120.22333055300011,12.068020010000051],[120.2224029890001,12.067537507000052],[120.22175513600008,12.068190711000055],[120.22197361100007,12.069612623000065],[120.22102289800013,12.069961644000044],[120.21974492700008,12.069547334000049],[120.2194888910001,12.068942466000067],[120.21815628600007,12.068584315000065],[120.21712916400008,12.069545077000042],[120.2160953130001,12.069713990000023],[120.21532413900002,12.070901323000045],[120.21377242700011,12.07124429800007],[120.21324993500002,12.071866465000028],[120.213653248,12.07396184600003],[120.21303628800001,12.074911703000051],[120.21295492600008,12.07623003900005],[120.21259000500005,12.076968690000056],[120.21054207500003,12.078322453000055],[120.20916180600011,12.077856086000057],[120.20804377500009,12.079193655000038],[120.20656006,12.080351086000064],[120.20600560100002,12.081358909000073],[120.20534189400009,12.083531993000065],[120.2014044440001,12.082899623000056],[120.20042721200001,12.081589578000033],[120.20051963100003,12.080175583000027],[120.20218081000007,12.079236279000042],[120.2020920230001,12.078432318000068],[120.2013036940001,12.077640437000069],[120.20039185600001,12.077516531000072],[120.19887303400003,12.077845402000039],[120.19755424400012,12.07762178300004],[120.1967685200001,12.076581350000026],[120.195379912,12.077466010000022],[120.19510117500009,12.078113296000025],[120.19403054600004,12.07831281700004],[120.18981747800001,12.078040809000072],[120.18840257200009,12.077720575000058],[120.18829114500011,12.075367635000077],[120.1879875190001,12.074676228000046],[120.18828768700007,12.073837965000052],[120.18734640900004,12.072815063000062],[120.18856775900008,12.07120217600004],[120.18875036900012,12.070458325000061],[120.18955100200004,12.070064886000068],[120.1891338150001,12.06908552800007],[120.18780670300009,12.06966484700007],[120.1855089160001,12.070176978000065],[120.18554402300003,12.07239529900005],[120.1863134560001,12.073129660000061],[120.18705508200003,12.074666797000075],[120.18738258100008,12.076792476000033],[120.187220184,12.077460048000033],[120.18632059600007,12.078024556000058],[120.18238174800001,12.079399563000038],[120.18080604000012,12.07959390800005],[120.1790002240001,12.079499104000037],[120.17804334200004,12.079967397000074],[120.17658318600002,12.080258491000052],[120.174546469,12.079950990000043],[120.17157252800008,12.078362382000021],[120.17024755900003,12.078731300000074],[120.16923782100004,12.078682778000028],[120.16810175800005,12.077715200000055],[120.16822019900007,12.075689673000058],[120.16936576800003,12.073904045000063],[120.16841720800006,12.071733812000046],[120.16832912600013,12.070872509000026],[120.16605163900012,12.069453544000053],[120.164415489,12.066167336000035],[120.16134850100002,12.064090217000057],[120.16161611800008,12.062658944000075],[120.162828482,12.061906503000044],[120.16228107100005,12.06039043800007],[120.16225650600006,12.059032664000025],[120.16152925300001,12.057992767000028],[120.1620829850001,12.057061530000057],[120.16098104600007,12.056553175000031],[120.1589392190001,12.054907147000053],[120.15780578700004,12.05554566000006],[120.15701774900003,12.056589214000041],[120.15650338000013,12.05562796400005],[120.1572717900001,12.054603330000077],[120.1568945814019,12.053269481980125],[120.15418999408293,12.056781992596802],[120.15220969919135,12.059958535456483],[120.15231361900011,12.060556322000023],[120.15172809017447,12.060776170819963],[120.15130275192848,12.061637991332866],[120.15140475800001,12.062000134000073],[120.15208581800005,12.06189238400003],[120.15363405800008,12.06060806800002],[120.15519686900008,12.059782767000058],[120.15840346900006,12.059662560000048],[120.15973991300007,12.060039480000057],[120.16018183800009,12.06050286900006],[120.16032474800012,12.061689769000056],[120.15960351500009,12.063766491000022],[120.15866388500001,12.064445218000062],[120.15779569800009,12.06571739000003],[120.15831781600002,12.067787682000073],[120.1596401900001,12.069502867000038],[120.16244794800004,12.07037280700007],[120.16305726800012,12.07154534600005],[120.16455854300011,12.072879942000043],[120.16493477200004,12.074050102000056],[120.16611529300009,12.07448277900005],[120.1669018790001,12.075427680000073],[120.16734608700004,12.076649871000027],[120.1674654530001,12.079104484000023],[120.16723869400006,12.080344981000053],[120.16693785500003,12.083863667000058],[120.16642496700001,12.086175361000075],[120.165523086,12.087452192000054],[120.16388096900006,12.087722231000043],[120.16303380900003,12.090487562000023],[120.16252711300002,12.091191606000049],[120.16103112100006,12.092079196000041],[120.16011348300002,12.09212913400006],[120.15921517700009,12.091493880000028],[120.15863441400005,12.090106406000075],[120.15764184200009,12.089809450000073],[120.15700316100005,12.090496010000038],[120.15712688000008,12.092576570000062],[120.15866970600007,12.093579140000031],[120.15766265700006,12.094733050000057],[120.15674016100003,12.096994095000072],[120.15610171900005,12.097467487000072],[120.15481255300007,12.09738542000002],[120.15228037700001,12.098449284000022],[120.15249270000005,12.099039398000054],[120.1545836790001,12.098358188000079],[120.15553690900005,12.099005615000069],[120.15563288600003,12.099731238000059],[120.15514427500011,12.100921224000045],[120.15613131500005,12.101743938000025],[120.15677584800005,12.100507748000041],[120.15800091000007,12.099492601000065],[120.15934222200008,12.100115784000025],[120.15925762200003,12.101226266000024],[120.1597220660001,12.102091419000034],[120.16088921900008,12.101959965000047],[120.16126332600005,12.101031693000037],[120.16295103600011,12.099901753000037],[120.16422329700004,12.100165708000079],[120.16539044300009,12.10003423300003],[120.16597968500001,12.099430799000059],[120.1675133550001,12.09908795600006],[120.16834699900004,12.09949081500002],[120.16909721900004,12.100896628000044],[120.1702249240001,12.10105153200004],[120.1709662820001,12.099840183000023]]],[[[120.17159396800002,12.043784859000025],[120.17356664600005,12.043804871000075],[120.174926722,12.044356418000065],[120.1768362130001,12.044614771000052],[120.17784764300006,12.045911588000022],[120.17979170500007,12.046437226000021],[120.18057486200007,12.04701278600004],[120.18010163600002,12.049542621000057],[120.18108839500006,12.050154915000062],[120.18149791600003,12.048725032000052],[120.18220063700004,12.048284006000074],[120.18311081500008,12.04832308500005],[120.18258447500011,12.046405726000044],[120.1832543170001,12.044925887000032],[120.18543672800001,12.04521084200007],[120.1861022380001,12.04426154200007],[120.18487470000002,12.043221422000041],[120.18349102900004,12.043183544000046],[120.18118150600003,12.043447002000052],[120.17919110800004,12.043379064000018],[120.17761620700003,12.043052416000021],[120.17664079500003,12.043252456000058],[120.17468068500013,12.042807572000074],[120.17262852164814,12.04141317453484],[120.1708660306953,12.042211909156922],[120.16956758696709,12.04296013977638],[120.17159396800002,12.043784859000025]]],[[[120.18924511400009,12.114578378000031],[120.18813477600008,12.113917023000054],[120.18647673200007,12.114531171000063],[120.18552002800006,12.114043449000066],[120.18580826300001,12.11249762700004],[120.18488531100002,12.112497816000026],[120.1845169500001,12.114272267000043],[120.1838413490001,12.114772093000058],[120.1823779030001,12.114432175000047],[120.18290520000006,12.113252075000046],[120.18085431700001,12.112418614000036],[120.18010170600009,12.112850726000032],[120.18107438400013,12.114591004000031],[120.18002340800003,12.115679729000023],[120.17769475000011,12.115854399000057],[120.17770961100008,12.116750810000042],[120.17970879500002,12.117189418000063],[120.18134046800003,12.116775813000059],[120.18510177700011,12.117100848000062],[120.18649965000009,12.116978810000035],[120.18756332500006,12.117458056000032],[120.18714669400002,12.119203341000059],[120.18922088900001,12.11874638000006],[120.19030690500006,12.118021258000052],[120.19346059700001,12.11746048200007],[120.19502322900009,12.11761014600006],[120.1957386050001,12.117951995000052],[120.19734104100007,12.116151757000068],[120.19871736700007,12.11553469300003],[120.1984820890001,12.114805735000061],[120.19733216200007,12.114210933000038],[120.19320347200006,12.11510606100006],[120.19152778500006,12.114620635000051],[120.18924511400009,12.114578378000031]]],[[[120.18961987500006,12.125291278000077],[120.18896150100011,12.12553555200003],[120.18675093700007,12.124922618000028],[120.18528443600009,12.125271151000051],[120.18820383700006,12.127141142000026],[120.19000746000007,12.126549987000029],[120.19035699300002,12.125645314000053],[120.19151299300006,12.12427080900005],[120.19185037200009,12.123366008000062],[120.19285975900004,12.122073659000025],[120.19319738000003,12.12114495800006],[120.19171790500002,12.120938760000056],[120.19054652000011,12.12030547000006],[120.18849883000006,12.119854490000023],[120.18989279100005,12.121266812000043],[120.19033170400007,12.12342231000002],[120.18961987500006,12.125291278000077]]]]}}]}