{"type":"FeatureCollection","features":[{"type":"Feature","properties":{"fid":186,"objectid":9626,"lccode":"01","liqcode":"2010600010000000","mappers":"DJLBuhay, MJVReyes, MITAbigania, KLPapiona, KMVitto","project":"MELP","province":"Camarines Sur","otherinfo":"hazard boundary with Albay updated on 2024","datemapped":2017,"publishdate":null,"globalid":"{FACCEE19-027B-4BCC-AA3E-C446A7485A33}","st_area(shape)":0.06258623447864109,"st_perimeter(shape)":16.64832304604979,"liqcodepk":"201060001000000000012","creator":"SNOOPYPC","createdate":"2019-02-19T15:21:28","editor":"LENOVO","modifydate":"2019-03-10T17:53:06","codemove":"na"},"geometry":{"type":"Polygon","coordinates":[[[123.28077454800008,13.743289322000066],[123.28120739700012,13.741652490000035],[123.28079139500005,13.740611996000037],[123.28238224100006,13.740064678000065],[123.28007665300005,13.73933596200004],[123.2790349500001,13.738193264000074],[123.2791319280001,13.737421614000029],[123.27823632500008,13.736449468000046],[123.27699856800007,13.735892899000076],[123.27659878600002,13.732729877000056],[123.2755230680001,13.731490093000046],[123.2754337230001,13.730745023000056],[123.27216284500004,13.731160523000028],[123.27131651300012,13.73202882600003],[123.27128110900001,13.733162851000031],[123.2720896180001,13.734851018000025],[123.27274059500006,13.735364998000023],[123.27285960600011,13.736214975000049],[123.27373237400002,13.737528661000056],[123.27678761100003,13.738860297000027],[123.2767044410001,13.739943630000027],[123.27729124400004,13.740511665000042],[123.27746140000012,13.741609573000064],[123.27841704000002,13.742095234000033],[123.2779752680001,13.743599225000025],[123.27900151900008,13.745240119000075],[123.2782148020001,13.746949425000023],[123.27808980100006,13.748553860000074],[123.27829698500013,13.749912493000068],[123.27739630200006,13.749875230000042],[123.27347471000007,13.747015463000025],[123.27148712300003,13.745741061000047],[123.26938606700001,13.744797582000043],[123.26767324000002,13.744769757000029],[123.26523702800012,13.743973244000074],[123.26346539217441,13.743221707098444],[123.26462143646553,13.744057919588604],[123.26629470100009,13.744585059000029],[123.26745083800006,13.745279327000047],[123.26908277800011,13.745605990000056],[123.27251978800005,13.747450320000038],[123.27438899152834,13.748904064624531],[123.27706055081917,13.749835108408826],[123.27977455433775,13.750496391509925],[123.2795473010001,13.75007136800002],[123.28015465800001,13.748939968000057],[123.28144722400009,13.74864813800002],[123.28272142700007,13.747914137000068],[123.2825639580001,13.747215745000062],[123.28129142300008,13.74729375600003],[123.28098172800004,13.746664501000053],[123.28165292500012,13.745081422000053],[123.28095791500004,13.744434049000063],[123.28077454800008,13.743289322000066]]]}}]}