{"type":"FeatureCollection","features":[{"type":"Feature","properties":{"fid":80,"objectid":1915,"lccode":"05","liqcode":"2010600050000000","mappers":"JSPerez, MITAbigania","project":"READY","province":"Surigao del Norte","otherinfo":null,"datemapped":2009,"publishdate":null,"globalid":"{67A7B42C-F6D9-492A-966F-E48E45B7EC59}","st_area(shape)":0.0016313468145231853,"st_perimeter(shape)":2.315146639174009,"liqcodepk":"201060005000000000113","creator":"SNOOPYPC","createdate":"2019-02-19T15:21:28","editor":"LENOVO","modifydate":"2019-03-10T17:50:55","codemove":"na"},"geometry":{"type":"Polygon","coordinates":[]}},{"type":"Feature","properties":{"fid":85,"objectid":1944,"lccode":"06","liqcode":"2010600060000000","mappers":"JSPerez, MITAbigania","project":"READY","province":"Surigao del Norte","otherinfo":null,"datemapped":2009,"publishdate":null,"globalid":"{CCBC33C7-5E7F-49A9-9B57-ED60381A8AA2}","st_area(shape)":0.002680381989803758,"st_perimeter(shape)":2.7654102955978597,"liqcodepk":"201060006000000000144","creator":"SNOOPYPC","createdate":"2019-02-19T15:21:28","editor":"LENOVO","modifydate":"2019-03-10T17:50:55","codemove":"na"},"geometry":{"type":"Polygon","coordinates":[]}},{"type":"Feature","properties":{"fid":202,"objectid":3462,"lccode":"01","liqcode":null,"mappers":"DJLBuhay, MJVReyes, MITAbigania, KLPapiona, KMVitto","project":"MELP","province":"Agusan del Norte","otherinfo":null,"datemapped":2020,"publishdate":2021,"globalid":"{F30BEACC-4BAB-4756-9553-08938B67A184}","st_area(shape)":0.04058329790888213,"st_perimeter(shape)":7.333080156487654,"liqcodepk":null,"creator":null,"createdate":"2021-01-18T08:00:00","editor":null,"modifydate":null,"codemove":null},"geometry":{"type":"MultiPolygon","coordinates":[[[[125.56842505000009,9.365224538000064],[125.56972695900005,9.365597243000021],[125.571473,9.367189218000018],[125.57278663000012,9.366842783000038],[125.57311958200013,9.365264513000055],[125.57300283308334,9.365051847405612],[125.57259960467194,9.36499543347993],[125.56813914999488,9.364810233748448],[125.56802555476115,9.364816601731667],[125.56842505000009,9.365224538000064]]],[[[125.54798966600005,9.369910992000031],[125.5483817060001,9.370594412000061],[125.54928079826404,9.36908086395924],[125.5477663038564,9.369805630168926],[125.54798966600005,9.369910992000031]]],[[[125.55162042900008,9.36834479300006],[125.55166487988487,9.368044561921877],[125.55126702914515,9.368189179498678],[125.55162042900008,9.36834479300006]]],[[[125.55660929300008,9.431242480000037],[125.55652911700008,9.430467359000032],[125.55473844100004,9.431456299000047],[125.55563377400006,9.43220469500005],[125.55609542800005,9.433076499000034],[125.55690327900004,9.432605624000075],[125.55660929300008,9.431242480000037]]],[[[125.554540588,9.371383399000024],[125.55328515700013,9.371735682000063],[125.55483002100004,9.372568109000044],[125.55518460400005,9.373573676000035],[125.55615322000007,9.373605641000037],[125.55770282700007,9.371760074000065],[125.5598083210001,9.370828527000072],[125.55904570300002,9.370242264000067],[125.55755692700008,9.37076110500004],[125.55651616600007,9.369997519000037],[125.554540588,9.371383399000024]]],[[[125.55710234400011,9.380244711000046],[125.55805123800008,9.38042451800004],[125.55923652700005,9.379652035000047],[125.55958279400011,9.37877965900003],[125.55847582800004,9.378465474000054],[125.55668117500011,9.378375090000075],[125.55638484700012,9.38016146600006],[125.55710234400011,9.380244711000046]]],[[[125.55929204100005,9.386413007000044],[125.5593055920001,9.385046128000054],[125.55876531000001,9.384946539000053],[125.55775572200004,9.387128841000047],[125.55930724200005,9.388851960000064],[125.55992485000002,9.390183837000052],[125.55969511400008,9.39101459300002],[125.55875453700003,9.392644471000038],[125.55811523466319,9.39279775328079],[125.56073265100008,9.392761716000052],[125.5608185870001,9.391213040000025],[125.56129283000007,9.390605169000024],[125.56146306300003,9.38896850800006],[125.5613298930001,9.386997333000068],[125.56003806700006,9.38639798400004],[125.55929204100005,9.386413007000044]]],[[[125.55767855867354,9.392902452170754],[125.55811523466319,9.39279775328079],[125.5577608540001,9.392802631000054],[125.55767855867354,9.392902452170754]]],[[[125.5496884260001,9.393580077000022],[125.54847982600008,9.395581214000059],[125.54772237200007,9.396285440000042],[125.54684838800007,9.396551812000041],[125.54566309600011,9.398131743000024],[125.54583455700002,9.399550190000069],[125.5462923550001,9.400249426000071],[125.54634229100009,9.401649560000065],[125.5455232380001,9.403246141000066],[125.54582455000002,9.404248378000032],[125.54499551100004,9.405397117000065],[125.5465703430001,9.405631866000023],[125.54732279500003,9.406689045000062],[125.54729449300008,9.407240108000051],[125.54803862200004,9.408340572000046],[125.54871616500009,9.408495405000053],[125.54832827700011,9.410057027000049],[125.54887596800006,9.411234073000058],[125.54974994600002,9.412194691000026],[125.55072381300012,9.411929985000029],[125.55299948600008,9.414365660000044],[125.55303444200001,9.41518476300007],[125.55558979300008,9.41670477500003],[125.55596841300007,9.415547227000047],[125.55722494600003,9.414889992000044],[125.55704460600008,9.413674247000074],[125.55825337300007,9.412849008000025],[125.55942534200005,9.412635913000031],[125.56063103200007,9.411682683000038],[125.56123680600001,9.410066466000046],[125.5607545680001,9.409669126000038],[125.56006167900011,9.408070790000066],[125.56015594700011,9.40716821300003],[125.56096131900006,9.406911844000037],[125.56251501300004,9.408929820000026],[125.56325651900012,9.408183379000034],[125.56433191000008,9.40843054000004],[125.56552873100009,9.40794904300003],[125.56694789500011,9.407973092000079],[125.56774899800007,9.40834065000007],[125.57122494900013,9.408527126000024],[125.57189750300006,9.407434991000057],[125.57050579400004,9.40666249900005],[125.56896092800002,9.406356161000076],[125.56808195500004,9.40551707700007],[125.56805238100003,9.40472654100006],[125.5693615560001,9.403971715000068],[125.57041462100005,9.40369177200006],[125.57159917900003,9.402522182000041],[125.57129192700006,9.401914308000071],[125.56953332400009,9.401458994000048],[125.56737612600013,9.40161468100007],[125.5663138540001,9.401923718000035],[125.56506861500009,9.401868843000043],[125.56384927300006,9.400777849000063],[125.56309333600008,9.399167929000042],[125.56196910300002,9.39851139200004],[125.56207565100009,9.397126243000057],[125.56111676900002,9.396779951000042],[125.55986681,9.397092988000054],[125.55878615100005,9.396446974000071],[125.55810693900004,9.39724609600006],[125.55728123800009,9.396327099000075],[125.55633567500003,9.395847620000039],[125.55609595800003,9.394822076000024],[125.55767855867354,9.392902452170754],[125.55688671000009,9.393092307000073],[125.55603270800009,9.392492960000027],[125.55359887800012,9.391955206000032],[125.55290968300005,9.391226002000057],[125.55183093500011,9.392451322000056],[125.5505124660001,9.393561767000053],[125.5496884260001,9.393580077000022]]],[[[125.59034719400007,9.449170281000022],[125.58883769600006,9.448976353000035],[125.5869838330001,9.44798169300003],[125.58709074500007,9.446277270000051],[125.5878046690001,9.444244276000061],[125.58892049700012,9.44280764200005],[125.58914767600004,9.441531373000032],[125.58749064900007,9.440736204000077],[125.58645500100009,9.44157145500003],[125.58542604000002,9.441324216000051],[125.58520971200005,9.440385893000041],[125.58434363000005,9.440037919000076],[125.58380242800001,9.438741601000059],[125.58314124600008,9.438067713000066],[125.5828978620001,9.43642452400007],[125.5820680610001,9.436220211000034],[125.58157523800004,9.437294975000043],[125.58246276400007,9.440565792000028],[125.58310419300007,9.441340911000053],[125.58236921800005,9.441708421000042],[125.5815206530001,9.442824318000017],[125.57935750500008,9.44213141800003],[125.57869862600012,9.441600676000064],[125.5781935350001,9.44038139600002],[125.57704526700003,9.439450360000023],[125.57681143100001,9.438661932000059],[125.57557260800002,9.437192117000052],[125.57493275000002,9.437707084000069],[125.57526140800007,9.439303358000076],[125.57651438500012,9.440583790000062],[125.57690899800004,9.44184332700007],[125.5765642130001,9.442857966000075],[125.5751478100001,9.444140825000034],[125.57494737400009,9.44481566400003],[125.57583039400004,9.445753629000022],[125.575967589,9.446391455000025],[125.5747445620001,9.447321087000033],[125.57379501800006,9.446858312000076],[125.57330459000003,9.445535421000049],[125.57253085600007,9.446293901000049],[125.57215810900004,9.447979873000065],[125.57128799300006,9.448154331000067],[125.57068767200008,9.448853926000025],[125.56968094500007,9.448335190000023],[125.56873655500009,9.448567566000063],[125.56828662300008,9.44913453300006],[125.56734041900006,9.449122659000064],[125.56688324000004,9.450114128000049],[125.56535326500013,9.449539506000065],[125.56334428500008,9.44940438800006],[125.56252715400001,9.448944834000033],[125.5613579520001,9.45034128000003],[125.55925513600005,9.450139400000069],[125.55840323000008,9.449647580000033],[125.55625375200009,9.449103730000047],[125.554431012,9.450072560000024],[125.55174076300011,9.448745170000054],[125.55223823300003,9.447648566000055],[125.55127281100012,9.44751326000005],[125.55109071200003,9.450189711000064],[125.55178881300003,9.450815867000074],[125.55179757111249,9.452004658995426],[125.55558343440704,9.45331865420434],[125.55992298988438,9.454364387620092],[125.56434488741051,9.45498270015132],[125.56880652429781,9.455167639104397],[125.57326491541085,9.454917427161563],[125.57767710780043,9.454234479353968],[125.58200059499195,9.453125379597239],[125.58619372691366,9.451600817023449],[125.589988935733,9.4497842231447],[125.59034719400007,9.449170281000022]]]]}}]}