{"type":"FeatureCollection","features":[{"type":"Feature","properties":{"fid":5,"objectid":1834,"lccode":"01","liqcode":"2010600010000000","mappers":"DJLBuhay, MJVReyes, MITAbigania, KLPapiona, KMVitto","project":"MELP","province":"Apayao","otherinfo":null,"datemapped":2018,"publishdate":null,"globalid":"{1CF6B5C0-CFF1-4290-9A9E-3C6A72777FB9}","st_area(shape)":0.016612682616230664,"st_perimeter(shape)":4.8172609856160955,"liqcodepk":"201060001000000000006","creator":"SNOOPYPC","createdate":"2019-02-19T15:21:28","editor":"LENOVO","modifydate":"2019-03-10T17:53:06","codemove":"na"},"geometry":{"type":"Polygon","coordinates":[]}},{"type":"Feature","properties":{"fid":26,"objectid":1872,"lccode":"07","liqcode":"2010600070000000","mappers":"PJDelosReyes, ACPidlaoan","project":"READY","province":"Cagayan","otherinfo":null,"datemapped":2012,"publishdate":null,"globalid":"{DED92A0E-07A3-4F4C-B4F3-8B0691B82188}","st_area(shape)":0.05559407556334115,"st_perimeter(shape)":12.110269661988962,"liqcodepk":"201060007000000000065","creator":"SNOOPYPC","createdate":"2019-02-19T15:21:28","editor":"LENOVO","modifydate":"2019-03-10T17:50:55","codemove":"na"},"geometry":{"type":"MultiPolygon","coordinates":[[[[121.33159056300008,18.470186202000036],[121.33250474900001,18.47067246600005],[121.33324647800009,18.471715277000047],[121.33326374926763,18.471958849192564],[121.3338672766488,18.4723942531487],[121.33562372171913,18.47341993666211],[121.33587394600012,18.47330326200005],[121.33747823500005,18.473553206000076],[121.33933318900006,18.47345159300005],[121.33995566900002,18.472985247000054],[121.34050288700007,18.471771375000063],[121.34072093900011,18.470515324000075],[121.34167898500006,18.46942292700004],[121.34156220300008,18.468696199000075],[121.33731623300004,18.468973520000073],[121.33580951700003,18.467151941000054],[121.33280541900002,18.46681099800003],[121.33170815800008,18.465387795000026],[121.33192427700008,18.464226697000072],[121.33254787800001,18.463642500000045],[121.33514223500002,18.463743897000025],[121.33749208499998,18.46356796500004],[121.33897997200008,18.463070005000077],[121.3421952540001,18.46286230100003],[121.345247996,18.46241717500004],[121.34783558100004,18.463226002000056],[121.34885792800003,18.464021163000044],[121.35050225300006,18.464389315000066],[121.352549468,18.465704476000038],[121.35274385800005,18.466906792000035],[121.34977265700003,18.467431333000032],[121.34844805500006,18.468088069000032],[121.34807165500001,18.46867447600005],[121.3485358910001,18.47184157500005],[121.34924852600012,18.47459013400004],[121.34878243600008,18.476189350000027],[121.34749107200004,18.47767199900005],[121.34712293700365,18.478358707568116],[121.35086747809908,18.47928846884407],[121.35545681176362,18.479978883953716],[121.36009499754401,18.48023663822787],[121.36473733268404,18.480059244725147],[121.36649189555389,18.479826358228056],[121.36449118000006,18.479293800000047],[121.36161186400011,18.478797194000038],[121.35841424100012,18.47711831700008],[121.3581876410001,18.474954155000027],[121.35779080900011,18.473541191000034],[121.35805246900009,18.471865310000055],[121.35871865900005,18.47112412400003],[121.36037279300002,18.47047016700003],[121.36108280200006,18.46945419700006],[121.36234590500011,18.466595251000058],[121.3630930060001,18.46601201400006],[121.36480394000013,18.463707311000057],[121.36571202200003,18.463518580000027],[121.36789268400003,18.46381261700003],[121.37032490000003,18.46363698400006],[121.37102851600004,18.463289198000037],[121.37345144100006,18.45973254600005],[121.37527946500006,18.458097023000047],[121.37638317300002,18.459010716000023],[121.37926444100003,18.459271234000028],[121.38053769700002,18.45967524800005],[121.38255723400005,18.45957460600005],[121.38317219200006,18.45989430400004],[121.3840945950001,18.46257549900002],[121.38600819800001,18.464989890000023],[121.38554184100009,18.466383126000036],[121.38393567300012,18.46633013900004],[121.382055121,18.46478086300004],[121.38120736000009,18.462925944000062],[121.38030076900009,18.462957493000033],[121.38020984200011,18.463860953000047],[121.37923876600009,18.466368613000043],[121.37803674400003,18.467144589000043],[121.37732203100005,18.46867169500007],[121.37772477300007,18.469676016000047],[121.37999270900002,18.469459562000047],[121.38093317800008,18.47021456800007],[121.38211198600006,18.47191504600005],[121.38230438600011,18.473204749000047],[121.38208691200009,18.474570109000073],[121.3816885789155,18.4754355010625],[121.38246173581305,18.475094615831914],[121.38442552871217,18.473994112328583],[121.38328494300002,18.469833771000026],[121.38273635900008,18.468793235000078],[121.38286929199998,18.46786527200004],[121.38624764000006,18.468130840000068],[121.38814361400011,18.46770298800004],[121.38866731500002,18.46809226300007],[121.38991897900009,18.470233875000076],[121.39014355288043,18.47029639740534],[121.3902240005455,18.470240516158675],[121.39369392844304,18.46729265468869],[121.3940331569373,18.466941807941875],[121.3921705570001,18.46718898600005],[121.39132127700009,18.466756938000056],[121.39015816300004,18.464162433000062],[121.38934763900012,18.463553652000027],[121.38731011600011,18.463217628000052],[121.38624748500001,18.461792423000077],[121.38564300600001,18.458990187000044],[121.38477451000007,18.456646039000074],[121.38457241600008,18.45460349500007],[121.3851504490001,18.452170753000072],[121.38473206800008,18.449281321000054],[121.38330454900006,18.447215603000075],[121.3827610510001,18.445830130000047],[121.38255341300008,18.44423514600004],[121.3820857410001,18.442673355000068],[121.3807722690001,18.44032530900006],[121.38064278800006,18.438324198000032],[121.38180492100003,18.43702409600007],[121.38299293000013,18.43692799100006],[121.383016096,18.438415261000042],[121.3840034230001,18.439946067000044],[121.38544148200003,18.440878902000065],[121.38744059300005,18.441320744000052],[121.38906547400008,18.442113498000023],[121.38988810900003,18.441394308000042],[121.388651,18.438799171000028],[121.38836898400008,18.437607571000058],[121.38900201500009,18.436979105000034],[121.39081562800004,18.437419334000023],[121.39306684500002,18.43867761500007],[121.3936907320001,18.439390838000065],[121.39368365800011,18.440151870000022],[121.39165217000004,18.443179546000067],[121.39194005900005,18.44415594700007],[121.39415289600005,18.44555553900005],[121.394292445,18.446109028000023],[121.39325141000008,18.44673364800008],[121.39028149800004,18.446956341000032],[121.3899423470001,18.447519946000057],[121.38962311000012,18.449924812000067],[121.38968810600012,18.45093473400004],[121.3908603000001,18.452537993000078],[121.39245316400002,18.452799290000026],[121.39364391700008,18.452419952000074],[121.39497706500005,18.45267911800005],[121.39515185500011,18.453516903000033],[121.39447642600011,18.45463948200006],[121.3940899820001,18.45630034100003],[121.39426196800002,18.457771420000025],[121.39495333900003,18.45922894100005],[121.39631244100006,18.46069211100007],[121.39804459900006,18.461945960000033],[121.3983748793753,18.462100930423933],[121.39953387867557,18.46063689639353],[121.39695236200009,18.459688062000048],[121.39655239700005,18.459052201000073],[121.39704789400004,18.457387521000044],[121.39661936600008,18.455798332000036],[121.39685260900002,18.454465261000053],[121.397601773,18.453692644000057],[121.3990616870001,18.452288718000027],[121.40025472100001,18.451661480000038],[121.40428862600004,18.448721393000028],[121.40492739400008,18.447841670000056],[121.40493622100009,18.446867688000058],[121.40424818100009,18.445384654000065],[121.40478441500011,18.443237659000026],[121.40603403800004,18.44048645900006],[121.4070112700001,18.439113904000063],[121.40728198700002,18.43791237900007],[121.40776188396666,18.436978211837218],[121.40785361768017,18.435467169313434],[121.40766648783038,18.431037468807126],[121.407025367725,18.426646603608035],[121.40593646603166,18.42233685822559],[121.40441030178252,18.41814973277067],[121.40365735132448,18.416594864639098],[121.4035077420001,18.416760656000065],[121.4023921360001,18.417069884000053],[121.40187810700002,18.416499072000022],[121.40157470200006,18.413203825000043],[121.40127699383712,18.41220068558578],[121.40010915792021,18.41030303478943],[121.3998444628965,18.409955989331575],[121.39955744699999,18.410743834000073],[121.39926963200003,18.41380436000002],[121.3995234030001,18.414443809000034],[121.39968330900003,18.417206770000057],[121.40045168800009,18.41834621800006],[121.40314386800003,18.420033017000037],[121.4032099970001,18.42076338200008],[121.40259125700004,18.423639762000047],[121.40309484800002,18.425343462000058],[121.40407968300008,18.427157440000027],[121.404462662,18.429554301000046],[121.404127044,18.430043052000027],[121.40222687800009,18.43094766400003],[121.40025967000008,18.431072738000065],[121.39944883400005,18.43064164900005],[121.39935359900007,18.428781698000023],[121.398030134,18.42749591700004],[121.39642929600006,18.424118895000042],[121.39650968,18.423446855000066],[121.39737492100004,18.422144132000028],[121.39727747300003,18.420638179000033],[121.39684809700009,18.418935095000045],[121.39579652200007,18.416738880000025],[121.39650968400008,18.41544513200006],[121.39659189800011,18.41059471600005],[121.39708958800009,18.40889987900005],[121.39684665100003,18.407074088000062],[121.39629297400006,18.406786217000043],[121.39473143200007,18.407197874000076],[121.39427682400003,18.408220863000054],[121.39488170100002,18.410848217000026],[121.39435560900007,18.411726681000058],[121.39301217800005,18.41260041700002],[121.39139894900008,18.414569508000056],[121.39002210900004,18.41505350600005],[121.38805574400011,18.415107651000024],[121.3850935690001,18.41455141600005],[121.38216227900013,18.41466811500004],[121.3818321120001,18.414275873000065],[121.38199537300012,18.41268395600002],[121.38469843000009,18.409201821000064],[121.38922322600003,18.40523933600002],[121.39247354009746,18.401810425184433],[121.39087417458522,18.400401767086947],[121.38931300354035,18.399275819878792],[121.38829007900006,18.400768013000057],[121.38505245200008,18.403211710000054],[121.38375039300003,18.404037586000072],[121.38220905100003,18.403665845000035],[121.38172431300006,18.402004359000045],[121.38274803900005,18.39962299900003],[121.38379836700004,18.398914500000043],[121.38631250000005,18.397939474000058],[121.38651739748977,18.39734905864284],[121.38320706589717,18.39541646507813],[121.37902700175616,18.393485335237983],[121.37889040629985,18.39343735828599],[121.37827470600007,18.39578049600004],[121.37546390600004,18.39723119600006],[121.3744883830001,18.39885699400003],[121.37439408900002,18.399855494000068],[121.37346697300006,18.40092078200007],[121.37279677700009,18.40115415800005],[121.37176055400005,18.400348180000037],[121.37113361000002,18.400422483000053],[121.37039615500011,18.399231387000047],[121.370913459,18.39719225500005],[121.37025077300008,18.39662858400004],[121.3690412100001,18.396498609000044],[121.36839054300002,18.394659616000066],[121.3681956790001,18.39318324900006],[121.36702797000011,18.393053623000068],[121.36563535100004,18.394635952000044],[121.36441677900007,18.39546250100005],[121.36344493300011,18.396689627000057],[121.36235091300011,18.397596908000025],[121.36075737800002,18.398340436000066],[121.35869626400005,18.399956777000057],[121.35725306800009,18.402455297000074],[121.35620216600013,18.40320347200003],[121.35409359600011,18.405417168000042],[121.35364002900006,18.405687226000058],[121.35262437900009,18.406241461000036],[121.35146458200005,18.409659081000033],[121.350365022,18.41112421800005],[121.34906701400007,18.411511490000066],[121.34744105700008,18.411258243000077],[121.34575012000006,18.413435625000034],[121.34582525000009,18.41431304700006],[121.34748453600004,18.41544345900007],[121.34818523400008,18.416406176000063],[121.34771527600005,18.417518057000056],[121.3467936950001,18.417828820000068],[121.34525272000009,18.417416853000077],[121.34404960600011,18.416609273000066],[121.34254307400009,18.416954841000063],[121.341783544,18.417785140000035],[121.34122552400004,18.41937454300006],[121.34071994900012,18.419848436000056],[121.3393409470001,18.419955891000026],[121.33966619500008,18.42087542600007],[121.34037328900001,18.42116064400005],[121.34276650400011,18.41978654300004],[121.3443147370001,18.41944133800007],[121.3458139720001,18.419853041000064],[121.34726658700004,18.420782384000063],[121.3483008180001,18.421787751000068],[121.34909106500002,18.422113497000048],[121.35167782500004,18.422335244000067],[121.35234091600013,18.422859148000043],[121.3516652940001,18.423650380000023],[121.35186154600001,18.424967327000044],[121.3536987020001,18.424983266000023],[121.35431739700005,18.425785727000058],[121.3542274350001,18.426462532000073],[121.3525903200001,18.427365029000036],[121.35074972000007,18.42770775700006],[121.350579346,18.428064988000074],[121.35173093400012,18.429908381000075],[121.3530261210001,18.429839951000073],[121.35461884700011,18.42921601500006],[121.35566302400002,18.429185226000076],[121.35548394000013,18.43045908300007],[121.35476342900007,18.431568810000044],[121.35237392400006,18.43254445000002],[121.3518599780001,18.43389515700005],[121.35203913900011,18.437005508000027],[121.3526400090001,18.439681047000015],[121.35233666500005,18.440834308000035],[121.3521893410001,18.443144638000035],[121.35247103100006,18.444263053000043],[121.35321088700005,18.44550504600005],[121.35226407100004,18.448446178000037],[121.35115380000002,18.450817684000068],[121.35051427400003,18.45237677600005],[121.35003400900007,18.454564692000076],[121.34969418199998,18.455159553000044],[121.34697142200004,18.456012688000047],[121.34376237400011,18.45530709800004],[121.34222827300005,18.45413789100007],[121.3411326140001,18.45516450700006],[121.33830247800006,18.45414336100003],[121.33755579600005,18.453618671000065],[121.33732900400003,18.451145654000072],[121.3367727980001,18.448191440000077],[121.336016932,18.44862319000003],[121.33549588900007,18.450691100000032],[121.33430738600009,18.452673473000058],[121.33446161600013,18.453965869000054],[121.334392696,18.456819277000022],[121.33421525500012,18.45789383900006],[121.33358386400005,18.458406342000043],[121.33233485000007,18.457996814000065],[121.330723141,18.456229021000066],[121.32972866900002,18.455423086000053],[121.32856244300002,18.45509402700003],[121.32706875500004,18.454084406000053],[121.3259037040001,18.45363574400005],[121.32176377400003,18.449892579000046],[121.32072723200008,18.44912606500003],[121.3181057610001,18.44814631700007],[121.316812463,18.448015334000043],[121.31596642400007,18.449123774000046],[121.31600150300007,18.449819616000067],[121.31678294700009,18.451062103000027],[121.31744874100002,18.45130711800005],[121.31885532500009,18.45267474300005],[121.31888738900012,18.45367138000006],[121.31958177300011,18.455271792000072],[121.3205747200001,18.45623710800004],[121.32182244600006,18.456766298000044],[121.3229492260001,18.45685594200006],[121.324818788,18.457868917000038],[121.32659124600002,18.460275917000047],[121.32966118700007,18.46241530800006],[121.33023888700006,18.46313781200007],[121.33010047800009,18.464473699000052],[121.32925944600002,18.465064099000074],[121.32867711200005,18.464819857000062],[121.32690682300006,18.462173694000054],[121.3261168350001,18.461808013000052],[121.32444482900007,18.461952673000038],[121.32332614500002,18.46102609700006],[121.32252532600013,18.46179430500007],[121.32256456991048,18.46196342843655],[121.32366048070962,18.463401205961766],[121.3267482458776,18.466713360002306],[121.33016146820924,18.469720702051],[121.33083381329602,18.47020577567827],[121.33159056300008,18.470186202000036]],[[121.38437385100008,18.42412292500006],[121.38600616000008,18.42410139800006],[121.38759743500009,18.424504347000035],[121.392304651,18.42489837600004],[121.39396648600007,18.425691303000058],[121.39539792399998,18.427332133000046],[121.39601406900009,18.428895153000035],[121.39689672700001,18.42971697300004],[121.39736779100008,18.430924745000027],[121.39939669500006,18.43214566100005],[121.39941967900005,18.433650212000025],[121.39722826000002,18.433950415000027],[121.39093632600007,18.432410094000033],[121.39016128700008,18.431978680000046],[121.38831098700007,18.43150272600008],[121.38649215600003,18.43162891600002],[121.3844080140001,18.432354633000045],[121.3825040930001,18.43364843600005],[121.38163636100012,18.435198932000045],[121.37990988800006,18.437343895000026],[121.3794901870001,18.43857950700004],[121.37983622500006,18.44125595400004],[121.38085829200007,18.44303494600007],[121.38134578300003,18.446437997000032],[121.38192834100006,18.447611432000027],[121.38284717800002,18.448539769000035],[121.38335724800004,18.449535529000052],[121.3835226000001,18.45157916900007],[121.38316443700012,18.45426015600003],[121.38303289300008,18.456418728000077],[121.38276495500008,18.457301620000063],[121.38134958900002,18.457891432000054],[121.38049997500002,18.457494748000045],[121.37951159700005,18.456070055000055],[121.3773198770001,18.456369913000064],[121.37565351700005,18.456037038000026],[121.37253904700005,18.455833274000042],[121.3715413980001,18.45539987000007],[121.3707720750001,18.454366445000055],[121.37060797200002,18.45209911800003],[121.37024269500013,18.451494090000033],[121.3674149960001,18.45235493800004],[121.36507994300008,18.452122356000075],[121.36654108900005,18.450630614000033],[121.36830769900007,18.448202766000062],[121.3682077530001,18.446980082000035],[121.36780307300012,18.446622584000067],[121.3658757840001,18.446428936000075],[121.36523113700004,18.447910441000033],[121.36322624800005,18.448070201000057],[121.3619722290001,18.447316008000033],[121.36209780900005,18.445794460000055],[121.36132723900005,18.44490272300004],[121.36003357400011,18.444395796000034],[121.358781108,18.443464472000073],[121.35798139400003,18.44184508200004],[121.35896345600007,18.439908183000057],[121.35948815000006,18.43934624400003],[121.3616486300001,18.43840892100008],[121.3626602400001,18.43735551800006],[121.36399924000013,18.436977642000045],[121.36481063200006,18.437480294000068],[121.36602125200011,18.438906874000047],[121.36765075800007,18.439204186000037],[121.36860279400004,18.44052238500006],[121.37108545400008,18.444756949000062],[121.37186008100004,18.44522384700002],[121.37345450300006,18.445308348000026],[121.37461481700005,18.444202697000037],[121.3729197580001,18.442984384000052],[121.37255774800006,18.44227754900004],[121.37283078100006,18.440629517000044],[121.37236595200011,18.43876639900003],[121.37091698600011,18.43550915300005],[121.37200262700003,18.43403693500005],[121.37445900300008,18.43317290500005],[121.37796420400004,18.435185626000077],[121.3785506920001,18.435934083000063],[121.37958765400003,18.43611999500007],[121.38048386100003,18.435490342000037],[121.38104886700013,18.434574664000024],[121.38128400200003,18.43323124000005],[121.38192488300002,18.432139152000047],[121.38409013200008,18.43067052400005],[121.38399007600002,18.429465885000074],[121.38488656200003,18.42880079900004],[121.38781479300008,18.42903815800003],[121.38923451100003,18.427952652000037],[121.3861366980001,18.425996377000043],[121.38313760300004,18.42540437500003],[121.38080254200008,18.42520742000005],[121.37884004900003,18.42483656400003],[121.37836382100011,18.42419519400005],[121.37816552600009,18.421627012000037],[121.37884345100007,18.420535156000028],[121.3800631160001,18.42100590600006],[121.38045915200007,18.422283893000046],[121.38133639900002,18.423672124000056],[121.38318990100005,18.423794149000056],[121.38437385100008,18.42412292500006]],[[121.3569060110001,18.448764387000043],[121.35854362700002,18.449538176000033],[121.35969814300006,18.450890148000045],[121.36130949200002,18.451638396000078],[121.36207143600005,18.45242988000007],[121.36455565900008,18.453464136000036],[121.36570929000004,18.45491742300004],[121.36633528300003,18.456062277000058],[121.36718184700008,18.456322774000057],[121.37007209800002,18.453457893000063],[121.36986263700008,18.45621919800004],[121.3704955930001,18.456629783000036],[121.37155777200006,18.456537647000058],[121.37255442300011,18.45734636300006],[121.37134601900003,18.45927772700003],[121.37035405000006,18.460357985000034],[121.36873707500003,18.460192136000042],[121.36759221000013,18.46061271500002],[121.3653326860001,18.461049062000022],[121.36461826000004,18.460840282000042],[121.36322435700005,18.459536943000046],[121.35997400800012,18.45814148200003],[121.35647390500002,18.457908642000064],[121.35550139500003,18.45693798600007],[121.3550492060001,18.457060709000068],[121.35410686300008,18.45849577100006],[121.35428702900003,18.459097756000062],[121.3565867740001,18.460003962000034],[121.35770037400005,18.460089583000066],[121.35991835900006,18.461222860000074],[121.36079845100004,18.460749362000055],[121.36209273600004,18.461368310000065],[121.36313045100007,18.463369857000032],[121.36280968600009,18.464091100000076],[121.36048050400005,18.466273815000022],[121.35882774000004,18.464284476000042],[121.35795774200004,18.46369456600007],[121.35610218600004,18.463501246000078],[121.35478217000002,18.462806156000052],[121.35173908000003,18.459158923000075],[121.35127354300005,18.458023756000042],[121.35144611300007,18.456515760000055],[121.35098423100011,18.454865888000022],[121.35273919800011,18.448905472000032],[121.35472045200005,18.447023609000045],[121.35604693600008,18.447035112000037],[121.35638289600001,18.447974864000056],[121.3569060110001,18.448764387000043]],[[121.39897854600008,18.44794124700007],[121.39804268000012,18.447083380000038],[121.39965867400007,18.445684820000043],[121.39983292800004,18.444664158000016],[121.39935211900001,18.443205450000047],[121.40076126000008,18.442273794000073],[121.40219960600007,18.442639753000034],[121.40296272900001,18.44456343300004],[121.4027366250001,18.44691141800007],[121.40186551100011,18.44757246200004],[121.39980307100008,18.447869525000044],[121.39897854600008,18.44794124700007]],[[121.36605946800012,18.398838455000032],[121.36722605000011,18.39967421500006],[121.3667809980001,18.40107211700007],[121.36356933600008,18.400572096000076],[121.36388695900007,18.39946980700006],[121.36500997400003,18.398533950000054],[121.36605946800012,18.398838455000032]],[[121.35719486600011,18.468574852000074],[121.35678447100008,18.46710316800005],[121.3580853650001,18.467030729000044],[121.35780514200007,18.46858014200006],[121.35719486600011,18.468574852000074]]],[[[121.40274946400007,18.454673948000046],[121.40169531600009,18.456329201000074],[121.4015262693862,18.457560305815864],[121.40206799631352,18.45671480917583],[121.40321986898108,18.45444273860668],[121.40274946400007,18.454673948000046]]]]}},{"type":"Feature","properties":{"fid":53,"objectid":1902,"lccode":"05","liqcode":"2010600050000000","mappers":"PJDelosReyes, ACPidlaoan","project":"READY","province":"Cagayan","otherinfo":null,"datemapped":2012,"publishdate":null,"globalid":"{C3D84E80-F2D4-4567-B477-D6223763EFE3}","st_area(shape)":0.07022270502489089,"st_perimeter(shape)":22.490008235492827,"liqcodepk":"201060005000000000097","creator":"SNOOPYPC","createdate":"2019-02-19T15:21:28","editor":"LENOVO","modifydate":"2019-03-10T17:50:55","codemove":"na"},"geometry":{"type":"MultiPolygon","coordinates":[[[[121.36133278400007,18.457583214000067],[121.36301793400004,18.458904257000025],[121.36487322700009,18.45959966300007],[121.3683856250001,18.458793808000056],[121.36866533000013,18.45816903400004],[121.3678514060001,18.45737811900005],[121.36577509300002,18.456889956000055],[121.36326663500006,18.455770863000055],[121.36156968900002,18.455703902000042],[121.36069952100002,18.455069290000036],[121.360381446,18.453969088000065],[121.35961336800005,18.454119261000066],[121.35894239800008,18.45557666300004],[121.35881946200004,18.45698659500004],[121.36133278400007,18.457583214000067]]],[[[121.34597281000003,18.477517356000078],[121.34867673400002,18.475398274000046],[121.34847967700013,18.473097152000033],[121.34755775600003,18.47214848400006],[121.34679409600005,18.471828279000018],[121.34618418100001,18.472606857000066],[121.34605811000006,18.474330285000057],[121.34561202500004,18.475162502000043],[121.34461975600004,18.47583321900004],[121.34292464200007,18.475557156000033],[121.34145313000012,18.47481258900006],[121.34160583800008,18.476015881000023],[121.34204055682272,18.47665063610467],[121.34533534806508,18.47780814484864],[121.34597281000003,18.477517356000078]]],[[[121.34681212500004,18.46994709000006],[121.346767913,18.46884926000007],[121.34600677400012,18.468267743000066],[121.34388012400007,18.467308539000044],[121.34288940200008,18.46782244800005],[121.34232575600002,18.469489833000065],[121.34402582500003,18.469243369000026],[121.34445242200002,18.47044905500007],[121.34405655300009,18.471752066000022],[121.34448508300012,18.47274874100003],[121.34580034800003,18.47265571700007],[121.34586918400008,18.47119312000006],[121.34681212500004,18.46994709000006]]],[[[121.35521798200013,18.449900410000055],[121.35460520100004,18.450992544000034],[121.35355539900002,18.451976367000043],[121.35447078400011,18.45360433600007],[121.3552910960001,18.453715969000026],[121.35661176300005,18.453048029000055],[121.3570049980001,18.452006289000053],[121.35816671000009,18.450762082000043],[121.35713283500002,18.450073736000036],[121.35521798200013,18.449900410000055]]],[[[121.33777225200004,18.46464211800003],[121.33688401000008,18.465888491000044],[121.33742000100005,18.467095149000045],[121.33823884900005,18.46736366300007],[121.33977816100003,18.466750073000068],[121.3401152990001,18.465864612000075],[121.33859360500004,18.464649321000024],[121.33777225200004,18.46464211800003]]],[[[121.3690989050001,18.39408519100004],[121.37052849000008,18.39367215800007],[121.3713375950001,18.392913422000046],[121.37125447300004,18.392274775000033],[121.36996130000013,18.392391244000063],[121.36823470600007,18.391228024000046],[121.36752032300001,18.39139208100005],[121.36751110900002,18.39237022300005],[121.36804213200001,18.392757615000047],[121.3690989050001,18.39408519100004]]],[[[121.33947769400004,18.475213337000067],[121.33915713700003,18.474374415000057],[121.33768011400004,18.474204643000064],[121.33713596300004,18.473834113000066],[121.33659116774069,18.47398486911993],[121.33782997550465,18.474708248955533],[121.3391069714165,18.475298334805743],[121.33947769400004,18.475213337000067]]]]}},{"type":"Feature","properties":{"fid":67,"objectid":1931,"lccode":"06","liqcode":"2010600060000000","mappers":"PJDelosReyes, ACPidlaoan","project":"READY","province":"Cagayan","otherinfo":null,"datemapped":2012,"publishdate":null,"globalid":"{5942F6C7-E5B3-4D1E-B486-921A1828B34C}","st_area(shape)":0.07051556894172502,"st_perimeter(shape)":22.109814549125648,"liqcodepk":"201060006000000000130","creator":"SNOOPYPC","createdate":"2019-02-19T15:21:28","editor":"LENOVO","modifydate":"2019-03-10T17:50:55","codemove":"na"},"geometry":{"type":"MultiPolygon","coordinates":[[[[121.32252532600013,18.46179430500007],[121.32332614500002,18.46102609700006],[121.32444482900007,18.461952673000038],[121.3261168350001,18.461808013000052],[121.32690682300006,18.462173694000054],[121.32867711200005,18.464819857000062],[121.32925944600002,18.465064099000074],[121.33010047800009,18.464473699000052],[121.33023888700006,18.46313781200007],[121.32966118700007,18.46241530800006],[121.32659124600002,18.460275917000047],[121.324818788,18.457868917000038],[121.3229492260001,18.45685594200006],[121.32182244600006,18.456766298000044],[121.3205747200001,18.45623710800004],[121.31958177300011,18.455271792000072],[121.31888738900012,18.45367138000006],[121.31885532500009,18.45267474300005],[121.31744874100002,18.45130711800005],[121.31678294700009,18.451062103000027],[121.31600150300007,18.449819616000067],[121.31596642400007,18.449123774000046],[121.316812463,18.448015334000043],[121.3181057610001,18.44814631700007],[121.32072723200008,18.44912606500003],[121.32176377400003,18.449892579000046],[121.3259037040001,18.45363574400005],[121.32706875500004,18.454084406000053],[121.32856244300002,18.45509402700003],[121.32972866900002,18.455423086000053],[121.330723141,18.456229021000066],[121.33233485000007,18.457996814000065],[121.33358386400005,18.458406342000043],[121.33421525500012,18.45789383900006],[121.334392696,18.456819277000022],[121.33446161600013,18.453965869000054],[121.33430738600009,18.452673473000058],[121.33549588900007,18.450691100000032],[121.336016932,18.44862319000003],[121.3367727980001,18.448191440000077],[121.33732900400003,18.451145654000072],[121.33755579600005,18.453618671000065],[121.33830247800006,18.45414336100003],[121.3411326140001,18.45516450700006],[121.34222827300005,18.45413789100007],[121.34376237400011,18.45530709800004],[121.34697142200004,18.456012688000047],[121.34969418199998,18.455159553000044],[121.35003400900007,18.454564692000076],[121.35051427400003,18.45237677600005],[121.35115380000002,18.450817684000068],[121.3505949910001,18.45195425100007],[121.34975353800009,18.45285531200005],[121.34950257900006,18.45421570000008],[121.34699219800007,18.45544276300006],[121.34396446100004,18.454791874000023],[121.3423709130001,18.453472197000053],[121.34099569000011,18.454198182000027],[121.34004386500008,18.454189851000024],[121.33850437600006,18.45343835400007],[121.33821296600001,18.452811245000078],[121.33793958600005,18.45031090100002],[121.33747246700013,18.44939842800006],[121.33784302000005,18.447982290000027],[121.33922475100007,18.446575099000032],[121.33935517300007,18.44538403900003],[121.33782122700008,18.444064763000025],[121.33603899400009,18.443822043000072],[121.33515936700009,18.442508578000062],[121.33467367800006,18.443526239000054],[121.33411372300009,18.446076087000055],[121.33339329700003,18.446751040000038],[121.33402851000004,18.448743649000047],[121.3340142730001,18.450219636000043],[121.33328232300005,18.452086685000037],[121.33320804500012,18.453618961000075],[121.33355892200007,18.454246509000033],[121.33283415100003,18.45537560700006],[121.33164391500009,18.455421864000066],[121.32887012700007,18.453126589000075],[121.32733180500009,18.452261379000046],[121.32545303500001,18.449690041000053],[121.32480423700008,18.449116578000027],[121.32457622000005,18.448092644000035],[121.32499864700004,18.44747191400006],[121.32476897900005,18.44661833000003],[121.3234146870001,18.445186986000067],[121.32236388000001,18.443133856000028],[121.32082181700002,18.44266611500006],[121.31986399200002,18.44328209500003],[121.317893421,18.444059455000055],[121.31729253900004,18.444678585000073],[121.31593666800006,18.443417543000063],[121.31435840300003,18.440564959000017],[121.3134047879552,18.439247282201958],[121.31401904775926,18.44347003506523],[121.31510569942857,18.44778012958184],[121.31654231877982,18.45172735185904],[121.31716565600003,18.45159664700003],[121.3182867050001,18.452543328000047],[121.3179457240001,18.45395958600005],[121.31814783400013,18.45458592900008],[121.31909432400005,18.455133600000064],[121.3194423860001,18.456045056000054],[121.32157368900005,18.45711422000005],[121.32317812100007,18.45729878300006],[121.32403624200002,18.45776055800007],[121.32414226100003,18.459095599000023],[121.32148329200002,18.460292717000073],[121.32144458286967,18.460494034795108],[121.32256456991048,18.46196342843655],[121.32252532600013,18.46179430500007]]],[[[121.34977265700003,18.467431333000032],[121.35274385800005,18.466906792000035],[121.352549468,18.465704476000038],[121.35050225300006,18.464389315000066],[121.34885792800003,18.464021163000044],[121.34783558100004,18.463226002000056],[121.345247996,18.46241717500004],[121.3421952540001,18.46286230100003],[121.33897997200008,18.463070005000077],[121.33749208499998,18.46356796500004],[121.33514223500002,18.463743897000025],[121.33254787800001,18.463642500000045],[121.33192427700008,18.464226697000072],[121.33170815800008,18.465387795000026],[121.33280541900002,18.46681099800003],[121.33580951700003,18.467151941000054],[121.33731623300004,18.468973520000073],[121.34156220300008,18.468696199000075],[121.34167898500006,18.46942292700004],[121.34072093900011,18.470515324000075],[121.34050288700007,18.471771375000063],[121.33995566900002,18.472985247000054],[121.33933318900006,18.47345159300005],[121.33747823500005,18.473553206000076],[121.33587394600012,18.47330326200005],[121.33562372171913,18.47341993666211],[121.33659116774069,18.47398486911993],[121.33713596300004,18.473834113000066],[121.33768011400004,18.474204643000064],[121.33915713700003,18.474374415000057],[121.33947769400004,18.475213337000067],[121.3391069714165,18.475298334805743],[121.34201138847439,18.476640388516582],[121.34204055682272,18.47665063610467],[121.34160583800008,18.476015881000023],[121.34145313000012,18.47481258900006],[121.34292464200007,18.475557156000033],[121.34461975600004,18.47583321900004],[121.34561202500004,18.475162502000043],[121.34605811000006,18.474330285000057],[121.34618418100001,18.472606857000066],[121.34679409600005,18.471828279000018],[121.34755775600003,18.47214848400006],[121.34847967700013,18.473097152000033],[121.34867673400002,18.475398274000046],[121.34597281000003,18.477517356000078],[121.34533534806508,18.47780814484864],[121.34637122681603,18.478172049647846],[121.34712293700365,18.478358707568116],[121.34749107200004,18.47767199900005],[121.34878243600008,18.476189350000027],[121.34924852600012,18.47459013400004],[121.3485358910001,18.47184157500005],[121.34807165500001,18.46867447600005],[121.34844805500006,18.468088069000032],[121.34977265700003,18.467431333000032]],[[121.346767913,18.46884926000007],[121.34681212500004,18.46994709000006],[121.34586918400008,18.47119312000006],[121.34580034800003,18.47265571700007],[121.34448508300012,18.47274874100003],[121.34405655300009,18.471752066000022],[121.34445242200002,18.47044905500007],[121.34402582500003,18.469243369000026],[121.34232575600002,18.469489833000065],[121.34288940200008,18.46782244800005],[121.34388012400007,18.467308539000044],[121.34600677400012,18.468267743000066],[121.346767913,18.46884926000007]],[[121.33823884900005,18.46736366300007],[121.33742000100005,18.467095149000045],[121.33688401000008,18.465888491000044],[121.33777225200004,18.46464211800003],[121.33859360500004,18.464649321000024],[121.3401152990001,18.465864612000075],[121.33977816100003,18.466750073000068],[121.33823884900005,18.46736366300007]]],[[[121.3653156900001,18.392469337000023],[121.36340748900012,18.393020667000027],[121.36246250400005,18.392331237000068],[121.36146603600001,18.390789787000077],[121.36063301700005,18.39083933600006],[121.3601471060001,18.39191381600006],[121.35994883700005,18.394012805000045],[121.35934720800003,18.39474563700003],[121.35750166100003,18.394956799000056],[121.35683732400003,18.39602972500006],[121.35747636600001,18.39762493000006],[121.35704341900009,18.399381148000025],[121.35656230600013,18.399944732000055],[121.35607041300011,18.401643708000048],[121.35509892100002,18.40373590500008],[121.35364002900006,18.405687226000058],[121.35409359600011,18.405417168000042],[121.35620216600013,18.40320347200003],[121.35725306800009,18.402455297000074],[121.35869626400005,18.399956777000057],[121.36075737800002,18.398340436000066],[121.36235091300011,18.397596908000025],[121.36344493300011,18.396689627000057],[121.36441677900007,18.39546250100005],[121.36563535100004,18.394635952000044],[121.36702797000011,18.393053623000068],[121.3681956790001,18.39318324900006],[121.36839054300002,18.394659616000066],[121.3690412100001,18.396498609000044],[121.37025077300008,18.39662858400004],[121.370913459,18.39719225500005],[121.37039615500011,18.399231387000047],[121.37113361000002,18.400422483000053],[121.37176055400005,18.400348180000037],[121.37279677700009,18.40115415800005],[121.37346697300006,18.40092078200007],[121.37439408900002,18.399855494000068],[121.3744883830001,18.39885699400003],[121.37546390600004,18.39723119600006],[121.37827470600007,18.39578049600004],[121.37889040629985,18.39343735828599],[121.37466888154174,18.391954555795884],[121.37017465165768,18.390838856374216],[121.36621411827682,18.390243210081746],[121.3653156900001,18.392469337000023]],[[121.36751110900002,18.39237022300005],[121.36752032300001,18.39139208100005],[121.36823470600007,18.391228024000046],[121.36996130000013,18.392391244000063],[121.37125447300004,18.392274775000033],[121.3713375950001,18.392913422000046],[121.37052849000008,18.39367215800007],[121.3690989050001,18.39408519100004],[121.36804213200001,18.392757615000047],[121.36751110900002,18.39237022300005]]],[[[121.38631250000005,18.397939474000058],[121.38379836700004,18.398914500000043],[121.38274803900005,18.39962299900003],[121.38172431300006,18.402004359000045],[121.38220905100003,18.403665845000035],[121.38375039300003,18.404037586000072],[121.38505245200008,18.403211710000054],[121.38829007900006,18.400768013000057],[121.38931300354035,18.399275819878792],[121.38716883705739,18.397729361935404],[121.38651739748977,18.39734905864284],[121.38631250000005,18.397939474000058]]],[[[121.36722605000011,18.39967421500006],[121.36605946800012,18.398838455000032],[121.36500997400003,18.398533950000054],[121.36388695900007,18.39946980700006],[121.36356933600008,18.400572096000076],[121.3667809980001,18.40107211700007],[121.36722605000011,18.39967421500006]]],[[[121.40365735132448,18.416594864639098],[121.40246160183251,18.41412554348571],[121.40127699383712,18.41220068558578],[121.40157470200006,18.413203825000043],[121.40187810700002,18.416499072000022],[121.4023921360001,18.417069884000053],[121.4035077420001,18.416760656000065],[121.40365735132448,18.416594864639098]]],[[[121.38922322600003,18.40523933600002],[121.38469843000009,18.409201821000064],[121.38199537300012,18.41268395600002],[121.3818321120001,18.414275873000065],[121.38216227900013,18.41466811500004],[121.3850935690001,18.41455141600005],[121.38805574400011,18.415107651000024],[121.39002210900004,18.41505350600005],[121.39139894900008,18.414569508000056],[121.39301217800005,18.41260041700002],[121.39435560900007,18.411726681000058],[121.39488170100002,18.410848217000026],[121.39427682400003,18.408220863000054],[121.39473143200007,18.407197874000076],[121.39629297400006,18.406786217000043],[121.39684665100003,18.407074088000062],[121.39708958800009,18.40889987900005],[121.39659189800011,18.41059471600005],[121.39650968400008,18.41544513200006],[121.39579652200007,18.416738880000025],[121.39684809700009,18.418935095000045],[121.39727747300003,18.420638179000033],[121.39737492100004,18.422144132000028],[121.39650968,18.423446855000066],[121.39642929600006,18.424118895000042],[121.398030134,18.42749591700004],[121.39935359900007,18.428781698000023],[121.39944883400005,18.43064164900005],[121.40025967000008,18.431072738000065],[121.40222687800009,18.43094766400003],[121.404127044,18.430043052000027],[121.404462662,18.429554301000046],[121.40407968300008,18.427157440000027],[121.40309484800002,18.425343462000058],[121.40259125700004,18.423639762000047],[121.4032099970001,18.42076338200008],[121.40314386800003,18.420033017000037],[121.40045168800009,18.41834621800006],[121.39968330900003,18.417206770000057],[121.3995234030001,18.414443809000034],[121.39926963200003,18.41380436000002],[121.39955744699999,18.410743834000073],[121.3998444628965,18.409955989331575],[121.39737564475043,18.406719006560103],[121.3942874008857,18.40340796023097],[121.39247354009746,18.401810425184433],[121.38922322600003,18.40523933600002]]],[[[121.38313760300004,18.42540437500003],[121.3861366980001,18.425996377000043],[121.38923451100003,18.427952652000037],[121.38781479300008,18.42903815800003],[121.38488656200003,18.42880079900004],[121.38399007600002,18.429465885000074],[121.38409013200008,18.43067052400005],[121.38192488300002,18.432139152000047],[121.38128400200003,18.43323124000005],[121.38104886700013,18.434574664000024],[121.38048386100003,18.435490342000037],[121.37958765400003,18.43611999500007],[121.3785506920001,18.435934083000063],[121.37796420400004,18.435185626000077],[121.37445900300008,18.43317290500005],[121.37200262700003,18.43403693500005],[121.37091698600011,18.43550915300005],[121.37236595200011,18.43876639900003],[121.37283078100006,18.440629517000044],[121.37255774800006,18.44227754900004],[121.3729197580001,18.442984384000052],[121.37461481700005,18.444202697000037],[121.37345450300006,18.445308348000026],[121.37186008100004,18.44522384700002],[121.37108545400008,18.444756949000062],[121.36860279400004,18.44052238500006],[121.36765075800007,18.439204186000037],[121.36602125200011,18.438906874000047],[121.36481063200006,18.437480294000068],[121.36399924000013,18.436977642000045],[121.3626602400001,18.43735551800006],[121.3616486300001,18.43840892100008],[121.35948815000006,18.43934624400003],[121.35896345600007,18.439908183000057],[121.35798139400003,18.44184508200004],[121.358781108,18.443464472000073],[121.36003357400011,18.444395796000034],[121.36132723900005,18.44490272300004],[121.36209780900005,18.445794460000055],[121.3619722290001,18.447316008000033],[121.36322624800005,18.448070201000057],[121.36523113700004,18.447910441000033],[121.3658757840001,18.446428936000075],[121.36780307300012,18.446622584000067],[121.3682077530001,18.446980082000035],[121.36830769900007,18.448202766000062],[121.36654108900005,18.450630614000033],[121.36507994300008,18.452122356000075],[121.3674149960001,18.45235493800004],[121.37024269500013,18.451494090000033],[121.37060797200002,18.45209911800003],[121.3707720750001,18.454366445000055],[121.3715413980001,18.45539987000007],[121.37253904700005,18.455833274000042],[121.37565351700005,18.456037038000026],[121.3773198770001,18.456369913000064],[121.37951159700005,18.456070055000055],[121.38049997500002,18.457494748000045],[121.38134958900002,18.457891432000054],[121.38276495500008,18.457301620000063],[121.38303289300008,18.456418728000077],[121.38316443700012,18.45426015600003],[121.3835226000001,18.45157916900007],[121.38335724800004,18.449535529000052],[121.38284717800002,18.448539769000035],[121.38192834100006,18.447611432000027],[121.38134578300003,18.446437997000032],[121.38085829200007,18.44303494600007],[121.37983622500006,18.44125595400004],[121.3794901870001,18.43857950700004],[121.37990988800006,18.437343895000026],[121.38163636100012,18.435198932000045],[121.3825040930001,18.43364843600005],[121.3844080140001,18.432354633000045],[121.38649215600003,18.43162891600002],[121.38831098700007,18.43150272600008],[121.39016128700008,18.431978680000046],[121.39093632600007,18.432410094000033],[121.39722826000002,18.433950415000027],[121.39941967900005,18.433650212000025],[121.39939669500006,18.43214566100005],[121.39736779100008,18.430924745000027],[121.39689672700001,18.42971697300004],[121.39601406900009,18.428895153000035],[121.39539792399998,18.427332133000046],[121.39396648600007,18.425691303000058],[121.392304651,18.42489837600004],[121.38759743500009,18.424504347000035],[121.38600616000008,18.42410139800006],[121.38437385100008,18.42412292500006],[121.38318990100005,18.423794149000056],[121.38133639900002,18.423672124000056],[121.38045915200007,18.422283893000046],[121.3800631160001,18.42100590600006],[121.37884345100007,18.420535156000028],[121.37816552600009,18.421627012000037],[121.37836382100011,18.42419519400005],[121.37884004900003,18.42483656400003],[121.38080254200008,18.42520742000005],[121.38313760300004,18.42540437500003]]],[[[121.39897854600008,18.44794124700007],[121.39980307100008,18.447869525000044],[121.40186551100011,18.44757246200004],[121.4027366250001,18.44691141800007],[121.40296272900001,18.44456343300004],[121.40219960600007,18.442639753000034],[121.40076126000008,18.442273794000073],[121.39935211900001,18.443205450000047],[121.39983292800004,18.444664158000016],[121.39965867400007,18.445684820000043],[121.39804268000012,18.447083380000038],[121.39897854600008,18.44794124700007]]],[[[121.40169531600009,18.456329201000074],[121.40274946400007,18.454673948000046],[121.40321986898108,18.45444273860668],[121.40409116661058,18.452724053951734],[121.4056946230583,18.4485632439993],[121.40686294835193,18.444272462846712],[121.40758492008088,18.439893043364293],[121.40776188396666,18.436978211837218],[121.40728198700002,18.43791237900007],[121.4070112700001,18.439113904000063],[121.40603403800004,18.44048645900006],[121.40478441500011,18.443237659000026],[121.40424818100009,18.445384654000065],[121.40493622100009,18.446867688000058],[121.40492739400008,18.447841670000056],[121.40428862600004,18.448721393000028],[121.40025472100001,18.451661480000038],[121.3990616870001,18.452288718000027],[121.397601773,18.453692644000057],[121.39685260900002,18.454465261000053],[121.39661936600008,18.455798332000036],[121.39704789400004,18.457387521000044],[121.39655239700005,18.459052201000073],[121.39695236200009,18.459688062000048],[121.39953387867557,18.46063689639353],[121.39964457684985,18.460497061996104],[121.4015262693862,18.457560305815864],[121.40169531600009,18.456329201000074]]],[[[121.39426196800002,18.457771420000025],[121.3940899820001,18.45630034100003],[121.39447642600011,18.45463948200006],[121.39515185500011,18.453516903000033],[121.39497706500005,18.45267911800005],[121.39364391700008,18.452419952000074],[121.39245316400002,18.452799290000026],[121.3908603000001,18.452537993000078],[121.38968810600012,18.45093473400004],[121.38962311000012,18.449924812000067],[121.3899423470001,18.447519946000057],[121.39028149800004,18.446956341000032],[121.39325141000008,18.44673364800008],[121.394292445,18.446109028000023],[121.39415289600005,18.44555553900005],[121.39194005900005,18.44415594700007],[121.39165217000004,18.443179546000067],[121.39368365800011,18.440151870000022],[121.3936907320001,18.439390838000065],[121.39306684500002,18.43867761500007],[121.39081562800004,18.437419334000023],[121.38900201500009,18.436979105000034],[121.38836898400008,18.437607571000058],[121.388651,18.438799171000028],[121.38988810900003,18.441394308000042],[121.38906547400008,18.442113498000023],[121.38744059300005,18.441320744000052],[121.38544148200003,18.440878902000065],[121.3840034230001,18.439946067000044],[121.383016096,18.438415261000042],[121.38299293000013,18.43692799100006],[121.38180492100003,18.43702409600007],[121.38064278800006,18.438324198000032],[121.3807722690001,18.44032530900006],[121.3820857410001,18.442673355000068],[121.38255341300008,18.44423514600004],[121.3827610510001,18.445830130000047],[121.38330454900006,18.447215603000075],[121.38473206800008,18.449281321000054],[121.3851504490001,18.452170753000072],[121.38457241600008,18.45460349500007],[121.38477451000007,18.456646039000074],[121.38564300600001,18.458990187000044],[121.38624748500001,18.461792423000077],[121.38731011600011,18.463217628000052],[121.38934763900012,18.463553652000027],[121.39015816300004,18.464162433000062],[121.39132127700009,18.466756938000056],[121.3921705570001,18.46718898600005],[121.3940331569373,18.466941807941875],[121.39684423358243,18.464034371419082],[121.3983748793753,18.462100930423933],[121.39804459900006,18.461945960000033],[121.39631244100006,18.46069211100007],[121.39495333900003,18.45922894100005],[121.39426196800002,18.457771420000025]]],[[[121.35795774200004,18.46369456600007],[121.35882774000004,18.464284476000042],[121.36048050400005,18.466273815000022],[121.36280968600009,18.464091100000076],[121.36313045100007,18.463369857000032],[121.36209273600004,18.461368310000065],[121.36079845100004,18.460749362000055],[121.35991835900006,18.461222860000074],[121.35770037400005,18.460089583000066],[121.3565867740001,18.460003962000034],[121.35428702900003,18.459097756000062],[121.35410686300008,18.45849577100006],[121.3550492060001,18.457060709000068],[121.35550139500003,18.45693798600007],[121.35647390500002,18.457908642000064],[121.35997400800012,18.45814148200003],[121.36322435700005,18.459536943000046],[121.36461826000004,18.460840282000042],[121.3653326860001,18.461049062000022],[121.36759221000013,18.46061271500002],[121.36873707500003,18.460192136000042],[121.37035405000006,18.460357985000034],[121.37134601900003,18.45927772700003],[121.37255442300011,18.45734636300006],[121.37155777200006,18.456537647000058],[121.3704955930001,18.456629783000036],[121.36986263700008,18.45621919800004],[121.37007209800002,18.453457893000063],[121.36718184700008,18.456322774000057],[121.36633528300003,18.456062277000058],[121.36570929000004,18.45491742300004],[121.36455565900008,18.453464136000036],[121.36207143600005,18.45242988000007],[121.36130949200002,18.451638396000078],[121.35969814300006,18.450890148000045],[121.35854362700002,18.449538176000033],[121.3569060110001,18.448764387000043],[121.35638289600001,18.447974864000056],[121.35604693600008,18.447035112000037],[121.35472045200005,18.447023609000045],[121.35273919800011,18.448905472000032],[121.35098423100011,18.454865888000022],[121.35144611300007,18.456515760000055],[121.35127354300005,18.458023756000042],[121.35173908000003,18.459158923000075],[121.35478217000002,18.462806156000052],[121.35610218600004,18.463501246000078],[121.35795774200004,18.46369456600007]],[[121.3683856250001,18.458793808000056],[121.36487322700009,18.45959966300007],[121.36301793400004,18.458904257000025],[121.36133278400007,18.457583214000067],[121.35881946200004,18.45698659500004],[121.35894239800008,18.45557666300004],[121.35961336800005,18.454119261000066],[121.360381446,18.453969088000065],[121.36069952100002,18.455069290000036],[121.36156968900002,18.455703902000042],[121.36326663500006,18.455770863000055],[121.36577509300002,18.456889956000055],[121.3678514060001,18.45737811900005],[121.36866533000013,18.45816903400004],[121.3683856250001,18.458793808000056]],[[121.35816671000009,18.450762082000043],[121.3570049980001,18.452006289000053],[121.35661176300005,18.453048029000055],[121.3552910960001,18.453715969000026],[121.35447078400011,18.45360433600007],[121.35355539900002,18.451976367000043],[121.35460520100004,18.450992544000034],[121.35521798200013,18.449900410000055],[121.35713283500002,18.450073736000036],[121.35816671000009,18.450762082000043]]],[[[121.35678447100008,18.46710316800005],[121.35719486600011,18.468574852000074],[121.35780514200007,18.46858014200006],[121.3580853650001,18.467030729000044],[121.35678447100008,18.46710316800005]]],[[[121.38208691200009,18.474570109000073],[121.38230438600011,18.473204749000047],[121.38211198600006,18.47191504600005],[121.38093317800008,18.47021456800007],[121.37999270900002,18.469459562000047],[121.37772477300007,18.469676016000047],[121.37732203100005,18.46867169500007],[121.37803674400003,18.467144589000043],[121.37923876600009,18.466368613000043],[121.38020984200011,18.463860953000047],[121.38030076900009,18.462957493000033],[121.38120736000009,18.462925944000062],[121.382055121,18.46478086300004],[121.38393567300012,18.46633013900004],[121.38554184100009,18.466383126000036],[121.38600819800001,18.464989890000023],[121.3840945950001,18.46257549900002],[121.38317219200006,18.45989430400004],[121.38255723400005,18.45957460600005],[121.38053769700002,18.45967524800005],[121.37926444100003,18.459271234000028],[121.37638317300002,18.459010716000023],[121.37527946500006,18.458097023000047],[121.37345144100006,18.45973254600005],[121.37102851600004,18.463289198000037],[121.37032490000003,18.46363698400006],[121.36789268400003,18.46381261700003],[121.36571202200003,18.463518580000027],[121.36480394000013,18.463707311000057],[121.3630930060001,18.46601201400006],[121.36234590500011,18.466595251000058],[121.36108280200006,18.46945419700006],[121.36037279300002,18.47047016700003],[121.35871865900005,18.47112412400003],[121.35805246900009,18.471865310000055],[121.35779080900011,18.473541191000034],[121.3581876410001,18.474954155000027],[121.35841424100012,18.47711831700008],[121.36161186400011,18.478797194000038],[121.36449118000006,18.479293800000047],[121.36649189555389,18.479826358228056],[121.36933907378086,18.479448410440856],[121.37385586904638,18.47841001992106],[121.37824418677127,18.476954078517366],[121.3816885789155,18.4754355010625],[121.38208691200009,18.474570109000073]]],[[[121.38991897900009,18.470233875000076],[121.38866731500002,18.46809226300007],[121.38814361400011,18.46770298800004],[121.38624764000006,18.468130840000068],[121.38286929199998,18.46786527200004],[121.38273635900008,18.468793235000078],[121.38328494300002,18.469833771000026],[121.38442552871217,18.473994112328583],[121.38646787401018,18.472849550290224],[121.39014355288043,18.47029639740534],[121.38991897900009,18.470233875000076]]]]}}]}