{"type":"FeatureCollection","features":[{"type":"Feature","properties":{"fid":10,"objectid":1841,"lccode":"01","liqcode":"2010600010000000","mappers":"DJLBuhay, MJVReyes, MITAbigania, KLPapiona, KMVitto","project":"MELP","province":"Capiz","otherinfo":null,"datemapped":2017,"publishdate":null,"globalid":"{FE12B36A-531F-4D3F-AE5B-76F7E9CFE484}","st_area(shape)":0.04128187917080134,"st_perimeter(shape)":8.871881460062728,"liqcodepk":"201060001000000000013","creator":"SNOOPYPC","createdate":"2019-02-19T15:21:28","editor":"LENOVO","modifydate":"2019-03-10T17:53:06","codemove":"na"},"geometry":{"type":"Polygon","coordinates":[[[122.97588101800011,11.482046328000024],[122.98065777700003,11.481889098000064],[122.98382101200004,11.481939125000052],[122.98784255300006,11.482485283000072],[122.98913014300001,11.48288965000006],[122.98925412000006,11.483354191000048],[122.99061786600008,11.48422609700003],[122.99108354200007,11.485701322000066],[122.99253057800003,11.48526372500004],[122.99262538400001,11.484870655000064],[122.991575226,11.48323404600006],[122.99070738700006,11.482505074000075],[122.98837188000005,11.481218646000059],[122.9859069270001,11.480618312000047],[122.98519770599998,11.479667779000065],[122.9834766140001,11.47834560500007],[122.98306821900007,11.476608901000079],[122.98214933100007,11.475722678000066],[122.98218607500007,11.474658074000047],[122.98091685500003,11.473921635000067],[122.97956769400004,11.474321868000057],[122.9796697920001,11.47318549100004],[122.97894051600008,11.472238507000045],[122.9785612930001,11.47079479700005],[122.97909366400006,11.468947266000045],[122.97883841700002,11.468396935000046],[122.97775908900006,11.468082460000062],[122.97680191400002,11.466742363000035],[122.9761528580001,11.466892455000048],[122.97375171600004,11.466099115000077],[122.97332794315328,11.466252126224973],[122.97322755226126,11.468263995730291],[122.9734478849472,11.472696213829213],[122.97410760961185,11.47708578526457],[122.97520039248428,11.481390433214557],[122.9753734319909,11.481867565124606],[122.97588101800011,11.482046328000024]]]}},{"type":"Feature","properties":{"fid":32,"objectid":1878,"lccode":"07","liqcode":"2010600070000000","mappers":"PJDelosReyes, ACPidlaoan","project":"READY","province":"Iloilo","otherinfo":null,"datemapped":2010,"publishdate":null,"globalid":"{2F92972A-C07C-4633-B325-DF2A08960C6C}","st_area(shape)":0.031106077518548395,"st_perimeter(shape)":5.287074988133156,"liqcodepk":"201060007000000000071","creator":"SNOOPYPC","createdate":"2019-02-19T15:21:28","editor":"LENOVO","modifydate":"2019-03-10T17:50:55","codemove":"na"},"geometry":{"type":"Polygon","coordinates":[]}},{"type":"Feature","properties":{"fid":59,"objectid":1908,"lccode":"05","liqcode":"2010600050000000","mappers":"PJDelosReyes, ACPidlaoan","project":"READY","province":"Iloilo","otherinfo":null,"datemapped":2010,"publishdate":null,"globalid":"{282D04BA-68E2-41E5-9B8A-0D8D85396F2D}","st_area(shape)":0.06128738608791496,"st_perimeter(shape)":10.692281506054618,"liqcodepk":"201060005000000000103","creator":"SNOOPYPC","createdate":"2019-02-19T15:21:28","editor":"LENOVO","modifydate":"2019-03-10T17:50:55","codemove":"na"},"geometry":{"type":"MultiPolygon","coordinates":[[[[123.04944820600008,11.43492952200006],[123.04941878700004,11.436599447000047],[123.04995363000012,11.43832795700007],[123.05129035500009,11.439733989000048],[123.0527160160001,11.44043691200005],[123.05235989900007,11.441784648000064],[123.05250855100007,11.442751455000064],[123.05586548200004,11.447057504000043],[123.05645977000007,11.448610218000056],[123.0563115020001,11.449664966000055],[123.05533145600009,11.45019246700002],[123.05384639500005,11.449899792000053],[123.05191573800005,11.449109079000038],[123.05034128400008,11.446853440000039],[123.04977695400011,11.446941422000062],[123.04921285600005,11.44793764600007],[123.04802490900012,11.448494544000027],[123.04713385600007,11.447791512000034],[123.0458271770001,11.448582782000072],[123.0453009990001,11.449780737000026],[123.04702283000006,11.450984500000061],[123.04889615000002,11.452771628000049],[123.04986709500008,11.453910033000055],[123.05375078000009,11.457143504000042],[123.0552411540001,11.45868223900004],[123.05517814600013,11.459546074000059],[123.05583904300009,11.462070282000072],[123.05690307100008,11.463943020000043],[123.0575329730001,11.462418092000064],[123.05963268900007,11.460951736000027],[123.05901851800002,11.459613413000058],[123.05940591300009,11.458211143000028],[123.061957892,11.456649016000027],[123.06323018663602,11.456286682028793],[123.06293674522784,11.455132174418454],[123.06142030648763,11.450954351178913],[123.05949609145785,11.44694325297442],[123.05718264430146,11.443137501136167],[123.0545022543371,11.439573738342592],[123.05148074101861,11.436286276068024],[123.0491795764424,11.434229507961769],[123.04944820600008,11.43492952200006]]],[[[123.05978024600005,11.470883134000074],[123.05978024500006,11.472650380000061],[123.06012393200001,11.473509595000051],[123.06095982900001,11.47299766300006],[123.06144429000007,11.472200895000071],[123.0615086700001,11.470989833000033],[123.05986044000008,11.46866383100007],[123.0590071580001,11.468524476000026],[123.05978024600005,11.470883134000074]]]]}},{"type":"Feature","properties":{"fid":73,"objectid":1937,"lccode":"06","liqcode":"2010600060000000","mappers":"PJDelosReyes, ACPidlaoan","project":"READY","province":"Iloilo","otherinfo":null,"datemapped":2010,"publishdate":null,"globalid":"{DBB85F45-4FB4-4F72-8BD3-A1308397A487}","st_area(shape)":0.017575391436836466,"st_perimeter(shape)":7.287100410898002,"liqcodepk":"201060006000000000136","creator":"SNOOPYPC","createdate":"2019-02-19T15:21:28","editor":"LENOVO","modifydate":"2019-03-10T17:50:55","codemove":"na"},"geometry":{"type":"Polygon","coordinates":[[[123.061957892,11.456649016000027],[123.05940591300009,11.458211143000028],[123.05901851800002,11.459613413000058],[123.05963268900007,11.460951736000027],[123.0575329730001,11.462418092000064],[123.05690307100008,11.463943020000043],[123.0590071580001,11.468524476000026],[123.05986044000008,11.46866383100007],[123.0615086700001,11.470989833000033],[123.06144429000007,11.472200895000071],[123.06095982900001,11.47299766300006],[123.06012393200001,11.473509595000051],[123.06122004400004,11.474094508000062],[123.06187475500008,11.473828539000067],[123.06281441700001,11.47455953100007],[123.0641304524382,11.476442649550018],[123.06469389725822,11.472690255343311],[123.06491363497163,11.468258010787459],[123.06469187977295,11.463825862818911],[123.06403078775251,11.459436494355334],[123.06323018663602,11.456286682028793],[123.061957892,11.456649016000027]]]}}]}