{"type":"FeatureCollection","features":[{"type":"Feature","properties":{"fid":32,"objectid":1878,"lccode":"07","liqcode":"2010600070000000","mappers":"PJDelosReyes, ACPidlaoan","project":"READY","province":"Iloilo","otherinfo":null,"datemapped":2010,"publishdate":null,"globalid":"{2F92972A-C07C-4633-B325-DF2A08960C6C}","st_area(shape)":0.031106077518548395,"st_perimeter(shape)":5.287074988133156,"liqcodepk":"201060007000000000071","creator":"SNOOPYPC","createdate":"2019-02-19T15:21:28","editor":"LENOVO","modifydate":"2019-03-10T17:50:55","codemove":"na"},"geometry":{"type":"Polygon","coordinates":[]}},{"type":"Feature","properties":{"fid":59,"objectid":1908,"lccode":"05","liqcode":"2010600050000000","mappers":"PJDelosReyes, ACPidlaoan","project":"READY","province":"Iloilo","otherinfo":null,"datemapped":2010,"publishdate":null,"globalid":"{282D04BA-68E2-41E5-9B8A-0D8D85396F2D}","st_area(shape)":0.06128738608791496,"st_perimeter(shape)":10.692281506054618,"liqcodepk":"201060005000000000103","creator":"SNOOPYPC","createdate":"2019-02-19T15:21:28","editor":"LENOVO","modifydate":"2019-03-10T17:50:55","codemove":"na"},"geometry":{"type":"MultiPolygon","coordinates":[[[[122.46741859500004,11.133754735000025],[122.46311514400008,11.133007747000024],[122.46030679800003,11.133495570000036],[122.45955592200004,11.13466492100002],[122.45743382700003,11.135153951000063],[122.45674584300004,11.136076845000048],[122.4553096630001,11.13675199800002],[122.45424554500006,11.138598430000059],[122.45423903649039,11.138622357615828],[122.45640541544833,11.13830902756965],[122.46076621608736,11.137238674027351],[122.46499974292611,11.135751308263254],[122.46832610954465,11.13420487549954],[122.46741859500004,11.133754735000025]]],[[[122.43530363200013,11.05202279400004],[122.43796217100011,11.053374939000035],[122.43999101400004,11.053510167000068],[122.44228759900012,11.05282435600003],[122.44328756700008,11.05170902000003],[122.44466000400007,11.05199933700004],[122.44628249100003,11.051315964000024],[122.44767232200002,11.05114698500006],[122.44859719200008,11.051949396000055],[122.44882709400008,11.05286482300005],[122.44818403600004,11.056180919000042],[122.44817622700009,11.060356038000064],[122.44793989900008,11.062872060000073],[122.44724243600001,11.06430062100003],[122.44770442300013,11.064930670000026],[122.4488627730001,11.064761175000056],[122.45135180200009,11.065166066000073],[122.45285708400002,11.065225938000026],[122.45349089200009,11.06688576500005],[122.45412616000011,11.067802012000069],[122.45487812100009,11.068203641000027],[122.45731162900005,11.067293013000041],[122.45939388500005,11.068497741000046],[122.45985514100005,11.069585276000055],[122.4608371710001,11.070845259000063],[122.46309113000005,11.073137070000026],[122.4636678060001,11.074453466000021],[122.46522855500008,11.075886073000047],[122.4671919850001,11.078806456000056],[122.4681149270001,11.080752661000076],[122.47042659100008,11.083273276000059],[122.47302981500002,11.084650440000074],[122.47470617800002,11.08625481300004],[122.47435756900005,11.086940463000076],[122.4740061220001,11.089170415000067],[122.47487255700003,11.090373011000054],[122.47846220000008,11.090665228000033],[122.4811875790001,11.088553740000064],[122.48298616200009,11.086555105000057],[122.48379792800004,11.085927289000042],[122.4851298000001,11.085872422000024],[122.4864604510001,11.086561040000047],[122.48715399800005,11.087305713000037],[122.48761538500004,11.088393119000042],[122.48842476000004,11.08913807600004],[122.48969772100008,11.089712116000044],[122.49305238500006,11.09194834400006],[122.49324876875224,11.092170786730117],[122.49312495131284,11.089591911282625],[122.49247329727041,11.085201348870758],[122.49138909931433,11.080895013017768],[122.48988281679894,11.07671437236918],[122.48955217711891,11.076020794938422],[122.48805135500004,11.076531065000038],[122.48698330600007,11.078500869000036],[122.48605049000004,11.07928789300007],[122.4851185120001,11.079549145000039],[122.48412101400004,11.079284601000037],[122.4834566720001,11.078691962000049],[122.48345851600004,11.07764051500004],[122.48306223400006,11.075996883000071],[122.48133730100004,11.07316796600003],[122.4804070780001,11.072443489000023],[122.47861110100006,11.07224328600006],[122.477149445,11.071057754000035],[122.47595299400007,11.070398535000034],[122.47522611100011,11.067637139000054],[122.47316796100006,11.065201905000038],[122.47356793000006,11.064742564000026],[122.47576362200004,11.064680739000039],[122.47649610600003,11.064287704000035],[122.47676386100011,11.063368092000077],[122.47636658300007,11.062315863000038],[122.47390861300006,11.060274337000065],[122.4724451530001,11.060140322000052],[122.47124687200007,11.06053253300007],[122.46931480500007,11.06204072500003],[122.46824996600004,11.062235961000054],[122.4671193270001,11.062036862000072],[122.46612456700007,11.060260691000051],[122.46353287500007,11.058613153000067],[122.46243822600003,11.056902526000044],[122.46014472900004,11.055945545000043],[122.45944727000006,11.055352798000056],[122.457087816,11.054067105000055],[122.45622526700004,11.052816911000036],[122.45482989800007,11.051894326000026],[122.45326766500013,11.051234364000038],[122.45143684200002,11.05195392500002],[122.45053693400008,11.052905185000045],[122.45033977900006,11.051590451000036],[122.45083988300007,11.050999948000026],[122.45134229200006,11.049127893000046],[122.4512787309076,11.048909478751355],[122.44764075686817,11.048726296034864],[122.44315365617723,11.048935809777037],[122.43870893799853,11.049578711083656],[122.43435374179325,11.050647741671288],[122.43530363200013,11.05202279400004]]]]}},{"type":"Feature","properties":{"fid":73,"objectid":1937,"lccode":"06","liqcode":"2010600060000000","mappers":"PJDelosReyes, ACPidlaoan","project":"READY","province":"Iloilo","otherinfo":null,"datemapped":2010,"publishdate":null,"globalid":"{DBB85F45-4FB4-4F72-8BD3-A1308397A487}","st_area(shape)":0.017575391436836466,"st_perimeter(shape)":7.287100410898002,"liqcodepk":"201060006000000000136","creator":"SNOOPYPC","createdate":"2019-02-19T15:21:28","editor":"LENOVO","modifydate":"2019-03-10T17:50:55","codemove":"na"},"geometry":{"type":"Polygon","coordinates":[]}}]}