{"type":"FeatureCollection","features":[{"type":"Feature","properties":{"fid":192,"objectid":2053,"lccode":"01","liqcode":null,"mappers":"DJLBuhay, MJVReyes, MITAbigania, KLPapiona, KMVitto","project":"MELP","province":"Lanao del Sur","otherinfo":null,"datemapped":2018,"publishdate":null,"globalid":"{22B1851D-C2EE-4AE5-B511-229F233C1746}","st_area(shape)":0.021864599324414365,"st_perimeter(shape)":5.17999445853216,"liqcodepk":null,"creator":null,"createdate":null,"editor":null,"modifydate":null,"codemove":null},"geometry":{"type":"Polygon","coordinates":[]}},{"type":"Feature","properties":{"fid":193,"objectid":2144,"lccode":"01","liqcode":null,"mappers":"DJLBuhay, MJVReyes, MITAbigania, KLPapiona, KMVitto","project":"MELP","province":"Lanao del Norte","otherinfo":null,"datemapped":2018,"publishdate":null,"globalid":"{8CF0E7EB-3CCD-4F04-8515-11CAD40BD1AE}","st_area(shape)":0.03055360554823452,"st_perimeter(shape)":7.260406778623517,"liqcodepk":null,"creator":null,"createdate":null,"editor":null,"modifydate":null,"codemove":null},"geometry":{"type":"Polygon","coordinates":[]}}]}