{"type":"FeatureCollection","features":[{"type":"Feature","properties":{"fid":188,"objectid":10017,"lccode":"01","liqcode":null,"mappers":"DJLBuhay, MJVReyes, MITAbigania, KLPapiona, KMVitto","project":"MELP","province":"Davao Occidental","otherinfo":null,"datemapped":2018,"publishdate":null,"globalid":"{8CA68DFB-6296-47D5-B6FD-6A69DD0146F0}","st_area(shape)":0.009246551341639696,"st_perimeter(shape)":6.780895471151272,"liqcodepk":null,"creator":null,"createdate":null,"editor":null,"modifydate":null,"codemove":null},"geometry":{"type":"MultiPolygon","coordinates":[[[[125.70624971000008,6.14145944100005],[125.70422935500005,6.141336962000025],[125.70250867700008,6.14260798300006],[125.7017260560001,6.142932467000038],[125.70081581600004,6.1425434710000655],[125.6999007500001,6.143855016000031],[125.69899756900008,6.143027916000052],[125.69644251700005,6.1428743120000595],[125.69606223100004,6.141787264000072],[125.69515119452713,6.140917402366484],[125.6945635516792,6.1410076771509665],[125.6945592630001,6.1431547520000445],[125.69479064700012,6.1436777800000755],[125.69419644800007,6.144764824000048],[125.69417268000008,6.145580106000068],[125.69313877600005,6.147765999999999],[125.69420833200003,6.148663986000031],[125.69593150700007,6.148108653000066],[125.69684657200003,6.148604908000037],[125.6981894600001,6.147647844000062],[125.69841525500009,6.146277230000067],[125.69943727600001,6.146466280000026],[125.7002810370001,6.1472461120000625],[125.70297869700005,6.1469270900000765],[125.7035966630001,6.146395386000052],[125.70406126400007,6.144967115000042],[125.70519015000002,6.144294387000059],[125.70701776000011,6.144266267000036],[125.70686399700003,6.144993887000055],[125.70597566600009,6.145102334000056],[125.70462022800007,6.146511419000035],[125.70445500800008,6.14809618700002],[125.70469109200008,6.148728573000028],[125.7057357760001,6.149207503000071],[125.70718562,6.148829404000026],[125.70821353500003,6.148898638000047],[125.70775781200007,6.14755976400005],[125.70741433800004,6.14541828800003],[125.70767578500012,6.144744794000077],[125.70677260400008,6.141767233000053],[125.7060605393559,6.140287603032016],[125.70574395107384,6.140273641607036],[125.70624971000008,6.14145944100005]]],[[[125.70218247100001,6.1833298190000505],[125.70269062500006,6.184747971000036],[125.70242015100006,6.18519655800003],[125.70113668300007,6.184723967000025],[125.700221617,6.1856337050000425],[125.70017375300004,6.1877506760000625],[125.69947301800005,6.18901659200003],[125.69832924400009,6.18959618300005],[125.697781641,6.190344607000043],[125.69672979000008,6.190771009000058],[125.69514422800013,6.190912910000065],[125.69411326100011,6.191458357000045],[125.69373297400011,6.19221449400004],[125.69223559500006,6.1927107080000505],[125.69111850200011,6.192687078000061],[125.69042923200006,6.193136034000077],[125.68931214000007,6.193159663000073],[125.68688781100002,6.196196008000072],[125.68624607700006,6.1974483470000346],[125.68527159200005,6.197649194000065],[125.68416638400005,6.196963952000032],[125.68333450700003,6.198913345000051],[125.68263335300004,6.199244150000026],[125.68180147500006,6.2012053480000295],[125.68092206200004,6.201418008000075],[125.67910381600007,6.201252606000023],[125.67714296200008,6.203225611000049],[125.67739252500007,6.203946288000053],[125.6789968600001,6.203591857000051],[125.68075104400009,6.204534626000053],[125.68215784400003,6.2042525690000625],[125.68276355700003,6.203082765000034],[125.68403566000008,6.203520971000045],[125.68432087500004,6.20430071900006],[125.68520028900002,6.203816330000052],[125.68446348300006,6.202256831000057],[125.68461797500004,6.201500709000072],[125.68631738100011,6.200673699000047],[125.6874463580001,6.200803658000041],[125.68853968200004,6.200023904000035],[125.6891814160001,6.19750742000002],[125.69052430400006,6.197152985000058],[125.69097589500008,6.197601936000069],[125.69185530800009,6.19722387200005],[125.69290181100006,6.19723612300004],[125.69286544500005,6.196160564000024],[125.69441036000002,6.194955480000033],[125.69608772000004,6.195968274000051],[125.69589585500012,6.197353831000044],[125.69688222400008,6.19855891000003],[125.69761903000006,6.198641612000074],[125.69840337100004,6.200071162000028],[125.69935408800008,6.200130234000027],[125.70018596600003,6.200898173000041],[125.70127242,6.200923482000064],[125.70147074100008,6.20234503100005],[125.70122679600001,6.203235665000021],[125.70179619500006,6.20533281400003],[125.70202199000005,6.200943771000027],[125.70205841100007,6.200157693000051],[125.7034540080001,6.198261888000047],[125.7044403770001,6.193087115000025],[125.70411356800001,6.187516498000037],[125.70428588500012,6.185301231000038],[125.7049157350001,6.183806659000025],[125.70324014400013,6.182254669000031],[125.70218247100001,6.1833298190000505]]]]}}]}