{"type":"FeatureCollection","features":[{"type":"Feature","properties":{"fid":199,"objectid":3198,"lccode":"01","liqcode":null,"mappers":"DJLBuhay, MJVReyes, MITAbigania, KLPapiona, KMVitto","project":"MELP","province":"Samar","otherinfo":null,"datemapped":2016,"publishdate":null,"globalid":"{E57C8B37-1D1A-44CC-92F6-03CB1610709E}","st_area(shape)":0.033024573453977024,"st_perimeter(shape)":19.781785712536593,"liqcodepk":null,"creator":null,"createdate":null,"editor":null,"modifydate":null,"codemove":null},"geometry":{"type":"MultiPolygon","coordinates":[[[[124.93385570000011,11.759132334000071],[124.93607915800008,11.758455816000035],[124.93646558600005,11.757342396000068],[124.93613670200013,11.756562535000057],[124.9362214439101,11.755333772243503],[124.93542040790875,11.756059114910252],[124.9351095708704,11.756401756933954],[124.9351735570001,11.756926632000045],[124.93485760500006,11.75848400900003],[124.93385570000011,11.759132334000071]]],[[[124.95923114900006,11.766186205000052],[124.95743639700004,11.76447615400002],[124.95714509500012,11.762794284000051],[124.95590944300012,11.761972146000062],[124.95434022100005,11.762676848000066],[124.9543214360001,11.764236573000058],[124.9551483360001,11.764847305000044],[124.9562406860001,11.764842602000043],[124.95675619400004,11.76546399400007],[124.95694255600004,11.76710601600007],[124.95656196000006,11.76820112400003],[124.95485001200007,11.768215748000046],[124.95432381000012,11.769211720000044],[124.95240691400011,11.769634546000075],[124.95263243500006,11.770461387000067],[124.95437080400006,11.771391576000038],[124.95543261300007,11.770846607000067],[124.95672933800007,11.770921768000047],[124.95772537100005,11.770451966000051],[124.95838995000008,11.770790171000042],[124.95840647400007,11.771752932000027],[124.95729264900001,11.773501690000046],[124.95616574700013,11.774776037000034],[124.95626117300003,11.775913796000053],[124.95702914400009,11.77605201800003],[124.95770298000002,11.774826176000033],[124.95827139500011,11.774547250000067],[124.95975391000003,11.774575972000038],[124.9594754960001,11.773451569000029],[124.96131720800008,11.770639867000053],[124.96214409800005,11.769141212000022],[124.96132659400007,11.768530480000036],[124.9612608110001,11.767294915000036],[124.95970098300006,11.76736069500004],[124.95923114900006,11.766186205000052]]],[[[124.95041721300005,11.773745277000042],[124.9502856560001,11.772833872000035],[124.94959970600007,11.772561393000048],[124.94824659400001,11.771048655000072],[124.94951512800003,11.770832542000047],[124.94983460200001,11.768953354000072],[124.94917684100007,11.76858691600006],[124.94828606100009,11.767443506000063],[124.94861303700009,11.76651511500006],[124.95149778200006,11.766796979000048],[124.95259717300007,11.765453355000036],[124.95224244700012,11.764264771000056],[124.95133647400007,11.76335702500006],[124.95286734300011,11.761441193000051],[124.95396435200007,11.761361420000071],[124.95566512500012,11.760590945000045],[124.9550799220001,11.759389674000033],[124.95182371600004,11.760425147000033],[124.94946808500003,11.758937291000054],[124.94686288600006,11.758439320000036],[124.94563193900001,11.758880935000036],[124.9449191340001,11.757900449000035],[124.94293511300009,11.756339348000038],[124.94230789600012,11.756978275000051],[124.9432993150001,11.759982236000042],[124.94301358300004,11.760768589000067],[124.9437643890001,11.762169520000041],[124.94410267500007,11.764129782000055],[124.94332276800003,11.765627226000044],[124.94269320900003,11.76772252200004],[124.94261569300012,11.768835940000029],[124.94117802400002,11.769728561000022],[124.93926112600003,11.769756758000026],[124.93677808200005,11.769258786000025],[124.93480245700006,11.76974268600003],[124.93409772000008,11.770625907000069],[124.93637168600004,11.770400394000035],[124.93987895400006,11.770701046000053],[124.94202137000002,11.770597681000025],[124.94321260000002,11.77010023200006],[124.94396274200005,11.77150250200003],[124.94364572200003,11.771981765000017],[124.94419159200005,11.772982461000025],[124.94430270900011,11.774287451000076],[124.94570808100002,11.775325321000027],[124.9455779980001,11.776564080000067],[124.94685593500002,11.777466084000023],[124.94817381300004,11.779523786000027],[124.94965142800005,11.780684177000069],[124.94951048500002,11.78166135500004],[124.95077436800013,11.781873786000064],[124.951812044,11.781017702000042],[124.95152742900005,11.780241678000039],[124.95217819300001,11.779591521000043],[124.95289943300008,11.780327929000066],[124.95456923600013,11.780908656000063],[124.95534433500006,11.780336557000055],[124.9560873380001,11.780374499000061],[124.95661452500008,11.781812927000033],[124.9586019630001,11.782566919000029],[124.9595431580001,11.782656100000052],[124.96008161600004,11.781665999999996],[124.95877548800001,11.780482119000053],[124.95713813500004,11.780002935000027],[124.95419465200008,11.778029803000038],[124.95240695300004,11.777376795000068],[124.94973598000003,11.777296943000065],[124.94972657900009,11.776441913000042],[124.94912292700006,11.775514634000045],[124.94943997400003,11.774412393000034],[124.95041721300005,11.773745277000042]]],[[[124.96320724200005,11.771450511000069],[124.963251237,11.77354512200003],[124.96260832300005,11.775295315000047],[124.96304859100006,11.775770572000054],[124.96394820100012,11.775305210000056],[124.96434778900004,11.773146437000037],[124.96545249300004,11.771905404000051],[124.96592027600002,11.770011280000062],[124.966719151,11.76971879300004],[124.96832098000004,11.769707732000025],[124.96996708900006,11.769098494000046],[124.96995687300011,11.767663697000046],[124.96893991900005,11.76800552800006],[124.96704618100011,11.767922948000033],[124.96579093800005,11.768888190000041],[124.964550786,11.768561939000053],[124.96412682900007,11.770382367000025],[124.96320724200005,11.771450511000069]]],[[[124.96988171900011,11.77336357300004],[124.968805545,11.773571907000072],[124.96917019500007,11.774334702000035],[124.970065416,11.77487343200005],[124.97209762700002,11.773692632000062],[124.97266357500007,11.77450623800007],[124.97240987100008,11.775210934000027],[124.97395091000011,11.775821662000057],[124.97455229500008,11.776883399000043],[124.97601245500005,11.775640008000039],[124.97508744500011,11.775263768000057],[124.97489684200004,11.774404113000061],[124.97592330700002,11.774033471000052],[124.97587719000012,11.772890121000044],[124.97343407900007,11.77184248700007],[124.97266355300007,11.77020759800007],[124.9718342230001,11.769961562000047],[124.97123008500012,11.771842750000076],[124.9695003280001,11.77187443200006],[124.96988171900011,11.77336357300004]]],[[[125.00789130000008,11.778203363000044],[125.0051756920001,11.777940291000046],[125.00318361900008,11.777376545000037],[125.00130430100012,11.776324209000048],[125.00019080900006,11.776357101000029],[125.00018141800001,11.777540988000053],[125.0020513410001,11.778922181000038],[125.00251178200007,11.780838949000042],[125.00392361800004,11.781332229000045],[125.00567137700013,11.781022154000027],[125.006632167,11.779396653000049],[125.00826674900009,11.779628845000044],[125.00861376700004,11.780215106000073],[125.01018172700003,11.781313406000038],[125.01038845500013,11.781971120000035],[125.01133750800011,11.782027491000063],[125.01208923,11.781473127000025],[125.01348617056264,11.781738778839038],[125.01299990064577,11.778661263370235],[125.01282016070813,11.777975193480223],[125.01240634900012,11.778494615000058],[125.01025218000007,11.777122819000056],[125.00833528400007,11.77758323000006],[125.00789130000008,11.778203363000044]]],[[[124.99961915400002,11.778635095000027],[124.99860044600007,11.777306098000052],[124.99737017400003,11.778593820000026],[124.99728493900011,11.779608108000048],[124.99620433400004,11.779457778000051],[124.9961667430001,11.778630936000072],[124.99452703800011,11.77755041200004],[124.99336890400002,11.777385211000023],[124.9912053490001,11.776549761000071],[124.98977706700009,11.77561957100005],[124.98843259900002,11.77561520800003],[124.98770043000003,11.77635246400007],[124.98945759300013,11.777503457000023],[124.99067655700001,11.777413912000041],[124.99319038800002,11.779711483000028],[124.99092581800005,11.779993372000034],[124.9909540120001,11.780726255000047],[124.9895045930001,11.780749752000075],[124.98920390700005,11.781661159000064],[124.99067917200013,11.78261014100008],[124.99033150900004,11.784423557000025],[124.99063220100003,11.784987312000053],[124.99186314400005,11.783747043000059],[124.99259607000012,11.782516172000042],[124.99430154700008,11.782694686000069],[124.99459284400005,11.783521527000062],[124.99556069200004,11.783991319000053],[124.99587078200013,11.784611449000069],[124.99570165000013,11.785856411000054],[124.99660372300002,11.786420162000072],[124.99664131300005,11.787190629000065],[124.99589899000011,11.788177205000064],[124.9970853100001,11.789074511000022],[124.99851358200009,11.787956388000056],[124.99881426200011,11.786049012000035],[124.99983848700002,11.785945652000066],[125.00046101100008,11.786471821000077],[125.00165437200008,11.785889267000073],[125.00032945000011,11.784677198000056],[124.999943873,11.783546315000022],[124.99971657000003,11.781130451000024],[125.00012246800009,11.780097345000058],[124.99961915400002,11.778635095000027]]]]}}]}