{"type":"FeatureCollection","features":[{"type":"Feature","properties":{"fid":21,"objectid":1867,"lccode":"07","liqcode":"2010600070000000","mappers":"DJLBuhay","project":"Negros Occidental Multi-Hazard Mapping","province":"Negros Occidental","otherinfo":null,"datemapped":2018,"publishdate":null,"globalid":"{BDFFB75F-E1DC-47A8-B9CF-113E0CE8D2E7}","st_area(shape)":0.051419613090430895,"st_perimeter(shape)":11.901738684521376,"liqcodepk":"201060007000000000059","creator":"SNOOPYPC","createdate":"2019-02-19T15:21:28","editor":"LENOVO","modifydate":"2019-03-10T17:50:55","codemove":"na"},"geometry":{"type":"Polygon","coordinates":[]}},{"type":"Feature","properties":{"fid":22,"objectid":1868,"lccode":"07","liqcode":"2010600070000000","mappers":"MITAbigania, DJLBuhay","project":"Negros Oriental Multi-Hazard Mapping","province":"Negros Oriental","otherinfo":null,"datemapped":2017,"publishdate":null,"globalid":"{DD19AC1E-E4AF-4725-8D22-5A4E2D602DF5}","st_area(shape)":0.012485453463948751,"st_perimeter(shape)":5.8153243548739875,"liqcodepk":"201060007000000000060","creator":"SNOOPYPC","createdate":"2019-02-19T15:21:28","editor":"LENOVO","modifydate":"2019-03-10T17:50:55","codemove":"na"},"geometry":{"type":"Polygon","coordinates":[]}},{"type":"Feature","properties":{"fid":46,"objectid":1895,"lccode":"05","liqcode":"2010600050000000","mappers":"DJLBuhay","project":"Negros Occidental Multi-Hazard Mapping","province":"Negros Occidental","otherinfo":null,"datemapped":2018,"publishdate":null,"globalid":"{149718D2-4D93-4457-9604-37CB70EA27A9}","st_area(shape)":0.01745435689673941,"st_perimeter(shape)":6.697527242466418,"liqcodepk":"201060005000000000089","creator":"SNOOPYPC","createdate":"2019-02-19T15:21:28","editor":"LENOVO","modifydate":"2019-03-10T17:50:55","codemove":"na"},"geometry":{"type":"MultiPolygon","coordinates":[[[[122.68925258600007,9.83080588000007],[122.68850305600006,9.831769562000034],[122.68828890500004,9.832840320000056],[122.68871720800007,9.833982460000069],[122.68971658100008,9.83376830900005],[122.691643944,9.832876011000055],[122.69264331800002,9.832162173000027],[122.69303592900006,9.830448961000057],[122.69371407600009,9.829271128000075],[122.69050180300009,9.82969943100005],[122.6900687014136,9.82940679586686],[122.68838734983757,9.830404163516533],[122.68925258600007,9.83080588000007]]],[[[122.68775352600005,9.831269875000032],[122.68814098742244,9.83055030299401],[122.68731056233311,9.831042899722267],[122.68704933960323,9.831234665640965],[122.68775352600005,9.831269875000032]]]]}},{"type":"Feature","properties":{"fid":47,"objectid":1896,"lccode":"05","liqcode":"2010600050000000","mappers":"MITAbigania, DJLBuhay","project":"Negros Oriental Multi-Hazard Mapping","province":"Negros Oriental","otherinfo":null,"datemapped":2017,"publishdate":null,"globalid":"{34172A9D-EBC4-4E95-9DC5-EE06261E8E15}","st_area(shape)":0.004550996126503224,"st_perimeter(shape)":3.4158207428182443,"liqcodepk":"201060005000000000090","creator":"SNOOPYPC","createdate":"2019-02-19T15:21:28","editor":"LENOVO","modifydate":"2019-03-10T17:50:55","codemove":"na"},"geometry":{"type":"Polygon","coordinates":[]}},{"type":"Feature","properties":{"fid":61,"objectid":1925,"lccode":"06","liqcode":"2010600060000000","mappers":"DJLBuhay","project":"Negros Occidental Multi-Hazard Mapping","province":"Negros Occidental","otherinfo":null,"datemapped":2018,"publishdate":null,"globalid":"{E5539A65-5F4C-46A4-8778-850E85BFF908}","st_area(shape)":0.021565408471292534,"st_perimeter(shape)":8.733756823540528,"liqcodepk":"201060006000000000123","creator":"SNOOPYPC","createdate":"2019-02-19T15:21:28","editor":"LENOVO","modifydate":"2019-03-10T17:50:55","codemove":"na"},"geometry":{"type":"Polygon","coordinates":[]}},{"type":"Feature","properties":{"fid":62,"objectid":1926,"lccode":"06","liqcode":"2010600060000000","mappers":"MITAbigania, DJLBuhay","project":"Negros Oriental Multi-Hazard Mapping","province":"Negros Oriental","otherinfo":null,"datemapped":2017,"publishdate":null,"globalid":"{74B2E222-6508-40FC-AC5E-08E62D8D455D}","st_area(shape)":0.007665256470503308,"st_perimeter(shape)":5.21375505636718,"liqcodepk":"201060006000000000124","creator":"SNOOPYPC","createdate":"2019-02-19T15:21:28","editor":"LENOVO","modifydate":"2019-03-10T17:50:55","codemove":"na"},"geometry":{"type":"Polygon","coordinates":[]}}]}