{"type":"FeatureCollection","features":[{"type":"Feature","properties":{"fid":6,"objectid":1835,"lccode":"01","liqcode":"2010600010000000","mappers":"DJLBuhay, MJVReyes, MITAbigania, KLPapiona, KMVitto","project":"MELP","province":"Bataan","otherinfo":null,"datemapped":2017,"publishdate":null,"globalid":"{8E614FC0-BB8D-468F-9704-E22C5F7BF8A3}","st_area(shape)":0.015609538694369198,"st_perimeter(shape)":5.084058587510767,"liqcodepk":"201060001000000000007","creator":"SNOOPYPC","createdate":"2019-02-19T15:21:28","editor":"LENOVO","modifydate":"2019-03-10T17:53:06","codemove":"na"},"geometry":{"type":"Polygon","coordinates":[[[120.52255992100004,14.62362183000005],[120.52298774400005,14.622199951000034],[120.52481064000007,14.62068807000003],[120.52518266000004,14.61993212500005],[120.52486644300006,14.619005190000056],[120.52317375400004,14.620661072000074],[120.5220390940001,14.62082306000007],[120.521295054,14.622406934000022],[120.52038360600011,14.622568921000036],[120.52006738900002,14.624044792000062],[120.51928358867605,14.625029107012196],[120.51974306330129,14.625012030785902],[120.52280885554576,14.624602513562941],[120.52255992100004,14.62362183000005]]]}}]}