{"type":"FeatureCollection","features":[{"type":"Feature","properties":{"fid":174,"objectid":9616,"lccode":"07","liqcode":null,"mappers":"DJLBuhay, MITAbigania","project":"LiquePhi","province":"Pangasinan","otherinfo":null,"datemapped":2024,"publishdate":null,"globalid":"{4C1C6B5C-6BC5-4098-AF34-1358D72BE295}","st_area(shape)":0.0990952810399136,"st_perimeter(shape)":16.14272038398808,"liqcodepk":null,"creator":null,"createdate":null,"editor":null,"modifydate":null,"codemove":null},"geometry":{"type":"Polygon","coordinates":[[[120.02599352100005,16.098226166000067],[120.02509033800006,16.09877422900007],[120.0234265800001,16.101331835000053],[120.02280861200006,16.101788547000073],[120.02000399200007,16.102450777000055],[120.01907704100005,16.10363821900006],[120.01748458600001,16.10523668700006],[120.01670024300007,16.106538288000024],[120.01748458600001,16.107931219000022],[120.01700922700003,16.109483984000065],[120.01565445300002,16.11071705200004],[120.01498894900011,16.112543807000065],[120.01527416500005,16.11409653600003],[120.01484634200006,16.11514690400002],[120.01415707000001,16.114096536000027],[120.0126596880001,16.113822526000035],[120.01009274700006,16.114279209000077],[120.00876174000007,16.113913862000064],[120.0074307340001,16.113959531000027],[120.00614726300012,16.114393379000035],[120.00424582600012,16.114324877000058],[120.00308119500005,16.11542091200005],[120.00274844300009,16.114279209000074],[120.00210670800004,16.113822526000035],[120.00072816600004,16.113708355000032],[120.00008643,16.11295482500003],[120.00068063000003,16.11153909400002],[119.99951902600004,16.109815301000026],[119.99977439700001,16.10887482900005],[119.99837208600003,16.107093711000065],[119.99865730200008,16.105403917000043],[119.99796327700005,16.104094317000033],[119.99821888500001,16.10206867300008],[119.99753436800006,16.100273791000063],[119.99680706800007,16.101164383000025],[119.99729193400003,16.102287894000032],[119.99686411100005,16.104192366000063],[119.99766271500005,16.106288634000066],[119.9970495010001,16.107220302000027],[119.99858966600004,16.10897401800002],[119.99826560400003,16.11017417400007],[119.99883736900007,16.111508043000068],[119.99789482400003,16.111914163000048],[119.99636554100006,16.111402371000054],[119.99518527500003,16.111633300000047],[119.99432962800007,16.11257179300003],[119.99313172200004,16.112948559000078],[119.99224755300008,16.11257864300006],[119.99137051500009,16.11277045100007],[119.99052199800009,16.113578784000026],[119.99036120300002,16.114884763000077],[119.9911743240001,16.11580111400002],[119.98970913399998,16.11679153100005],[119.9889604430001,16.11805880500003],[119.98765558100003,16.117997154000026],[119.98746154600008,16.11935879400005],[119.98707801900001,16.11959322300004],[119.98493177100012,16.119326071000042],[119.98547793800002,16.117416581000043],[119.98531681200006,16.116421623000065],[119.98579454900005,16.11507898600007],[119.98696393300008,16.113873345000055],[119.98662880400002,16.113051313000025],[119.98697739000009,16.11202367200008],[119.98668766100002,16.110330278000053],[119.98651874000005,16.110418415000026],[119.98586032700005,16.11395577600007],[119.98508786700005,16.114480961000023],[119.98440264000011,16.11613084500004],[119.98437482800011,16.117095449000036],[119.9838519330001,16.118100134000027],[119.98285367800008,16.117883214000074],[119.9835310650001,16.11682144300005],[119.98281802600003,16.115074647000025],[119.98220005900009,16.11417270100003],[119.982520926,16.11261997300005],[119.98148702000003,16.111455419000038],[119.98120180400008,16.109320386000036],[119.98149890400009,16.10828140500007],[119.98069079200002,16.107847543000048],[119.98012036100012,16.106888476000048],[119.97915775800004,16.106511698000073],[119.978611095,16.10403408300005],[119.97777921600006,16.10409117100005],[119.97783863600012,16.106454611000064],[119.97930036600009,16.107573524000028],[119.9800490570001,16.108749518000028],[119.9796364130001,16.11168192600007],[119.98021807100007,16.11261067200007],[119.98117803600009,16.113053825000065],[119.98121914100012,16.114752581000058],[119.98213713000008,16.115665350000025],[119.98219655000004,16.117537727000066],[119.98093684800006,16.11823415500004],[119.98084177600003,16.119330169000026],[119.98025946000006,16.119547087000054],[119.98003366500006,16.120517509000024],[119.98096061600006,16.12161351000003],[119.9806278640001,16.123154751000072],[119.98080612400008,16.124307819000023],[119.97911047100001,16.124923588000055],[119.97658178300003,16.123491139000063],[119.9754464460001,16.12383974300008],[119.97666105300004,16.124710458000038],[119.97798169600004,16.125063209000075],[119.97911582499998,16.125954630000024],[119.98049879700011,16.125369840000076],[119.981417479,16.126118323000075],[119.97907502300006,16.12695833000004],[119.97904655800006,16.128117883000073],[119.97938400700002,16.129401410000067],[119.97814807200007,16.129264416000066],[119.9776173050001,16.129619345000037],[119.97726865700008,16.13129648900002],[119.9759005410001,16.131779370000057],[119.97507871500011,16.131355626000072],[119.97425012500003,16.131479146000057],[119.97394114100007,16.132164110000076],[119.97425012500003,16.134127658000065],[119.97412522600008,16.135580897000064],[119.97326720800004,16.13652753600007],[119.9731330300001,16.13725559600004],[119.97365592500013,16.13969854900006],[119.97340802200006,16.14025004900003],[119.97101768000005,16.141502206000045],[119.97036334000008,16.142505126000056],[119.96999565800002,16.14401359900006],[119.9702571050001,16.145360606000057],[119.97095635700009,16.146412310000073],[119.96988664500007,16.14835985700006],[119.97094473100002,16.15000950900003],[119.97066120300009,16.15052786100005],[119.96885479500008,16.149744022000046],[119.967162389,16.149759173000064],[119.966235438,16.150252302000073],[119.96545133830531,16.151190472858573],[119.9667980506562,16.151635138586087],[119.96704830300007,16.151375533000074],[119.96824620900009,16.150841314000044],[119.96909994900011,16.150945792000073],[119.97098427900005,16.15190975100006],[119.97231407400011,16.151810246000025],[119.97282797100002,16.15006530200003],[119.97179800200001,16.148797926000043],[119.9735424280001,16.145857645000035],[119.9759469500001,16.14561459600003],[119.97690512600003,16.145222282000073],[119.97850320500004,16.143532433000072],[119.97839289800004,16.142834920000038],[119.97712584100007,16.14313062000002],[119.97550961900004,16.144555257000036],[119.97444696800005,16.14425670000002],[119.97309479300007,16.144482199000038],[119.97235323300004,16.14366029400002],[119.97280957800002,16.14298450200005],[119.97590892100003,16.141084969000076],[119.97611996400009,16.13993603600005],[119.9757187770001,16.138308695000035],[119.97596792800006,16.13573675300006],[119.97570991600003,16.13389931200004],[119.97625118000009,16.133230935000032],[119.97782937300006,16.13266470200006],[119.97890233800001,16.131063830000077],[119.9809287170001,16.130271893000046],[119.98142309100001,16.129687385000068],[119.98142541400011,16.128287437000033],[119.98288719800007,16.126965750000064],[119.98349969100002,16.125377424000078],[119.98362875900013,16.123312490000046],[119.98507385200004,16.122143432000033],[119.98661401600009,16.123001959000078],[119.98693607500002,16.123815848000046],[119.98657955500005,16.125131026000076],[119.98703590000002,16.125747513000025],[119.98794859100008,16.123391153000057],[119.98756354900001,16.122240362000067],[119.98612938100007,16.121174853000074],[119.98853328300005,16.120952565000035],[119.98935977400005,16.120406390000024],[119.99103361300001,16.11778267000005],[119.99272595300012,16.116568511000025],[119.99308247300007,16.11589719400007],[119.99250676900012,16.114037636000035],[119.99466139400012,16.113608068000076],[119.99599721800007,16.112609079000038],[119.99698694300002,16.112998135000055],[119.9970327100001,16.113896931000056],[119.99542124100005,16.114417549000052],[119.99503620000007,16.11562318700004],[119.99561373400002,16.116381588000024],[119.9965032780001,16.116509714000074],[119.99873064000008,16.115560409000064],[120.00110343400002,16.115811184000055],[120.00196074500003,16.117166261000023],[120.00372101700009,16.117048022000063],[120.00528970300003,16.11592459500002],[120.00663530200008,16.115994543000053],[120.00848411900007,16.11576019000006],[120.0109512350001,16.11602049700002],[120.0130333090001,16.115664288000062],[120.0138319130001,16.116294504000052],[120.01404582500004,16.117541231000075],[120.01302861100011,16.11927510300006],[120.01471613800003,16.118704263000037],[120.01656228700006,16.11876550100004],[120.01703299500002,16.118361909000043],[120.01843189600004,16.118693697000026],[120.02019690300006,16.11794095300007],[120.02075981300004,16.117046686000034],[120.02207180500011,16.117156288000043],[120.02327921800008,16.115402645000074],[120.02432500900012,16.11578625500005],[120.02412535800009,16.11465368800003],[120.0229749880001,16.114525817000068],[120.021561388,16.115136058000072],[120.02115257900005,16.113930417000063],[120.01972650100004,16.112103675000068],[120.01874726000007,16.112377687000045],[120.01909902600006,16.11328192600007],[120.01866169500012,16.115136058000076],[120.01811027800012,16.115793677000056],[120.01734019600009,16.115501402000064],[120.01695040100003,16.113683808000072],[120.01711202400008,16.112012338000053],[120.01742576100003,16.111473445000062],[120.0189518630001,16.11035740800003],[120.01955537100004,16.109352874000024],[120.01974076100011,16.10790058200007],[120.01915606900003,16.10677710400006],[120.01941276300012,16.105941341000058],[120.0207390160001,16.10472194400006],[120.0242756900001,16.103653252000072],[120.0254735960001,16.102557152000028],[120.02564472600012,16.101488449000037],[120.02674280600002,16.100488247000044],[120.02677180041897,16.10049204576381],[120.0265515220078,16.09918840197722],[120.02627709781784,16.09819149027696],[120.02599352100005,16.098226166000067]]]}},{"type":"Feature","properties":{"fid":175,"objectid":9617,"lccode":"06","liqcode":null,"mappers":"DJLBuhay, MITAbigania","project":"LiquePhi","province":"Pangasinan","otherinfo":null,"datemapped":2024,"publishdate":null,"globalid":"{66023685-1332-44EF-8443-E51FD3597412}","st_area(shape)":0.04411879143836554,"st_perimeter(shape)":22.502158641584156,"liqcodepk":null,"creator":null,"createdate":null,"editor":null,"modifydate":null,"codemove":null},"geometry":{"type":"MultiPolygon","coordinates":[[[[119.98707801900001,16.11959322300004],[119.98746154600008,16.11935879400005],[119.98765558100003,16.117997154000026],[119.9889604430001,16.11805880500003],[119.98970913399998,16.11679153100005],[119.9911743240001,16.11580111400002],[119.99036120300002,16.114884763000077],[119.99052199800009,16.113578784000026],[119.99137051500009,16.11277045100007],[119.99224755300008,16.11257864300006],[119.99313172200004,16.112948559000078],[119.99432962800007,16.11257179300003],[119.99518527500003,16.111633300000047],[119.99636554100006,16.111402371000054],[119.99789482400003,16.111914163000048],[119.99883736900007,16.111508043000068],[119.99826560400003,16.11017417400007],[119.99858966600004,16.10897401800002],[119.9970495010001,16.107220302000027],[119.99766271500005,16.106288634000066],[119.99686411100005,16.104192366000063],[119.99729193400003,16.102287894000032],[119.99680706800007,16.101164383000025],[119.99753436800006,16.100273791000063],[119.99821888500001,16.10206867300008],[119.99796327700005,16.104094317000033],[119.99865730200008,16.105403917000043],[119.99837208600003,16.107093711000065],[119.99977439700001,16.10887482900005],[119.99951902600004,16.109815301000026],[120.00068063000003,16.11153909400002],[120.00008643,16.11295482500003],[120.00072816600004,16.113708355000032],[120.00210670800004,16.113822526000035],[120.00274844300009,16.114279209000074],[120.00308119500005,16.11542091200005],[120.00424582600012,16.114324877000058],[120.00614726300012,16.114393379000035],[120.0074307340001,16.113959531000027],[120.00876174000007,16.113913862000064],[120.01009274700006,16.114279209000077],[120.0126596880001,16.113822526000035],[120.01415707000001,16.114096536000027],[120.01484634200006,16.11514690400002],[120.01527416500005,16.11409653600003],[120.01498894900011,16.112543807000065],[120.01565445300002,16.11071705200004],[120.01700922700003,16.109483984000065],[120.01748458600001,16.107931219000022],[120.01670024300007,16.106538288000024],[120.01748458600001,16.10523668700006],[120.01907704100005,16.10363821900006],[120.02000399200007,16.102450777000055],[120.02280861200006,16.101788547000073],[120.0234265800001,16.101331835000053],[120.02509033800006,16.09877422900007],[120.02599352100005,16.098226166000067],[120.02627709781784,16.09819149027696],[120.0255976683787,16.09572323981448],[120.02446171400004,16.097524948000054],[120.02314972200008,16.09825570100003],[120.02219900300008,16.099443168000054],[120.01852922800005,16.101379637000033],[120.01622848900001,16.104375647000037],[120.015353827,16.10598324400007],[120.01512565500002,16.107791774000084],[120.01446015200007,16.109874304000076],[120.01396577800006,16.110805955000043],[120.01212138300004,16.112157754000066],[120.00976360000003,16.112815383000054],[120.00723468800005,16.11308939500003],[120.00371702800011,16.112724046000043],[120.00210080600003,16.111792404000028],[120.00088388600011,16.109892572000035],[120.000256411,16.10813886400007],[119.99955287900002,16.10722546800002],[119.99936273500009,16.10583709900004],[119.99869723200004,16.10470447500006],[119.99841201600009,16.10346223400006],[119.99858443700009,16.10261836100005],[120.0000105150001,16.10207030900006],[119.9996362820001,16.10119785900002],[119.99874640200005,16.101409079000064],[119.9981280920001,16.100784474000022],[119.99847035000003,16.09931175700006],[119.99921191100009,16.098252171000066],[119.99947528000008,16.094799733000063],[119.99915486800012,16.093611847000034],[119.99849232100009,16.09281499100007],[119.99776667300011,16.09324156300005],[119.99831368800004,16.094202413000062],[119.99832897700003,16.096337633000072],[119.99767174600004,16.098325246000062],[119.99640604000001,16.099882163000075],[119.99672102800002,16.10197896700003],[119.99647384100003,16.103951948000027],[119.99706328600006,16.106198931000055],[119.99679708500001,16.107331547000058],[119.99790819100008,16.10934513600006],[119.9967112920001,16.110706702000076],[119.99462821100008,16.111359146000037],[119.9936696210001,16.112048061000053],[119.99199880700009,16.111770166000042],[119.99083699700009,16.112186586000057],[119.98987937000003,16.11337313500007],[119.98989882900003,16.115159583000032],[119.98963693600003,16.11598992100005],[119.9885673780001,16.117003745000034],[119.9875748500001,16.11744945300006],[119.98672505400009,16.11850884900002],[119.98615730500002,16.118305268000025],[119.98614304400009,16.11667493800007],[119.98715556000002,16.114428074000045],[119.98748153800011,16.109956762000024],[119.98788084000012,16.10888809900007],[119.98877926900002,16.10817565300005],[119.98896635800008,16.10632226200005],[119.98957095800006,16.105069344000068],[119.98922135300006,16.103613201000027],[119.98956361200011,16.10301034700006],[119.99134621000009,16.10225677600005],[119.99147455700005,16.101270280000048],[119.99257920900004,16.10066429700004],[119.9934513390001,16.099760459000034],[119.99376032300006,16.098892696000064],[119.99317363999998,16.096292637000033],[119.99360845800004,16.095021374000048],[119.99340925200012,16.09173165200002],[119.99266240300005,16.09088571500007],[119.9920490290001,16.09153940000004],[119.99233424500005,16.095330264000033],[119.99192193600005,16.096566275000047],[119.99191546300007,16.09926142200004],[119.99040111600004,16.100698855000076],[119.98835762200007,16.10184789300007],[119.98810750700012,16.10265129800007],[119.98835707100011,16.10463797300002],[119.98759807200008,16.10551390200004],[119.98749579800005,16.10740840100004],[119.98642624,16.108764791000056],[119.98612835300001,16.11010410700004],[119.98603099100002,16.110346076000038],[119.98452599000005,16.113754124000025],[119.98357527100006,16.114028134000026],[119.98309991200007,16.113425312000057],[119.98313794100011,16.112475405000055],[119.98224901800006,16.11115786000004],[119.98234377300003,16.109992765000072],[119.98192919900009,16.108957722000067],[119.98177334200011,16.108154569000025],[119.98095334700008,16.106887232000076],[119.979491617,16.105391535000024],[119.97882611300008,16.103507626000066],[119.97788727900002,16.102411525000033],[119.97826756600013,16.101669370000025],[119.9781724940001,16.10071027300006],[119.97918263300006,16.098301093000025],[119.97882611300008,16.097638849000077],[119.97855278200007,16.095343813000056],[119.97883799700003,16.09467014100005],[119.97890930100004,16.09264911100007],[119.98083450700007,16.091244654000032],[119.9813455190001,16.090479620000053],[119.98103653500006,16.089109403000066],[119.98037103200011,16.08902947400003],[119.98037103200011,16.09030834400005],[119.979242053,16.090993449000052],[119.97826756600013,16.088972381000076],[119.97792293100008,16.090045719000045],[119.97820814600003,16.09188408300003],[119.97750699100006,16.092443581000055],[119.97690090800006,16.09062806000003],[119.97547482900006,16.089600399000062],[119.97467860200004,16.087704921000064],[119.97375165100004,16.087168247000022],[119.97335948000011,16.086289011000073],[119.97270586000003,16.086026381000064],[119.9725870210001,16.08741945600007],[119.97385860700001,16.08837861700004],[119.9748925140001,16.090354017000035],[119.97616410100011,16.091507276000076],[119.97692467600007,16.093768102000073],[119.97755452700007,16.09501268700006],[119.97745945500002,16.09610882800007],[119.9777446710001,16.09838101900004],[119.97767336700008,16.09964841100003],[119.97690090800006,16.10255995600005],[119.97740003500009,16.10396433300002],[119.97720989100003,16.105642721000034],[119.97762583100008,16.106521872000023],[119.97877857800006,16.107446688000042],[119.97936089300005,16.10879394300002],[119.97932524100008,16.11131716800003],[119.97993132400008,16.112652980000068],[119.98065624700006,16.113189586000033],[119.98168561800003,16.116746041000056],[119.97954650100009,16.119371916000038],[119.97935635700003,16.12012542100007],[119.9801169320001,16.121792257000035],[119.97978418000004,16.122979583000074],[119.9791899810001,16.123573243000067],[119.97842940600003,16.123481911000056],[119.97764506300007,16.121426924000048],[119.97683695200008,16.12131275800004],[119.97600507300001,16.122340254000047],[119.97526826500005,16.121678090000046],[119.97491174600009,16.120696257000073],[119.97484044200007,16.118983745000033],[119.97410363500002,16.11834440400003],[119.97267755600001,16.11784206300007],[119.97220219700012,16.11818456800006],[119.97358073900013,16.119280582000044],[119.97341436400006,16.120878924000067],[119.97453145800013,16.12366457500008],[119.97453145800013,16.12544554500005],[119.97481667400007,16.125925034000034],[119.9762902880001,16.126792678000076],[119.97614768000004,16.127911477000055],[119.97429377900005,16.128984604000035],[119.97248741300007,16.130971016000046],[119.97201205300009,16.132089791000055],[119.97217842900011,16.13339121500007],[119.9711564060001,16.13576572200003],[119.97127524600012,16.137957548000035],[119.97046713500002,16.13932742800006],[119.9688033770001,16.141290905000062],[119.96799526600012,16.143071716000065],[119.96799526600012,16.144213253000032],[119.96866076900004,16.14542327600003],[119.96873207300008,16.147455183000034],[119.96773381800006,16.148733676000063],[119.96680686700006,16.148779337000065],[119.96535702100003,16.14941858000003],[119.96409731800009,16.150514421000025],[119.96399561453289,16.150709800587894],[119.96545133830531,16.151190472858573],[119.966235438,16.150252302000073],[119.967162389,16.149759173000064],[119.96885479500008,16.149744022000046],[119.97066120300009,16.15052786100005],[119.97094473100002,16.15000950900003],[119.96988664500007,16.14835985700006],[119.97095635700009,16.146412310000073],[119.9702571050001,16.145360606000057],[119.96999565800002,16.14401359900006],[119.97036334000008,16.142505126000056],[119.97101768000005,16.141502206000045],[119.97340802200006,16.14025004900003],[119.97365592500013,16.13969854900006],[119.9731330300001,16.13725559600004],[119.97326720800004,16.13652753600007],[119.97412522600008,16.135580897000064],[119.97425012500003,16.134127658000065],[119.97394114100007,16.132164110000076],[119.97425012500003,16.131479146000057],[119.97507871500011,16.131355626000072],[119.9759005410001,16.131779370000057],[119.97726865700008,16.13129648900002],[119.9776173050001,16.129619345000037],[119.97814807200007,16.129264416000066],[119.97938400700002,16.129401410000067],[119.97904655800006,16.128117883000073],[119.97907502300006,16.12695833000004],[119.981417479,16.126118323000075],[119.98049879700011,16.125369840000076],[119.97911582499998,16.125954630000024],[119.97798169600004,16.125063209000075],[119.97666105300004,16.124710458000038],[119.9754464460001,16.12383974300008],[119.97658178300003,16.123491139000063],[119.97911047100001,16.124923588000055],[119.98080612400008,16.124307819000023],[119.9806278640001,16.123154751000072],[119.98096061600006,16.12161351000003],[119.98003366500006,16.120517509000024],[119.98025946000006,16.119547087000054],[119.98084177600003,16.119330169000026],[119.98093684800006,16.11823415500004],[119.98219655000004,16.117537727000066],[119.98213713000008,16.115665350000025],[119.98121914100012,16.114752581000058],[119.98117803600009,16.113053825000065],[119.98021807100007,16.11261067200007],[119.9796364130001,16.11168192600007],[119.9800490570001,16.108749518000028],[119.97930036600009,16.107573524000028],[119.97783863600012,16.106454611000064],[119.97777921600006,16.10409117100005],[119.978611095,16.10403408300005],[119.97915775800004,16.106511698000073],[119.98012036100012,16.106888476000048],[119.98069079200002,16.107847543000048],[119.98149890400009,16.10828140500007],[119.98120180400008,16.109320386000036],[119.98148702000003,16.111455419000038],[119.982520926,16.11261997300005],[119.98220005900009,16.11417270100003],[119.98281802600003,16.115074647000025],[119.9835310650001,16.11682144300005],[119.98285367800008,16.117883214000074],[119.9838519330001,16.118100134000027],[119.98437482800011,16.117095449000036],[119.98440264000011,16.11613084500004],[119.98508786700005,16.114480961000023],[119.98586032700005,16.11395577600007],[119.98651874000005,16.110418415000026],[119.98668766100002,16.110330278000053],[119.98697739000009,16.11202367200008],[119.98662880400002,16.113051313000025],[119.98696393300008,16.113873345000055],[119.98579454900005,16.11507898600007],[119.98531681200006,16.116421623000065],[119.98547793800002,16.117416581000043],[119.98493177100012,16.119326071000042],[119.98707801900001,16.11959322300004]]],[[[119.95587360000002,16.14615385200005],[119.95366317800004,16.144647036000034],[119.95344815682027,16.14510360140936],[119.95550349864729,16.146533198191822],[119.95596699368215,16.146793038074172],[119.95587360000002,16.14615385200005]]],[[[120.0225498320001,16.113632292000034],[120.02217905100007,16.11319387500003],[120.02287783000008,16.111741611000067],[120.02434669000002,16.110371541000063],[120.02408999600004,16.109152171000062],[120.023220089,16.10933028200003],[120.02260687500006,16.11026193500004],[120.02140896900006,16.110727760000024],[120.02081001600003,16.110398943000064],[120.02056758300012,16.10891925700003],[120.02088132000007,16.107357354000044],[120.02145175100009,16.106548996000075],[120.02361939000002,16.105589923000025],[120.02577276900003,16.104151304000027],[120.02733715992215,16.104269966619793],[120.02729031252547,16.103560579337497],[120.02677180041897,16.10049204576381],[120.02674280600002,16.100488247000044],[120.02564472600012,16.101488449000037],[120.0254735960001,16.102557152000028],[120.0242756900001,16.103653252000072],[120.0207390160001,16.10472194400006],[120.01941276300012,16.105941341000058],[120.01915606900003,16.10677710400006],[120.01974076100011,16.10790058200007],[120.01955537100004,16.109352874000024],[120.0189518630001,16.11035740800003],[120.01742576100003,16.111473445000062],[120.01711202400008,16.112012338000053],[120.01695040100003,16.113683808000072],[120.01734019600009,16.115501402000064],[120.01811027800012,16.115793677000056],[120.01866169500012,16.115136058000076],[120.01909902600006,16.11328192600007],[120.01874726000007,16.112377687000045],[120.01972650100004,16.112103675000068],[120.02115257900005,16.113930417000063],[120.021561388,16.115136058000072],[120.0229749880001,16.114525817000068],[120.02412535800009,16.11465368800003],[120.02432500900012,16.11578625500005],[120.02327921800008,16.115402645000074],[120.02207180500011,16.117156288000043],[120.02075981300004,16.117046686000034],[120.02019690300006,16.11794095300007],[120.01843189600004,16.118693697000026],[120.01703299500002,16.118361909000043],[120.01656228700006,16.11876550100004],[120.01471613800003,16.118704263000037],[120.01302861100011,16.11927510300006],[120.01404582500004,16.117541231000075],[120.0138319130001,16.116294504000052],[120.0130333090001,16.115664288000062],[120.0109512350001,16.11602049700002],[120.00848411900007,16.11576019000006],[120.00663530200008,16.115994543000053],[120.00528970300003,16.11592459500002],[120.00372101700009,16.117048022000063],[120.00196074500003,16.117166261000023],[120.00110343400002,16.115811184000055],[119.99873064000008,16.115560409000064],[119.9965032780001,16.116509714000074],[119.99561373400002,16.116381588000024],[119.99503620000007,16.11562318700004],[119.99542124100005,16.114417549000052],[119.9970327100001,16.113896931000056],[119.99698694300002,16.112998135000055],[119.99599721800007,16.112609079000038],[119.99466139400012,16.113608068000076],[119.99250676900012,16.114037636000035],[119.99308247300007,16.11589719400007],[119.99272595300012,16.116568511000025],[119.99103361300001,16.11778267000005],[119.98935977400005,16.120406390000024],[119.98853328300005,16.120952565000035],[119.98612938100007,16.121174853000074],[119.98756354900001,16.122240362000067],[119.98794859100008,16.123391153000057],[119.98703590000002,16.125747513000025],[119.98657955500005,16.125131026000076],[119.98693607500002,16.123815848000046],[119.98661401600009,16.123001959000078],[119.98507385200004,16.122143432000033],[119.98362875900013,16.123312490000046],[119.98349969100002,16.125377424000078],[119.98288719800007,16.126965750000064],[119.98142541400011,16.128287437000033],[119.98142309100001,16.129687385000068],[119.9809287170001,16.130271893000046],[119.97890233800001,16.131063830000077],[119.97782937300006,16.13266470200006],[119.97625118000009,16.133230935000032],[119.97570991600003,16.13389931200004],[119.97596792800006,16.13573675300006],[119.9757187770001,16.138308695000035],[119.97611996400009,16.13993603600005],[119.97590892100003,16.141084969000076],[119.97280957800002,16.14298450200005],[119.97235323300004,16.14366029400002],[119.97309479300007,16.144482199000038],[119.97444696800005,16.14425670000002],[119.97550961900004,16.144555257000036],[119.97712584100007,16.14313062000002],[119.97839289800004,16.142834920000038],[119.97850320500004,16.143532433000072],[119.97690512600003,16.145222282000073],[119.9759469500001,16.14561459600003],[119.9735424280001,16.145857645000035],[119.97179800200001,16.148797926000043],[119.97282797100002,16.15006530200003],[119.97231407400011,16.151810246000025],[119.97098427900005,16.15190975100006],[119.96909994900011,16.150945792000073],[119.96824620900009,16.150841314000044],[119.96704830300007,16.151375533000074],[119.9667980506562,16.151635138586087],[119.96797791341534,16.15202470377095],[119.96903188815067,16.152264304928924],[119.96912973200007,16.152176019000017],[119.97238119100007,16.15277872400003],[119.97340796700007,16.152468240000076],[119.97403544200004,16.150660117000026],[119.97325585200008,16.148450167000025],[119.97430164300009,16.146532421000074],[119.97614603800001,16.14580184700003],[119.97838973500006,16.14569226000003],[119.97992989900001,16.14485209600002],[119.98154612100008,16.14282472800005],[119.98169823600004,16.141016517000025],[119.98101371900009,16.140121538000074],[119.98059540200005,16.138769929000038],[119.98055737400011,16.136231071000054],[119.980956676,16.134897701000057],[119.98354263100009,16.13075141200005],[119.98344755900007,16.12969199300005],[119.984512364,16.12866910100007],[119.98500673800005,16.126513704000047],[119.98614760100008,16.126915559000054],[119.98740255000007,16.126440639000066],[119.98880961400005,16.124449615000056],[119.98850538400005,16.121746175000055],[119.99052090800001,16.120942442000057],[119.99156669900005,16.12002910500007],[119.99228924500005,16.118111085000063],[119.99388645300009,16.116266114000034],[119.99521745900006,16.118202420000046],[119.99580690500011,16.118293754000035],[119.99696678200009,16.117398672000043],[119.99835483200002,16.11690546200003],[120.00031331300009,16.117216002000074],[120.00135910300003,16.118056284000033],[120.00217672200006,16.118238953000056],[120.00356477100003,16.11792841500005],[120.00520000800007,16.117051599000035],[120.00770990600004,16.116631456000047],[120.01231138500007,16.11652185400004],[120.01322407500004,16.117508275000034],[120.01136066600009,16.119042697000058],[120.0113036230001,16.120120439000065],[120.01166489600007,16.120997242000044],[120.01362337700004,16.11933496700004],[120.01472621100004,16.119060964000028],[120.01655385200002,16.11908162800006],[120.01729592100001,16.118779055000058],[120.01871368100001,16.118893223000043],[120.01988306500004,16.118454818000036],[120.02105244900008,16.11730399800006],[120.02207922600007,16.117386200000055],[120.022920612,16.11672858600002],[120.02476025300008,16.11672858600002],[120.02521659800003,16.11760540400007],[120.02647358115152,16.118220803247723],[120.02665611572529,16.11746977376024],[120.02610076700012,16.117262898000032],[120.02543051000009,16.11586546500007],[120.02534494500001,16.11497493900004],[120.02406147500005,16.113755597000026],[120.0225498320001,16.113632292000034]]],[[[120.00314021600003,16.148217774000045],[120.00328282400005,16.14721780800005],[120.00209917900008,16.146135648000037],[120.00224178700012,16.14479321200002],[120.00147622900012,16.145006744000053],[120.00134335700012,16.146669879000054],[120.00165709400005,16.147546565000024],[120.00018823400002,16.14809449100005],[119.9994894550001,16.148779397000055],[119.99923988973023,16.150144743434822],[119.99938595562817,16.15009189747155],[120.00267583813337,16.148530872131087],[120.00314021600003,16.148217774000045]]]]}},{"type":"Feature","properties":{"fid":176,"objectid":9618,"lccode":"05","liqcode":null,"mappers":"DJLBuhay, MITAbigania","project":"LiquePhi","province":"Pangasinan","otherinfo":null,"datemapped":2024,"publishdate":null,"globalid":"{5ACB73C5-6107-4512-9787-F18573022798}","st_area(shape)":0.06533832536059311,"st_perimeter(shape)":23.271340040578984,"liqcodepk":null,"creator":null,"createdate":null,"editor":null,"modifydate":null,"codemove":null},"geometry":{"type":"MultiPolygon","coordinates":[[[[119.93984068100009,16.08806895600003],[119.94067256100006,16.086801491000074],[119.94127864400002,16.08655028000004],[119.94173023500004,16.085568273000035],[119.9415400920001,16.08498591800003],[119.94171725253362,16.084066698985033],[119.9416936798098,16.08409836127439],[119.93941268256839,16.08789937475929],[119.93984068100009,16.08806895600003]]],[[[120.02577276900003,16.104151304000027],[120.02361939000002,16.105589923000025],[120.02145175100009,16.106548996000075],[120.02088132000007,16.107357354000044],[120.02056758300012,16.10891925700003],[120.02081001600003,16.110398943000064],[120.02140896900006,16.110727760000024],[120.02260687500006,16.11026193500004],[120.023220089,16.10933028200003],[120.02408999600004,16.109152171000062],[120.02434669000002,16.110371541000063],[120.02287783000008,16.111741611000067],[120.02217905100007,16.11319387500003],[120.0225498320001,16.113632292000034],[120.02406147500005,16.113755597000026],[120.02534494500001,16.11497493900004],[120.02543051000009,16.11586546500007],[120.02610076700012,16.117262898000032],[120.02665611572529,16.11746977376024],[120.02676506326851,16.117021512747353],[120.02673376500002,16.116566135000028],[120.02685859304196,16.116511957867665],[120.02742462349755,16.11240920642528],[120.02758229332049,16.107981704482416],[120.02733715992215,16.104269966619793],[120.02577276900003,16.104151304000027]]],[[[119.98603099100002,16.110346076000038],[119.98496057500004,16.11135124300006],[119.98391478400004,16.111259905000054],[119.9827976900001,16.109330382000053],[119.98192919900009,16.108957722000067],[119.98234377300003,16.109992765000072],[119.98224901800006,16.11115786000004],[119.98313794100011,16.112475405000055],[119.98309991200007,16.113425312000057],[119.98357527100006,16.114028134000026],[119.98452599000005,16.113754124000025],[119.98603099100002,16.110346076000038]]],[[[119.98642624,16.108764791000056],[119.98749579800005,16.10740840100004],[119.98759807200008,16.10551390200004],[119.98835707100011,16.10463797300002],[119.98810750700012,16.10265129800007],[119.98835762200007,16.10184789300007],[119.99040111600004,16.100698855000076],[119.99191546300007,16.09926142200004],[119.99192193600005,16.096566275000047],[119.99233424500005,16.095330264000033],[119.9920490290001,16.09153940000004],[119.99266240300005,16.09088571500007],[119.99340925200012,16.09173165200002],[119.99360845800004,16.095021374000048],[119.99317363999998,16.096292637000033],[119.99376032300006,16.098892696000064],[119.9934513390001,16.099760459000034],[119.99257920900004,16.10066429700004],[119.99147455700005,16.101270280000048],[119.99134621000009,16.10225677600005],[119.98956361200011,16.10301034700006],[119.98922135300006,16.103613201000027],[119.98957095800006,16.105069344000068],[119.98896635800008,16.10632226200005],[119.98877926900002,16.10817565300005],[119.98788084000012,16.10888809900007],[119.98748153800011,16.109956762000024],[119.98715556000002,16.114428074000045],[119.98614304400009,16.11667493800007],[119.98615730500002,16.118305268000025],[119.98672505400009,16.11850884900002],[119.9875748500001,16.11744945300006],[119.9885673780001,16.117003745000034],[119.98963693600003,16.11598992100005],[119.98989882900003,16.115159583000032],[119.98987937000003,16.11337313500007],[119.99083699700009,16.112186586000057],[119.99199880700009,16.111770166000042],[119.9936696210001,16.112048061000053],[119.99462821100008,16.111359146000037],[119.9967112920001,16.110706702000076],[119.99790819100008,16.10934513600006],[119.99679708500001,16.107331547000058],[119.99706328600006,16.106198931000055],[119.99647384100003,16.103951948000027],[119.99672102800002,16.10197896700003],[119.99640604000001,16.099882163000075],[119.99767174600004,16.098325246000062],[119.99832897700003,16.096337633000072],[119.99831368800004,16.094202413000062],[119.99776667300011,16.09324156300005],[119.99849232100009,16.09281499100007],[119.99915486800012,16.093611847000034],[119.99947528000008,16.094799733000063],[119.99921191100009,16.098252171000066],[119.99847035000003,16.09931175700006],[119.9981280920001,16.100784474000022],[119.99874640200005,16.101409079000064],[119.9996362820001,16.10119785900002],[120.0000105150001,16.10207030900006],[119.99858443700009,16.10261836100005],[119.99841201600009,16.10346223400006],[119.99869723200004,16.10470447500006],[119.99936273500009,16.10583709900004],[119.99955287900002,16.10722546800002],[120.000256411,16.10813886400007],[120.00088388600011,16.109892572000035],[120.00210080600003,16.111792404000028],[120.00371702800011,16.112724046000043],[120.00723468800005,16.11308939500003],[120.00976360000003,16.112815383000054],[120.01212138300004,16.112157754000066],[120.01396577800006,16.110805955000043],[120.01446015200007,16.109874304000076],[120.01512565500002,16.107791774000084],[120.015353827,16.10598324400007],[120.01622848900001,16.104375647000037],[120.01852922800005,16.101379637000033],[120.02219900300008,16.099443168000054],[120.02314972200008,16.09825570100003],[120.02446171400004,16.097524948000054],[120.0255976683787,16.09572323981448],[120.02537306334895,16.094907269506614],[120.02376630901912,16.090758400093804],[120.02174675196405,16.08678173646046],[120.01933385567376,16.0830155617191],[120.01655086620461,16.07949613123733],[120.01342458798435,16.076257324053103],[120.00998512557197,16.07333031717602],[120.00626559386214,16.070743285889378],[120.00230179952015,16.068521132918164],[120.00010628728188,16.067554529719775],[119.99944839900002,16.06831881400007],[119.99887796800012,16.068556344000054],[119.99758540900008,16.067518666000073],[119.99676779100004,16.06761002400003],[119.99655863200007,16.06627619300002],[119.99566495700005,16.065947302000044],[119.99549382700002,16.067354222000063],[119.99435296500009,16.068468787000025],[119.99339392700007,16.068300918000034],[119.99297561100002,16.06744215400004],[119.99392632900003,16.06601696300004],[119.99363315558828,16.065216274603817],[119.98933590057672,16.06423909401977],[119.98761717201835,16.064017059228362],[119.98716671800003,16.06425753900004],[119.98695137594831,16.06393104409813],[119.98555374072107,16.063750474484106],[119.98432644500008,16.063777901000037],[119.9832450030001,16.064234699000053],[119.98360152200007,16.06570786600002],[119.98459977700008,16.065833484000056],[119.98469484900012,16.06714676200005],[119.98601397100003,16.067672071000057],[119.98616846300001,16.068928239000055],[119.98683396600006,16.069841811000057],[119.98685773400007,16.07090383300005],[119.98496818100011,16.072159980000034],[119.98301920700008,16.070481309000055],[119.98360152200007,16.07005878400002],[119.9841481850001,16.068836882000028],[119.98240123900008,16.06927082900006],[119.98219921200005,16.070492728000026],[119.98128414500002,16.07152048800003],[119.98216356000013,16.071908751000027],[119.98325688600006,16.07331334500003],[119.982864715,16.074146961000046],[119.98443340100005,16.075231798000058],[119.98475426900005,16.076122502000032],[119.98387485400006,16.07668204500004],[119.98287659900006,16.075859859000044],[119.98215167600006,16.075905536000047],[119.98140298500005,16.075208960000058],[119.98086820500009,16.077858222000028],[119.9811177690001,16.078680400000053],[119.98003632600012,16.079022973000065],[119.9808919730001,16.080747249000066],[119.9816168960001,16.080998466000032],[119.98303109100004,16.08081576200004],[119.98402104700007,16.082205521000045],[119.9840638290001,16.08382243200003],[119.98444887100004,16.08476790800006],[119.98307983500001,16.086028535000022],[119.98146836700005,16.085644867000042],[119.98199601600004,16.084315724000078],[119.98109758600003,16.083890945000068],[119.9803845470001,16.08505566100007],[119.97814560400002,16.08493233800004],[119.97740404300009,16.083973161000074],[119.9776749980001,16.082904357000075],[119.97746108700005,16.082041089000032],[119.9763772670001,16.081547791000048],[119.97738978300005,16.08021862100003],[119.97664822200012,16.079985673000067],[119.97573553200006,16.080670814000033],[119.97529344700003,16.081712224000057],[119.97460893000003,16.08171222400006],[119.973896673,16.08101299800006],[119.97285088200009,16.080990160000056],[119.97135350000009,16.07927730600005],[119.96987988500007,16.076468193000043],[119.9699987250001,16.075508974000062],[119.96926191800003,16.07498368600005],[119.9690955420001,16.07315658600004],[119.96968974100001,16.071101078000027],[119.96964220600013,16.06968504900004],[119.96854887900008,16.06952517400003],[119.96700396100005,16.07096404300006],[119.966338457,16.074458396000068],[119.96690888900002,16.07516639500005],[119.96752685600006,16.076856446000022],[119.96819235900011,16.07751876000003],[119.96897670200009,16.07898040900005],[119.96795467900004,16.080875970000022],[119.96826366300003,16.08172097300007],[119.97052162100012,16.08359367000003],[119.97145882000005,16.08526500200003],[119.97120060300007,16.086535524000055],[119.97147155700009,16.08701510800006],[119.97167120800009,16.089234877000024],[119.97137173200008,16.09000220000007],[119.97050182400005,16.09081062500007],[119.97050182400005,16.092071214000047],[119.97239850800008,16.09327698700002],[119.97259815900009,16.09407169700006],[119.97412406300009,16.09540077500003],[119.97497971000007,16.097236805000026],[119.97485136300008,16.098017798000058],[119.9736677180001,16.098305531000054],[119.9738673690001,16.09948386300005],[119.9734965890001,16.101196543000075],[119.97369624000011,16.103347649000053],[119.97480858100003,16.10388199600004],[119.97476579800004,16.10478627300006],[119.9740955420001,16.105608339000074],[119.97406702,16.106307093000055],[119.97607779100008,16.106882535000068],[119.97834525500002,16.10797861100002],[119.97867325300001,16.108965074000025],[119.97794595300002,16.11012964300005],[119.97794595300002,16.11071877500007],[119.97918664100007,16.111951836000053],[119.98052872700009,16.113807851000047],[119.980897131,16.11516648000003],[119.98073075500007,16.116547934000035],[119.97997018000001,16.117541205000066],[119.9779974380001,16.117929378000046],[119.97653570800003,16.11910531100006],[119.97543049700005,16.11780379300006],[119.97393311500002,16.11758687200006],[119.97339833600005,16.117838043000067],[119.97207921300004,16.117016028000016],[119.97106907400008,16.116901858000062],[119.9692389400001,16.11740420200005],[119.96936966400007,16.11824905000003],[119.9721148650001,16.11899114300007],[119.97260210800003,16.119835984000076],[119.97199602500007,16.12185673700003],[119.97114037800009,16.122690149000046],[119.97098588600012,16.12444829500004],[119.97167515700004,16.124984869000063],[119.97332703200004,16.124882121000045],[119.97388557900001,16.125441526000028],[119.97365978300003,16.126263507000033],[119.97212674900004,16.126708745000034],[119.97275660000004,16.128055869000036],[119.97250703700001,16.12957422800002],[119.97193660500011,16.130236365000034],[119.97154443400007,16.132074356000032],[119.96728996700006,16.13336436400004],[119.96664823100002,16.134289055000064],[119.96412882600008,16.133626931000034],[119.96278593600006,16.133661179000057],[119.96137174100011,16.135567633000054],[119.9613242050001,16.13691469800005],[119.95996943100012,16.13726858600006],[119.95981908300007,16.13845983800007],[119.96043705000012,16.13875664600005],[119.96205491900002,16.138269109000078],[119.96267124000008,16.138437007000054],[119.96298022400002,16.139350259000025],[119.96200573700003,16.140742960000065],[119.96048458599999,16.141039763000045],[119.960032995,16.141747525000024],[119.96160168100005,16.14318587000002],[119.96214834400008,16.14537761500003],[119.96345558300004,16.14651913900007],[119.96362195900006,16.14804877000006],[119.96257616800006,16.148984808000023],[119.9618631290001,16.149213109000076],[119.96110255400004,16.14873367600006],[119.96048893433304,16.149205202694045],[119.9636401745321,16.150592434214317],[119.96399561453289,16.150709800587894],[119.96409731800009,16.150514421000025],[119.96535702100003,16.14941858000003],[119.96680686700006,16.148779337000065],[119.96773381800006,16.148733676000063],[119.96873207300008,16.147455183000034],[119.96866076900004,16.14542327600003],[119.96799526600012,16.144213253000032],[119.96799526600012,16.143071716000065],[119.9688033770001,16.141290905000062],[119.97046713500002,16.13932742800006],[119.97127524600012,16.137957548000035],[119.9711564060001,16.13576572200003],[119.97217842900011,16.13339121500007],[119.97201205300009,16.132089791000055],[119.97248741300007,16.130971016000046],[119.97429377900005,16.128984604000035],[119.97614768000004,16.127911477000055],[119.9762902880001,16.126792678000076],[119.97481667400007,16.125925034000034],[119.97453145800013,16.12544554500005],[119.97453145800013,16.12366457500008],[119.97341436400006,16.120878924000067],[119.97358073900013,16.119280582000044],[119.97220219700012,16.11818456800006],[119.97267755600001,16.11784206300007],[119.97410363500002,16.11834440400003],[119.97484044200007,16.118983745000033],[119.97491174600009,16.120696257000073],[119.97526826500005,16.121678090000046],[119.97600507300001,16.122340254000047],[119.97683695200008,16.12131275800004],[119.97764506300007,16.121426924000048],[119.97842940600003,16.123481911000056],[119.9791899810001,16.123573243000067],[119.97978418000004,16.122979583000074],[119.9801169320001,16.121792257000035],[119.97935635700003,16.12012542100007],[119.97954650100009,16.119371916000038],[119.98168561800003,16.116746041000056],[119.98065624700006,16.113189586000033],[119.97993132400008,16.112652980000068],[119.97932524100008,16.11131716800003],[119.97936089300005,16.10879394300002],[119.97877857800006,16.107446688000042],[119.97762583100008,16.106521872000023],[119.97720989100003,16.105642721000034],[119.97740003500009,16.10396433300002],[119.97690090800006,16.10255995600005],[119.97767336700008,16.09964841100003],[119.9777446710001,16.09838101900004],[119.97745945500002,16.09610882800007],[119.97755452700007,16.09501268700006],[119.97692467600007,16.093768102000073],[119.97616410100011,16.091507276000076],[119.9748925140001,16.090354017000035],[119.97385860700001,16.08837861700004],[119.9725870210001,16.08741945600007],[119.97270586000003,16.086026381000064],[119.97335948000011,16.086289011000073],[119.97375165100004,16.087168247000022],[119.97467860200004,16.087704921000064],[119.97547482900006,16.089600399000062],[119.97690090800006,16.09062806000003],[119.97750699100006,16.092443581000055],[119.97820814600003,16.09188408300003],[119.97792293100008,16.090045719000045],[119.97826756600013,16.088972381000076],[119.979242053,16.090993449000052],[119.98037103200011,16.09030834400005],[119.98037103200011,16.08902947400003],[119.98103653500006,16.089109403000066],[119.9813455190001,16.090479620000053],[119.98083450700007,16.091244654000032],[119.97890930100004,16.09264911100007],[119.97883799700003,16.09467014100005],[119.97855278200007,16.095343813000056],[119.97882611300008,16.097638849000077],[119.97918263300006,16.098301093000025],[119.9781724940001,16.10071027300006],[119.97826756600013,16.101669370000025],[119.97788727900002,16.102411525000033],[119.97882611300008,16.103507626000066],[119.979491617,16.105391535000024],[119.98095334700008,16.106887232000076],[119.98177334200011,16.108154569000025],[119.98259487000007,16.10752338800006],[119.98409700500007,16.107833943000053],[119.98457236500008,16.107559924000043],[119.98472448000007,16.10609848500007],[119.98440123600005,16.105093739000036],[119.98554209800011,16.104618767000026],[119.98607450100008,16.10523988500006],[119.98613154400005,16.106847474000062],[119.9853139260001,16.108655997000028],[119.98612835300001,16.11010410700004],[119.98642624,16.108764791000056]],[[119.99509214900003,16.076156380000043],[119.99598582400006,16.07741706200005],[119.99725978800008,16.077526686000052],[119.99815346300011,16.078732547000072],[119.99899009600004,16.079006606000064],[119.99919925400002,16.079755697000053],[119.99857178000003,16.080322081000077],[119.9983055780001,16.08163754700007],[119.99729781600001,16.081509655000048],[119.99575765200008,16.08121733000007],[119.99579568100012,16.079646074000035],[119.99448368800006,16.078787359000046],[119.99347592600009,16.079244123000027],[119.99231604900002,16.081052897000063],[119.99134631600009,16.08052305500007],[119.99151744500011,16.07962780300005],[119.99307662400008,16.078641194000053],[119.99360902700005,16.077745934000063],[119.9937231130001,16.076594879000023],[119.99509214900003,16.076156380000043]]],[[[119.95661040700008,16.146587630000056],[119.95691939000005,16.14519497000003],[119.95846430900008,16.14334568600003],[119.9576799660001,16.14263793000004],[119.95713330200012,16.143870793000076],[119.95513679300007,16.14492100300004],[119.95425737800008,16.144327407000045],[119.95404346600004,16.143300024000037],[119.95297390700011,16.14357399300008],[119.95254608300002,16.143003224000037],[119.95268869100005,16.141039763000038],[119.95211826,16.14049181800004],[119.9505971100001,16.14051464900007],[119.95043073400008,16.140012364000025],[119.95223710000006,16.137957548000035],[119.95256985100002,16.136952964000045],[119.95192811600008,16.136131028000023],[119.95033566200004,16.13572005800006],[119.9495513190001,16.136405007000057],[119.95000291000008,16.137683571000025],[119.94850552800006,16.138551164000035],[119.94774495300008,16.13930459600004],[119.94850552800006,16.140811453000023],[119.9485723657677,16.141212724424488],[119.95178296521539,16.143945341819474],[119.95344815682027,16.14510360140936],[119.95366317800004,16.144647036000034],[119.95587360000002,16.14615385200005],[119.95596699368215,16.146793038074172],[119.95700653042242,16.147375805955146],[119.95661040700008,16.146587630000056]]],[[[120.00793891900004,16.144905017000045],[120.00638442700007,16.144803136000064],[120.00688950300002,16.142694668000043],[120.008484973,16.141385146000065],[120.00808413100005,16.14030270300003],[120.00917702000004,16.140295795000036],[120.00916487600011,16.139164613000048],[120.01011897600007,16.138582824000025],[120.00845850200005,16.13674659000003],[120.00965733000008,16.13622089700004],[120.01039193200006,16.136866482000073],[120.01125078300004,16.136460434000067],[120.01064696600008,16.135520202000066],[120.01123594900002,16.13497896500008],[120.01316508800005,16.136547006000058],[120.01423703600007,16.135116603000025],[120.01334789500004,16.13460505700004],[120.01231612200002,16.134647688000026],[120.0121920350001,16.133857535000057],[120.01150798900007,16.13332233400007],[120.0100824540001,16.133481522000064],[120.0098147970001,16.131407029000062],[120.01079209800004,16.130847348000028],[120.01000063900007,16.129565229000036],[120.01069515000006,16.128743553000042],[120.01262320900003,16.12807295600004],[120.01343817800011,16.128447524000023],[120.01254612500009,16.129916287000064],[120.01297229600004,16.13182401100005],[120.0142209190001,16.131631264000077],[120.01431718700009,16.129826425000033],[120.01533487100005,16.129869348000053],[120.01554088500006,16.13195556200003],[120.01595232500006,16.132869196000055],[120.01672620700003,16.133348303000044],[120.0171817580001,16.132637937000027],[120.01681973600013,16.13172499600006],[120.01742511600003,16.13025220000003],[120.01833220100002,16.129758393000028],[120.0193324620001,16.130305163000056],[120.0193994650001,16.131311115000074],[120.02031622100002,16.130963988000076],[120.02018486200006,16.12884058800006],[120.02145926400009,16.127918280000074],[120.02033135000012,16.12697910000003],[120.01859747800006,16.126897518000078],[120.01678366400007,16.126212740000028],[120.01323581300007,16.12574831000006],[120.01261361100002,16.12692966500003],[120.01033405900012,16.12641243100006],[120.00936855600003,16.12661310000004],[120.00902939900004,16.12605965300003],[120.00939166800005,16.124977681000072],[120.0091791320001,16.124317690000055],[120.010328909,16.12346178200005],[120.01103711100005,16.122384656000065],[120.01127851400008,16.121418256000023],[120.01221986200005,16.12105735600005],[120.01369347600007,16.121434106000038],[120.01427579100006,16.121068773000047],[120.01414506700009,16.119744434000037],[120.01602273700007,16.119721601000037],[120.01766325500012,16.11911973200006],[120.01854742400008,16.11939373500007],[120.02041558700012,16.11848952500003],[120.02138532000004,16.11764011100007],[120.02214114100002,16.117544210000062],[120.02348165500005,16.11848952500003],[120.02490773300008,16.118092219000058],[120.02574912000011,16.11883202900003],[120.026267508588,16.119068674274022],[120.02647358115152,16.118220803247723],[120.02521659800003,16.11760540400007],[120.02476025300008,16.11672858600002],[120.022920612,16.11672858600002],[120.02207922600007,16.117386200000055],[120.02105244900008,16.11730399800006],[120.01988306500004,16.118454818000036],[120.01871368100001,16.118893223000043],[120.01729592100001,16.118779055000058],[120.01655385200002,16.11908162800006],[120.01472621100004,16.119060964000028],[120.01362337700004,16.11933496700004],[120.01166489600007,16.120997242000044],[120.0113036230001,16.120120439000065],[120.01136066600009,16.119042697000058],[120.01322407500004,16.117508275000034],[120.01231138500007,16.11652185400004],[120.00770990600004,16.116631456000047],[120.00520000800007,16.117051599000035],[120.00356477100003,16.11792841500005],[120.00217672200006,16.118238953000056],[120.00135910300003,16.118056284000033],[120.00031331300009,16.117216002000074],[119.99835483200002,16.11690546200003],[119.99696678200009,16.117398672000043],[119.99580690500011,16.118293754000035],[119.99521745900006,16.118202420000046],[119.99388645300009,16.116266114000034],[119.99228924500005,16.118111085000063],[119.99156669900005,16.12002910500007],[119.99052090800001,16.120942442000057],[119.98850538400005,16.121746175000055],[119.98880961400005,16.124449615000056],[119.98740255000007,16.126440639000066],[119.98614760100008,16.126915559000054],[119.98500673800005,16.126513704000047],[119.984512364,16.12866910100007],[119.98344755900007,16.12969199300005],[119.98354263100009,16.13075141200005],[119.980956676,16.134897701000057],[119.98055737400011,16.136231071000054],[119.98059540200005,16.138769929000038],[119.98101371900009,16.140121538000074],[119.98169823600004,16.141016517000025],[119.98154612100008,16.14282472800005],[119.97992989900001,16.14485209600002],[119.97838973500006,16.14569226000003],[119.97614603800001,16.14580184700003],[119.97430164300009,16.146532421000074],[119.97325585200008,16.148450167000025],[119.97403544200004,16.150660117000026],[119.97340796700007,16.152468240000076],[119.97238119100007,16.15277872400003],[119.96912973200007,16.152176019000017],[119.96903188815067,16.152264304928924],[119.97244005198331,16.153039045013873],[119.97603863694903,16.15350368771198],[119.97615602400005,16.153270128000024],[119.9759421130001,16.152379771000028],[119.97708297500003,16.151557898000018],[119.97515777,16.149297732000036],[119.97480125000004,16.147345749000067],[119.9755142890001,16.14662659300006],[119.97701167100003,16.14648961100005],[119.97890122500007,16.148510092000038],[119.9801490440001,16.14761971300004],[119.98118295100005,16.147825186000034],[119.98278728900006,16.147003294000058],[119.9837498920001,16.146866312000043],[119.98506901400002,16.147962167000053],[119.98624552900003,16.14761971300004],[119.98606726900006,16.146386874000026],[119.9867090040001,16.145325256000035],[119.988595518,16.14456927400005],[119.990399507,16.145418572000036],[119.99063481000009,16.146062392000033],[119.99171863000004,16.14645279300003],[119.99296644800008,16.147589744000072],[119.99444243900008,16.14774727300005],[119.99515851900004,16.151318185000036],[119.99464478074918,16.151760245566663],[119.99509309349892,16.15164498445981],[119.99923988973023,16.150144743434822],[119.9994894550001,16.148779397000055],[120.00018823400002,16.14809449100005],[120.00165709400005,16.147546565000024],[120.00134335700012,16.146669879000054],[120.00147622900012,16.145006744000053],[120.00224178700012,16.14479321200002],[120.00209917900008,16.146135648000037],[120.00328282400005,16.14721780800005],[120.00314021600003,16.148217774000045],[120.00267583813337,16.148530872131087],[120.00350055249432,16.148139540149817],[120.00739724408307,16.145806729161166],[120.00756857088577,16.14568012613961],[120.00793891900004,16.144905017000045]]]]}}]}