{"type":"FeatureCollection","features":[{"type":"Feature","properties":{"fid":198,"objectid":2744,"lccode":"01","liqcode":null,"mappers":"DJLBuhay, MJVReyes, MITAbigania, KLPapiona, KMVitto","project":"MELP","province":"Misamis Oriental","otherinfo":null,"datemapped":2018,"publishdate":null,"globalid":"{A055B8F1-3C12-4227-A276-4D303D4CD1B9}","st_area(shape)":0.020432613133410247,"st_perimeter(shape)":8.030066554013601,"liqcodepk":null,"creator":null,"createdate":null,"editor":null,"modifydate":null,"codemove":null},"geometry":{"type":"MultiPolygon","coordinates":[[[[125.18735182400007,8.953927826000038],[125.18798167400007,8.952659996000023],[125.18764631700003,8.951099441000054],[125.18781880800009,8.949570311000059],[125.18712121800002,8.947758052000038],[125.18626557300001,8.946602899000027],[125.18565057900003,8.944309756000049],[125.1847848880001,8.942901669000037],[125.18555734500002,8.941669020000063],[125.18617531100007,8.941293354000038],[125.18687646500005,8.937598312000032],[125.18791037000007,8.936048673000073],[125.18791037000007,8.934135093000066],[125.18742312800009,8.932761537000033],[125.18875466000009,8.930934783000055],[125.18908688200007,8.92796872100007],[125.18846891600002,8.926959082000053],[125.18760138700007,8.924857614000075],[125.1865076580001,8.92310983500005],[125.18693702500002,8.919593011000071],[125.1876029010001,8.91731120700007],[125.18747193400009,8.916516802000046],[125.18744985800004,8.913236991000074],[125.1870411310001,8.912443016000056],[125.18706163776517,8.912299169540155],[125.18628300605894,8.913608497198535],[125.18583051156655,8.91457462207893],[125.18676469000002,8.916565427000021],[125.18611029800002,8.918147649000046],[125.18542590900006,8.922536950000051],[125.18600228100001,8.92497302400005],[125.187467566,8.927111575000025],[125.18694076400003,8.92922037100004],[125.18604387500011,8.93144761800005],[125.18628749600009,8.933631227000035],[125.18678068100007,8.935227835000035],[125.18672126100012,8.936284411000027],[125.18623401900004,8.937053361000041],[125.18468910400009,8.93835059400004],[125.18447713500007,8.93932516500007],[125.18384534200004,8.940176105000035],[125.18389983200008,8.94168078000007],[125.18531915100006,8.945255759000078],[125.18583259400009,8.947013470000057],[125.1863966190001,8.947732767000048],[125.18722038800001,8.950424619000046],[125.18676879700003,8.953200942000022],[125.18610329500007,8.954586161000067],[125.18601559254313,8.955135993407199],[125.18653708455201,8.956215668331033],[125.18671729883226,8.956510634320605],[125.18735182400007,8.953927826000038]]],[[[125.1880767450001,8.910851430000035],[125.18801792184517,8.910691094481173],[125.18784974031493,8.91097390731452],[125.1880767450001,8.910851430000035]]]]}},{"type":"Feature","properties":{"fid":202,"objectid":3462,"lccode":"01","liqcode":null,"mappers":"DJLBuhay, MJVReyes, MITAbigania, KLPapiona, KMVitto","project":"MELP","province":"Agusan del Norte","otherinfo":null,"datemapped":2020,"publishdate":2021,"globalid":"{F30BEACC-4BAB-4756-9553-08938B67A184}","st_area(shape)":0.04058329790888213,"st_perimeter(shape)":7.333080156487654,"liqcodepk":null,"creator":null,"createdate":"2021-01-18T08:00:00","editor":null,"modifydate":null,"codemove":null},"geometry":{"type":"Polygon","coordinates":[]}}]}