{"type":"FeatureCollection","features":[{"type":"Feature","properties":{"fid":22,"objectid":1868,"lccode":"07","liqcode":"2010600070000000","mappers":"MITAbigania, DJLBuhay","project":"Negros Oriental Multi-Hazard Mapping","province":"Negros Oriental","otherinfo":null,"datemapped":2017,"publishdate":null,"globalid":"{DD19AC1E-E4AF-4725-8D22-5A4E2D602DF5}","st_area(shape)":0.012485453463948751,"st_perimeter(shape)":5.8153243548739875,"liqcodepk":"201060007000000000060","creator":"SNOOPYPC","createdate":"2019-02-19T15:21:28","editor":"LENOVO","modifydate":"2019-03-10T17:50:55","codemove":"na"},"geometry":{"type":"Polygon","coordinates":[]}},{"type":"Feature","properties":{"fid":47,"objectid":1896,"lccode":"05","liqcode":"2010600050000000","mappers":"MITAbigania, DJLBuhay","project":"Negros Oriental Multi-Hazard Mapping","province":"Negros Oriental","otherinfo":null,"datemapped":2017,"publishdate":null,"globalid":"{34172A9D-EBC4-4E95-9DC5-EE06261E8E15}","st_area(shape)":0.004550996126503224,"st_perimeter(shape)":3.4158207428182443,"liqcodepk":"201060005000000000090","creator":"SNOOPYPC","createdate":"2019-02-19T15:21:28","editor":"LENOVO","modifydate":"2019-03-10T17:50:55","codemove":"na"},"geometry":{"type":"Polygon","coordinates":[[[123.29045139300001,9.261916174000023],[123.289206454,9.266352235000054],[123.28903727500007,9.268697403000033],[123.2890820053986,9.272943032194839],[123.28961836463552,9.270808501788036],[123.29027027752555,9.266417913793088],[123.29048584282916,9.261984988199915],[123.29047973813115,9.261863560961915],[123.29045139300001,9.261916174000023]]]}},{"type":"Feature","properties":{"fid":62,"objectid":1926,"lccode":"06","liqcode":"2010600060000000","mappers":"MITAbigania, DJLBuhay","project":"Negros Oriental Multi-Hazard Mapping","province":"Negros Oriental","otherinfo":null,"datemapped":2017,"publishdate":null,"globalid":"{74B2E222-6508-40FC-AC5E-08E62D8D455D}","st_area(shape)":0.007665256470503308,"st_perimeter(shape)":5.21375505636718,"liqcodepk":"201060006000000000124","creator":"SNOOPYPC","createdate":"2019-02-19T15:21:28","editor":"LENOVO","modifydate":"2019-03-10T17:50:55","codemove":"na"},"geometry":{"type":"Polygon","coordinates":[]}}]}