{"type":"FeatureCollection","features":[{"type":"Feature","properties":{"fid":30,"objectid":1876,"lccode":"07","liqcode":"2010600070000000","mappers":"PJDelosReyes, ACPidlaoan","project":"READY","province":"Ilocos Norte","otherinfo":null,"datemapped":2012,"publishdate":null,"globalid":"{DDD7C418-83F8-494F-BE1F-501E5EB1EB53}","st_area(shape)":0.0068069229463748535,"st_perimeter(shape)":2.382699422788448,"liqcodepk":"201060007000000000069","creator":"SNOOPYPC","createdate":"2019-02-19T15:21:28","editor":"LENOVO","modifydate":"2019-03-10T17:50:55","codemove":"na"},"geometry":{"type":"Polygon","coordinates":[[[120.52055691600002,18.06713126000005],[120.52302202700004,18.066841903000068],[120.52589850400011,18.066846018000035],[120.53021797700002,18.067372783000057],[120.53213800100004,18.06715290500006],[120.53097588600009,18.065754046000055],[120.52805180100006,18.064306622000057],[120.5237354300001,18.063570276000068],[120.52037492600003,18.06366692100005],[120.51838112000009,18.062645954000057],[120.51592038612003,18.061860358472423],[120.51740031540498,18.06496049051246],[120.5187050123413,18.067107461249673],[120.52055691600002,18.06713126000005]]]}},{"type":"Feature","properties":{"fid":57,"objectid":1906,"lccode":"05","liqcode":"2010600050000000","mappers":"PJDelosReyes, ACPidlaoan","project":"READY","province":"Ilocos Norte","otherinfo":null,"datemapped":2012,"publishdate":null,"globalid":"{F206138B-2823-4B11-8CEA-F1A1A521E220}","st_area(shape)":0.04191862089529889,"st_perimeter(shape)":8.367222149982817,"liqcodepk":"201060005000000000101","creator":"SNOOPYPC","createdate":"2019-02-19T15:21:28","editor":"LENOVO","modifydate":"2019-03-10T17:50:55","codemove":"na"},"geometry":{"type":"MultiPolygon","coordinates":[[[[120.5547290080001,18.00103437800004],[120.5552592790001,18.004050313000047],[120.55727483800003,18.006477008000047],[120.55967073100008,18.008969345000025],[120.56053733200008,18.010636823000027],[120.56018152400009,18.01455352200002],[120.5587467460001,18.014930578000076],[120.55731921900009,18.01477575900003],[120.55540524000003,18.01534431400006],[120.55457037200006,18.015987263000056],[120.55388692600003,18.01716407700008],[120.55304818600008,18.019235597000034],[120.55302928700007,18.02060321400006],[120.55406616700009,18.024886953000077],[120.55370598100001,18.026812549000056],[120.55387572400004,18.02947437800003],[120.55517274500005,18.032180804000063],[120.55645231300001,18.033853616000048],[120.55878568300011,18.035144492000025],[120.55960717100004,18.03662909800005],[120.56038834700009,18.039891375000025],[120.56051344700006,18.04118478200007],[120.56350227400004,18.047219934000054],[120.56326016199999,18.048568218000067],[120.56163561400001,18.049892193000062],[120.55942642900004,18.049928317000024],[120.55896591500004,18.049346297000056],[120.55786543700003,18.04664344800005],[120.55726678000008,18.046379791000042],[120.55632109100009,18.04700805500005],[120.55447007400005,18.050185746000068],[120.553533215,18.05017388300007],[120.55264598400004,18.046577403000065],[120.55140205900011,18.044576866000053],[120.55116361400007,18.042461113000055],[120.55019975700009,18.03956781100004],[120.54850528700003,18.036281109000072],[120.54832405900005,18.03487032500004],[120.54761553300011,18.032876654000066],[120.54491215200005,18.02996126400006],[120.54387891900001,18.02725913100005],[120.54197052200006,18.02493009600005],[120.54097583900011,18.02427723300008],[120.53957251100007,18.02413134200003],[120.53875187300002,18.025401337000062],[120.53859129700005,18.02731994500004],[120.53869490400005,18.02949809300003],[120.53772788500011,18.031662518000076],[120.53823465900007,18.033717757000026],[120.53994048100004,18.036172297000068],[120.54152863400009,18.037473030000058],[120.54491182400011,18.039628754000034],[120.54442124600006,18.041223069000065],[120.5434799950001,18.041531306000024],[120.5403965480001,18.041876217000038],[120.53777715900002,18.042547098000057],[120.53581430400003,18.04412261600004],[120.53472136900007,18.045709302000038],[120.5322329600001,18.046573835000064],[120.53015506000008,18.04680336800004],[120.52728122900008,18.04651052300005],[120.52552179400004,18.04616024900002],[120.52698994000002,18.047937655000055],[120.52616814200009,18.048306926000066],[120.52445238599998,18.047526085000072],[120.52130311100005,18.04581158900004],[120.5202207320001,18.044793321000043],[120.5184402120001,18.04198036100007],[120.51570868400005,18.038775830000073],[120.51353436300008,18.037430976000053],[120.51268332916233,18.037603332896065],[120.51241571675611,18.039182552262027],[120.51239521520222,18.039495743487443],[120.51418541200006,18.04019630400006],[120.51557435400002,18.041366629000034],[120.51615591100007,18.04284658200004],[120.5179140350001,18.046326388000065],[120.51939868100011,18.050161907000074],[120.52045201300007,18.049929611000035],[120.52102675800006,18.050539633000028],[120.521212052,18.052305340000032],[120.52172703400005,18.05385206300002],[120.52510716000006,18.05742207300005],[120.5265647870001,18.058311219000075],[120.52757635700006,18.059395648000077],[120.52844039900002,18.061013741000064],[120.52870574300005,18.062066218000044],[120.53090901300004,18.064605956000033],[120.53373293000004,18.06703387100004],[120.53488191500003,18.068477426000072],[120.53528798500007,18.06963192700005],[120.53651146100003,18.070393051000053],[120.53937580700006,18.06993259100005],[120.54080195900008,18.07013714600004],[120.5418919990001,18.07114507700004],[120.53896710200003,18.071294497000054],[120.5376288860001,18.071774427000033],[120.53574034200007,18.07212307000003],[120.53412069800004,18.071822817000054],[120.5328690120001,18.073080381000064],[120.53113267300012,18.07283378300007],[120.53150395500006,18.07479844900007],[120.5326135250001,18.076829356000076],[120.53413096100007,18.078417324000043],[120.53791009699998,18.08102654100003],[120.53942985000005,18.08245440700006],[120.53967431500007,18.084122084000054],[120.53936110300002,18.084982422000056],[120.53938943270269,18.08508726992005],[120.5406818151354,18.085692160788504],[120.54502320597283,18.087240468161436],[120.54950244930154,18.088374256543343],[120.55269568045365,18.088868786069234],[120.55273436400012,18.086080957000032],[120.551768637,18.08331566600003],[120.55169573700006,18.081330059000038],[120.55227841100009,18.080345069000032],[120.55323387300007,18.07661185700005],[120.5535069450001,18.076231097000058],[120.55619333200003,18.075592956000037],[120.55762739300009,18.075963192000074],[120.56005302900009,18.077242363000043],[120.561867161,18.07675312000004],[120.56286891400009,18.076925878000054],[120.56459363400006,18.078068006000024],[120.56566404400009,18.07811357200006],[120.56650900900003,18.07751597400005],[120.56696216700004,18.07620918100002],[120.56616082600011,18.073638172000074],[120.56481490700004,18.07173248100003],[120.56358738600012,18.070948718000068],[120.56260245700003,18.06955975300008],[120.56285880700011,18.067962428000044],[120.56339552700003,18.067873126000052],[120.56509375400005,18.06850281700002],[120.56750870000009,18.07055002600003],[120.56862133700007,18.072388739000075],[120.57053980300009,18.074045436000063],[120.57322970900009,18.078016825000077],[120.57458544500003,18.079218342000047],[120.5766589970001,18.081420008000066],[120.57746187600004,18.083132254000077],[120.57758361959102,18.08581380112123],[120.58102970314158,18.084307610730306],[120.58503482161709,18.082079393191844],[120.58835697318835,18.079786722868395],[120.5880371410001,18.07675996700004],[120.5876641010001,18.07614730700004],[120.58620987900008,18.075581985000042],[120.585075974,18.074838346000035],[120.58414016200004,18.073549959000044],[120.58364756800007,18.072388664000073],[120.58366087900005,18.071416202000023],[120.585014526,18.07003483700003],[120.58635327400009,18.06974763200003],[120.58939118800004,18.070697552000066],[120.59053338400007,18.070833361000037],[120.59092218600007,18.07029108100005],[120.5930292490001,18.069587827000078],[120.59581963200004,18.070048198000052],[120.5973571245782,18.07087974991842],[120.59822982069842,18.069784361266255],[120.60066317937721,18.06601329424164],[120.60132931136222,18.064710222184654],[120.6007872790001,18.06463854700007],[120.59851112300008,18.063759152000046],[120.59813806400005,18.06314660000004],[120.598218201,18.061931686000037],[120.59951144100012,18.060306355000026],[120.59920026000009,18.059816122000022],[120.59792768300008,18.059921931000073],[120.59664187600004,18.061000205000024],[120.5946537850001,18.062312902000027],[120.59286370500003,18.063080908000078],[120.59216798200009,18.06282905100005],[120.59205667000005,18.06167261900004],[120.58996621300001,18.061160173000076],[120.58984911100004,18.060429168000034],[120.59068430800004,18.059770911000037],[120.5910821980001,18.058559970000033],[120.58919570400008,18.057077429000056],[120.58869730000004,18.05634166400006],[120.58749740600003,18.055779544000078],[120.5883986770001,18.05493971200007],[120.59101639100004,18.054060429000057],[120.59389322200002,18.052819608000053],[120.59784039500005,18.052321600000028],[120.60120158200006,18.052849737000034],[120.60234615600007,18.05280317500006],[120.60376311300001,18.05142252400003],[120.60349403700003,18.04783230000003],[120.60250374000009,18.045874638000043],[120.60175113800005,18.04513574900005],[120.59973432800007,18.043894882000078],[120.59707880600001,18.04288914800003],[120.59689642600006,18.042278969000048],[120.59724473900008,18.040033884000028],[120.59572889100001,18.039346349000027],[120.59362717500004,18.03968492100006],[120.59067537900012,18.041775917000052],[120.58883110300009,18.041874461000074],[120.58748767700001,18.04252646600003],[120.58541789800007,18.04517551300006],[120.58515626500004,18.045719378000058],[120.58279698000001,18.046297782000064],[120.5805086890001,18.04633000300004],[120.57941845800008,18.047045797000067],[120.57817710300002,18.049522809000056],[120.57703915000002,18.04908295300003],[120.5753652750001,18.046022346000022],[120.5751863070001,18.045168928000063],[120.57546213400008,18.04359185900006],[120.5763089520001,18.042082634000053],[120.57723342800013,18.039540884000072],[120.5772434180001,18.03881156100004],[120.57528047800008,18.038300586000048],[120.57374474400001,18.039071624000027],[120.57213463300002,18.040632023000054],[120.5705846730001,18.042436250000037],[120.56963157500002,18.04242426600007],[120.56782659300005,18.039665914000064],[120.56835076900005,18.03851748000005],[120.57111118500006,18.036485214000034],[120.57329897900001,18.034506576000066],[120.57438990300011,18.03372995800004],[120.57706585700011,18.03321629100003],[120.57802639800002,18.03268119500006],[120.5782336620001,18.03146798100005],[120.57741604600005,18.03084983400004],[120.5757691010001,18.030464377000044],[120.57335066200007,18.03073799200007],[120.57178984000006,18.028712283000058],[120.57385291500009,18.026549653000075],[120.57444051800007,18.025401898000037],[120.57477731400002,18.024007907000055],[120.57423469200013,18.02187334900003],[120.57328920000008,18.021314359000023],[120.57239813600006,18.021424722000067],[120.56977745100005,18.022546938000062],[120.56823015700002,18.024168880000044],[120.56758986600005,18.024525552000057],[120.56497504200003,18.025222184000025],[120.56401618500003,18.025635693000027],[120.56117303200006,18.029065028000048],[120.56034879400012,18.028932997000027],[120.55894115800005,18.025024576000078],[120.55889943700005,18.023443443000073],[120.55994274400007,18.021511188000034],[120.56097346700007,18.02049070400005],[120.56157535000013,18.018309782000074],[120.56109808300006,18.016054484000055],[120.56262695500006,18.015769800000044],[120.56410234500005,18.014754894000077],[120.5653344660001,18.01294660800005],[120.56605409000008,18.011435817000063],[120.56728616600003,18.009627512000066],[120.56730869700006,18.007986406000047],[120.56861841400007,18.005145575000025],[120.56960548100007,18.00266549400004],[120.57223160400008,18.001117819000058],[120.57251429392859,18.000892032490317],[120.56914126348457,18.00003847406841],[120.5657205881562,17.999508957889518],[120.56544769600009,18.00007518700005],[120.56383792100007,18.00163555600005],[120.56299270600005,18.001883268000025],[120.56140672400011,18.001711325000027],[120.5598459580001,18.000855754000042],[120.55979186600007,18.00017114000008],[120.56126671000003,17.999186667000057],[120.5612932118327,17.99913538997137],[120.55994725709594,17.99905511447294],[120.5553190635576,17.999214202747044],[120.55474368613812,17.999288460335077],[120.5547290080001,18.00103437800004]]],[[[120.51578304700003,18.03513816600002],[120.51849670700004,18.03628900700005],[120.52147485100011,18.036885256000062],[120.52299540000001,18.038266347000043],[120.52377356700005,18.039347701000057],[120.52488695000012,18.041482336000055],[120.5251854500001,18.04349501300004],[120.52487464500007,18.044939840000044],[120.52519445700013,18.044164596000027],[120.52609679300008,18.04341286400006],[120.52724754200007,18.04167644600005],[120.5276968830001,18.039751445000032],[120.52945830700004,18.037977941000065],[120.53004026900011,18.036638312000036],[120.52958548500011,18.03223227500007],[120.52921698100009,18.03173363500002],[120.52799629200001,18.03176290900006],[120.5264383540001,18.032416515000023],[120.52569124500008,18.032137597000027],[120.524208498,18.03077155200003],[120.52335755700005,18.031209705000038],[120.52290820500001,18.03313460400005],[120.52289060700002,18.03439159400006],[120.52199145300006,18.03491887600006],[120.52005869500012,18.03552274200007],[120.51935986,18.035154572000064],[120.51793470800011,18.033025937000044],[120.51748622700008,18.031538488000024],[120.5176465510001,18.030148611000072],[120.517156181,18.028301421000034],[120.51614089600002,18.027076050000062],[120.51588671500836,18.026564914243647],[120.51434268498846,18.030524841431944],[120.51324344197936,18.03449591787245],[120.51578304700003,18.03513816600002]]],[[[120.52212203100011,18.018891077000035],[120.52252126600003,18.017189923000046],[120.52204547739917,18.01659883573925],[120.52043198492377,18.01862308532691],[120.51950650973409,18.020056459267256],[120.52212203100011,18.018891077000035]]],[[[120.52865377300007,18.07536993800005],[120.52782587700005,18.07414708400006],[120.52725993100012,18.07274672000005],[120.52564875700011,18.073826613000055],[120.52473044683906,18.07487120175349],[120.52550309734862,18.07570885989088],[120.52774899461824,18.077708823289168],[120.52865377300007,18.07536993800005]]]]}},{"type":"Feature","properties":{"fid":71,"objectid":1935,"lccode":"06","liqcode":"2010600060000000","mappers":"PJDelosReyes, ACPidlaoan","project":"READY","province":"Ilocos Norte","otherinfo":null,"datemapped":2012,"publishdate":null,"globalid":"{E589EE25-8FDC-4504-BE01-5A3AF4CD900F}","st_area(shape)":0.013905399003380454,"st_perimeter(shape)":4.825147044260804,"liqcodepk":"201060006000000000134","creator":"SNOOPYPC","createdate":"2019-02-19T15:21:28","editor":"LENOVO","modifydate":"2019-03-10T17:50:55","codemove":"na"},"geometry":{"type":"MultiPolygon","coordinates":[[[[120.51838112000009,18.062645954000057],[120.52037492600003,18.06366692100005],[120.5237354300001,18.063570276000068],[120.52805180100006,18.064306622000057],[120.53097588600009,18.065754046000055],[120.53213800100004,18.06715290500006],[120.53021797700002,18.067372783000057],[120.52589850400011,18.066846018000035],[120.52302202700004,18.066841903000068],[120.52055691600002,18.06713126000005],[120.5187050123413,18.067107461249673],[120.51972844976524,18.068791561924588],[120.52243807048642,18.072385894829],[120.52473028690683,18.07487102836416],[120.52564876200006,18.07382625200006],[120.52777937500002,18.072424692000023],[120.5303133880001,18.072363953000036],[120.53186245100005,18.073067148000064],[120.53342498100004,18.072807565000062],[120.5341207030001,18.07182245600006],[120.53574034700013,18.072122709000045],[120.53762889100005,18.071774066000046],[120.53896710800008,18.071294136000063],[120.5418919990001,18.07114507700004],[120.54080195900008,18.07013714600004],[120.53937580700006,18.06993259100005],[120.53651146100003,18.070393051000053],[120.53528798500007,18.06963192700005],[120.53488191500003,18.068477426000072],[120.53373293000004,18.06703387100004],[120.53090901300004,18.064605956000033],[120.52870574300005,18.062066218000044],[120.52844039900002,18.061013741000064],[120.52757635700006,18.059395648000077],[120.5265647870001,18.058311219000075],[120.52510716000006,18.05742207300005],[120.52172703400005,18.05385206300002],[120.521212052,18.052305340000032],[120.52102675800006,18.050539633000028],[120.52045201300007,18.049929611000035],[120.51939868100011,18.050161907000074],[120.51926733100004,18.054534737000036],[120.52002955800005,18.05675428400002],[120.52008481900009,18.057804069000042],[120.51952128100004,18.059716372000022],[120.51840075200003,18.059746580000024],[120.51548263400002,18.056517320000065],[120.51382361900005,18.055022771000043],[120.51338221415557,18.054340568933387],[120.51397421328281,18.0567376830568],[120.51547606793844,18.060929587816847],[120.51592038612003,18.061860358472423],[120.51838112000009,18.062645954000057]]],[[[120.51353436800001,18.03743061500006],[120.51570868899998,18.038775469000026],[120.51844021700003,18.041979999999995],[120.52022073700006,18.044792959000063],[120.52130311600001,18.04581122700006],[120.52445239100007,18.04752572400002],[120.52616814700002,18.048306564000026],[120.52698994000002,18.047937655000055],[120.52552179400004,18.04616024900002],[120.52487464500007,18.044939840000044],[120.5251854500001,18.04349501300004],[120.52488695000012,18.041482336000055],[120.52377356700005,18.039347701000057],[120.52299540000001,18.038266347000043],[120.52147485100011,18.036885256000062],[120.51849670700004,18.03628900700005],[120.51578304700003,18.03513816600002],[120.51324344197936,18.03449591787245],[120.51315693446266,18.034808421232185],[120.51268169219874,18.037612992976264],[120.51353436800001,18.03743061500006]]]]}}]}