{"type":"FeatureCollection","features":[{"type":"Feature","properties":{"fid":10,"objectid":1841,"lccode":"01","liqcode":"2010600010000000","mappers":"DJLBuhay, MJVReyes, MITAbigania, KLPapiona, KMVitto","project":"MELP","province":"Capiz","otherinfo":null,"datemapped":2017,"publishdate":null,"globalid":"{FE12B36A-531F-4D3F-AE5B-76F7E9CFE484}","st_area(shape)":0.04128187917080134,"st_perimeter(shape)":8.871881460062728,"liqcodepk":"201060001000000000013","creator":"SNOOPYPC","createdate":"2019-02-19T15:21:28","editor":"LENOVO","modifydate":"2019-03-10T17:53:06","codemove":"na"},"geometry":{"type":"MultiPolygon","coordinates":[[[[122.98837188000005,11.481218646000059],[122.9859069270001,11.480618312000047],[122.98519770599998,11.479667779000065],[122.9834766140001,11.47834560500007],[122.98306821900007,11.476608901000079],[122.98214933100007,11.475722678000066],[122.98218607500007,11.474658074000047],[122.98091685500003,11.473921635000067],[122.97956769400004,11.474321868000057],[122.9796697920001,11.47318549100004],[122.97894051600008,11.472238507000045],[122.9785612930001,11.47079479700005],[122.97909366400006,11.468947266000045],[122.97883841700002,11.468396935000046],[122.97775908900006,11.468082460000062],[122.97680191400002,11.466742363000035],[122.9761528580001,11.466892455000048],[122.97375171600004,11.466099115000077],[122.97278177900012,11.466449328000069],[122.97202333200006,11.46582752000006],[122.9708346110001,11.466056231000039],[122.96989384500012,11.466642303000068],[122.96763308900005,11.466091967000066],[122.966911105,11.465505895000033],[122.96513896400006,11.465498748000075],[122.96465764200003,11.465141386000024],[122.9609590770001,11.465089932000069],[122.95960076600011,11.464060842000036],[122.95861850500012,11.46274466400007],[122.95736920400007,11.462852161000056],[122.95645960000002,11.462397394000048],[122.95650854500002,11.45958585900007],[122.95615690700002,11.458951714000023],[122.95676346400012,11.458186108000064],[122.9580684990001,11.457216102000073],[122.95884499100009,11.455474252000043],[122.95874829700007,11.453158005000038],[122.95682732900002,11.451856043000019],[122.9547703170001,11.45195144400003],[122.95286840000007,11.452946550000037],[122.95162645800008,11.45281235100003],[122.95158801700008,11.450630108000041],[122.95075387400006,11.448926292000063],[122.94774633800012,11.447260379000056],[122.94617476800012,11.445881839000037],[122.94578680200006,11.445154355000057],[122.94473908700003,11.444311892000027],[122.94390511900008,11.44201464200006],[122.94195621300003,11.441176495000036],[122.9410271610001,11.440259637000054],[122.93921586100011,11.436913412000022],[122.93800811500013,11.435767318000044],[122.93721858800006,11.434346307000053],[122.93536040100003,11.433245895000027],[122.93494242100009,11.432512464000066],[122.93540777500006,11.429212544000052],[122.933689167,11.427424648000056],[122.93164515600006,11.426507505000073],[122.92974043500008,11.426002885000061],[122.92699943800007,11.425543878000042],[122.92620979300013,11.42490200900005],[122.92495588400004,11.423022511000058],[122.92333003800002,11.422197084000059],[122.92098705256096,11.422110035148021],[122.91883012023328,11.424456499529567],[122.91614954166681,11.428020020901196],[122.91383586370745,11.431825564606346],[122.91191137783841,11.43583648998162],[122.91039463077374,11.440014177380114],[122.90945063985751,11.44372690574323],[122.90947876700011,11.443725373000063],[122.91039031700006,11.445276189000024],[122.91114653900001,11.44713323500002],[122.91172853700004,11.447650256000031],[122.91240711400008,11.449631700000053],[122.91390067400006,11.451814378000053],[122.91506459400013,11.453212115000042],[122.9143073680001,11.454551862000075],[122.91527748100009,11.455145560000062],[122.91597664000005,11.45328894800002],[122.91605456200013,11.452274422000071],[122.91545356100005,11.450340865000044],[122.91547353500006,11.448426630000029],[122.9159588330001,11.447871639000025],[122.91685247400005,11.444464544000025],[122.91731808500003,11.444847524000068],[122.91698781900004,11.446149115000027],[122.9172786690001,11.44693403700006],[122.91661823400013,11.449173512000074],[122.91663724700004,11.450513487000023],[122.91712195000004,11.452006733000077],[122.91851891899998,11.452830249000044],[122.91855760500006,11.453270535000058],[122.91758692800012,11.454619803000067],[122.91766399200003,11.456553208000058],[122.91729487300007,11.457950500000036],[122.91609353800004,11.459177098000051],[122.91548928200008,11.460744774000032],[122.91484878500013,11.46105086700004],[122.91440211300007,11.462141853000047],[122.91539108300005,11.464668938000043],[122.91748624500008,11.467215475000048],[122.9183981320001,11.468002484000067],[122.91804836400001,11.469552920000067],[122.91731070500009,11.470241838000051],[122.916883255,11.471945389000041],[122.914824984,11.475715845000025],[122.91503850186302,11.476459059719689],[122.91613473878458,11.478264248949753],[122.91881375731201,11.481829269164487],[122.9200693207378,11.48319639944072],[122.92182903600008,11.482846427000027],[122.92357588700008,11.482272619000069],[122.92618631500012,11.481796189000022],[122.9308974390001,11.480130975000067],[122.93362220600011,11.47844660000004],[122.93523335100008,11.477011283000024],[122.93552469500003,11.475977659000023],[122.93469038500007,11.475096924000068],[122.93372007800009,11.47486699600006],[122.93158526900004,11.474943073000075],[122.92910125300011,11.474521348000055],[122.92768469100007,11.473887388000037],[122.92595794100008,11.472030143000039],[122.92588074700006,11.470364735000032],[122.9253767370001,11.46820151700007],[122.92421281700003,11.466382689000056],[122.92440761700003,11.463624320000063],[122.92491244700011,11.462629045000028],[122.92572744400003,11.462897247000061],[122.92597927300005,11.464639270000077],[122.92700717300009,11.467147182000078],[122.92758863900006,11.470026343000029],[122.92832578100001,11.471289923000029],[122.92958701500004,11.472170780000056],[122.93086781500007,11.472427594000068],[122.93346808700007,11.47357674200003],[122.93643730600002,11.473883681000075],[122.93767973500007,11.472180276000074],[122.93864986700008,11.473195029000069],[122.94008606700004,11.472831621000067],[122.9390568570001,11.475798479000046],[122.93950286200004,11.477498416000062],[122.940997003,11.478589838000062],[122.9425494940001,11.479106992000025],[122.94402442900002,11.479279560000064],[122.94488128200008,11.478651972000021],[122.94889586300008,11.478438189000029],[122.94998277100001,11.477921533000028],[122.9516905050001,11.478610946000058],[122.95398067800011,11.478037045000066],[122.95483470200008,11.477424622000058],[122.95653149700003,11.477136425000026],[122.95653879000008,11.480095241000072],[122.9576764610001,11.480967157000066],[122.96033831900002,11.481474582000033],[122.96324083800005,11.481624665000025],[122.96553076500004,11.48156749100002],[122.96859372500013,11.480967157000066],[122.97003426300012,11.480225196000049],[122.97080525500007,11.480602668000072],[122.97195751200003,11.481817630000021],[122.97494754400009,11.48171757400007],[122.97588101800011,11.482046328000024],[122.98065777700003,11.481889098000064],[122.98382101200004,11.481939125000052],[122.98784255300006,11.482485283000072],[122.98881742370455,11.482791441289773],[122.98962730675736,11.481910155369201],[122.98837188000005,11.481218646000059]]],[[[122.93507619200012,11.478930300000059],[122.9364691090001,11.478136994000065],[122.93565232000003,11.476507493000042],[122.93425940200007,11.478580102000024],[122.93507619200012,11.478930300000059]]]]}},{"type":"Feature","properties":{"fid":32,"objectid":1878,"lccode":"07","liqcode":"2010600070000000","mappers":"PJDelosReyes, ACPidlaoan","project":"READY","province":"Iloilo","otherinfo":null,"datemapped":2010,"publishdate":null,"globalid":"{2F92972A-C07C-4633-B325-DF2A08960C6C}","st_area(shape)":0.031106077518548395,"st_perimeter(shape)":5.287074988133156,"liqcodepk":"201060007000000000071","creator":"SNOOPYPC","createdate":"2019-02-19T15:21:28","editor":"LENOVO","modifydate":"2019-03-10T17:50:55","codemove":"na"},"geometry":{"type":"Polygon","coordinates":[]}},{"type":"Feature","properties":{"fid":59,"objectid":1908,"lccode":"05","liqcode":"2010600050000000","mappers":"PJDelosReyes, ACPidlaoan","project":"READY","province":"Iloilo","otherinfo":null,"datemapped":2010,"publishdate":null,"globalid":"{282D04BA-68E2-41E5-9B8A-0D8D85396F2D}","st_area(shape)":0.06128738608791496,"st_perimeter(shape)":10.692281506054618,"liqcodepk":"201060005000000000103","creator":"SNOOPYPC","createdate":"2019-02-19T15:21:28","editor":"LENOVO","modifydate":"2019-03-10T17:50:55","codemove":"na"},"geometry":{"type":"Polygon","coordinates":[]}},{"type":"Feature","properties":{"fid":73,"objectid":1937,"lccode":"06","liqcode":"2010600060000000","mappers":"PJDelosReyes, ACPidlaoan","project":"READY","province":"Iloilo","otherinfo":null,"datemapped":2010,"publishdate":null,"globalid":"{DBB85F45-4FB4-4F72-8BD3-A1308397A487}","st_area(shape)":0.017575391436836466,"st_perimeter(shape)":7.287100410898002,"liqcodepk":"201060006000000000136","creator":"SNOOPYPC","createdate":"2019-02-19T15:21:28","editor":"LENOVO","modifydate":"2019-03-10T17:50:55","codemove":"na"},"geometry":{"type":"Polygon","coordinates":[]}}]}