{"type":"FeatureCollection","features":[{"type":"Feature","properties":{"fid":31,"objectid":1877,"lccode":"07","liqcode":"2010600070000000","mappers":"PJDelosReyes, ACPidlaoan","project":"READY","province":"Ilocos Sur","otherinfo":null,"datemapped":2012,"publishdate":null,"globalid":"{9BD19C39-D43F-480F-8D4D-C2FF10071B57}","st_area(shape)":0.01783800115070572,"st_perimeter(shape)":3.398456363100086,"liqcodepk":"201060007000000000070","creator":"SNOOPYPC","createdate":"2019-02-19T15:21:28","editor":"LENOVO","modifydate":"2019-03-10T17:50:55","codemove":"na"},"geometry":{"type":"Polygon","coordinates":[]}},{"type":"Feature","properties":{"fid":48,"objectid":1897,"lccode":"05","liqcode":"2010600050000000","mappers":"PJDelosReyes, ACPidlaoan","project":"READY","province":"Abra","otherinfo":null,"datemapped":2011,"publishdate":null,"globalid":"{6F1B2D48-A8B0-430F-BF24-324356CDBB9C}","st_area(shape)":0.01258216709511878,"st_perimeter(shape)":4.5647277548728225,"liqcodepk":"201060005000000000091","creator":"SNOOPYPC","createdate":"2019-02-19T15:21:28","editor":"LENOVO","modifydate":"2019-03-10T17:50:55","codemove":"na"},"geometry":{"type":"Polygon","coordinates":[]}},{"type":"Feature","properties":{"fid":58,"objectid":1907,"lccode":"05","liqcode":"2010600050000000","mappers":"PJDelosReyes, ACPidlaoan","project":"READY","province":"Ilocos Sur","otherinfo":null,"datemapped":2012,"publishdate":null,"globalid":"{7D41ABB3-20BB-4A8A-A22A-9DDDC45B8904}","st_area(shape)":0.029120699274048492,"st_perimeter(shape)":9.226907297832456,"liqcodepk":"201060005000000000102","creator":"SNOOPYPC","createdate":"2019-02-19T15:21:28","editor":"LENOVO","modifydate":"2019-03-10T17:50:55","codemove":"na"},"geometry":{"type":"MultiPolygon","coordinates":[[[[120.5595759140001,17.140602301000055],[120.55659487600008,17.14000827300003],[120.55465973300011,17.139315333000074],[120.55332408100003,17.139382789000024],[120.55095250800004,17.141000156000075],[120.54962605100002,17.142574359000033],[120.5480310260001,17.14249919900004],[120.547434575,17.14151548300004],[120.54828586600003,17.140772484000024],[120.54832699400004,17.139852317000077],[120.54641104600012,17.139912774000038],[120.54560639400005,17.139317099000035],[120.54395925700011,17.138794897000025],[120.5431851300001,17.138088058000047],[120.54236135800011,17.136738902000044],[120.54174589600008,17.135001617000057],[120.54018656400001,17.132220656000072],[120.54042786500008,17.13152616400004],[120.54204251800002,17.13009504600007],[120.54376481500005,17.129306841000073],[120.54470303200003,17.128564998000055],[120.54712780400007,17.12731109500003],[120.54658940500008,17.126328087000047],[120.54336041400006,17.126958408000064],[120.54144321400007,17.127130436000073],[120.53973414900008,17.126914317000058],[120.5392600440001,17.125457793000066],[120.53897106200009,17.123166571000066],[120.53848633862722,17.12207336688097],[120.53444226545845,17.121046802314844],[120.52989231299573,17.12034097999361],[120.52529235533856,17.120067288975704],[120.52068666135813,17.120228359079942],[120.51611955416517,17.120822636069203],[120.51163498548716,17.121844396735934],[120.5087571110074,17.122794755663293],[120.5091734990001,17.12316451600003],[120.51039083900002,17.125439266000058],[120.51159847100007,17.126263163000033],[120.51351686500006,17.128183866000025],[120.51484611100013,17.12859077400003],[120.51830505500003,17.128131080000056],[120.51914371100008,17.12833670000003],[120.52133168800003,17.127442884000054],[120.52259000400012,17.128825333000062],[120.52271177600004,17.130584420000048],[120.52310202600005,17.13178889500006],[120.52302331200008,17.133350196000038],[120.52391971600002,17.13358441100007],[120.52624534600012,17.13325022400005],[120.52794631900007,17.134080074000053],[120.52868734000003,17.135093504000054],[120.52907974900008,17.13833455100007],[120.52947263400004,17.139343723000025],[120.52898852600003,17.140844356000056],[120.52920803400004,17.141795601000066],[120.52994982500002,17.14275323200008],[120.52984431700008,17.14414687800007],[120.53037897100012,17.14540883100005],[120.53030656600004,17.14649602600002],[120.52916141700008,17.147514293000025],[120.52883335500007,17.148179799000047],[120.52909249800007,17.150526464000052],[120.52978109800004,17.15112078400006],[120.53076827500001,17.151077049000033],[120.53217389500003,17.15011776500006],[120.53338436500007,17.150746354000034],[120.5329872310001,17.152248059000048],[120.53025423400004,17.15483709700004],[120.53096222800002,17.15615698100004],[120.53206776000002,17.155947354000034],[120.53292323300002,17.15489763200003],[120.53341613300006,17.154931558000037],[120.53470330800009,17.156342218000077],[120.53656323500002,17.156141777000077],[120.53730809400007,17.154672210000058],[120.53734195700008,17.152105883000047],[120.5377291210001,17.151357370000024],[120.5390744130001,17.150564634000034],[120.5398460670001,17.149262804000042],[120.5410624430001,17.149445044000057],[120.54277648700008,17.14929847900004],[120.54472766700007,17.14656021500002],[120.54815240800008,17.146518101000023],[120.54905002100007,17.146668517000016],[120.55201341200008,17.146397593000078],[120.55360876500004,17.14644482500006],[120.55638191600008,17.145194961000072],[120.55770907200008,17.143564999000034],[120.55866936400001,17.143353368000078],[120.56182941100006,17.141354847000056],[120.5639946994369,17.140500740046647],[120.56316345601746,17.13939439640192],[120.5595759140001,17.140602301000055]]],[[[120.50143162100007,17.12669197800005],[120.50182891200008,17.127816557000067],[120.50257638800008,17.12832796800006],[120.5038892980001,17.12778628700005],[120.50401909500012,17.126755632000027],[120.50377738800013,17.12530192500003],[120.50343223400787,17.124974252752647],[120.50308488892757,17.125127001635978],[120.50034824376823,17.12665859842798],[120.50143162100007,17.12669197800005]]],[[[120.49881874800008,17.12771080100003],[120.49969573638859,17.127023772335882],[120.49910165097086,17.127356247278218],[120.49858093218698,17.12771769380219],[120.49881874800008,17.12771080100003]]],[[[120.49270745900002,17.132376629000074],[120.49406292000003,17.13274381200006],[120.4954179770001,17.13495622800002],[120.49723522700002,17.13530572700006],[120.49763701000008,17.134329651000026],[120.49742008500006,17.132388343000063],[120.49668996100002,17.130674203000073],[120.49596695800005,17.13024479900002],[120.49569313440307,17.12972214722975],[120.49536474088187,17.129950083170282],[120.49249568041299,17.13238633981458],[120.49270745900002,17.132376629000074]]],[[[120.488510001,17.137416401000056],[120.4886850030001,17.140665306000074],[120.48945689900006,17.14107195800005],[120.4908461430001,17.140738842000076],[120.49200809500007,17.139235012000025],[120.49204307600006,17.138441325000027],[120.49113514300008,17.13730885900003],[120.49178321600006,17.136079036000066],[120.49189766000006,17.134795722000035],[120.49093085123195,17.133895849782466],[120.48877108847991,17.13612838830751],[120.48823995083623,17.136798682498537],[120.488510001,17.137416401000056]]],[[[120.48382068900003,17.184306039000035],[120.4844148000001,17.18169741000002],[120.48564558600005,17.180521589000026],[120.4854856280001,17.179772166000078],[120.48598348200007,17.17889079600008],[120.48759478500007,17.178326895000055],[120.48851670700003,17.178431841000076],[120.4901113290001,17.179105663000033],[120.49063414400007,17.179976452000062],[120.49107470900002,17.181546870000034],[120.49238700900004,17.183338357000025],[120.49354751100009,17.183773146000018],[120.49549493200006,17.18351713900006],[120.49619497300012,17.182054265000037],[120.49729826600003,17.18132052800007],[120.49914780900008,17.181109954000025],[120.50035313300009,17.181825559000064],[120.50157770200008,17.181869453000047],[120.50255867300008,17.182698937000055],[120.50375011300002,17.182804537000038],[120.50432123000007,17.18160823000005],[120.50362067600008,17.18100915800005],[120.50090169300006,17.180781325000055],[120.50016490600001,17.17955762100007],[120.50000982400002,17.17843450000004],[120.49882195200007,17.17823293400005],[120.49866131400006,17.177530193000052],[120.49771850700006,17.177168123000055],[120.49462935600002,17.177410069000075],[120.49381156100004,17.176792625000076],[120.49372533100008,17.175974045000032],[120.4927329730001,17.173882951000053],[120.49294586800012,17.17250749400005],[120.49054582600003,17.17210398000003],[120.48942317400008,17.170665133000057],[120.48957336500007,17.170340018000047],[120.48921326600009,17.168210094000074],[120.48829957100007,17.16749797700004],[120.4869685220001,17.16710764400006],[120.484973651,17.167293011000023],[120.48375399000008,17.167651565000032],[120.48230622200003,17.166909374000056],[120.48200175900003,17.16606477600004],[120.48247623300006,17.163314504000027],[120.48471956800006,17.16271189700006],[120.486243435,17.163221314000054],[120.48783700300008,17.165763746000042],[120.48858191700005,17.16638030100006],[120.49163367400003,17.16709561800008],[120.49339032900002,17.166556940000074],[120.49358381800005,17.168427882000064],[120.49444677500004,17.16930279500002],[120.49467275700012,17.170566947000054],[120.49600542100006,17.170840403000053],[120.49655216000008,17.169936306000068],[120.49634664900009,17.16895270800006],[120.4967150110001,17.16685512400005],[120.49641330200008,17.16580025900004],[120.49741175100009,17.165625808000073],[120.49813182800006,17.16628870900007],[120.49933956300002,17.16681759200003],[120.50021976200003,17.16640804900004],[120.49944471000003,17.164413048000025],[120.50112397500006,17.16420032600007],[120.50269648000005,17.164479231000026],[120.50243500900002,17.162841151000062],[120.50345661200002,17.16062863300004],[120.50275787600005,17.159893411000034],[120.50199677300009,17.16029270600006],[120.50140545500004,17.16133082400006],[120.49905735800007,17.162492926000027],[120.49658053100006,17.162392145000066],[120.49519206500008,17.162655216000072],[120.49474089900002,17.16187888500002],[120.49355714200009,17.161373664000052],[120.49228818600011,17.159979797000062],[120.4920650480001,17.15850554700006],[120.49018098900001,17.157687922000036],[120.490019,17.155280165000026],[120.49154699500001,17.153664139000053],[120.49195325300002,17.152361154000058],[120.49145033900005,17.15181769800006],[120.49071565800011,17.15225240700005],[120.48933928400004,17.151627925000064],[120.48897102600006,17.15010518400004],[120.48757600800003,17.149060104000057],[120.4865024830001,17.149397119000067],[120.48588485300003,17.150160160000038],[120.48412338700008,17.151072579000072],[120.48267509900006,17.15217562900005],[120.48209876200008,17.153476466000026],[120.48059872400006,17.154812462000052],[120.47950465300005,17.156667420000073],[120.47902612000007,17.157922688000042],[120.47823463536473,17.158882979199596],[120.47801024996404,17.16021751132809],[120.47772424651866,17.164640452539043],[120.47789056084515,17.169069044488786],[120.4785076236252,17.173460640535744],[120.47956952438601,17.177772947250116],[120.48106606718223,17.18196443171745],[120.4824202675367,17.18481180817289],[120.48382068900003,17.184306039000035]]],[[[120.51136626800007,17.207670860000057],[120.51273421400003,17.20607566800004],[120.51272242000005,17.205190009000038],[120.51145149500007,17.20483368400005],[120.51145306700005,17.20294916600006],[120.51205666700002,17.201980265000028],[120.51416125500008,17.20182455900004],[120.51598636300002,17.201370273000066],[120.51656168000012,17.20251266200006],[120.51940975800007,17.203297008000046],[120.52047901300011,17.204604498000037],[120.5213308760001,17.204501382000046],[120.52235987100003,17.203515012000025],[120.52258728900007,17.202405177000063],[120.52191045400001,17.201783777000056],[120.52171810700008,17.20026015300004],[120.5218997720001,17.19903624300002],[120.52129560900006,17.19650843000005],[120.52174889000004,17.196173471000066],[120.52385651400004,17.195790669000075],[120.52520343800006,17.19576179400008],[120.52627351100011,17.195229949000062],[120.52622864200008,17.193276663000063],[120.52395480800008,17.193725541000052],[120.52301429200008,17.193396113000063],[120.52224787500008,17.192410324000033],[120.5213070110001,17.190332511000065],[120.52062296400004,17.19025600800006],[120.51758552800004,17.19128582700006],[120.51650606500004,17.190750212000065],[120.51579051100008,17.189492585000043],[120.51457512000002,17.188523996000075],[120.51428316500005,17.18738510100007],[120.51218662699999,17.186950523000064],[120.5106689910001,17.187385831000025],[120.50904147600012,17.18720679200004],[120.50638835000007,17.18776438900005],[120.50441406500012,17.188784399000042],[120.5037796250001,17.190297875000056],[120.50363476900009,17.192294211000046],[120.5027486780001,17.19319140800007],[120.50256233300001,17.194755851000025],[120.5017068620001,17.19513120000005],[120.50279000100012,17.19891377400006],[120.502486481,17.200408585000048],[120.50138652100009,17.201394053000058],[120.50030797600004,17.200790272000063],[120.49870656400003,17.19948665300007],[120.49653744200009,17.198151768000056],[120.49569923800004,17.197230381000054],[120.4940695050001,17.19735026500007],[120.49328265425636,17.19873520337781],[120.49442714060673,17.19975845368869],[120.49809463100262,17.20244411075382],[120.50201844921303,17.20477126375711],[120.50616079617207,17.206717485421205],[120.51048176244655,17.208264017950235],[120.51164655738407,17.208559786253893],[120.51136626800007,17.207670860000057]],[[120.51592798100012,17.19689646000005],[120.51628289000008,17.19685541300004],[120.51807282800007,17.19903455300005],[120.51694871200004,17.200065152000036],[120.51589010500005,17.199734231000033],[120.51561873600008,17.19882261300006],[120.51592798100012,17.19689646000005]]],[[[120.51294070600012,17.208303381000068],[120.51174666936515,17.208585206648127],[120.51282905139492,17.208860041152303],[120.51294070600012,17.208303381000068]]]]}},{"type":"Feature","properties":{"fid":72,"objectid":1936,"lccode":"06","liqcode":"2010600060000000","mappers":"PJDelosReyes, ACPidlaoan","project":"READY","province":"Ilocos Sur","otherinfo":null,"datemapped":2012,"publishdate":null,"globalid":"{33CDE2C7-9AFF-4DEC-86B5-45B4892EBDFF}","st_area(shape)":0.017363484289297154,"st_perimeter(shape)":5.7193106480781575,"liqcodepk":"201060006000000000135","creator":"SNOOPYPC","createdate":"2019-02-19T15:21:28","editor":"LENOVO","modifydate":"2019-03-10T17:50:55","codemove":"na"},"geometry":{"type":"Polygon","coordinates":[]}}]}