{"type":"FeatureCollection","features":[{"type":"Feature","properties":{"fid":30,"objectid":1876,"lccode":"07","liqcode":"2010600070000000","mappers":"PJDelosReyes, ACPidlaoan","project":"READY","province":"Ilocos Norte","otherinfo":null,"datemapped":2012,"publishdate":null,"globalid":"{DDD7C418-83F8-494F-BE1F-501E5EB1EB53}","st_area(shape)":0.0068069229463748535,"st_perimeter(shape)":2.382699422788448,"liqcodepk":"201060007000000000069","creator":"SNOOPYPC","createdate":"2019-02-19T15:21:28","editor":"LENOVO","modifydate":"2019-03-10T17:50:55","codemove":"na"},"geometry":{"type":"MultiPolygon","coordinates":[[[[120.48805320800011,18.07420062800002],[120.49141823000002,18.07356674000005],[120.49269238700005,18.073119724000033],[120.49449966400005,18.071894859000057],[120.49631703200009,18.069956858000065],[120.4980471460001,18.06890937800006],[120.50254758500012,18.06707740600007],[120.50509331700006,18.066361410000066],[120.50684898500003,18.066134426000072],[120.5087826240001,18.066516064000037],[120.51079379300006,18.066684589000033],[120.51495619600007,18.06766557600002],[120.51817089300003,18.06710059400007],[120.52055691600002,18.06713126000005],[120.52302202700004,18.066841903000068],[120.52589850400011,18.066846018000035],[120.53021797700002,18.067372783000057],[120.53213800100004,18.06715290500006],[120.53097588600009,18.065754046000055],[120.52805180100006,18.064306622000057],[120.5237354300001,18.063570276000068],[120.52037492600003,18.06366692100005],[120.51838112000009,18.062645954000057],[120.51251080200008,18.060771779000042],[120.50941972700002,18.059893794000065],[120.50650033700003,18.05849408000006],[120.50302376,18.057132992000046],[120.5011148000001,18.056659794000044],[120.49830246300007,18.05614490300007],[120.49632822400008,18.056012408000072],[120.49185054000009,18.055266338000024],[120.49022445400009,18.055367474000036],[120.48881077744804,18.056020775121056],[120.48796389828289,18.05907780851967],[120.48722188717633,18.06345174399028],[120.48693162431829,18.06787417999679],[120.48709593838402,18.072302532225436],[120.48739224171129,18.074410374998237],[120.48805320800011,18.07420062800002]]],[[[120.53750277000006,18.111324648000046],[120.53756798900008,18.10932818200007],[120.53702452900005,18.10817995700006],[120.53576265200002,18.107735808000033],[120.53604561300006,18.106170141000064],[120.53694810800006,18.105646665000055],[120.53665827100008,18.105036698000053],[120.53558432800003,18.104487950000074],[120.5362834670001,18.102499592000076],[120.5368890530001,18.101865314000065],[120.53588922200004,18.101353274000076],[120.5331128360001,18.102530360000056],[120.53257234500006,18.10384305200006],[120.53255786200008,18.10487722700003],[120.53144296400001,18.10725249100005],[120.53079554100009,18.10820721800007],[120.53096896500006,18.10913670700006],[120.53193601500004,18.109327437000047],[120.53083114900004,18.110989562000043],[120.529816288,18.111547230000042],[120.52905469741725,18.113367433812797],[120.53350457467987,18.113633685466777],[120.53696471126472,18.113515497653577],[120.53750277000006,18.111324648000046]]],[[[120.543753282,18.11243873600006],[120.54265888400005,18.110677144000018],[120.54176889400003,18.11030920000007],[120.54088683400006,18.112045572000056],[120.54109860900006,18.112904211000057],[120.54101856030019,18.11310413713552],[120.54272836493865,18.11288386927412],[120.54413517775217,18.112565908603695],[120.543753282,18.11243873600006]]],[[[120.54989694200002,18.110519675000027],[120.54859472500006,18.110289189000067],[120.54849721900007,18.109253578000047],[120.54687826600002,18.10766367000002],[120.54663065700005,18.106697574000066],[120.54566905900003,18.106114639000054],[120.54377365800009,18.10562680200007],[120.5433549940001,18.106227817000043],[120.54346341400004,18.10915378100003],[120.54419036000003,18.110518338000073],[120.54519275300004,18.11085212700004],[120.54521762700004,18.111744139000045],[120.54483364139611,18.112408041035522],[120.54723820512655,18.111864536555057],[120.55006233063501,18.110938615677455],[120.54989694200002,18.110519675000027]]]]}},{"type":"Feature","properties":{"fid":57,"objectid":1906,"lccode":"05","liqcode":"2010600050000000","mappers":"PJDelosReyes, ACPidlaoan","project":"READY","province":"Ilocos Norte","otherinfo":null,"datemapped":2012,"publishdate":null,"globalid":"{F206138B-2823-4B11-8CEA-F1A1A521E220}","st_area(shape)":0.04191862089529889,"st_perimeter(shape)":8.367222149982817,"liqcodepk":"201060005000000000101","creator":"SNOOPYPC","createdate":"2019-02-19T15:21:28","editor":"LENOVO","modifydate":"2019-03-10T17:50:55","codemove":"na"},"geometry":{"type":"MultiPolygon","coordinates":[[[[120.55387572400004,18.02947437800003],[120.55517274500005,18.032180804000063],[120.55645231300001,18.033853616000048],[120.55878568300011,18.035144492000025],[120.55960717100004,18.03662909800005],[120.56038834700009,18.039891375000025],[120.56051344700006,18.04118478200007],[120.56350227400004,18.047219934000054],[120.56326016199999,18.048568218000067],[120.56163561400001,18.049892193000062],[120.55942642900004,18.049928317000024],[120.55896591500004,18.049346297000056],[120.55786543700003,18.04664344800005],[120.55726678000008,18.046379791000042],[120.55632109100009,18.04700805500005],[120.55447007400005,18.050185746000068],[120.553533215,18.05017388300007],[120.55264598400004,18.046577403000065],[120.55140205900011,18.044576866000053],[120.55116361400007,18.042461113000055],[120.55019975700009,18.03956781100004],[120.54850528700003,18.036281109000072],[120.54832405900005,18.03487032500004],[120.54761553300011,18.032876654000066],[120.54491215200005,18.02996126400006],[120.54387891900001,18.02725913100005],[120.54197052200006,18.02493009600005],[120.54097583900011,18.02427723300008],[120.53957251100007,18.02413134200003],[120.53875187300002,18.025401337000062],[120.53859129700005,18.02731994500004],[120.53869490400005,18.02949809300003],[120.53772788500011,18.031662518000076],[120.53823465900007,18.033717757000026],[120.53994048100004,18.036172297000068],[120.54152863400009,18.037473030000058],[120.54491182400011,18.039628754000034],[120.54442124600006,18.041223069000065],[120.5434799950001,18.041531306000024],[120.5403965480001,18.041876217000038],[120.53777715900002,18.042547098000057],[120.53581430400003,18.04412261600004],[120.53472136900007,18.045709302000038],[120.5322329600001,18.046573835000064],[120.53015506000008,18.04680336800004],[120.52728122900008,18.04651052300005],[120.52552179400004,18.04616024900002],[120.52698994000002,18.047937655000055],[120.52616814200009,18.048306926000066],[120.52445238599998,18.047526085000072],[120.52130311100005,18.04581158900004],[120.5202207320001,18.044793321000043],[120.5184402120001,18.04198036100007],[120.51570868400005,18.038775830000073],[120.51353436300008,18.037430976000053],[120.51063293400013,18.03801857500002],[120.50985339600004,18.03850101300003],[120.51418541200006,18.04019630400006],[120.51557435400002,18.041366629000034],[120.51615591100007,18.04284658200004],[120.5179140350001,18.046326388000065],[120.51939868100011,18.050161907000074],[120.52045201300007,18.049929611000035],[120.52102675800006,18.050539633000028],[120.521212052,18.052305340000032],[120.52172703400005,18.05385206300002],[120.52510716000006,18.05742207300005],[120.5265647870001,18.058311219000075],[120.52757635700006,18.059395648000077],[120.52844039900002,18.061013741000064],[120.52870574300005,18.062066218000044],[120.53090901300004,18.064605956000033],[120.53373293000004,18.06703387100004],[120.53488191500003,18.068477426000072],[120.53528798500007,18.06963192700005],[120.53651146100003,18.070393051000053],[120.53937580700006,18.06993259100005],[120.54080195900008,18.07013714600004],[120.5418919990001,18.07114507700004],[120.53896710200003,18.071294497000054],[120.5376288860001,18.071774427000033],[120.53574034200007,18.07212307000003],[120.53412069800004,18.071822817000054],[120.5328690120001,18.073080381000064],[120.53113267300012,18.07283378300007],[120.53150395500006,18.07479844900007],[120.5326135250001,18.076829356000076],[120.53413096100007,18.078417324000043],[120.53791009699998,18.08102654100003],[120.53942985000005,18.08245440700006],[120.53967431500007,18.084122084000054],[120.53936110300002,18.084982422000056],[120.53964752900005,18.086042477000035],[120.54056716200012,18.087302671000035],[120.54266483600009,18.088097674000036],[120.54379377600002,18.088752274000054],[120.54494632500007,18.09011140700006],[120.54584768100007,18.090282982000076],[120.54746080300005,18.089823300000035],[120.54838800100003,18.090539332000045],[120.54874100400004,18.09163228200003],[120.54897629300001,18.093972113000067],[120.54854530000013,18.09607935000002],[120.54783626200002,18.096518483000064],[120.54575768600013,18.096748114000032],[120.54503660400007,18.098051420000044],[120.54577428900008,18.100365683000057],[120.5467939580001,18.101659100000067],[120.5477065870001,18.103431358000023],[120.54900386900012,18.10402406000003],[120.55048106900004,18.106123599000057],[120.55188142400004,18.106525529000066],[120.5537579610001,18.10638926600007],[120.55584153700012,18.105807548000026],[120.55781533500011,18.10589660000005],[120.56067282347071,18.105785931184684],[120.56360107280109,18.103766016233877],[120.56707538268779,18.10083372760232],[120.56783117769609,18.100057125030233],[120.56679257600003,18.10063221400003],[120.562680752,18.100228085000026],[120.56081845300002,18.099340178000034],[120.55894782900009,18.099060405000046],[120.55780346000006,18.097093187000045],[120.55727285800003,18.096734387000026],[120.55549945500002,18.096679847000075],[120.55408895000005,18.09701411900005],[120.55246103200011,18.096129113000075],[120.55173304300003,18.093110748000065],[120.5520582910001,18.091386287000038],[120.5526792920001,18.090049710000073],[120.55273436400012,18.086080957000032],[120.551768637,18.08331566600003],[120.55169573700006,18.081330059000038],[120.55227841100009,18.080345069000032],[120.55323387300007,18.07661185700005],[120.5535069450001,18.076231097000058],[120.55619333200003,18.075592956000037],[120.55762739300009,18.075963192000074],[120.56005302900009,18.077242363000043],[120.561867161,18.07675312000004],[120.56286891400009,18.076925878000054],[120.56459363400006,18.078068006000024],[120.56566404400009,18.07811357200006],[120.56650900900003,18.07751597400005],[120.56696216700004,18.07620918100002],[120.56616082600011,18.073638172000074],[120.56481490700004,18.07173248100003],[120.56358738600012,18.070948718000068],[120.56260245700003,18.06955975300008],[120.56285880700011,18.067962428000044],[120.56339552700003,18.067873126000052],[120.56509375400005,18.06850281700002],[120.56750870000009,18.07055002600003],[120.56862133700007,18.072388739000075],[120.57053980300009,18.074045436000063],[120.57322970900009,18.078016825000077],[120.57458544500003,18.079218342000047],[120.5766589970001,18.081420008000066],[120.57746187600004,18.083132254000077],[120.57759645829736,18.086096590856272],[120.57912974268218,18.082161838158207],[120.58031441403836,18.077877718097046],[120.58105427148767,18.07350315985926],[120.58134222087357,18.06908030172385],[120.58117552242611,18.0646517442267],[120.58055581586491,18.06026013966785],[120.57948910328929,18.055947781240224],[120.57798569007116,18.051756195740705],[120.57606008436933,18.047725743784774],[120.57373085628089,18.04389523136936],[120.57167406010555,18.041168157374603],[120.5705846730001,18.042436250000037],[120.56963157500002,18.04242426600007],[120.56782659300005,18.039665914000064],[120.56835076900005,18.03851748000005],[120.56896027236346,18.038068761049075],[120.56795500695266,18.03697925456547],[120.564564033427,18.033960365553774],[120.56088019614761,18.031273926799845],[120.5569389675477,18.0289457936958],[120.55374673715195,18.027451667438648],[120.55387572400004,18.02947437800003]]],[[[120.50457017700012,18.03445801200007],[120.50636731300006,18.03441429300005],[120.50732028800006,18.034672100000016],[120.50807844600001,18.03550773000006],[120.50877826400007,18.035516751000042],[120.51203454400003,18.03457661800007],[120.51308619100007,18.034456149000047],[120.51578304700003,18.03513816600002],[120.51849670700004,18.03628900700005],[120.52147485100011,18.036885256000062],[120.52299540000001,18.038266347000043],[120.52377356700005,18.039347701000057],[120.52488695000012,18.041482336000055],[120.5251854500001,18.04349501300004],[120.52487464500007,18.044939840000044],[120.52519445700013,18.044164596000027],[120.52609679300008,18.04341286400006],[120.52724754200007,18.04167644600005],[120.5276968830001,18.039751445000032],[120.52945830700004,18.037977941000065],[120.53004026900011,18.036638312000036],[120.52958548500011,18.03223227500007],[120.52921698100009,18.03173363500002],[120.52799629200001,18.03176290900006],[120.5264383540001,18.032416515000023],[120.52569124500008,18.032137597000027],[120.524208498,18.03077155200003],[120.52335755700005,18.031209705000038],[120.52290820500001,18.03313460400005],[120.52289060700002,18.03439159400006],[120.52199145300006,18.03491887600006],[120.52005869500012,18.03552274200007],[120.51935986,18.035154572000064],[120.51793470800011,18.033025937000044],[120.51748622700008,18.031538488000024],[120.5176465510001,18.030148611000072],[120.517156181,18.028301421000034],[120.51614089600002,18.027076050000062],[120.51601325010604,18.026819365618348],[120.51244411426651,18.02837856829467],[120.50843958469167,18.0306053264829],[120.50468237608146,18.033196786551965],[120.50364311696433,18.03407375992714],[120.50457017700012,18.03445801200007]]],[[[120.4994336430001,18.097236061000046],[120.49786212300012,18.09398081500007],[120.49626561800004,18.090415795000073],[120.49521908500003,18.087476799000054],[120.49137919300007,18.08241999000006],[120.49055444900011,18.080440276000047],[120.48919479400001,18.07884737700004],[120.48831664300009,18.078554584000074],[120.48818467858189,18.07860401549132],[120.4885974659748,18.08027639208554],[120.48938642200007,18.080161142000065],[120.48993756100005,18.08102142700005],[120.49049534100006,18.084710486000056],[120.49109089100013,18.08575085500007],[120.4934579510001,18.08766746300006],[120.4946394650001,18.09042166800003],[120.49558506400002,18.093262649000053],[120.49471447270426,18.09330503999212],[120.49724009309274,18.096655910307465],[120.49993278012953,18.099575708768743],[120.4994336430001,18.097236061000046]]],[[[120.50599302600006,18.104263391000075],[120.50693383500005,18.104140845000074],[120.50901460800003,18.10309016100007],[120.5102497350001,18.102073404000066],[120.51163267700007,18.100564714000026],[120.5119752070001,18.099581291000046],[120.51214964700011,18.097203866000026],[120.51275859200008,18.097301480000052],[120.51427103000003,18.099925241000047],[120.51624655600007,18.10300392000005],[120.51712522300011,18.103958125000073],[120.51801338400004,18.104239014000026],[120.51933661600005,18.103627408000023],[120.51981681300002,18.102870309000025],[120.52086645600002,18.098348915000027],[120.52047933100005,18.09582952200003],[120.51803138600006,18.096291850000057],[120.51728411600006,18.096012870000035],[120.51628739800005,18.093440744000077],[120.51603107200003,18.091641436000025],[120.5156256780001,18.090423886000053],[120.51577783300002,18.08961759900006],[120.51672109100002,18.08931542600004],[120.51857917100007,18.09073127800008],[120.51980026300009,18.090702113000077],[120.52145770900006,18.089690698000027],[120.52255939100007,18.088133324000072],[120.52458946400009,18.083983683000046],[120.52651051100008,18.08091022100007],[120.52865377300007,18.07536993800005],[120.52782587700005,18.07414708400006],[120.52725993100012,18.07274672000005],[120.52564875700011,18.073826613000055],[120.52238136800008,18.077543223000077],[120.51666137300005,18.082439625000063],[120.51422200700006,18.08268776000006],[120.51353444900009,18.083082706000024],[120.51335806200007,18.084074249000025],[120.51376850900009,18.087216622000025],[120.51368379500002,18.088613324000047],[120.5132485050001,18.089539573000017],[120.51161605900006,18.090139753000074],[120.50995640000008,18.090366821000032],[120.50926397700003,18.091103365000038],[120.50752571400004,18.096889488000034],[120.50611607100008,18.097803111000072],[120.50342378000005,18.09755082100003],[120.50289540500012,18.098165213000076],[120.50225439269433,18.10171552909737],[120.50369579773323,18.10299928309072],[120.50536942634632,18.104220204761013],[120.50599302600006,18.104263391000075]]],[[[120.50082189000011,18.041622652000054],[120.50011788900008,18.04173734200003],[120.4990686310001,18.042731653000033],[120.49856714600003,18.04551902000003],[120.49958309200008,18.046876141000045],[120.50131807500009,18.04705769000003],[120.50278094700002,18.046882106000055],[120.50411083900008,18.044335229000065],[120.50401015000011,18.043608937000045],[120.50311905400007,18.042571836000036],[120.5022199770001,18.04210051800004],[120.50082189000011,18.041622652000054]]]]}},{"type":"Feature","properties":{"fid":71,"objectid":1935,"lccode":"06","liqcode":"2010600060000000","mappers":"PJDelosReyes, ACPidlaoan","project":"READY","province":"Ilocos Norte","otherinfo":null,"datemapped":2012,"publishdate":null,"globalid":"{E589EE25-8FDC-4504-BE01-5A3AF4CD900F}","st_area(shape)":0.013905399003380454,"st_perimeter(shape)":4.825147044260804,"liqcodepk":"201060006000000000134","creator":"SNOOPYPC","createdate":"2019-02-19T15:21:28","editor":"LENOVO","modifydate":"2019-03-10T17:50:55","codemove":"na"},"geometry":{"type":"MultiPolygon","coordinates":[[[[120.49022445800006,18.055367112000056],[120.49185054500003,18.055265977000033],[120.49632822800004,18.05601204600003],[120.49830246700004,18.056144542000027],[120.5011148000001,18.056659794000044],[120.50302376,18.057132992000046],[120.50650033700003,18.05849408000006],[120.50941972700002,18.059893794000065],[120.51251080200008,18.060771779000042],[120.51838112000009,18.062645954000057],[120.52037492600003,18.06366692100005],[120.5237354300001,18.063570276000068],[120.52805180100006,18.064306622000057],[120.53097588600009,18.065754046000055],[120.53213800100004,18.06715290500006],[120.53021797700002,18.067372783000057],[120.52589850400011,18.066846018000035],[120.52302202700004,18.066841903000068],[120.52055691600002,18.06713126000005],[120.51817089300003,18.06710059400007],[120.51495619600007,18.06766557600002],[120.51079379300006,18.066684589000033],[120.5087826240001,18.066516064000037],[120.50684898500003,18.066134426000072],[120.50509331700006,18.066361410000066],[120.50254758500012,18.06707740600007],[120.4980471460001,18.06890937800006],[120.49631703200009,18.069956858000065],[120.49449966400005,18.071894859000057],[120.49269238700005,18.073119724000033],[120.49141823000002,18.07356674000005],[120.48805320800011,18.07420062800002],[120.48739224171129,18.074410374998237],[120.48771328128413,18.076694156264566],[120.48818467858189,18.07860401549132],[120.48831664300009,18.078554584000074],[120.48919479400001,18.07884737700004],[120.49055444900011,18.080440276000047],[120.49137919300007,18.08241999000006],[120.49521908500003,18.087476799000054],[120.49626561800004,18.090415795000073],[120.49786212300012,18.09398081500007],[120.4994336430001,18.097236061000046],[120.49993278012953,18.099575708768743],[120.5003049528389,18.099979262271013],[120.50225439269433,18.10171552909737],[120.50289540500012,18.098165213000076],[120.50342378000005,18.09755082100003],[120.50611607100008,18.097803111000072],[120.50752571400004,18.096889488000034],[120.50926397700003,18.091103365000038],[120.50995640000008,18.090366821000032],[120.51161605900006,18.090139753000074],[120.5132485050001,18.089539573000017],[120.51368379500002,18.088613324000047],[120.51376850900009,18.087216622000025],[120.51335806200007,18.084074249000025],[120.51353445400002,18.08308234400004],[120.51422201200012,18.082687399000065],[120.51666137800011,18.08243926400007],[120.52238137300004,18.077542862000026],[120.52564876200006,18.07382625200006],[120.52777937500002,18.072424692000023],[120.5303133880001,18.072363953000036],[120.53186245100005,18.073067148000064],[120.53342498100004,18.072807565000062],[120.5341207030001,18.07182245600006],[120.53574034700013,18.072122709000045],[120.53762889100005,18.071774066000046],[120.53896710800008,18.071294136000063],[120.5418919990001,18.07114507700004],[120.54080195900008,18.07013714600004],[120.53937580700006,18.06993259100005],[120.53651146100003,18.070393051000053],[120.53528798500007,18.06963192700005],[120.53488191500003,18.068477426000072],[120.53373293000004,18.06703387100004],[120.53090901300004,18.064605956000033],[120.52870574300005,18.062066218000044],[120.52844039900002,18.061013741000064],[120.52757635700006,18.059395648000077],[120.5265647870001,18.058311219000075],[120.52510716000006,18.05742207300005],[120.52172703400005,18.05385206300002],[120.521212052,18.052305340000032],[120.52102675800006,18.050539633000028],[120.52045201300007,18.049929611000035],[120.51939868100011,18.050161907000074],[120.51926733100004,18.054534737000036],[120.52002955800005,18.05675428400002],[120.52008481900009,18.057804069000042],[120.51952128100004,18.059716372000022],[120.51840075200003,18.059746580000024],[120.51548263400002,18.056517320000065],[120.51382361900005,18.055022771000043],[120.5128187590001,18.053469727000046],[120.51238137700011,18.051388346000067],[120.51022706300012,18.048615112000043],[120.5087049750001,18.047345600000025],[120.50621087,18.04385379400003],[120.505288757,18.043060644000036],[120.50386827100012,18.04121198700005],[120.50245469800007,18.04052417500003],[120.500802184,18.040234992000023],[120.50149639800009,18.038993994000062],[120.50290424700006,18.038431853000073],[120.5040957880001,18.038313334000065],[120.50551533100008,18.038577177000036],[120.50717578100013,18.03996018600003],[120.50806156400006,18.040016216000033],[120.50916489500004,18.039539405000024],[120.51018777500008,18.038146390000062],[120.51353436800001,18.03743061500006],[120.51570868899998,18.038775469000026],[120.51844021700003,18.041979999999995],[120.52022073700006,18.044792959000063],[120.52130311600001,18.04581122700006],[120.52445239100007,18.04752572400002],[120.52616814700002,18.048306564000026],[120.52698994000002,18.047937655000055],[120.52552179400004,18.04616024900002],[120.52487464500007,18.044939840000044],[120.5251854500001,18.04349501300004],[120.52488695000012,18.041482336000055],[120.52377356700005,18.039347701000057],[120.52299540000001,18.038266347000043],[120.52147485100011,18.036885256000062],[120.51849670700004,18.03628900700005],[120.51578304700003,18.03513816600002],[120.51308619100007,18.034456149000047],[120.51203454400003,18.03457661800007],[120.50877826400007,18.035516751000042],[120.50807844600001,18.03550773000006],[120.50732028800006,18.034672100000016],[120.50636731300006,18.03441429300005],[120.50457017700012,18.03445801200007],[120.50364311696433,18.03407375992714],[120.50120865752193,18.036128005168525],[120.49805187423509,18.039370768431336],[120.49766685654339,18.03985359885399],[120.49838970400003,18.042097202000036],[120.4976734400001,18.043694479000067],[120.4967998420001,18.043508531000043],[120.49590557806502,18.04206227730727],[120.49524242581658,18.042893863000643],[120.49280737355092,18.046663376078016],[120.49077017961918,18.050643021371574],[120.48915048071761,18.0547944879314],[120.48881089143919,18.056020363630598],[120.49022445800006,18.055367112000056]],[[120.50311905400007,18.042571836000036],[120.50401015000011,18.043608937000045],[120.50411083900008,18.044335229000065],[120.50278094700002,18.046882106000055],[120.50131807500009,18.04705769000003],[120.49958309200008,18.046876141000045],[120.49856714600003,18.04551902000003],[120.4990686310001,18.042731653000033],[120.50011788900008,18.04173734200003],[120.50082189000011,18.041622652000054],[120.5022199770001,18.04210051800004],[120.50311905400007,18.042571836000036]]],[[[120.52274519100001,18.11174707900005],[120.52368512100009,18.109584810000058],[120.52679102200011,18.10816478600003],[120.5277472250001,18.107152003000067],[120.5287655100001,18.104027772000055],[120.52801774100011,18.104080304000032],[120.52611051900011,18.105733189000038],[120.52408865500001,18.106297399000027],[120.52379197500012,18.10660420900007],[120.52314438500004,18.108770239000012],[120.52251599800003,18.109569776000058],[120.52107689600008,18.110265691000052],[120.51814473700006,18.11088023700006],[120.51811100519913,18.110901862009598],[120.51982555391042,18.111513524174818],[120.52297164531473,18.112310261311706],[120.52274519100001,18.11174707900005]]]]}}]}