{"type":"FeatureCollection","features":[{"type":"Feature","properties":{"fid":21,"objectid":1867,"lccode":"07","liqcode":"2010600070000000","mappers":"DJLBuhay","project":"Negros Occidental Multi-Hazard Mapping","province":"Negros Occidental","otherinfo":null,"datemapped":2018,"publishdate":null,"globalid":"{BDFFB75F-E1DC-47A8-B9CF-113E0CE8D2E7}","st_area(shape)":0.051419613090430895,"st_perimeter(shape)":11.901738684521376,"liqcodepk":"201060007000000000059","creator":"SNOOPYPC","createdate":"2019-02-19T15:21:28","editor":"LENOVO","modifydate":"2019-03-10T17:50:55","codemove":"na"},"geometry":{"type":"Polygon","coordinates":[]}},{"type":"Feature","properties":{"fid":22,"objectid":1868,"lccode":"07","liqcode":"2010600070000000","mappers":"MITAbigania, DJLBuhay","project":"Negros Oriental Multi-Hazard Mapping","province":"Negros Oriental","otherinfo":null,"datemapped":2017,"publishdate":null,"globalid":"{DD19AC1E-E4AF-4725-8D22-5A4E2D602DF5}","st_area(shape)":0.012485453463948751,"st_perimeter(shape)":5.8153243548739875,"liqcodepk":"201060007000000000060","creator":"SNOOPYPC","createdate":"2019-02-19T15:21:28","editor":"LENOVO","modifydate":"2019-03-10T17:50:55","codemove":"na"},"geometry":{"type":"Polygon","coordinates":[[[123.14274251600011,9.503748481000057],[123.14053483400006,9.50260386900004],[123.13962149800011,9.502591942000038],[123.13773097900003,9.503765550000026],[123.13587896100013,9.505138086000045],[123.13545065800007,9.506185049000063],[123.13435610600006,9.506470584000056],[123.13264289400001,9.50466219400005],[123.1325477160001,9.501997198000026],[123.13264289400001,9.499808094000059],[123.13192905600009,9.497476222000046],[123.13126280700011,9.496905151000023],[123.1299778980001,9.497190687000055],[123.12850263200006,9.498951488000047],[123.12607558200011,9.498999077000065],[123.12379129900013,9.497381043000075],[123.12317263900002,9.496191313000054],[123.1210787130001,9.49509676100007],[123.120222108,9.49547747500003],[123.11993657200004,9.496524437000062],[123.1210787130001,9.498332828000057],[123.12188773000003,9.499189434000073],[123.12345817400002,9.501616484000065],[123.124790673,9.50252067900004],[123.12617076000005,9.502520679000042],[123.12793156100008,9.501997198000025],[123.12878816700005,9.50223514400005],[123.1293116490001,9.503329696000034],[123.12983513000006,9.506042281000019],[123.13107245000003,9.507898261000037],[123.13226218000013,9.508992813000077],[123.13411816000007,9.509659062000026],[123.13787770800002,9.50908799200005],[123.13916261700003,9.509373527000033],[123.13926097744815,9.509498889790143],[123.14000554075854,9.508950240160159],[123.14331679531406,9.505968467121345],[123.14418025965284,9.505021914007566],[123.14274251600011,9.503748481000057]]]}},{"type":"Feature","properties":{"fid":46,"objectid":1895,"lccode":"05","liqcode":"2010600050000000","mappers":"DJLBuhay","project":"Negros Occidental Multi-Hazard Mapping","province":"Negros Occidental","otherinfo":null,"datemapped":2018,"publishdate":null,"globalid":"{149718D2-4D93-4457-9604-37CB70EA27A9}","st_area(shape)":0.01745435689673941,"st_perimeter(shape)":6.697527242466418,"liqcodepk":"201060005000000000089","creator":"SNOOPYPC","createdate":"2019-02-19T15:21:28","editor":"LENOVO","modifydate":"2019-03-10T17:50:55","codemove":"na"},"geometry":{"type":"Polygon","coordinates":[]}},{"type":"Feature","properties":{"fid":47,"objectid":1896,"lccode":"05","liqcode":"2010600050000000","mappers":"MITAbigania, DJLBuhay","project":"Negros Oriental Multi-Hazard Mapping","province":"Negros Oriental","otherinfo":null,"datemapped":2017,"publishdate":null,"globalid":"{34172A9D-EBC4-4E95-9DC5-EE06261E8E15}","st_area(shape)":0.004550996126503224,"st_perimeter(shape)":3.4158207428182443,"liqcodepk":"201060005000000000090","creator":"SNOOPYPC","createdate":"2019-02-19T15:21:28","editor":"LENOVO","modifydate":"2019-03-10T17:50:55","codemove":"na"},"geometry":{"type":"MultiPolygon","coordinates":[[[[123.15548572000012,9.479868210000063],[123.15405804300006,9.478392945000053],[123.15396286500005,9.477060446000054],[123.15329661600003,9.47606107300004],[123.1518689390001,9.476156251000077],[123.15039367300005,9.474252682000042],[123.1502033160001,9.47177804300003],[123.14953706700008,9.470921437000072],[123.14967983500003,9.46944617100007],[123.14891840700011,9.467066710000038],[123.1475859090001,9.465639034000048],[123.14644376800004,9.465972158000055],[123.1475383200001,9.46673358600003],[123.14777626600005,9.467352246000075],[123.14706242800003,9.468922690000056],[123.14706242800003,9.469493760000033],[123.14796662300013,9.471254562000068],[123.14806180100004,9.47301536300006],[123.14720519500008,9.473491255000054],[123.14730037400011,9.475299645000062],[123.14844251500007,9.476870090000034],[123.14977501300007,9.477298393000067],[123.1505364410001,9.478488123000036],[123.15025090499998,9.479344729000047],[123.149299121,9.479439907000032],[123.14872805000006,9.47901160400005],[123.14730037400011,9.478726069000059],[123.14672930300003,9.47772669600005],[123.14515885900005,9.476632143000076],[123.14482573400005,9.473634023000045],[123.14439743100003,9.472206346000064],[123.14463537700011,9.471349740000047],[123.14349323600005,9.47001724200004],[123.14025716900004,9.47001724200004],[123.1397812770001,9.470873848000055],[123.14125654300005,9.471111794000022],[123.14254145200005,9.471920811000071],[123.1423986840001,9.473062952000019],[123.13935297400008,9.47311054100004],[123.13783011900011,9.472777417000032],[123.13730663800004,9.471778043000027],[123.136212085,9.471444918000033],[123.13506994400007,9.470350366000046],[123.13335673200004,9.467685370000028],[123.13069173600003,9.466257693000044],[123.12664665200009,9.467161889000064],[123.12621834900006,9.468018495000026],[123.12683700900004,9.469208225000047],[123.13069173600003,9.472253935000024],[123.13473682000004,9.472444292000034],[123.13468923000005,9.473634023000047],[123.13568860400005,9.475394824000032],[123.13645003200008,9.476108662000055],[123.13645003200008,9.476917679000053],[123.13797288700006,9.47748874900003],[123.13873431400009,9.478154999000028],[123.13935297400008,9.479868210000063],[123.14044752600012,9.48048687000005],[123.14130413200009,9.480106157000023],[123.14130413200009,9.478726069000059],[123.14225591600007,9.478726069000057],[123.14301734400011,9.480772406000028],[123.1436360040001,9.480915173000028],[123.14492091300009,9.480344103000052],[123.14580014400008,9.480658070000063],[123.14607452200006,9.479675197000063],[123.14685640100005,9.479868932000047],[123.14796441800002,9.480838778000077],[123.15044005100002,9.480255536000072],[123.1521990870001,9.480190120000032],[123.15544483300005,9.480691993000049],[123.15611727070993,9.480501491769989],[123.15617048212741,9.480144244225633],[123.15548572000012,9.479868210000063]]],[[[123.11317890300006,9.484056062000034],[123.11313131400004,9.480724816000075],[123.11365479500012,9.480010978000053],[123.11346443800005,9.479059194000058],[123.11222711900008,9.477108036000061],[123.10946694400003,9.477298393000071],[123.10808685600013,9.476108662000057],[123.10632605500007,9.474252682000039],[123.10556462800002,9.474252682000044],[123.1047556110001,9.475252056000047],[123.10570739500008,9.476632143000076],[123.10404177300008,9.479059194000056],[123.10228097200002,9.479963389000032],[123.10166231200003,9.482913921000033],[123.10308998800008,9.48338981300003],[123.10342311300008,9.484198829000036],[123.10342311300008,9.486768647000076],[123.10261409600004,9.486721058000056],[123.10185266900011,9.485959631000071],[123.10132918700005,9.484103651000055],[123.1005677600001,9.48486507900003],[123.10037740300004,9.486578290000068],[123.10071052700006,9.488291502000038],[123.10028222400003,9.488767395000025],[123.10142436600007,9.490337839000063],[123.10228097200002,9.491099266000047],[123.10185266900011,9.492764889000057],[123.10090088400011,9.493098014000056],[123.10071052700006,9.493716673000051],[123.1025189180001,9.49504917200005],[123.10342311300008,9.496048545000065],[123.10580257400011,9.495953367000025],[123.10684953700003,9.497381043000075],[123.10794408900006,9.497666579000054],[123.10932417600009,9.498761131000034],[123.10984765800004,9.499617737000053],[123.10970489000012,9.49823764900003],[123.10913381900001,9.497190687000055],[123.1073730180001,9.496191313000052],[123.106516412,9.494953993000022],[123.1064688230001,9.493478727000022],[123.10718266100002,9.492622121000066],[123.10837239200008,9.492241408000039],[123.11051390700004,9.492051051000034],[123.11141810200002,9.491242034000036],[123.11248885900011,9.489505028000055],[123.11070426400009,9.489671590000055],[123.10851515900004,9.487482486000033],[123.108134446,9.486292755000022],[123.10837239200008,9.48486507900003],[123.10913381900001,9.484531954000035],[123.11122774500006,9.485340971000024],[123.11256024300008,9.48500784600003],[123.11317890300006,9.484056062000034]]],[[[123.12327999900003,9.503916720000062],[123.1223674790001,9.50301138700007],[123.1221321390001,9.50203180100004],[123.12088835700001,9.500474343000064],[123.11974621500009,9.499474969000062],[123.11627220200012,9.49814247100005],[123.11493970400012,9.49861836300005],[123.11341684900003,9.498856309000075],[123.11241747500003,9.499570148000032],[123.11038766100013,9.499921489000029],[123.11179881600005,9.500759878000052],[123.11217952900004,9.502377912000043],[123.11289336800006,9.502663447000032],[123.11317890300006,9.503520053000045],[123.11455899000009,9.504471837000041],[123.11455899000009,9.505804335000052],[123.11513006100007,9.506327817000056],[123.11736675400005,9.506137460000048],[123.11812818200006,9.506613352000045],[123.11841371700007,9.508469332000063],[123.11917514500011,9.50980183000007],[123.11822336000012,9.51032531100003],[123.11769987900004,9.509706651000041],[123.1172239870001,9.508326564000072],[123.11603425600003,9.508136207000062],[123.11565354200002,9.509897008000051],[123.11455899000009,9.510658436000028],[123.11474934700004,9.512514415000053],[123.11560595300011,9.512466826000034],[123.11698604100002,9.511895756000056],[123.11794010200003,9.512751031000047],[123.11793978000004,9.511810187000039],[123.11878665300002,9.511421777000065],[123.12022007300004,9.511291881000032],[123.12178332200004,9.509480121000024],[123.1233466860001,9.508250543000031],[123.124062738,9.506374505000053],[123.12386683600003,9.505210201000066],[123.12327999900003,9.503916720000062]]]]}},{"type":"Feature","properties":{"fid":61,"objectid":1925,"lccode":"06","liqcode":"2010600060000000","mappers":"DJLBuhay","project":"Negros Occidental Multi-Hazard Mapping","province":"Negros Occidental","otherinfo":null,"datemapped":2018,"publishdate":null,"globalid":"{E5539A65-5F4C-46A4-8778-850E85BFF908}","st_area(shape)":0.021565408471292534,"st_perimeter(shape)":8.733756823540528,"liqcodepk":"201060006000000000123","creator":"SNOOPYPC","createdate":"2019-02-19T15:21:28","editor":"LENOVO","modifydate":"2019-03-10T17:50:55","codemove":"na"},"geometry":{"type":"Polygon","coordinates":[]}},{"type":"Feature","properties":{"fid":62,"objectid":1926,"lccode":"06","liqcode":"2010600060000000","mappers":"MITAbigania, DJLBuhay","project":"Negros Oriental Multi-Hazard Mapping","province":"Negros Oriental","otherinfo":null,"datemapped":2017,"publishdate":null,"globalid":"{74B2E222-6508-40FC-AC5E-08E62D8D455D}","st_area(shape)":0.007665256470503308,"st_perimeter(shape)":5.21375505636718,"liqcodepk":"201060006000000000124","creator":"SNOOPYPC","createdate":"2019-02-19T15:21:28","editor":"LENOVO","modifydate":"2019-03-10T17:50:55","codemove":"na"},"geometry":{"type":"MultiPolygon","coordinates":[[[[123.13916261700003,9.509373527000033],[123.13787770800002,9.50908799200005],[123.13411816000007,9.509659062000026],[123.13226218000013,9.508992813000077],[123.13107245000003,9.507898261000037],[123.12983513000006,9.506042281000019],[123.1293116490001,9.503329696000034],[123.12878816700005,9.50223514400005],[123.12793156100008,9.501997198000025],[123.12617076000005,9.502520679000042],[123.124790673,9.50252067900004],[123.12345817400002,9.501616484000065],[123.12188773000003,9.499189434000073],[123.1210787130001,9.498332828000057],[123.11993657200004,9.496524437000062],[123.120222108,9.49547747500003],[123.1210787130001,9.49509676100007],[123.12317263900002,9.496191313000054],[123.12379129900013,9.497381043000075],[123.12607558200011,9.498999077000065],[123.12850263200006,9.498951488000047],[123.1299778980001,9.497190687000055],[123.13126280700011,9.496905151000023],[123.13192905600009,9.497476222000046],[123.13264289400001,9.499808094000059],[123.1325477160001,9.501997198000026],[123.13264289400001,9.50466219400005],[123.13435610600006,9.506470584000056],[123.13545065800007,9.506185049000063],[123.13587896100013,9.505138086000045],[123.13773097900003,9.503765550000026],[123.13962149800011,9.502591942000038],[123.14053483400006,9.50260386900004],[123.13944815200011,9.501140592000068],[123.13901984900008,9.499237023000033],[123.13673556700007,9.496238902000071],[123.13673556700007,9.49490640400006],[123.13721145900001,9.493383549000043],[123.13711628100009,9.492431765000049],[123.136212085,9.49219381800003],[123.13564101500005,9.493478727000026],[123.1341657490001,9.493478727000026],[123.13283325100006,9.493098014000054],[123.13202423400004,9.493764263000058],[123.13021584400006,9.493098014000056],[123.12969236200003,9.491004088000068],[123.13007307600003,9.489671590000057],[123.12869298900011,9.488243913000076],[123.12826468600008,9.487101772000074],[123.12745566900003,9.48629275500002],[123.12598040300007,9.485578917000053],[123.12507620800011,9.48610239800007],[123.12502861900009,9.487339718000044],[123.12574245700011,9.488767395000023],[123.12655147400005,9.49095649900005],[123.12583763500004,9.491670337000071],[123.12398165600008,9.490766142000043],[123.12260156900004,9.491004088000066],[123.121221481,9.492717300000036],[123.11917514500011,9.492717300000036],[123.11808059300006,9.49214622900007],[123.11803300300006,9.491194445000076],[123.11736675400005,9.490099893000036],[123.11470175800004,9.489814357000055],[123.11398792000011,9.487244540000061],[123.11279818900006,9.486673469000038],[123.11248885900011,9.489505028000055],[123.11141810200002,9.491242034000036],[123.11051390700004,9.492051051000034],[123.10837239200008,9.492241408000039],[123.10718266100002,9.492622121000066],[123.1064688230001,9.493478727000022],[123.106516412,9.494953993000022],[123.1073730180001,9.496191313000052],[123.10913381900001,9.497190687000055],[123.10970489000012,9.49823764900003],[123.10984765800004,9.499617737000053],[123.11038766100013,9.499921489000029],[123.11241747500003,9.499570148000032],[123.11341684900003,9.498856309000075],[123.11493970400012,9.49861836300005],[123.11627220200012,9.49814247100005],[123.11974621500009,9.499474969000062],[123.12088835700001,9.500474343000064],[123.1221321390001,9.50203180100004],[123.1223674790001,9.50301138700007],[123.12327999900003,9.503916720000062],[123.12386683600003,9.505210201000066],[123.124062738,9.506374505000053],[123.1233466860001,9.508250543000031],[123.12178332200004,9.509480121000024],[123.12022007300004,9.511291881000032],[123.11878665300002,9.511421777000065],[123.11793978000004,9.511810187000039],[123.11794010200003,9.512751031000047],[123.11837564000008,9.514289837000035],[123.11898617800011,9.515427858000068],[123.11913760500009,9.51713491600003],[123.11983164000003,9.517673766000028],[123.12027978711453,9.518283480736653],[123.12433252222279,9.517274225477275],[123.12854133349346,9.515777557779279],[123.13258205754957,9.513878524205525],[123.13641576946688,9.511595420020436],[123.13926097744815,9.509498889790143],[123.13916261700003,9.509373527000033]]],[[[123.14815579000005,9.500090060000046],[123.1474122080001,9.499286992000068],[123.14530043700006,9.499911600000074],[123.144964146,9.500379256000029],[123.14367301200002,9.50035124900006],[123.1431291790001,9.499078789000066],[123.14214765100007,9.499168019000024],[123.14232971100012,9.500606721000052],[123.14363481400007,9.501577223000027],[123.14491377400007,9.502201831000034],[123.1455978690001,9.502201831000036],[123.14675785700003,9.50125004700004],[123.14750862399933,9.50108321026621],[123.14824288529971,9.500099475831144],[123.14815579000005,9.500090060000046]]],[[[123.15544483300005,9.480691993000049],[123.1521990870001,9.480190120000032],[123.15044005100002,9.480255536000072],[123.14796441800002,9.480838778000077],[123.14685640100005,9.479868932000047],[123.14607452200006,9.479675197000063],[123.14580014400008,9.480658070000063],[123.1460829220001,9.481281984000079],[123.14759066800003,9.481470777000027],[123.14982141300004,9.482273846000052],[123.14920337700005,9.483360881000069],[123.1498808990001,9.484147671000073],[123.15059473800011,9.483404089000034],[123.15157626500002,9.48486150900004],[123.15096396500007,9.48646512500005],[123.15217113000007,9.487240970000071],[123.15327163100005,9.488817363000063],[123.1531351473186,9.491398070632211],[123.15318536318418,9.49129254466335],[123.1546895109991,9.487113235688852],[123.15577376556226,9.4828076783576],[123.15611727070993,9.480501491769989],[123.15544483300005,9.480691993000049]]]]}}]}