{"type":"FeatureCollection","features":[{"type":"Feature","properties":{"fid":195,"objectid":2253,"lccode":"01","liqcode":"<Null>","mappers":"DJLBuhay, MJVReyes, MITAbigania, KLPapiona, KMVitto","project":"MELP","province":"Davao Oriental","otherinfo":null,"datemapped":2018,"publishdate":null,"globalid":"{106618BF-C9C2-442C-8DFA-3A2107C26CAB}","st_area(shape)":0.03977934253941522,"st_perimeter(shape)":14.106801890447542,"liqcodepk":null,"creator":null,"createdate":null,"editor":null,"modifydate":null,"codemove":null},"geometry":{"type":"Polygon","coordinates":[]}},{"type":"Feature","properties":{"fid":204,"objectid":3530,"lccode":"01","liqcode":null,"mappers":"DJLBuhay, MJVReyes, MITAbigania, KLPapiona, KMVitto","project":"MELP","province":"Davao de Oro","otherinfo":null,"datemapped":2020,"publishdate":2021,"globalid":"{B133662C-BB56-4B68-925E-E0332BEC485E}","st_area(shape)":0.05410125761039176,"st_perimeter(shape)":8.444321327772833,"liqcodepk":null,"creator":null,"createdate":null,"editor":null,"modifydate":null,"codemove":null},"geometry":{"type":"Polygon","coordinates":[[[126.10751713200011,7.779634330000022],[126.10666148700011,7.777467801000057],[126.10590091300004,7.776926167000054],[126.10388063900007,7.776761322000026],[126.10285861800004,7.776266786000063],[126.10243079600002,7.774877372000049],[126.10388063900007,7.772640169000057],[126.10406730600003,7.771638150000058],[126.10404856000002,7.769088501000055],[126.10310720300004,7.76776322200004],[126.10261484300008,7.763107918000061],[126.10233572400011,7.761760133000053],[126.10297745800005,7.760676823000042],[126.1040707830001,7.760464871000068],[126.10414208600002,7.759923215000071],[126.10568700200007,7.759334458000071],[126.10716061300002,7.758298244000057],[126.10758843600003,7.757379779000076],[126.10865799200008,7.756908770000052],[126.1104405870001,7.757733035000059],[126.11047623900005,7.756013852000023],[126.10977508500004,7.75481277600005],[126.10903827900007,7.754188685000031],[126.1074971490001,7.753846802000056],[126.1061992650001,7.752348639000047],[126.10544932200003,7.750714959000048],[126.10507516900007,7.748982833000068],[126.10395194300008,7.7479359570000375],[126.10396382700003,7.746240285000056],[126.1029180380001,7.744261994000055],[126.10158703400009,7.742589859000076],[126.10033921800003,7.74151827600002],[126.10029168300002,7.740705755000021],[126.10119486400002,7.739057158000034],[126.10126616700008,7.737726500000063],[126.1022881880001,7.737455657000054],[126.1029762280001,7.738208391000058],[126.10462755200001,7.738279603000022],[126.10542555400002,7.739010055000051],[126.10622178000006,7.738892298000054],[126.10732698800008,7.739245569000047],[126.1085510370001,7.738574353000047],[126.10833343600007,7.737909793000028],[126.10673564600005,7.737140541000032],[126.10658253000008,7.736145647000058],[126.10712496100007,7.734735447000047],[126.10619801200005,7.734582361000035],[126.10463829600009,7.73221196400004],[126.10353935500007,7.7313404780000505],[126.10323890500001,7.730555003000064],[126.10500961600009,7.7296718050000655],[126.10662583500006,7.729636477000043],[126.10669713800009,7.728364669000028],[126.10712870400003,7.726783094000041],[126.10803302500005,7.724635161000038],[126.1081399090001,7.723525470000027],[126.10908031800012,7.72107136900007],[126.11083241300004,7.719529079000041],[126.11239843400006,7.718752906000076],[126.11331601300002,7.7180443540000265],[126.11408978600002,7.716771314000028],[126.11363944100005,7.715248715000028],[126.11222351900007,7.715128218000076],[126.11110608900003,7.714704268000048],[126.110559426,7.714033013000062],[126.11107043700007,7.71287892300006],[126.11167651900007,7.712560958000041],[126.11165275100007,7.711548182000059],[126.11252028000001,7.710417637000034],[126.11227071700011,7.709734599000054],[126.11268665600004,7.7089337940000755],[126.11167175300012,7.708276345000058],[126.11028609500012,7.70869826200004],[126.10939479800004,7.708592273000024],[126.10832082700006,7.7077378700000745],[126.1082363260001,7.70675437700004],[126.1075190560001,7.706537067000054],[126.10714737600007,7.705732716000058],[126.10801378200006,7.703642431000048],[126.11025044300004,7.7021504410000725],[126.11050435100003,7.700871180000033],[126.11186666200001,7.700030622000043],[126.1134591130001,7.6996419870000645],[126.11450490200004,7.697816576000037],[126.11544365300006,7.696959130000039],[126.11562094700002,7.695518876000049],[126.116620247,7.694601479000027],[126.11793936700006,7.694978341000024],[126.11869994100005,7.69687442600002],[126.11950457000012,7.697686380000048],[126.12055161500008,7.698003791000074],[126.12296366100007,7.6969585680000705],[126.125069745,7.697769469000037],[126.12729204600011,7.6974986010000634],[126.12793331880196,7.697719079332494],[126.12478387067232,7.695807172236141],[126.12077956000893,7.6938849060695675],[126.11660569824379,7.692363398955911],[126.11230247483749,7.6912572957471825],[126.10791132276796,7.690577241233619],[126.10347451986635,7.690329777917547],[126.09903478209053,7.690517283264943],[126.09463485263689,7.691137947029108],[126.09031709082939,7.692185788856494],[126.08612306472463,7.693650715998426],[126.0820931513365,7.69551862056834],[126.07826614830887,7.697771515405363],[126.07467890075695,7.700387707235669],[126.0713659468521,7.703342005466173],[126.06835918554712,7.706605964604186],[126.06568756962861,7.7101481579750075],[126.06337682704245,7.71393448010991],[126.06144921316948,7.717928474902442],[126.0599232964352,7.722091686384067],[126.05881377931962,7.726384028753119],[126.05813135649737,7.730764172105988],[126.05788261148363,7.735189940168054],[126.05796747747375,7.737196144907694],[126.05819274500004,7.737508648000072],[126.0582046290001,7.738709774000029],[126.06035562600006,7.739710710000055],[126.06098547600006,7.740535008000052],[126.06213822100005,7.741359305000061],[126.06377820700004,7.744350310000071],[126.06195802100001,7.746054160000029],[126.06162721000011,7.747094010000069],[126.06257792699999,7.749936074000062],[126.0621025690001,7.750767948000029],[126.0622499210001,7.75147662000006],[126.06301763400006,7.75233407200005],[126.0633622690001,7.755254348000051],[126.0633385010001,7.756420098000035],[126.06320235182399,7.756722504271955],[126.065340401697,7.760336869665844],[126.06796311856422,7.76391547396583],[126.07092493086938,7.767220442410885],[126.07419732137284,7.770219940224026],[126.07774877911628,7.772885073454835],[126.08154510273542,7.7751901675215915],[126.08554972979309,7.777113014778321],[126.08972408896291,7.77863508871044],[126.09402797166935,7.779741722683402],[126.09841991959787,7.780422251509967],[126.10285762433293,7.780670114460211],[126.10729833525967,7.7804829187104065],[126.10828341357406,7.780344044013695],[126.10751713200011,7.779634330000022]],[[126.10798796200004,7.717134329000032],[126.10821799600001,7.718301083000027],[126.10788586700005,7.720062465000067],[126.1070555550001,7.7218465910000305],[126.10706030900006,7.7224966100000625],[126.10603423200007,7.723057265000023],[126.10560185000008,7.72225867000003],[126.10527171700005,7.719049040000075],[126.1059271680001,7.71694116000003],[126.10675913900002,7.716156174000045],[126.10798796200004,7.717134329000032]]]}}]}