{"type":"FeatureCollection","features":[{"type":"Feature","properties":{"fid":11,"objectid":1842,"lccode":"01","liqcode":"2010600010000000","mappers":"DJLBuhay, MJVReyes, MITAbigania, KLPapiona, KMVitto","project":"MELP","province":"Guimaras","otherinfo":null,"datemapped":2017,"publishdate":null,"globalid":"{1FCD3FC1-726A-4724-83FA-C9E3DF1A3949}","st_area(shape)":0.004310194063054239,"st_perimeter(shape)":2.622135708013885,"liqcodepk":"201060001000000000014","creator":"SNOOPYPC","createdate":"2019-02-19T15:21:28","editor":"LENOVO","modifydate":"2019-03-10T17:53:06","codemove":"na"},"geometry":{"type":"MultiPolygon","coordinates":[[[[122.63849607800012,10.453252000000003],[122.63667783200002,10.453637662000062],[122.63676102000011,10.455671143000075],[122.6372890770001,10.456124096000053],[122.63723934900008,10.45842333300004],[122.63562313000011,10.460164622000036],[122.63615790900009,10.461403386000029],[122.63742949300001,10.460795691000044],[122.6394735340001,10.461344953000037],[122.64018657200006,10.462338298000073],[122.64097091300005,10.462572025000043],[122.64212365800005,10.462385043000038],[122.64160076300006,10.463857524000046],[122.64173148700003,10.464733997000051],[122.64114917300003,10.465844194000056],[122.64126638800009,10.466980824000075],[122.64023814000005,10.467613756000045],[122.641324757,10.468739681000045],[122.64117767900005,10.47045044200007],[122.64259093600003,10.471373343000037],[122.64220300800002,10.472306131000039],[122.64281906900011,10.472689706000038],[122.64279390900003,10.473527195000031],[122.64357891600004,10.47416221900005],[122.64390351300005,10.475694054000028],[122.64358825700003,10.476507282000057],[122.64194416600003,10.476541283000072],[122.6407348680001,10.476910788000055],[122.63953889100004,10.476239386000032],[122.6373506440001,10.476416307000024],[122.63674525800002,10.477217223000023],[122.63514870000007,10.477933224000022],[122.63532861000012,10.479117924000038],[122.63755321300005,10.478881239000032],[122.64006670900005,10.479685787000047],[122.64156731800007,10.47832356600003],[122.64246034500002,10.479628732000037],[122.64219368800003,10.480226651000065],[122.64092298700007,10.481397709000017],[122.64292402000001,10.482139428000037],[122.642921838,10.483996322000053],[122.6436173720001,10.48466713600004],[122.64510800100004,10.48357767900006],[122.64505149400009,10.482275872000058],[122.64586415300006,10.482027939000032],[122.64715956200006,10.48246971000003],[122.64779707600009,10.483140450000063],[122.64758315700011,10.484135657000026],[122.64864697900009,10.485182566000049],[122.64946325800007,10.48494419900004],[122.64929079700005,10.483541759000047],[122.6506839870001,10.483064750000038],[122.65206877100003,10.483916016000023],[122.6530563570001,10.482926458000062],[122.65449266000009,10.482798845000046],[122.65500122300013,10.48206718100005],[122.655987933,10.48183855700006],[122.656777227,10.482669546000066],[122.65817070300011,10.481924498000069],[122.65909912500003,10.481925521000049],[122.66039712400006,10.48007004500005],[122.66155721700011,10.480454180000036],[122.66126497200001,10.482349049000046],[122.66056702700007,10.483803176000038],[122.66108862700003,10.484378046000074],[122.66195898600006,10.484417284000072],[122.66246086300009,10.485336710000068],[122.6614158010001,10.48585243900004],[122.6603119350001,10.48705725800005],[122.65953810800012,10.487171268000054],[122.658704768,10.488606098000048],[122.65854856300007,10.489907669000047],[122.65955272400004,10.491382809000072],[122.65939690800008,10.492339803000052],[122.65848743100003,10.49266423700004],[122.6572088160001,10.49442400700002],[122.65535198700003,10.494345371000065],[122.65444149600013,10.49555038300002],[122.65449847900004,10.496469325000021],[122.6555616490001,10.497083094000063],[122.65583156100001,10.497868269000037],[122.65660530600009,10.497849984000027],[122.65788264200013,10.497238815000058],[122.65908189000004,10.497259282000075],[122.66026308400001,10.49613112700007],[122.66190741100002,10.495979781000075],[122.6618903950001,10.493893142000047],[122.66287760500005,10.493243347000034],[122.66346362109455,10.493232821879063],[122.66346996982904,10.493107655751832],[122.66325474272608,10.488675016720645],[122.66260156517201,10.484284598898073],[122.66151674570753,10.47997868235036],[122.66001074851722,10.475798731666297],[122.65809809201255,10.471784996777194],[122.65747657269263,10.470756147337827],[122.65718133600001,10.470680772000037],[122.65660058000005,10.47113478400007],[122.65734898100003,10.472092778000045],[122.65710621200003,10.472977887000072],[122.65550273400004,10.474443559000061],[122.65439645600007,10.475004288000035],[122.65247305800004,10.474407157000032],[122.65118219700001,10.473551564000047],[122.64764679300005,10.473134793000042],[122.64669868200008,10.472415842000032],[122.6460096830001,10.472379164000076],[122.644874285,10.47159418900003],[122.64532287500003,10.470464051000022],[122.64513175000002,10.46850164500006],[122.64399292600001,10.465491255000076],[122.64414122300003,10.462721629000043],[122.64310970400004,10.461945868000042],[122.64303796100012,10.461275770000041],[122.64392761200008,10.460357187000056],[122.6440253080001,10.459507815000046],[122.6427548370001,10.459953342000064],[122.64121686600004,10.459477766000074],[122.64075209700002,10.458806387000038],[122.63904618600009,10.458200180000059],[122.63933052000006,10.457096029000068],[122.64014445000011,10.456394999000052],[122.64067237700009,10.456549921000034],[122.64128484700008,10.457902425000043],[122.64203841900009,10.457363122000059],[122.64275258300007,10.457930635000025],[122.64385871600008,10.45784485000007],[122.64330523941625,10.455558857369908],[122.64320607882298,10.455485892550149],[122.63936312169943,10.453200108227607],[122.63867925542964,10.45287901102312],[122.63849607800012,10.453252000000003]],[[122.64772152900004,10.477352668000039],[122.64765260200011,10.475966298000058],[122.64807191000011,10.475351324000028],[122.64990857000011,10.474161345000025],[122.65065620000007,10.474727224000047],[122.64960379800004,10.475805182000045],[122.64996414100005,10.47638663500004],[122.65099384100007,10.476752618000035],[122.65207046500007,10.477588807000075],[122.65226812600008,10.478225207000037],[122.64967421900008,10.478077540000072],[122.64840579600002,10.478808407000031],[122.64747300500005,10.47833120000007],[122.64772152900004,10.477352668000039]]],[[[122.60781700900009,10.449161970000036],[122.60790284800011,10.450090526000052],[122.60729316900006,10.450453479000032],[122.60583197100004,10.450330458000055],[122.60501919000001,10.451627917000051],[122.60612119500003,10.451926030000035],[122.60720577000008,10.450740518000032],[122.6084436330001,10.450665502000051],[122.60910065600002,10.451087478000035],[122.6089835250001,10.45193920500003],[122.6100472700001,10.451911823000044],[122.61047087300005,10.453386382000074],[122.61105087300005,10.45354982400005],[122.61291864300006,10.455331754000042],[122.61464199400007,10.45517153900005],[122.61500445500008,10.454341785000052],[122.61484402200006,10.453360103000023],[122.61239657600005,10.452326333000029],[122.61180800300008,10.451301436000051],[122.61211367500005,10.45038658100003],[122.6113067550001,10.45004692900005],[122.61098879100008,10.449146801000042],[122.61215872600008,10.449253545000031],[122.61272078600007,10.44830665300003],[122.61247739046195,10.44817559762963],[122.60891955815046,10.448693549912559],[122.60746257617842,10.449052891951244],[122.60781700900009,10.449161970000036]]],[[[122.59715474300005,10.454113895000035],[122.59660808000001,10.455270875000052],[122.59581185500008,10.455972074000043],[122.5972617000001,10.457070615000019],[122.59779647800009,10.456848569000043],[122.59924632,10.455761715000051],[122.59919878500013,10.453436066000052],[122.59956718800004,10.452921850000052],[122.60152804100007,10.45212715100007],[122.60283527800004,10.452688114000068],[122.60516595008056,10.449619303879347],[122.60456921259293,10.449766472884866],[122.60034602511541,10.451256241242842],[122.59681129214961,10.452905582167118],[122.59715474300005,10.454113895000035]]]]}},{"type":"Feature","properties":{"fid":21,"objectid":1867,"lccode":"07","liqcode":"2010600070000000","mappers":"DJLBuhay","project":"Negros Occidental Multi-Hazard Mapping","province":"Negros Occidental","otherinfo":null,"datemapped":2018,"publishdate":null,"globalid":"{BDFFB75F-E1DC-47A8-B9CF-113E0CE8D2E7}","st_area(shape)":0.051419613090430895,"st_perimeter(shape)":11.901738684521376,"liqcodepk":"201060007000000000059","creator":"SNOOPYPC","createdate":"2019-02-19T15:21:28","editor":"LENOVO","modifydate":"2019-03-10T17:50:55","codemove":"na"},"geometry":{"type":"Polygon","coordinates":[]}},{"type":"Feature","properties":{"fid":46,"objectid":1895,"lccode":"05","liqcode":"2010600050000000","mappers":"DJLBuhay","project":"Negros Occidental Multi-Hazard Mapping","province":"Negros Occidental","otherinfo":null,"datemapped":2018,"publishdate":null,"globalid":"{149718D2-4D93-4457-9604-37CB70EA27A9}","st_area(shape)":0.01745435689673941,"st_perimeter(shape)":6.697527242466418,"liqcodepk":"201060005000000000089","creator":"SNOOPYPC","createdate":"2019-02-19T15:21:28","editor":"LENOVO","modifydate":"2019-03-10T17:50:55","codemove":"na"},"geometry":{"type":"Polygon","coordinates":[]}},{"type":"Feature","properties":{"fid":59,"objectid":1908,"lccode":"05","liqcode":"2010600050000000","mappers":"PJDelosReyes, ACPidlaoan","project":"READY","province":"Iloilo","otherinfo":null,"datemapped":2010,"publishdate":null,"globalid":"{282D04BA-68E2-41E5-9B8A-0D8D85396F2D}","st_area(shape)":0.06128738608791496,"st_perimeter(shape)":10.692281506054618,"liqcodepk":"201060005000000000103","creator":"SNOOPYPC","createdate":"2019-02-19T15:21:28","editor":"LENOVO","modifydate":"2019-03-10T17:50:55","codemove":"na"},"geometry":{"type":"Polygon","coordinates":[]}},{"type":"Feature","properties":{"fid":61,"objectid":1925,"lccode":"06","liqcode":"2010600060000000","mappers":"DJLBuhay","project":"Negros Occidental Multi-Hazard Mapping","province":"Negros Occidental","otherinfo":null,"datemapped":2018,"publishdate":null,"globalid":"{E5539A65-5F4C-46A4-8778-850E85BFF908}","st_area(shape)":0.021565408471292534,"st_perimeter(shape)":8.733756823540528,"liqcodepk":"201060006000000000123","creator":"SNOOPYPC","createdate":"2019-02-19T15:21:28","editor":"LENOVO","modifydate":"2019-03-10T17:50:55","codemove":"na"},"geometry":{"type":"Polygon","coordinates":[]}}]}