{"type":"FeatureCollection","features":[{"type":"Feature","properties":{"fid":200,"objectid":3303,"lccode":"01","liqcode":null,"mappers":"DJLBuhay, MJVReyes, MITAbigania, KLPapiona, KMVitto","project":"MELP","province":"Quezon","otherinfo":null,"datemapped":2017,"publishdate":null,"globalid":"{BC782275-8EAF-4B58-974B-C12246047CD2}","st_area(shape)":0.045970309448805105,"st_perimeter(shape)":30.915538535941515,"liqcodepk":null,"creator":null,"createdate":null,"editor":null,"modifydate":null,"codemove":null},"geometry":{"type":"Polygon","coordinates":[]}},{"type":"Feature","properties":{"fid":201,"objectid":3456,"lccode":"01","liqcode":null,"mappers":"DJLBuhay, MJVReyes, MITAbigania, KLPapiona, KMVitto","project":"MELP","province":"Marinduque","otherinfo":null,"datemapped":2018,"publishdate":null,"globalid":"{C1C76F22-BF62-4BCA-9566-6C4AB9AA7AC0}","st_area(shape)":0.008373951507563988,"st_perimeter(shape)":5.3853957391960225,"liqcodepk":null,"creator":"SDE","createdate":"2019-10-29T15:36:34","editor":"SDE","modifydate":"2019-10-29T15:38:36","codemove":null},"geometry":{"type":"MultiPolygon","coordinates":[[[[122.05382705700002,13.477554827000061],[122.0538623672571,13.477558064680771],[122.0538349571108,13.4775129163658],[122.05382705700002,13.477554827000061]]],[[[122.05711234500005,13.484897935000046],[122.05637403000004,13.485327705000032],[122.05537451700002,13.48526104800004],[122.05399321400012,13.485839855000053],[122.05275131500002,13.486722082000028],[122.05132292500004,13.48956967400005],[122.05005983700006,13.49010285200006],[122.04839305100006,13.489887606000023],[122.04544929400002,13.489942953000025],[122.04416113500008,13.48746935400004],[122.04486331400007,13.486079797000059],[122.04483126800007,13.484917092000044],[122.04538372600008,13.484294842000054],[122.04653929600009,13.484239590000069],[122.0458996750001,13.482951370000023],[122.04530322300003,13.480969886000024],[122.04420982200007,13.48085807900003],[122.04228765700009,13.482373437000033],[122.04165663500011,13.483502698000049],[122.04078925400007,13.484123831000035],[122.04034141200009,13.484961403000055],[122.03905580000003,13.485293033000062],[122.03796800300007,13.485961690000067],[122.03724918300009,13.485620309000069],[122.0360314300001,13.48615806500004],[122.03412417000006,13.484639326000034],[122.03367855300007,13.48388405700007],[122.03339509900002,13.482230214000028],[122.0340671890001,13.480237868000073],[122.031194722,13.48063453000003],[122.03008696400002,13.481602506000058],[122.02921221000007,13.48127873100003],[122.02900142400006,13.48051243100002],[122.02819377800006,13.480524110000033],[122.0279757820001,13.481782276000045],[122.02838601600001,13.482688717000029],[122.02808416800008,13.483752622000054],[122.03058547100011,13.485484634000045],[122.03361745900008,13.48669151100006],[122.03453360300011,13.487267731000031],[122.03473737200011,13.488481258000032],[122.03372142200008,13.490306204000033],[122.03243296900007,13.491749318000076],[122.03089557800001,13.492749640000056],[122.02988231300003,13.493061486000043],[122.029181686,13.493945570000047],[122.02764069600005,13.49417543800007],[122.02664063500005,13.494953417000037],[122.02388772500001,13.495553084000052],[122.02275066200002,13.496337376000042],[122.02240381300011,13.496973133000038],[122.02119597000001,13.497548228000028],[122.02014951600006,13.49721397200005],[122.0182472130001,13.497256275000037],[122.01516684600006,13.497925954000033],[122.01245270400013,13.499345228000035],[122.01171660200008,13.499358449000056],[122.01112240300007,13.49864274700008],[122.01169212400009,13.497417833000043],[122.0115626280001,13.496476732000076],[122.01287038900013,13.496224018000078],[122.01300219000005,13.495175143000042],[122.0125729680001,13.49483860400005],[122.01162562600007,13.495546525000066],[122.01110153700006,13.495441299000055],[122.00974972900008,13.496280951000074],[122.00853789700011,13.496119219000036],[122.00734911200004,13.496849660000066],[122.00649453400001,13.495821199000034],[122.00747160200001,13.495057684000072],[122.0060773780001,13.491928106000048],[122.00504909900006,13.49215501400005],[122.0046445910001,13.491317404000029],[122.00669466600006,13.489855436000028],[122.00622005800004,13.48852267000006],[122.00467346200001,13.48872914900005],[122.0042947170001,13.487491218000057],[122.00507310800003,13.486808240000075],[122.00420243000008,13.486235262000037],[122.00412636300007,13.485179980000051],[122.00345025000001,13.484922196000069],[122.00291289000008,13.485677962000066],[122.00300943300012,13.486741045000032],[122.001587674,13.488414662000025],[122.00126076500011,13.489437189000057],[122.00069168200004,13.489913347000025],[121.99973351700008,13.48990283100005],[121.9985676240001,13.490910404000031],[121.99633749400004,13.491192177000073],[121.99525372000005,13.490500206000036],[121.99452022400011,13.490619265000078],[121.9937553000001,13.489942442000029],[121.99321256200007,13.490612251000071],[121.99351371500006,13.491505589000042],[121.99469778000004,13.492031988000065],[121.99535557800004,13.492771831000027],[121.99559560400009,13.493802183000073],[121.99658333200011,13.493818208000048],[121.99694481000004,13.49437259600006],[121.99891439400007,13.495700912000073],[122.00180438100004,13.496726687000034],[122.00533608600006,13.498635279000041],[122.00812907400005,13.499488368000067],[122.0099215550001,13.499766922000047],[122.01066812200008,13.500217705000066],[122.01326669800005,13.499610774000077],[122.01633367700005,13.49982854800004],[122.018125284,13.499358503000053],[122.02101616700007,13.499658343000021],[122.02183170400009,13.50101574300004],[122.02408227700006,13.50062263500007],[122.02533152900004,13.501201606000052],[122.02621131800005,13.501262435000058],[122.0275233550001,13.500827375000028],[122.02904640100007,13.50140739000005],[122.03309589600008,13.50107857000006],[122.03409310100005,13.501120688000071],[122.03491622500009,13.500683704000037],[122.03523335000011,13.499632383000058],[122.03633447800007,13.498738760000034],[122.03694342100003,13.498920368000029],[122.03767615800007,13.500062786000058],[122.03855411000006,13.500582856000053],[122.03943398,13.50062450200005],[122.04096095700005,13.500228468000047],[122.04218887700006,13.499643869000064],[122.04384067600006,13.499207626000043],[122.04561386400007,13.499186936000056],[122.0468395690001,13.499962203000052],[122.04741922800008,13.501734595000073],[122.04750941500004,13.503648654000074],[122.0472549850001,13.50554973800007],[122.0461874330001,13.508085587000037],[122.0450290000001,13.509823392000044],[122.04423561100009,13.51058957600003],[122.0414619730001,13.511929719000024],[122.04029984700003,13.512041496000052],[122.0371609230001,13.511718476000054],[122.03382336300001,13.512042762000021],[122.03294621200006,13.511316952000069],[122.03184340000007,13.511614931000054],[122.03040354200003,13.511363633000029],[122.02830045100008,13.511400505000038],[122.02712292300008,13.511776811000063],[122.02651747900008,13.511001275000067],[122.02512069500006,13.510705176000043],[122.02338866000004,13.51092212000003],[122.02070781100008,13.513207434000035],[122.01922475000003,13.51399526800003],[122.01844506500004,13.515032563000034],[122.01872827400008,13.516567213000029],[122.0207706430001,13.51810616700004],[122.02165371100011,13.517377627000032],[122.02136884000005,13.516267119000078],[122.02297636700006,13.516224793000047],[122.02438243200005,13.517171623000023],[122.02559291000011,13.516183303000048],[122.02632659700011,13.516114392000077],[122.02665611200008,13.51684589800004],[122.02791370700004,13.517799833000023],[122.03027350900004,13.517517141000042],[122.03061252400005,13.518319818000064],[122.03344708400003,13.519950353000068],[122.03379921700004,13.521347097000046],[122.03336013800003,13.522505190000063],[122.03105026100003,13.52240057600005],[122.03065701000004,13.523871289000056],[122.02801017200011,13.524517789000072],[122.02792237500012,13.525067638000051],[122.03053794300001,13.52586704600003],[122.03246626300006,13.525674917000059],[122.03278521500012,13.52446412300003],[122.03383043800011,13.523535227000025],[122.03469374100008,13.52224680300003],[122.03480638400003,13.521594185000025],[122.0363535450001,13.519151693000026],[122.03424930800008,13.51807310600003],[122.03308228800006,13.517990859000063],[122.02953743900002,13.516369986000031],[122.02788611000005,13.516143834000044],[122.02491464700007,13.514225437000052],[122.02431230800005,13.513256672000068],[122.02846004700005,13.51238196100007],[122.02940181400004,13.511797146000049],[122.03256988100009,13.511847672000043],[122.03397894600006,13.51222780100005],[122.0364070810001,13.512357869000027],[122.03848092800001,13.512774894000072],[122.04049507900004,13.513450023000072],[122.04406106800002,13.513639356000056],[122.04513425900006,13.514259426000024],[122.04556717000003,13.514942837000037],[122.04661926600009,13.51429498400006],[122.04831337900009,13.512460669000065],[122.04896378400008,13.508068725000046],[122.04872142600006,13.507240255000054],[122.0479109920001,13.50648284300007],[122.04819170300004,13.505971990000033],[122.05112231100009,13.50671031500008],[122.05063672700011,13.505866440000032],[122.04921925500004,13.505765381000057],[122.04962694400001,13.503437215000076],[122.05012824300002,13.50277888100004],[122.05062185200008,13.500355112000022],[122.05183993500009,13.498630795000048],[122.05185541500009,13.497805562000053],[122.05278350300011,13.496002038000029],[122.05292956000005,13.495227533000048],[122.05431984400002,13.49294787600007],[122.05568159800009,13.491751847000044],[122.05676578900012,13.490363095000077],[122.05676561400003,13.489513654000062],[122.05785005500002,13.488206963000037],[122.05805648697248,13.487706148164742],[122.05775773847574,13.486519689995704],[122.05719312263118,13.484956542876313],[122.05711234500005,13.484897935000046]]],[[[121.97575054100002,13.525266546000069],[121.97651977300008,13.524896526000079],[121.97737003100008,13.523871398000034],[121.97765467300009,13.522621693000078],[121.97893474800003,13.521269401000042],[121.98034293700006,13.52140545900005],[121.98093789800008,13.522103229000038],[121.9821209930001,13.522548200000074],[121.9836541740001,13.524198998000031],[121.98460540500004,13.524723141000038],[121.98618740800009,13.524568484000039],[121.98806373500007,13.524863128000046],[121.98885867400008,13.525349546000028],[121.99006643700012,13.524177505000068],[121.99122703000012,13.524364344000048],[121.99166277800009,13.523935520000064],[121.99385199900007,13.523657275000058],[121.99509661900002,13.524182558000065],[121.99668847100007,13.52400953400007],[121.99713342500002,13.52283918300003],[121.99872333100008,13.522642217000053],[121.99951306700007,13.523793587000057],[121.99933519500007,13.525407551000058],[121.99950233200002,13.52636506500005],[121.99857329300005,13.528038751000052],[121.99751301400009,13.529403457000058],[121.99653974700006,13.52994563000004],[121.99590232000003,13.530952429000022],[121.9949588080001,13.531183561000036],[121.99462579400007,13.532195385000021],[121.99573141300004,13.53259906200003],[121.99705676400004,13.532333745000075],[121.99778046000006,13.53149927900006],[121.99826968700006,13.529394255000055],[121.99946856900011,13.52686962000007],[122.0000975260001,13.526128664000053],[122.00003127100001,13.52443],[122.00037151100004,13.52102852200005],[121.99965956000005,13.520194244000038],[121.99967020700001,13.518974660000028],[121.99874465800009,13.518207413000026],[121.99901994600009,13.516579287000067],[121.99886323500004,13.515944141000036],[121.9969887630001,13.51506040400005],[121.99654248300011,13.513698323000028],[121.99548049900011,13.512723252000056],[121.99382607100007,13.511998980000042],[121.9935068960001,13.512909092000031],[121.99497135100012,13.514695360000076],[121.99515351100001,13.515499181000054],[121.99436588900005,13.517935973000021],[121.99292783300007,13.518073721000066],[121.99228570200012,13.517296094000072],[121.99112060100002,13.518798432000041],[121.98950480200006,13.518570250000037],[121.98916765000001,13.519678826000073],[121.98835666400008,13.520635070000026],[121.98729204800009,13.520379311000053],[121.98676626400004,13.51984135200007],[121.98621423600002,13.518483761000027],[121.98564512900009,13.517971929000055],[121.984451508,13.518193146000046],[121.98200636600008,13.51770788400006],[121.98185570800003,13.51709097400004],[121.9824623070001,13.515957599000046],[121.98209750800004,13.515546297000068],[121.98083580500008,13.51542772700003],[121.97714206100011,13.516442820000066],[121.97658694600013,13.515770749000067],[121.97530040600009,13.51550722400003],[121.97470032800005,13.51610630500005],[121.97484594200012,13.517636785000034],[121.97344754300003,13.517611760000024],[121.97222917500005,13.518203235000046],[121.97157098321247,13.518322277541822],[121.9726685870282,13.52061789947553],[121.97498311510051,13.524432467303146],[121.9755998638805,13.525253300672734],[121.97575054100002,13.525266546000069]]],[[[122.01129860700007,13.538718402000027],[122.01257897200004,13.538905260000034],[122.01245614100003,13.537861813000063],[122.01102128700006,13.537195919000055],[122.01147457700007,13.536365253000039],[122.01237133200004,13.536486793000048],[122.01446351300002,13.534628887000057],[122.01428203700006,13.533575639000047],[122.01329184500003,13.534174550000042],[122.01243221200002,13.533941515000036],[122.01112731,13.534750577000066],[122.0095318000001,13.535317477000033],[122.00786060000007,13.535052505000065],[122.00685354900008,13.534297704000037],[122.00601377900011,13.534729492000052],[122.00468649400011,13.534662261000049],[122.00400638600001,13.53417874000007],[122.00308563500006,13.535122349000059],[122.00318818000007,13.535938866000038],[122.00529958900006,13.535289440000042],[122.00750824500005,13.53557584300006],[122.01133222600004,13.535485987000072],[122.0102472530001,13.536412117000054],[122.01010545699998,13.537370907000025],[122.00797757600004,13.53747012200006],[122.00848361900012,13.538343655000064],[122.00843736900003,13.539910187000032],[122.00889716400002,13.54002934400006],[122.00997087700011,13.539253020000045],[122.01129860700007,13.538718402000027]]],[[[122.02755829300008,13.532691476000023],[122.02995985500003,13.532912768000072],[122.03249925100012,13.529594659000054],[122.03142695100009,13.528795800000067],[122.03040315800001,13.529161824000026],[122.03008829700002,13.530316301000028],[122.02896199100009,13.530730557000025],[122.02929667900004,13.53190327900006],[122.02804586600007,13.532066592000037],[122.02686566700004,13.530698492000054],[122.02619931200002,13.53073178100004],[122.02494773700005,13.531512423000036],[122.02400666200005,13.533037426000023],[122.02377206200002,13.534748064000041],[122.02332458200011,13.535654038000077],[122.02446772100006,13.535916847000067],[122.02552028400008,13.535350291000043],[122.0252882630001,13.53478771500005],[122.02648096500003,13.53308198800005],[122.02755829300008,13.532691476000023]]],[[[122.0050288870001,13.543464526000035],[122.00656406000006,13.543872505000023],[122.00743449100004,13.543521930000052],[122.00800939000011,13.54403133900007],[122.00948565100009,13.544152014000074],[122.00955640600012,13.543597324000075],[122.00829545900001,13.543439231000034],[122.0078865370001,13.542997459000048],[122.00519348400009,13.541235981000057],[122.00613597100003,13.540636667000058],[122.00599313200007,13.539707959000054],[122.0050838840001,13.538863759000039],[122.00437998200006,13.53996635900006],[122.00473832000011,13.540758794000055],[122.00372033600003,13.542229332000034],[122.00369768900008,13.542925074000037],[122.00421654345242,13.543751157206156],[122.00430367967121,13.543772881050742],[122.00459507194542,13.543816357138903],[122.0050288870001,13.543464526000035]]]]}}]}