{"type":"FeatureCollection","features":[{"type":"Feature","properties":{"fid":169,"objectid":9611,"lccode":"05","liqcode":"2010600050000000","mappers":"PJDelosReyes, ACPidlaoan","project":"READY","province":"Zambales","otherinfo":"hazard boundary with Pangasinan updated on 2024","datemapped":2009,"publishdate":null,"globalid":"{05DFCAB5-92FE-456B-AE95-AC75BF442301}","st_area(shape)":0.002185593290381342,"st_perimeter(shape)":1.003530961980007,"liqcodepk":"201060005000000000115","creator":"SNOOPYPC","createdate":"2019-02-19T15:21:28","editor":"LENOVO","modifydate":"2019-03-10T17:50:55","codemove":"na"},"geometry":{"type":"Polygon","coordinates":[[[119.96534179100003,15.456217397000048],[119.96687615500001,15.454944713000032],[119.96738636300005,15.45321698000004],[119.96797425900002,15.452401679000047],[119.96877289800013,15.453765180000062],[119.97021195700006,15.454872742000074],[119.97109826500004,15.45438507700004],[119.97132923100003,15.453094436000061],[119.97111111100001,15.451415498000076],[119.97479140000007,15.450583757000063],[119.97554872500005,15.450623440000074],[119.97668383800011,15.451785675000052],[119.97906040900011,15.453053046000033],[119.9799087040001,15.453094046000045],[119.9812597780001,15.451906859000074],[119.98145830300008,15.450762911000028],[119.97964862400009,15.450120725000032],[119.97950605200003,15.449501353000072],[119.98196667800005,15.44915264200006],[119.981594319,15.447648008000042],[119.9816694330001,15.446649264000026],[119.98030937800002,15.446366120000054],[119.97831918200008,15.445633355000037],[119.97622525600002,15.445781198000082],[119.97541464000004,15.445240821000025],[119.97393547000001,15.444809039000056],[119.9727785570001,15.44514605100005],[119.97027066900013,15.44458255400002],[119.96989795400009,15.445194881000075],[119.96768156100006,15.445429171000058],[119.9663398890001,15.44596945500007],[119.9643013880001,15.448558463000037],[119.96178485400003,15.44858273700004],[119.96098394100012,15.449453869000024],[119.9591594310001,15.44984041300006],[119.95830129800002,15.450475480000023],[119.95693939800003,15.452397408000024],[119.95599887800006,15.454035592000022],[119.9584866240001,15.45381509400005],[119.96054628400009,15.453862962000073],[119.963773563,15.454181498000029],[119.96400618200005,15.454850858000045],[119.96355896500005,15.45643156500006],[119.96534179100003,15.456217397000048]]]}},{"type":"Feature","properties":{"fid":172,"objectid":9614,"lccode":"07","liqcode":"2010600070000000","mappers":"PJDelosReyes, ACPidlaoan","project":"READY","province":"Zambales","otherinfo":"hazard boundary with Pangasinan updated on 2024","datemapped":2009,"publishdate":null,"globalid":"{E247AAA7-6CC5-43B6-B432-1A47723CF308}","st_area(shape)":0.03098955954725758,"st_perimeter(shape)":4.795855471632837,"liqcodepk":"201060007000000000080","creator":"SNOOPYPC","createdate":"2019-02-19T15:21:28","editor":"LENOVO","modifydate":"2019-03-10T17:50:55","codemove":"na"},"geometry":{"type":"MultiPolygon","coordinates":[[[[119.92724575700005,15.46347984200003],[119.92862064700012,15.463562480000062],[119.92977461500004,15.463070141000065],[119.93131799300009,15.462837324000073],[119.93247156400002,15.462376651000058],[119.93290725100007,15.461715361000067],[119.93233584400002,15.460468211000034],[119.9296937150001,15.459668925000075],[119.92937790200007,15.458870110000081],[119.93023662500002,15.458405447000077],[119.93262831400011,15.458406817000022],[119.93477023500009,15.459802825000054],[119.93689148500005,15.460372404000054],[119.94048633600003,15.458769765000053],[119.94153695500005,15.458625392000044],[119.94460112500006,15.457460142000055],[119.94607425400011,15.457544021000043],[119.94716455200013,15.456923499000027],[119.9474710180001,15.456133367000067],[119.94954661300007,15.453111377000027],[119.94973645900006,15.451334517000074],[119.94853471800002,15.450618850000067],[119.94741727000007,15.450857677000046],[119.94575040900008,15.450580477000072],[119.94279811700005,15.450825749000044],[119.94158708300007,15.450745476000064],[119.94103815300002,15.45019767500002],[119.94040543900007,15.44866369600004],[119.93960007700002,15.44773101800007],[119.93935751685352,15.447642362020614],[119.93709190655177,15.449319131609371],[119.93374929241118,15.452339175857666],[119.93072788280425,15.455662420177836],[119.92805678417155,15.459256872760331],[119.92592457824416,15.462816102845915],[119.92724575700005,15.46347984200003]]],[[[119.95486874800008,15.52705891100004],[119.95414040034113,15.527176936556934],[119.95421817641461,15.527202748069724],[119.95604421885994,15.527620299651426],[119.95486874800008,15.52705891100004]]],[[[119.96698826400008,15.528483607000055],[119.96493829300006,15.52764921000005],[119.96310029400003,15.528236628000059],[119.96301656581736,15.528785886081963],[119.96319522781673,15.528809132165728],[119.96721863308265,15.528946575697702],[119.96698826400008,15.528483607000055]]],[[[119.96918304100006,15.501414010000074],[119.96997334200012,15.50215313800004],[119.97092232300008,15.502311777000045],[119.9730819030001,15.501855863000063],[119.97474372400006,15.501199006000036],[119.9756948280001,15.501212032000062],[119.97576114500009,15.500096269000037],[119.97458450300007,15.498380999000057],[119.96920126500004,15.49813937500005],[119.96637485200004,15.497829469000065],[119.96427483300012,15.498037874000032],[119.9634426670001,15.49758587400004],[119.96262586400009,15.496083508000027],[119.96247589800011,15.494387],[119.96325799600004,15.493482773000041],[119.96514236300004,15.493678027000046],[119.96620150300011,15.492947046000044],[119.96787472200005,15.493241121000038],[119.96894752900006,15.493967513000028],[119.97031131900007,15.49391841700003],[119.9711588040001,15.493320017000029],[119.97072232000006,15.492094086000066],[119.96983511700012,15.490624630000063],[119.96910726000011,15.490208030000074],[119.96815936400002,15.490499992000023],[119.96672977100003,15.490277066000026],[119.96550135700011,15.490632965000028],[119.96373228300003,15.489727543000074],[119.96216736300005,15.489197678000039],[119.9615374650001,15.48925681800006],[119.9603856750001,15.491545438000056],[119.95911091400001,15.492680127000028],[119.95919488000006,15.494104617000062],[119.9580093840001,15.493918846000046],[119.95746273200007,15.493064144000071],[119.95642639900007,15.492236553000058],[119.95516849700003,15.49221922400005],[119.954719704,15.491840190000056],[119.95473708200007,15.490654351000044],[119.95415999000011,15.48949417500006],[119.95305829900008,15.48836062200007],[119.95182251100005,15.489224698000044],[119.95056960500006,15.488868510000033],[119.9502296710001,15.488219956000023],[119.95246914200006,15.48564135300006],[119.95636698700004,15.486745626000076],[119.95753593500002,15.485677292000046],[119.95862254400002,15.485454992000026],[119.95945266900003,15.486042570000052],[119.96088568400012,15.486028422000057],[119.9622267850001,15.485131788000036],[119.96340234200012,15.485995208000077],[119.96457204800005,15.48726516000005],[119.96645438500003,15.487595964000034],[119.96712316300011,15.487266324000071],[119.96865232300001,15.485457245000074],[119.96952828200004,15.485299801000053],[119.9706631470001,15.484163117000035],[119.97203222400005,15.483741307000058],[119.97290183900009,15.484024326000048],[119.97545687600007,15.483754329000021],[119.97580970600008,15.483521900000024],[119.97564053800012,15.480740588000057],[119.97419521200004,15.479195808000037],[119.97197776300006,15.480283842000057],[119.97015743500003,15.480496072000046],[119.96856108200006,15.479728665000035],[119.96657550300006,15.479294729000056],[119.96592644600004,15.478269189000057],[119.96598171600012,15.47688045900003],[119.96550689400009,15.475891165000066],[119.96370787300009,15.474646444000031],[119.96283245500003,15.474770025000055],[119.96130532900007,15.476443498000036],[119.96032256700005,15.476734956000026],[119.95792550100009,15.478159278000083],[119.95685105600012,15.479940589000021],[119.95579990100009,15.480129519000059],[119.95546045600007,15.479447034000033],[119.95455795200006,15.479027903000034],[119.95382123900005,15.479221153000022],[119.95221703400011,15.478995653000029],[119.95091178900009,15.477452680000058],[119.9502169650001,15.477171995000045],[119.95045144900007,15.475480797000042],[119.94902042900002,15.475359409000076],[119.94718133800006,15.476859009000062],[119.94577628700006,15.477347965000032],[119.9430938370001,15.477564585000039],[119.94328573700012,15.477991272000052],[119.94543647900002,15.479071551000064],[119.94670782700007,15.480546374000022],[119.94807652100006,15.482530801000053],[119.94831016200011,15.483279542000052],[119.94794437700011,15.484392856000058],[119.94841674400004,15.48792382900007],[119.94995276100008,15.490418920000026],[119.94843934200004,15.491143543000078],[119.9478304370001,15.49215184400003],[119.94585584800006,15.493344575000036],[119.94626115300002,15.494298996000051],[119.94730740100009,15.494449052000046],[119.94704737100005,15.495496022000047],[119.94741384500004,15.496721101000045],[119.94969755300008,15.49827762100006],[119.9499555860001,15.497366216000048],[119.94962609500011,15.49600605200004],[119.95138108700006,15.495488066000064],[119.95160678900002,15.496778999000071],[119.95235563200005,15.498144858000039],[119.95075318600006,15.498344557000049],[119.95213766800009,15.49952879400007],[119.95348634900006,15.499741679000067],[119.95394326700013,15.49931103400007],[119.95449752900005,15.497462734000063],[119.95542850400011,15.498322830000065],[119.95661049900002,15.498376855000055],[119.95704607500012,15.499402280000025],[119.95860778800011,15.498744172000045],[119.95973432300002,15.497839830000032],[119.96034769900007,15.499593450000079],[119.96139250600004,15.500044775000045],[119.96187958700011,15.50097385500004],[119.9635087710001,15.502549780000034],[119.96525654200002,15.502865135000036],[119.96822981500007,15.501546638000033],[119.96918304100006,15.501414010000074]]]]}},{"type":"Feature","properties":{"fid":173,"objectid":9615,"lccode":"06","liqcode":"2010600060000000","mappers":"PJDelosReyes, ACPidlaoan","project":"READY","province":"Zambales","otherinfo":"hazard boundary with Pangasinan updated on 2024","datemapped":2009,"publishdate":null,"globalid":"{872CAE87-9525-4926-8B67-3D6FB0BEE51C}","st_area(shape)":0.022446667670869943,"st_perimeter(shape)":5.391899889166991,"liqcodepk":"201060006000000000146","creator":"SNOOPYPC","createdate":"2019-02-19T15:21:28","editor":"LENOVO","modifydate":"2019-03-10T17:50:55","codemove":"na"},"geometry":{"type":"MultiPolygon","coordinates":[[[[119.96400618200005,15.454850858000045],[119.963773563,15.454181498000029],[119.96054628400009,15.453862962000073],[119.9584866240001,15.45381509400005],[119.95599887800006,15.454035592000022],[119.95448479600009,15.45397559500003],[119.9527152930001,15.453422312000045],[119.95213622800009,15.452963765000048],[119.95119123000008,15.451285483000046],[119.95073165100007,15.450946120000024],[119.94853471800002,15.450618850000067],[119.94973645900006,15.451334517000074],[119.94954661300007,15.453111377000027],[119.9474710180001,15.456133367000067],[119.94716455200013,15.456923499000027],[119.94607425400011,15.457544021000043],[119.94460112500006,15.457460142000055],[119.94153695500005,15.458625392000044],[119.94048633600003,15.458769765000053],[119.94181535100006,15.459042619000064],[119.94320612600006,15.458879464000065],[119.94399534900005,15.458315290000034],[119.94570338200003,15.458212650000068],[119.94727937800006,15.45771627900007],[119.94828568900006,15.457965235000069],[119.95002823900006,15.457597438000054],[119.95176111500007,15.457895567000033],[119.95428855700004,15.459105775000069],[119.95564682300005,15.458771827000076],[119.95742410700008,15.458796258000062],[119.95880684800011,15.458168769000055],[119.96139805100006,15.456401923000046],[119.9627056390001,15.456772493000074],[119.96355896500005,15.45643156500006],[119.96400618200005,15.454850858000045]]],[[[119.9689058460001,15.519163364000066],[119.97039482700006,15.518720140000028],[119.97373974800007,15.518905075000076],[119.97446441300008,15.518405024000057],[119.97495606100006,15.517484321000037],[119.97483156200008,15.516184302000054],[119.97305710000002,15.516530927000074],[119.97244088800005,15.516151515000043],[119.96938896600012,15.515553231000068],[119.9671048240001,15.514779936000027],[119.96624283300004,15.514860895000023],[119.96614482700011,15.518290785000037],[119.96723026500001,15.519279368000069],[119.96783630600011,15.520354166000065],[119.9689058460001,15.519163364000066]]]]}}]}