{"type":"FeatureCollection","features":[{"type":"Feature","properties":{"fid":34,"objectid":1880,"lccode":"07","liqcode":"2010600070000000","mappers":"PJDelosReyes, ACPidlaoan","project":"READY","province":"Northern Samar","otherinfo":null,"datemapped":2009,"publishdate":null,"globalid":"{0D9D6C7A-090D-4A5B-A004-F6233C7DF3DA}","st_area(shape)":0.03290017476223487,"st_perimeter(shape)":11.85341888630265,"liqcodepk":"201060007000000000074","creator":"SNOOPYPC","createdate":"2019-02-19T15:21:28","editor":"LENOVO","modifydate":"2019-03-10T17:50:55","codemove":"na"},"geometry":{"type":"MultiPolygon","coordinates":[[[[124.66879517400002,12.510451803000024],[124.67117804400006,12.509885273000064],[124.67323341400005,12.509588157000055],[124.67509451700005,12.508801991000043],[124.67748837800002,12.508825404000051],[124.68355607500007,12.511095104000047],[124.68967765700006,12.513211386000021],[124.69056586900001,12.513397824000037],[124.69397873100002,12.51345267000005],[124.6951125290001,12.514462249000074],[124.69630818000007,12.51447279100006],[124.69818072600003,12.513164466000035],[124.70044918300006,12.512295017000042],[124.70366136700011,12.511724840000056],[124.70498461900003,12.511752770000044],[124.70609605600009,12.512166935000037],[124.70844502800004,12.51390404700004],[124.70808177400012,12.514864970000072],[124.70817839800009,12.516069889000049],[124.70892924400003,12.516710098000033],[124.71261235500003,12.516956735000063],[124.714484362,12.516095451000071],[124.71714599500001,12.51525092200006],[124.71808598900009,12.514278382000045],[124.71885146800004,12.514164224000071],[124.72138332300005,12.514920366000066],[124.72446001000003,12.514667520000046],[124.73073792800005,12.514843469000027],[124.73223635737149,12.514809891313956],[124.73380529595617,12.513394236823427],[124.73476519983681,12.512339842571857],[124.73424820700006,12.51161034000006],[124.73342228900003,12.509850228000062],[124.73192333300005,12.508204699000034],[124.73065775900012,12.507881894000034],[124.72900558300012,12.50852693200005],[124.72800113700009,12.509471275000067],[124.72609797700011,12.510366254000074],[124.72466783000006,12.51062367900005],[124.72205612000005,12.510530060000065],[124.72022233600002,12.509190073000067],[124.71814007500008,12.508486171000072],[124.71611942600009,12.508609409000032],[124.71402257500007,12.509946837000028],[124.71340590000011,12.510088674000032],[124.7101140310001,12.509033803000019],[124.70348352000009,12.50833108000006],[124.70157592400007,12.508563842000054],[124.69838299000003,12.509742609000055],[124.69729575400005,12.510935633000031],[124.69294649200003,12.511321638000027],[124.68965832000004,12.510818132000056],[124.68575044000012,12.510015079000025],[124.68344332200003,12.50925717700005],[124.6778464030001,12.507747345000041],[124.67613471200002,12.507895922000044],[124.67420123400008,12.508487263000061],[124.67181349200008,12.508281408000075],[124.67052290100003,12.508427335000022],[124.66881473800002,12.509127588000066],[124.66777488900006,12.508968466000056],[124.66441569074254,12.508859361971185],[124.66569953636683,12.510537992128276],[124.66657515990073,12.511475273909642],[124.66879517400002,12.510451803000024]]],[[[124.65706416800003,12.469845945000028],[124.65883733700004,12.468212166000058],[124.66008988800003,12.467815035000058],[124.66220072600004,12.467347635000063],[124.66381516600008,12.466737231000025],[124.66606392300004,12.467177774000046],[124.66785611400009,12.468529848000058],[124.67011570300009,12.470658056000048],[124.67045511200003,12.472083984000049],[124.670071268,12.474033778000033],[124.66437623200012,12.482183106000036],[124.65898763100006,12.486630465000076],[124.65554905710435,12.487780279527845],[124.65601545546464,12.490742114697627],[124.65713964195302,12.49503780518345],[124.65868697916373,12.499204524269343],[124.66064258082486,12.503202134976311],[124.66192726939127,12.505278429709946],[124.66377886100008,12.503144977000035],[124.6662460650001,12.502605630000065],[124.66820344800011,12.501379674000077],[124.66982328400002,12.500045541000077],[124.67106063800009,12.500368911000066],[124.67312143000004,12.502121602000043],[124.67500335000011,12.502247814000041],[124.67553316900012,12.50169286700003],[124.67761085100004,12.50170749500006],[124.6768141140001,12.50005732300002],[124.67521030000012,12.499515562000056],[124.67453118700008,12.498692217000041],[124.67523923300007,12.496964716000033],[124.67582963100007,12.496311877000041],[124.67688719600007,12.49640272100004],[124.68003011300004,12.497162082000044],[124.68168424200009,12.498130433000027],[124.68391485800011,12.498489565000055],[124.68677547600008,12.498223405000031],[124.68986142400001,12.498452321000057],[124.69596707300002,12.498697088000027],[124.69545762000008,12.497422399000072],[124.69383115500013,12.49619928800007],[124.69240960200011,12.496013556000035],[124.68871374700007,12.496588488000041],[124.68808406600012,12.496267899000026],[124.68751498400003,12.495103007000068],[124.6854221430001,12.493266131000043],[124.68511960300008,12.492456545000039],[124.6884481940001,12.491299786000072],[124.69012662600005,12.490348011000039],[124.69292675000008,12.489194516000055],[124.69368074200007,12.488313415000047],[124.695001841,12.488305111000043],[124.69555726700003,12.487360365000027],[124.694458853,12.486069040000073],[124.69330747000004,12.48679032500007],[124.69139449100011,12.487224294000043],[124.68977306200007,12.486763791000044],[124.68891051500009,12.486185012000021],[124.68877248000001,12.485277067000029],[124.68919820900008,12.48470648400007],[124.69051929300007,12.48469820400004],[124.69090973000006,12.483786946000064],[124.68898905200001,12.483020042000017],[124.68740285800006,12.482900104000066],[124.68541352800003,12.481744175000074],[124.68389382900011,12.481688689000064],[124.6830384430001,12.482213415000047],[124.68107184000009,12.484562516000038],[124.67975235000006,12.484830388000034],[124.67869412900008,12.484642220000067],[124.67862303700008,12.483863717000075],[124.67914482000003,12.482821874000024],[124.68104124800004,12.479824059000062],[124.68063151000001,12.47774942500007],[124.67955909100012,12.475354288000064],[124.67638219700007,12.474400340000043],[124.67460306600003,12.475092999999998],[124.67367472900003,12.474547017000077],[124.67367118500012,12.473995296000052],[124.6750759250001,12.471584757000072],[124.67778148000004,12.471145988000044],[124.67890124400003,12.47065217200003],[124.68080179000003,12.46830350700003],[124.68096084700004,12.467361257000046],[124.68042842600005,12.466747940000058],[124.67916923500002,12.466106607000027],[124.67624934200012,12.464015114000063],[124.67594791700003,12.463367816000073],[124.67613206100009,12.46119214600003],[124.67751207700007,12.460080002000042],[124.67839755700004,12.459100795000039],[124.67901105100007,12.456922457000074],[124.68052475400009,12.456069120000052],[124.68293352100012,12.455729590000033],[124.68213067500007,12.454144253000038],[124.68104188800011,12.454313252000077],[124.67928670700009,12.453577663000035],[124.67763984500006,12.454269504000024],[124.67672117500001,12.455216468000057],[124.67644319200008,12.458204204000026],[124.6752648360001,12.459866744000067],[124.67398144300012,12.460588759000073],[124.6720445520001,12.462418304000039],[124.67079933000001,12.463951464000047],[124.670316016,12.46583698300003],[124.6693310070001,12.466751895000073],[124.66853837300006,12.466756795000034],[124.6675087340001,12.46585433600006],[124.66720587500004,12.464979830000061],[124.66443003800009,12.464753572000063],[124.66146011600004,12.465161384000053],[124.65869498400002,12.466606421000051],[124.65759502987983,12.467054697525116],[124.65697267900745,12.468798202916297],[124.6566667128948,12.4700311577649],[124.65706416800003,12.469845945000028]]]]}},{"type":"Feature","properties":{"fid":75,"objectid":1939,"lccode":"06","liqcode":"2010600060000000","mappers":"PJDelosReyes, ACPidlaoan","project":"READY","province":"Northern Samar","otherinfo":null,"datemapped":2009,"publishdate":null,"globalid":"{54FD4513-FD6A-47C1-904A-E307CDDE876E}","st_area(shape)":0.00865304678469956,"st_perimeter(shape)":4.666609657552388,"liqcodepk":"201060006000000000139","creator":"SNOOPYPC","createdate":"2019-02-19T15:21:28","editor":"LENOVO","modifydate":"2019-03-10T17:50:55","codemove":"na"},"geometry":{"type":"MultiPolygon","coordinates":[[[[124.65898763100006,12.486630465000076],[124.66437623200012,12.482183106000036],[124.670071268,12.474033778000033],[124.67045511200003,12.472083984000049],[124.67011570300009,12.470658056000048],[124.66785611400009,12.468529848000058],[124.66606392300004,12.467177774000046],[124.66381516600008,12.466737231000025],[124.66220072600004,12.467347635000063],[124.66008988800003,12.467815035000058],[124.66170696100005,12.468484896000064],[124.664078807,12.471414828000034],[124.66316663600003,12.473052282000026],[124.66198697700008,12.47406968400003],[124.66030986500004,12.47449501600005],[124.65829749300009,12.475306499000054],[124.65618453600008,12.475607145000025],[124.65550960735807,12.47583268662783],[124.65526891113107,12.477498793087129],[124.65507558569446,12.481930171724489],[124.65532522783641,12.486358830404056],[124.65554905710435,12.487780279527845],[124.65898763100006,12.486630465000076]]],[[[124.73461067600012,12.498651970000026],[124.7329477950001,12.500218716000061],[124.73202423800001,12.500635765000025],[124.73041152800012,12.500763527000062],[124.7299068310001,12.501265900000021],[124.73039004400005,12.502026177000062],[124.73239475100003,12.502424303000053],[124.73324254900002,12.504092372000057],[124.734196515,12.503763327000057],[124.73619888500004,12.503809073000069],[124.73727679000001,12.504125112000054],[124.73758089600007,12.504915899000022],[124.73960581400002,12.503875194000043],[124.74136049700007,12.502630717000043],[124.74183701859886,12.502558717001246],[124.74367815174611,12.498667743705429],[124.74369096663035,12.498631808023609],[124.73461067600012,12.498651970000026]]],[[[124.65869498400002,12.466606421000051],[124.65858715400009,12.465824876000054],[124.65817847665203,12.465420162981754],[124.65759502987983,12.467054697525116],[124.65869498400002,12.466606421000051]]],[[[124.74390943700008,12.493956354000035],[124.74213311700011,12.493749867000075],[124.74043821800001,12.494669157000033],[124.7397292500001,12.493729070000029],[124.73913765500005,12.493732889000055],[124.73778086200001,12.495449418000023],[124.73816158600006,12.497082077000075],[124.73742781300005,12.497958817000038],[124.73561760000007,12.498224888000035],[124.73517602000005,12.498554702000034],[124.74371299212278,12.49857004380259],[124.74491465754478,12.495200277329719],[124.74390943700008,12.493956354000035]]],[[[124.67824147300009,12.471254109000029],[124.68058600600011,12.472717790000049],[124.68220468900007,12.473038659000053],[124.68401959700009,12.472453727000069],[124.68500819600001,12.472557814000027],[124.68610563100003,12.472131800000055],[124.68630312900005,12.471424465000043],[124.68584082100006,12.46937547500005],[124.68464931200003,12.469140166000045],[124.68298902600009,12.46932702600003],[124.68239389000007,12.467565616000059],[124.68196361000004,12.466994684000042],[124.68042842600005,12.466747940000058],[124.68096084700004,12.467361257000046],[124.68080179000003,12.46830350700003],[124.67890124400003,12.47065217200003],[124.67778148000004,12.471145988000044],[124.67824147300009,12.471254109000029]]],[[[124.67398144300012,12.460588759000073],[124.6752648360001,12.459866744000067],[124.67644319200008,12.458204204000026],[124.67672117500001,12.455216468000057],[124.67763984500006,12.454269504000024],[124.67475714600005,12.45387228900006],[124.67376290500012,12.455136299000062],[124.6729298460001,12.457490415000052],[124.67351191600005,12.45927507500005],[124.6735009140001,12.459972211000036],[124.6720445520001,12.462418304000039],[124.67398144300012,12.460588759000073]]],[[[124.67835583400004,12.45954805200006],[124.67955023700006,12.458237413000061],[124.681134573,12.457621320000044],[124.68298520900011,12.457640164000054],[124.68443266600003,12.457312842000023],[124.68511905300012,12.45614163600004],[124.68293352100012,12.455729590000033],[124.68052475400009,12.456069120000052],[124.67901105100007,12.456922457000074],[124.67839755700004,12.459100795000039],[124.67751207700007,12.460080002000042],[124.67835583400004,12.45954805200006]]]]}}]}