{"type":"FeatureCollection","features":[{"type":"Feature","properties":{"fid":192,"objectid":2053,"lccode":"01","liqcode":null,"mappers":"DJLBuhay, MJVReyes, MITAbigania, KLPapiona, KMVitto","project":"MELP","province":"Lanao del Sur","otherinfo":null,"datemapped":2018,"publishdate":null,"globalid":"{22B1851D-C2EE-4AE5-B511-229F233C1746}","st_area(shape)":0.021864599324414365,"st_perimeter(shape)":5.17999445853216,"liqcodepk":null,"creator":null,"createdate":null,"editor":null,"modifydate":null,"codemove":null},"geometry":{"type":"Polygon","coordinates":[[[123.81932111300011,7.698977565000062],[123.82024809500001,7.6978234610000404],[123.82104433100005,7.697434847000068],[123.82389647500008,7.697599805000039],[123.82695067700003,7.696704849000069],[123.828364866,7.6967637730000416],[123.82918484700006,7.697152434000033],[123.83074165200003,7.696916940000052],[123.8317993180001,7.697117177000052],[123.8324053790001,7.697870914000023],[123.83315797000012,7.699943096000026],[123.83423157000004,7.700490425000055],[123.8355902400001,7.6992253410000435],[123.83646964800005,7.699378465000053],[123.837967003,7.700191106000034],[123.83910787700006,7.699684737000037],[123.84174908300008,7.6997790260000425],[123.84297906000008,7.700203026000051],[123.84410101200002,7.700208812000028],[123.8468651500001,7.698907687000033],[123.84847826500004,7.698327345000051],[123.84893999300004,7.69858684900004],[123.84897802200011,7.69992469600004],[123.84795124800009,7.701450968000076],[123.84797026200009,7.702600379000046],[123.84951042400007,7.7048615050000535],[123.84952943800012,7.706802296000033],[123.850004796,7.707744424000055],[123.850784384,7.707687897000026],[123.85040409800001,7.705728267000039],[123.85074635600004,7.704145483000045],[123.8501378970001,7.702072781000028],[123.85283793300005,7.6992463520000465],[123.85519250800007,7.697992726000051],[123.85577742561355,7.697828438483411],[123.85576088055245,7.697793722574275],[123.85569678208016,7.697687525425163],[123.8551947520001,7.697818432000075],[123.85384593200001,7.69751219500006],[123.85082741200007,7.697335456000076],[123.84987671300009,7.696740697000052],[123.8486763950001,7.698106780000045],[123.84573508400001,7.699231384000031],[123.84448727400002,7.699037031000047],[123.84356697200009,7.700049301000034],[123.83972774100005,7.699360758000068],[123.83737473800011,7.698665858000026],[123.83471871200005,7.697329110000051],[123.83237167000004,7.695974701000068],[123.83111791500006,7.695892227000057],[123.830012699,7.69617484200006],[123.82676475700009,7.696597306000057],[123.82353590900006,7.697428896000077],[123.82140868300007,7.697334620000048],[123.82018550100008,7.697046236000064],[123.8188770380001,7.698430394000069],[123.81817621300002,7.698565210000028],[123.81770083300012,7.699324801000047],[123.81544990100008,7.700292129000047],[123.81545925700006,7.700302600000046],[123.81548994500008,7.700336943000021],[123.81556817200011,7.7004244870000225],[123.816733138,7.7017282090000645],[123.81846075200006,7.703661594000038],[123.81852370600006,7.70250455300004],[123.81901699200013,7.701659157000052],[123.81932111300011,7.698977565000062]]]}},{"type":"Feature","properties":{"fid":193,"objectid":2144,"lccode":"01","liqcode":null,"mappers":"DJLBuhay, MJVReyes, MITAbigania, KLPapiona, KMVitto","project":"MELP","province":"Lanao del Norte","otherinfo":null,"datemapped":2018,"publishdate":null,"globalid":"{8CF0E7EB-3CCD-4F04-8515-11CAD40BD1AE}","st_area(shape)":0.03055360554823452,"st_perimeter(shape)":7.260406778623517,"liqcodepk":null,"creator":null,"createdate":null,"editor":null,"modifydate":null,"codemove":null},"geometry":{"type":"MultiPolygon","coordinates":[[[[123.77497884555572,7.703916222471981],[123.77493998900002,7.703901089000056],[123.77488301646444,7.703920095927489],[123.77497884555572,7.703916222471981]]],[[[123.7752073780001,7.703906985000062],[123.77497884555572,7.703916222471981],[123.77556393549726,7.704144097013318],[123.7752073780001,7.703906985000062]]],[[[123.77610002900008,7.704500600000072],[123.77635753773214,7.70445317895376],[123.77556393549726,7.704144097013318],[123.77610002900008,7.704500600000072]]],[[[123.78495199300005,7.706157341000051],[123.78675835900003,7.705997230000035],[123.7869665090001,7.705367626000055],[123.78431639100006,7.705226231000041],[123.78300916500008,7.704902336000032],[123.7820822130001,7.705025964000072],[123.78064428800008,7.70386003300007],[123.77911720300006,7.703759887000046],[123.77868343100012,7.7040248510000415],[123.77635753773214,7.70445317895376],[123.77663343400002,7.7045606310000485],[123.77921226900001,7.703960094000026],[123.7807215260001,7.704142675000072],[123.78165777900006,7.705530730000019],[123.78273681200005,7.706581236000032],[123.783906193,7.706590691000032],[123.78495199300005,7.706157341000051]]],[[[123.77286608300005,7.709365378000029],[123.77256296300004,7.712126958000055],[123.77171917400004,7.713104379000069],[123.77198058600005,7.714352687000031],[123.77071168779989,7.714712032833555],[123.77069275562972,7.71484094846042],[123.77058112504899,7.717194281939599],[123.77142784200011,7.719263400000044],[123.77055992387736,7.720790855800926],[123.77070881473462,7.72370645277221],[123.77136962641964,7.728095335224549],[123.77245855270499,7.732398471279081],[123.77396511800605,7.736574415032266],[123.77509723491985,7.738950774766781],[123.77565527600007,7.738974892000045],[123.77674779100005,7.7378421890000455],[123.77619059000006,7.736874888000045],[123.77642209800003,7.735233575000053],[123.7760513170001,7.733948458000044],[123.77669901200012,7.73327725200005],[123.77791712300005,7.733071209000058],[123.77856478500009,7.733542262000072],[123.77946202900011,7.73335976200002],[123.78029388300001,7.73413699200006],[123.78125119700006,7.734366003000047],[123.78343108000003,7.733664123000039],[123.78244260600002,7.732852838000043],[123.78270780600009,7.732187621000039],[123.7837493840001,7.732094474000067],[123.78409654700012,7.733119421000026],[123.78491386400005,7.7342017180000635],[123.7857664590001,7.733607234000031],[123.78657456400002,7.733748567000019],[123.78797093700005,7.733460098000023],[123.78885594200005,7.734094319000063],[123.78946148000011,7.7338738000000244],[123.78875473400001,7.732101784000063],[123.78931893300013,7.731693258000063],[123.79032427500012,7.734051357000054],[123.79116332300009,7.7340298790000475],[123.7914960720001,7.733234310000059],[123.79280526600007,7.733528209000041],[123.7930295120001,7.732890319000037],[123.79527182700008,7.73172926400002],[123.79553224200004,7.730998196000028],[123.79674137800009,7.730575251000059],[123.79781093300004,7.730587057000036],[123.79937958200003,7.731729367000071],[123.79977173200007,7.732447708000053],[123.8000026850001,7.733910867000076],[123.80128857600005,7.735277699000051],[123.80220603500005,7.735579453000071],[123.80338784500009,7.735157263000076],[123.80472477800005,7.735575342000061],[123.80483032000005,7.736449246000064],[123.80700297900012,7.73735254500002],[123.80647941500003,7.738757166000028],[123.80526425100005,7.738499109000031],[123.80510508500004,7.739774880000027],[123.80638895200002,7.740445056000055],[123.80705438500003,7.741111629000047],[123.80782109900008,7.741161822000037],[123.80895668300002,7.741957417000036],[123.8090868480001,7.743061173000057],[123.80993311600002,7.743505564000031],[123.81018030700012,7.74484943300007],[123.80992580500003,7.7462219260000325],[123.80911579000008,7.748005113000034],[123.80968023100002,7.749653690000059],[123.80960593700001,7.750323414000036],[123.81066804800003,7.7509416520000505],[123.8111805640001,7.750198345000059],[123.81125487800011,7.7488220960000245],[123.80996192200006,7.747942042000036],[123.81037424900002,7.746644801000058],[123.81103247800002,7.746279295000022],[123.81154249700012,7.743444689000058],[123.81116640500012,7.742312258000028],[123.81183186800001,7.74188224300002],[123.81241049100004,7.742957343000058],[123.81310487300004,7.743014701000049],[123.81322063100004,7.742039962000034],[123.8147251270001,7.742126011000041],[123.81539054200005,7.743416129000025],[123.81648395200011,7.744134123000036],[123.81640965300005,7.744973129000071],[123.8169677090001,7.745600170000048],[123.81679582400012,7.747004416000038],[123.81591930600007,7.749668587000029],[123.81593413400003,7.750610619000043],[123.81530401400005,7.751440997000032],[123.8154884280001,7.752656575000058],[123.81715219600005,7.752141451000057],[123.8177612720001,7.751317194000022],[123.817523627,7.750124929000036],[123.81820698300011,7.749124039000037],[123.81825159500012,7.747460758000045],[123.81770176600003,7.745726333000049],[123.81848021700011,7.74391292100006],[123.81618072300012,7.742122965000018],[123.81488544200012,7.739667703000066],[123.8147670190001,7.738441348000039],[123.81362834800007,7.735068230000025],[123.81508698600011,7.735102078000068],[123.8147832210001,7.734127309000028],[123.81356807300006,7.733310194000071],[123.8123094980001,7.733439171000045],[123.81193339700009,7.732622079000064],[123.81296053500012,7.731633007000027],[123.8143571080001,7.7308717350000515],[123.81436383800009,7.729196121000028],[123.81502103900006,7.7292318910000395],[123.81651016300009,7.728600670000047],[123.81706048900004,7.729752517000064],[123.81824888900007,7.729593575000022],[123.81831318700006,7.72776274100005],[123.81754650700009,7.726544248000039],[123.81796383100006,7.72408237600007],[123.81864125000006,7.722922445000051],[123.81877188900013,7.721190061000074],[123.818168753,7.719763762000071],[123.81810659100006,7.718771313000047],[123.81875428,7.718282616000067],[123.81812973400008,7.717619892000071],[123.81893554200008,7.717169101000026],[123.81884877600011,7.716050943000026],[123.81914654600006,7.714938148000045],[123.82000005400005,7.7138983960000465],[123.81928714100003,7.713169362000031],[123.81976664000001,7.712630623000051],[123.81957945100011,7.711664326000059],[123.8183281700001,7.709700324000037],[123.81829926000012,7.708897531000048],[123.81689604500001,7.708223718000056],[123.81612936300009,7.707062510000072],[123.81657786900007,7.705299235000041],[123.81803124200007,7.704358378000053],[123.81846075200006,7.703661594000038],[123.816733138,7.7017282090000645],[123.81556817200011,7.7004244870000225],[123.81548994500008,7.700336943000021],[123.81545925700006,7.700302600000046],[123.81544990100008,7.700292129000047],[123.81391944500001,7.70090501900006],[123.81301627300002,7.700598797000053],[123.81159613700004,7.700728301000025],[123.81009872600009,7.701870605000069],[123.80840524700011,7.702388733000022],[123.80827451000003,7.70288335200007],[123.80421332500009,7.7042219060000425],[123.8027722060001,7.7040196470000515],[123.80174421900006,7.704902868000035],[123.79466132400012,7.70695180100006],[123.7925816190001,7.70739336400004],[123.79355643400004,7.708758384000021],[123.79384108600004,7.70983188500003],[123.79351544000009,7.711120850000042],[123.79261225000005,7.711450566000051],[123.7919741290001,7.712162379000063],[123.79175654300002,7.713629184000069],[123.79198921700005,7.714886271000069],[123.79292112500003,7.715207254000065],[123.79342022300011,7.716208259000042],[123.79283788400004,7.717091468000033],[123.79500075500006,7.717397713000025],[123.79584362600009,7.7184550370000675],[123.79536621200008,7.719329473000071],[123.79519255700006,7.721408072000029],[123.79633160900005,7.722614625000062],[123.79699707000009,7.724004230000047],[123.796885,7.7255079560000555],[123.79833786400002,7.72769315100004],[123.79969463800013,7.7271485210000606],[123.80024839500003,7.7264684970000435],[123.80150951100008,7.726249247000053],[123.80224501700002,7.724941404000048],[123.80100472800007,7.723680147000037],[123.80004381800006,7.721186752000052],[123.7989461210001,7.721142676000056],[123.798506427,7.720683391000022],[123.79851835700003,7.719093599000074],[123.79880360200004,7.718045518000055],[123.80002765000005,7.718010224000065],[123.80038605200002,7.718512507000069],[123.80210752800009,7.719128971000032],[123.80226664500005,7.71955972400002],[123.80175814300004,7.721314608000057],[123.8023885340001,7.7212133950000625],[123.80265721800004,7.7201897930000305],[123.80368329100008,7.720565696000049],[123.80315541600011,7.721680340000032],[123.80343110200009,7.722433269000021],[123.80442204300005,7.722533643000078],[123.80533339400007,7.723515623000029],[123.80390119100004,7.724769901000056],[123.80387488400004,7.726177047000021],[123.8055079310001,7.727054671000075],[123.805211976,7.72787844100003],[123.80360452300012,7.728582998000035],[123.801420117,7.728231731000051],[123.80225188500003,7.72982292900002],[123.80106562800006,7.730475131000045],[123.79979982200005,7.730532435000043],[123.79815069500012,7.729342593000072],[123.79648708800006,7.728597131000071],[123.79533702000003,7.728417912000053],[123.79470052500005,7.727586467000037],[123.79250167500004,7.726468277000038],[123.79180807500006,7.726583249000043],[123.79034868100007,7.725808806000031],[123.788780233,7.725822926000035],[123.78848581500006,7.725233946000059],[123.78928800200003,7.72452151500005],[123.78851559800012,7.722672639000053],[123.78771908800002,7.721824829000071],[123.78627041000006,7.722715900000026],[123.78425521000008,7.722336897000045],[123.78380164200009,7.72127265700004],[123.78285458000005,7.721597434000044],[123.78222433800012,7.721257014000061],[123.78168834900009,7.719763722000039],[123.78123082800005,7.719357428000023],[123.77993547700011,7.7193750560000485],[123.77869359300007,7.719763637000026],[123.77806970600012,7.719015827000023],[123.77682190500002,7.718527076000045],[123.7762562580001,7.71696361000005],[123.77572101200006,7.716662553000049],[123.77543171900004,7.715487047000068],[123.77565741600006,7.713681075000068],[123.77454865800007,7.71077879300003],[123.7731143630001,7.709706444000062],[123.77203424400011,7.708046380000041],[123.77233137000007,7.7070748200000585],[123.77327718500011,7.706562125000062],[123.7725230541698,7.7058281587953426],[123.77241088555634,7.706142665472882],[123.77192462290597,7.708094088215565],[123.77286608300005,7.709365378000029]],[[123.81333915600011,7.718624227000022],[123.81193138100004,7.71910087300006],[123.81143227100004,7.7185355980000745],[123.80922524200002,7.718446671000036],[123.80907314000001,7.718022720000022],[123.81019787700006,7.717226194000035],[123.81181853900013,7.717175447000045],[123.81320400400013,7.717957379000042],[123.81333915600011,7.718624227000022]],[[123.80650852000008,7.732736603000035],[123.8065663650001,7.733439008000065],[123.80574126500007,7.734191125000051],[123.80470729900003,7.7342028260000575],[123.80441579900003,7.733590531000063],[123.80549589100009,7.732249192000039],[123.80650852000008,7.732736603000035]],[[123.80658124100012,7.7190968440000365],[123.80629188400009,7.72017914500003],[123.804762589,7.7200183410000704],[123.80511629700005,7.719027803000072],[123.80658124100012,7.7190968440000365]]],[[[123.77488301646444,7.703920095927489],[123.77375159200007,7.703965827000047],[123.77324863982469,7.703793697654573],[123.77297674896758,7.704556051335707],[123.77488301646444,7.703920095927489]]]]}}]}