{"type":"FeatureCollection","features":[{"type":"Feature","properties":{"fid":207,"objectid":7271,"lccode":"01","liqcode":null,"mappers":"DJLBuhay, MJVReyes, MITAbigania, KLPapiona, KMVitto","project":"MELP","province":"Zamboanga del Norte","otherinfo":null,"datemapped":2020,"publishdate":2021,"globalid":"{6B0290BE-0A77-4263-894C-1C10E652B59E}","st_area(shape)":0.033021563613966895,"st_perimeter(shape)":18.189103020785044,"liqcodepk":null,"creator":null,"createdate":null,"editor":null,"modifydate":null,"codemove":null},"geometry":{"type":"Polygon","coordinates":[]}},{"type":"Feature","properties":{"fid":208,"objectid":7461,"lccode":"01","liqcode":null,"mappers":"DJLBuhay, MJVReyes, MITAbigania, KLPapiona, KMVitto","project":"MELP","province":"Zamboanga del Sur","otherinfo":null,"datemapped":2020,"publishdate":2021,"globalid":"{956CA67A-D8B3-4AFB-A15B-79E0A6393BB2}","st_area(shape)":0.059065434056611577,"st_perimeter(shape)":16.76855550220317,"liqcodepk":null,"creator":null,"createdate":null,"editor":null,"modifydate":null,"codemove":null},"geometry":{"type":"Polygon","coordinates":[]}},{"type":"Feature","properties":{"fid":209,"objectid":7568,"lccode":"01","liqcode":null,"mappers":"DJLBuhay, MJVReyes, MITAbigania, KLPapiona, KMVitto","project":"MELP","province":"Zamboanga Sibugay","otherinfo":null,"datemapped":2021,"publishdate":2021,"globalid":"{08423ED1-E932-4EA1-95BF-6D5A5DF8C9A2}","st_area(shape)":0.03611593413386012,"st_perimeter(shape)":14.29973412419831,"liqcodepk":null,"creator":null,"createdate":null,"editor":null,"modifydate":null,"codemove":null},"geometry":{"type":"MultiPolygon","coordinates":[[[[122.882949014,7.58602560700007],[122.88227714400011,7.587018656000055],[122.88125764300001,7.587401310000074],[122.88081768000006,7.588980184000036],[122.88010594700005,7.58876518900007],[122.88017846800005,7.58673088300003],[122.88094610400003,7.586396029000066],[122.88094631500006,7.5856301650000555],[122.88219378900011,7.584828741000023],[122.88184617000002,7.58419441600006],[122.88075496300007,7.583691520000058],[122.87973552500013,7.583870739000076],[122.87884783300001,7.584672256000031],[122.87799590500005,7.586227679000044],[122.87771962900001,7.587783261000029],[122.87869065900009,7.589195594000047],[122.87747899900013,7.590511583000025],[122.87786242600009,7.591744252000066],[122.880165013,7.592008159000044],[122.88032083700013,7.592319334000026],[122.87973251300004,7.594712495000066],[122.88065597800004,7.594724716000028],[122.88067977000003,7.595430753000074],[122.88165093400006,7.596448181000027],[122.88245441400011,7.596675765000042],[122.8831021510001,7.596281041000056],[122.88372568200009,7.596700040000031],[122.88493727800007,7.595623367000028],[122.88540495600012,7.595826923000063],[122.88578829700009,7.597490384000023],[122.88703554100006,7.597670210000048],[122.88717990900011,7.595947054000021],[122.88773163400003,7.595791631000055],[122.88758789100007,7.595121463000056],[122.88817612600008,7.592907791000072],[122.88913578200003,7.592082340000046],[122.88927990700006,7.59126864600006],[122.89055121700007,7.591065535000041],[122.89016790300002,7.589246512000043],[122.88907679500005,7.588264972000048],[122.88827315200001,7.588719498000046],[122.88532288500004,7.588730696000028],[122.882949014,7.58602560700007]],[[122.88374825500011,7.592887681000037],[122.88340869100011,7.592575306000071],[122.88411999800009,7.5909511830000715],[122.88473171200009,7.590688080000064],[122.88535411100007,7.589567356000034],[122.88601850900011,7.590341668000065],[122.88683702700006,7.590460361000053],[122.8875616790001,7.592148749000046],[122.88708174200008,7.592974321000041],[122.88523477300011,7.5931174370000445],[122.88374825500011,7.592887681000037]]],[[[122.8684658730001,7.623315992000071],[122.86902950500007,7.623579428000026],[122.86893313200007,7.624967524000056],[122.87038479100012,7.623663602000024],[122.8707090900001,7.622120008000025],[122.87207660700007,7.621390452000071],[122.87311993000003,7.62186942300002],[122.87370801800013,7.6205413030000395],[122.87334839700009,7.6198830350000435],[122.8747880840001,7.618399595000027],[122.8745245660001,7.617214825000076],[122.87394888800009,7.617142858000022],[122.87314564300006,7.616005797000071],[122.8730140890001,7.614725332000035],[122.87410547000002,7.614869250000028],[122.87481331100003,7.614127525000071],[122.87577292000003,7.613720937000039],[122.87606098700007,7.6129551570000435],[122.87469415700002,7.611435005000034],[122.87440612000012,7.612093085000027],[122.87336271000004,7.611985082000044],[122.87398669700009,7.6108843360000265],[122.87200777200007,7.610847857000066],[122.87145580500008,7.611733222000055],[122.86933274000012,7.6124027170000685],[122.86851318500011,7.612203385000042],[122.86850547400003,7.611445139000066],[122.86700633100008,7.611277149000044],[122.86574676100008,7.612066556000059],[122.86493120600005,7.612042370000037],[122.86441526700003,7.612724305000031],[122.86393505200012,7.614219979000042],[122.86399461600001,7.615500424000062],[122.86319109300007,7.615332638000041],[122.86237540600007,7.615703344000052],[122.86209931000009,7.616457152000066],[122.8607201850001,7.615990014000031],[122.8594486400001,7.616647766000028],[122.85913656900004,7.617365660000077],[122.86002372800009,7.618526707000057],[122.86088724400008,7.618634685000075],[122.8616666150001,7.619328997000025],[122.86069487200007,7.620094548000053],[122.86055065200003,7.621003962000034],[122.85968683200008,7.621817411000051],[122.85912258500001,7.623456651000027],[122.85797099000001,7.624006738000049],[122.85743049200006,7.626340045000064],[122.8584019330001,7.626555763000056],[122.859025427,7.627142329000038],[122.85912103900012,7.6281834530000765],[122.86026034300005,7.628578720000065],[122.86084834800009,7.627657483000064],[122.86157998700003,7.627645751000045],[122.86229987600007,7.626868152000043],[122.86420696200001,7.626737122000063],[122.86473454700003,7.627215951000042],[122.86555036700008,7.626486244000035],[122.86483096900008,7.625720157000046],[122.86504713700002,7.62483469700004],[122.86658228300007,7.625086472000022],[122.8684658730001,7.623315992000071]]],[[[122.9011486700001,7.658576141000025],[122.90064508100009,7.657728790000022],[122.8996808280001,7.65715417100006],[122.89865918900011,7.655789741000036],[122.89873134800007,7.654985603000059],[122.89778134300002,7.6550571780000505],[122.89680266900008,7.654640507000068],[122.89595366800006,7.653692549000025],[122.89503242900003,7.653864645000056],[122.89485933900005,7.655358033000027],[122.89593878300003,7.655717293000065],[122.8958665780001,7.656693749000057],[122.89445574500007,7.657669879000026],[122.89294435600004,7.657813106000049],[122.89106790600009,7.6573310990000305],[122.89009426599999,7.658243185000058],[122.88845324300009,7.658716640000025],[122.88753205100012,7.658658961000067],[122.88697055000011,7.659190131000057],[122.88544499400007,7.658457373000034],[122.88505659900011,7.657566955000046],[122.87988975000007,7.655655680000057],[122.87698230500007,7.655324582000048],[122.87606140000003,7.6543047660000525],[122.87613372100009,7.653084195000075],[122.87580302800006,7.651834789000077],[122.87486748400012,7.65169091900003],[122.87485275900008,7.6528253470000305],[122.87390233000008,7.654347219000043],[122.87119376600003,7.654440456000029],[122.87029430000008,7.653973490000055],[122.8697907600001,7.653183544000058],[122.86869934200001,7.652848149000021],[122.86871170300005,7.651651495000064],[122.86812435700007,7.650370891000022],[122.86718897800007,7.649712442000065],[122.8658575820001,7.649688097000024],[122.86508950800008,7.6510161480000525],[122.8640292340001,7.650845890000029],[122.86333240200008,7.649296156000049],[122.86316641800012,7.648337422000055],[122.86222497900008,7.648452002000057],[122.86105545100007,7.64808784300004],[122.86082536000004,7.647455933000063],[122.85994270400009,7.647015277000037],[122.85811960800004,7.646784924000032],[122.85710277000011,7.645884701000055],[122.85566360200004,7.645367266000051],[122.85514535600011,7.645615998000041],[122.85418602200002,7.644945546000033],[122.85347630100011,7.6439113940000425],[122.85232505700004,7.643260020000067],[122.85075145300006,7.643068013000061],[122.84929346000001,7.6415549320000755],[122.8482960340001,7.640118593000066],[122.84691430500003,7.640060666000069],[122.84591618300011,7.640596414000075],[122.84478394300004,7.640519422000069],[122.84305722300009,7.639235982000059],[122.8421553070001,7.639082481000055],[122.84157981200009,7.638450435000038],[122.84006387500007,7.6380669460000385],[122.83991084700006,7.636726633000021],[122.83837573400002,7.636323985000047],[122.83835032508641,7.636287830179279],[122.84011959780348,7.640023601882203],[122.8424053436407,7.643831471849737],[122.84505423031318,7.647397468523965],[122.84804075180057,7.650687243162296],[122.85133614788728,7.653669106878914],[122.8549086810728,7.656314336080286],[122.85872394225767,7.658597449346394],[122.86274518226072,7.660496453080867],[122.86693366596892,7.661993053554478],[122.8712490457008,7.663072833290509],[122.87564975017497,7.6637253900851565],[122.88009338532211,7.6639444373171],[122.88453714306269,7.663727864575111],[122.88893821409397,7.663077758016284],[122.89325420069041,7.662000380257653],[122.89744352552145,7.66050610999544],[122.90146583252958,7.658609341936283],[122.90147762042268,7.658602296878816],[122.9011486700001,7.658576141000025]]],[[[122.83737911600008,7.63287723800005],[122.837129935,7.63209213700003],[122.8366672240357,7.63161302839785],[122.83672184271501,7.63183092768522],[122.83726150221341,7.633337503712073],[122.83737911600008,7.63287723800005]]],[[[122.83615218400007,7.629545281000049],[122.8361481415028,7.629542156043715],[122.83615174097717,7.629556516163645],[122.83615218400007,7.629545281000049]]]]}}]}