{"type":"FeatureCollection","features":[{"type":"Feature","properties":{"fid":217,"objectid":8401,"lccode":"06","liqcode":null,"mappers":"PJDelosReyes, ACPidlaoan","project":"READY","province":"Pampanga","otherinfo":"as of October 2015, reupdate 2021","datemapped":2008,"publishdate":null,"globalid":"{CD5DD08A-FAB4-4EC7-8B17-F813D0C6C3B8}","st_area(shape)":0.027606239658912374,"st_perimeter(shape)":1.089536841037015,"liqcodepk":null,"creator":null,"createdate":null,"editor":null,"modifydate":"1905-07-07T08:00:00","codemove":null},"geometry":{"type":"Polygon","coordinates":[]}},{"type":"Feature","properties":{"fid":218,"objectid":8402,"lccode":"07","liqcode":null,"mappers":"PJDelosReyes, ACPidlaoan","project":"READY","province":"Pampanga","otherinfo":"as of October 2015, reupdate 2021","datemapped":2008,"publishdate":null,"globalid":"{523547B0-D8C4-4084-9EE8-AA20F7B2A472}","st_area(shape)":0.07539067039960894,"st_perimeter(shape)":2.422972172763333,"liqcodepk":null,"creator":null,"createdate":null,"editor":null,"modifydate":"1905-07-07T08:00:00","codemove":null},"geometry":{"type":"Polygon","coordinates":[[[120.59342976100005,14.989205016000026],[120.59197409400007,14.989956923000022],[120.59024953900007,14.99121765200005],[120.58844201400007,14.994012161000057],[120.58768690800004,14.996817804000043],[120.58831675700004,14.999318378000053],[120.58942209000008,15.000481070000038],[120.59214103600003,15.002093124000055],[120.59502151100004,15.013930520000033],[120.59358658200007,15.016154174000068],[120.59338096600004,15.019632770000042],[120.59338063767159,15.01966206493069],[120.59431959866126,15.017196515149214],[120.59547582087424,15.01290868353911],[120.59619400973412,15.008531341102188],[120.59646727363437,15.004106652016219],[120.59629300779537,14.999677234079474],[120.59567291831483,14.995285748065841],[120.59461300466857,14.990974486764667],[120.59394626012237,14.989099154652623],[120.59342976100005,14.989205016000026]]]}},{"type":"Feature","properties":{"fid":223,"objectid":8405,"lccode":"06","liqcode":null,"mappers":"PJDelosReyes, ACPidlaoan","project":"READY","province":"Pampanga","otherinfo":"as of October 2015, reupdate 2021","datemapped":2008,"publishdate":null,"globalid":"{A052B1CF-2008-4592-917A-899CB9A87705}","st_area(shape)":0.005422416623690445,"st_perimeter(shape)":0.46802502688922537,"liqcodepk":null,"creator":null,"createdate":null,"editor":null,"modifydate":"1905-07-07T08:00:00","codemove":null},"geometry":{"type":"Polygon","coordinates":[]}},{"type":"Feature","properties":{"fid":224,"objectid":8406,"lccode":"06","liqcode":null,"mappers":"PJDelosReyes, ACPidlaoan","project":"READY","province":"Pampanga","otherinfo":"as of October 2015, reupdate 2021","datemapped":2008,"publishdate":null,"globalid":"{99820630-6422-44D3-9964-5FCA6C67C1BF}","st_area(shape)":0.008066255598890066,"st_perimeter(shape)":0.53923123619839,"liqcodepk":null,"creator":null,"createdate":null,"editor":null,"modifydate":"1905-07-07T08:00:00","codemove":null},"geometry":{"type":"Polygon","coordinates":[[[120.59338096600004,15.019632770000042],[120.59358658200007,15.016154174000068],[120.59502151100004,15.013930520000033],[120.59214103600003,15.002093124000055],[120.58942209000008,15.000481070000038],[120.58831675700004,14.999318378000053],[120.58768690800004,14.996817804000043],[120.58844201400007,14.994012161000057],[120.59024953900007,14.99121765200005],[120.59197409400007,14.989956923000022],[120.59342976100005,14.989205016000026],[120.59394626012237,14.989099154652623],[120.59312350087095,14.986784967667194],[120.5912187759023,14.982757533222303],[120.58891719440102,14.978930962507535],[120.58624093899681,14.975342098047717],[120.58321579602706,14.972025491364137],[120.57987090672411,14.969013070653949],[120.57623848628782,14.966333833783779],[120.57235351355908,14.964013569535945],[120.56825339428546,14.962074609772488],[120.56397760121713,14.96053561488396],[120.55956729448552,14.95941139456965],[120.55506492590153,14.958712765656802],[120.55051383095693,14.958446448311324],[120.54595781242718,14.958615001624976],[120.541440719549,14.959216799187825],[120.53700602678778,14.960246044872946],[120.53269641620992,14.961692828676563],[120.52855336744331,14.963543222075007],[120.52461675913557,14.96577941198302],[120.52092448571284,14.968379872030088],[120.51751209309931,14.97131956951536],[120.51441243687964,14.974570206061506],[120.5116553661779,14.978100489665833],[120.50926743628558,14.981876435546743],[120.50727165280216,14.98586169290772],[120.50568724975672,14.99001789449204],[120.50452950385903,14.99430502558196],[120.50380958668818,14.998681808907937],[120.50353445626865,15.003106101778478],[120.50370678910923,15.007535301621635],[120.50432495339614,15.011926756044723],[120.50538302363752,15.01623817347241],[120.50687083666,15.020428030413639],[120.50737946869532,15.021504485669244],[120.5092785940001,15.02035121000006],[120.51002253200011,15.016972617000024],[120.51159158300004,15.016723358000036],[120.51344341100004,15.015716250000027],[120.515367823,15.015204500000037],[120.51642125200011,15.015520472000048],[120.51766081300002,15.016675543000073],[120.51861746600002,15.018588726000074],[120.51786353200009,15.022842441000023],[120.51828192000005,15.023912497000024],[120.52132370700008,15.024973158000023],[120.5224124030001,15.025631984000032],[120.52282503300012,15.02719664700004],[120.52140244800012,15.028322760000032],[120.520916381,15.029725433000063],[120.51952677500003,15.031384588000035],[120.51786571800005,15.032812531000047],[120.5168402820001,15.033448182000027],[120.517057571,15.034972691000062],[120.51690316864726,15.035306276470433],[120.51823278572584,15.036504172956823],[120.5187287660001,15.036056443000062],[120.52081434100012,15.035166010000069],[120.52211912500002,15.034076648000054],[120.52260124400006,15.033016418000047],[120.52547238000012,15.031906087000038],[120.52718439000012,15.029451257000064],[120.52735938100012,15.027854878000028],[120.52698631800003,15.026252624000051],[120.52629565100007,15.02502733700004],[120.52717576900012,15.023400607000042],[120.5283946730001,15.022957214000028],[120.52980317700008,15.023048666000019],[120.5314511680001,15.019337291000062],[120.53252396600008,15.01797897500006],[120.53350619100003,15.017685258000032],[120.53432390500006,15.018074644000022],[120.53567837900005,15.019459296000035],[120.53770406900003,15.02035644400007],[120.53800550800008,15.021387185000037],[120.53870191000011,15.022117737000027],[120.53983331200003,15.022472478000056],[120.54013737900006,15.023274919000075],[120.53969104400005,15.02464005600007],[120.54046396700005,15.025523621000046],[120.5418711980001,15.025729152000055],[120.54316711800004,15.025400674000027],[120.543729105,15.024188966000057],[120.545111172,15.02317651000004],[120.54750969100006,15.022289088000035],[120.54871944000003,15.02264463300003],[120.55031155300003,15.023803357000075],[120.55395386800001,15.023728515000073],[120.55689357300001,15.023455665000027],[120.55804493500011,15.022060028000052],[120.55945693600006,15.021846863000066],[120.56010171900006,15.023680436000063],[120.56142208100006,15.024645958000063],[120.56282451900006,15.025269858000055],[120.56403648200002,15.02543504400006],[120.56510179700001,15.024723440000056],[120.56630254400011,15.025877963000028],[120.56932781400009,15.028421912000054],[120.56967073600005,15.029262770000061],[120.5727537590001,15.033634056000038],[120.57326275700005,15.033639495000045],[120.57466021000005,15.034719946000049],[120.57559945100002,15.034767999999998],[120.57873093600007,15.03834049000005],[120.57908192343135,15.038841940325065],[120.57908472753915,15.038839965224959],[120.58249764474918,15.035899393740095],[120.58559745134521,15.03264782269034],[120.58835429242441,15.029116579990829],[120.59074162151971,15.025339687280649],[120.59273645612,15.021353531742399],[120.59338063767159,15.01966206493069],[120.59338096600004,15.019632770000042]]]}}]}