{"type":"FeatureCollection","features":[{"type":"Feature","properties":{"fid":99,"objectid":1955,"lccode":"01","liqcode":"2010600010000000","mappers":"DJLBuhay, MJVReyes, MITAbigania, KLPapiona, KMVitto","project":"MELP","province":"Palawan","otherinfo":null,"datemapped":2018,"publishdate":null,"globalid":"{E70402A7-ADA2-4D45-93BC-46C7B654BDC8}","st_area(shape)":0.142808258668549,"st_perimeter(shape)":79.69829854453282,"liqcodepk":"201060001000000000950","creator":"SDE","createdate":"2019-06-04T11:09:46","editor":"SDE","modifydate":"2019-06-04T11:12:34","codemove":"na"},"geometry":{"type":"Polygon","coordinates":[[[118.59581783500005,9.459365792000028],[118.5948584890001,9.45920458400008],[118.59217862300012,9.460340907000042],[118.58822771800011,9.456797093000036],[118.58697083900005,9.45584582200007],[118.58610699100008,9.454231323000045],[118.58548432200007,9.451798962000057],[118.58577072000001,9.449440262000051],[118.58663004800007,9.448019270000032],[118.58869363700002,9.446934724000075],[118.58867753200002,9.446003376000023],[118.58814275300007,9.444473544000063],[118.58690244300008,9.442144657000028],[118.58607494400007,9.441642457000057],[118.58489843100006,9.441466612000053],[118.58422370100004,9.441852965000066],[118.58347657200012,9.443236742000064],[118.58242608400008,9.444126523000023],[118.58031201500012,9.444032117000065],[118.57795247900003,9.444365112000073],[118.57518505400004,9.443141846000058],[118.57399002700004,9.441686753000056],[118.57377191000013,9.440731259000072],[118.57241478400009,9.439677570000073],[118.57152497300002,9.43860610300004],[118.57026614200005,9.43621787300003],[118.56927086000007,9.433858580000049],[118.56895890600003,9.432114744000048],[118.57008430900011,9.431458878000056],[118.57093750500007,9.43051511600004],[118.57147974500002,9.428046165000069],[118.57058707200008,9.427378687000044],[118.5703019660001,9.426181946000046],[118.56903906300012,9.426183929000045],[118.56884434763833,9.425276669458214],[118.56516117719575,9.423986522824169],[118.56082238875658,9.422927779664999],[118.55639999362725,9.422296364875107],[118.55193656509556,9.422098359632146],[118.5494210418977,9.42223217080439],[118.54934327400008,9.424646573000075],[118.54887092200009,9.42549963600004],[118.54735764300005,9.426568591000034],[118.54660504700007,9.426788136000027],[118.54366116200003,9.426979905000055],[118.54174119000004,9.427998332000074],[118.54075121600012,9.427896291000025],[118.53973965500006,9.427137768000023],[118.53861829700008,9.427099999999998],[118.53771932200004,9.427738503000057],[118.53713139400007,9.42907327100005],[118.53421315800006,9.431750485000066],[118.53329968800006,9.432347283000071],[118.53284970200002,9.434224480000067],[118.5346502210001,9.434366682000075],[118.5354031060001,9.435617070000033],[118.53733293100005,9.434414936000053],[118.53997395100009,9.433020449000026],[118.5430162450001,9.432246713000042],[118.5451553590001,9.43311423600005],[118.54631998700006,9.434075542000073],[118.54484637600001,9.43498995300007],[118.54536927000005,9.435998146000031],[118.54539303700007,9.436982890000023],[118.54633135000007,9.437264245000048],[118.54701315000013,9.438504884000052],[118.54687037200006,9.440262912000039],[118.54742262700006,9.441701650000024],[118.54711267700009,9.442443413000033],[118.54575032900006,9.44326130200005],[118.54555168400009,9.444690511000031],[118.54629182500003,9.445535083000038],[118.54730536400007,9.446144503000026],[118.55206689500005,9.447308537000028],[118.552584797,9.446748371000071],[118.55314385100006,9.445323714000038],[118.55316685200012,9.443534325000028],[118.55208389400002,9.44131333100006],[118.55210190900006,9.43991164500005],[118.55244034700003,9.439289545000063],[118.55374106900001,9.438590147000069],[118.55569644200011,9.438376279000066],[118.55650472200011,9.438595306000023],[118.5574254920001,9.43941231900004],[118.55883372800008,9.439698589000043],[118.56117537700004,9.439817689000051],[118.56583095700013,9.439876522000075],[118.56766850800012,9.439482127000076],[118.56868668400011,9.439733609000031],[118.5705937360001,9.44095082200005],[118.57208198400008,9.440705679000075],[118.5727820210001,9.440864838000039],[118.57510772000002,9.443642256000032],[118.5763243760001,9.444448447000072],[118.57760352500009,9.444770926000045],[118.57960596400007,9.444949474000055],[118.58141647000004,9.446939447000034],[118.58209056600003,9.448260419000063],[118.58234930700007,9.451874023000073],[118.582922573,9.453656675000046],[118.58251173500004,9.455713289000075],[118.58411531700004,9.458119831000033],[118.58513026900005,9.459946236000064],[118.58708968600001,9.46159363500004],[118.58827473500003,9.462260990000061],[118.58834940500005,9.463433526000074],[118.58761825300007,9.464030319000072],[118.58659630100009,9.466458898000042],[118.58757714900003,9.466442624000024],[118.58821648400009,9.465314780000028],[118.59040426600006,9.464893703000026],[118.59112374600011,9.46501730700004],[118.5923526790001,9.465901413000038],[118.59325980000004,9.46563601300005],[118.59394533700005,9.46613013900003],[118.5943226370001,9.467482116000042],[118.5958426510001,9.46815987900004],[118.59698388700009,9.468384236000077],[118.5974669530001,9.46895349600004],[118.59758660680824,9.468999897911777],[118.59767174671501,9.467101557605988],[118.59743202970841,9.462671534797035],[118.59702998802832,9.460062965109806],[118.59581783500005,9.459365792000028]]]}}]}