{"type":"FeatureCollection","features":[{"type":"Feature","properties":{"fid":174,"objectid":9616,"lccode":"07","liqcode":null,"mappers":"DJLBuhay, MITAbigania","project":"LiquePhi","province":"Pangasinan","otherinfo":null,"datemapped":2024,"publishdate":null,"globalid":"{4C1C6B5C-6BC5-4098-AF34-1358D72BE295}","st_area(shape)":0.0990952810399136,"st_perimeter(shape)":16.14272038398808,"liqcodepk":null,"creator":null,"createdate":null,"editor":null,"modifydate":null,"codemove":null},"geometry":{"type":"Polygon","coordinates":[[[120.3629696790001,15.88248994400004],[120.36493053700009,15.881918427000073],[120.36633087200005,15.880656533000032],[120.368086908,15.877686089000061],[120.36894138200012,15.875837391000056],[120.36904833800008,15.87309400600003],[120.3677438100001,15.870473469000046],[120.366594662,15.86896444600006],[120.36658021200003,15.866721992000066],[120.36800629000005,15.862926795000018],[120.36782328700008,15.860198257000043],[120.36711024800003,15.857969087000072],[120.3682154590001,15.85632291400003],[120.36885719400004,15.854539546000066],[120.36885719400004,15.852927641000061],[120.36810850300003,15.850595502000033],[120.36842937000004,15.848572006000042],[120.36974849300009,15.844970818000036],[120.37067544400009,15.84339313500004],[120.37135283100008,15.842810075000045],[120.37370586000009,15.840031943000042],[120.37449020300006,15.838694310000054],[120.37502498300013,15.836533500000034],[120.37509628700002,15.834784255000049],[120.37431194400004,15.832897798000037],[120.37359890400012,15.832589104000023],[120.37181630600001,15.832692002000044],[120.37088935500003,15.832246109000035],[120.37046153200005,15.831148523000026],[120.37081805200013,15.830291029000021],[120.37217282600011,15.828644631000031],[120.37270760500009,15.827272622000065],[120.37281456100006,15.825557598000044],[120.37238673800005,15.824425675000048],[120.37131717900003,15.822847831000047],[120.37081805200013,15.821235674000032],[120.37135283100008,15.819897916000059],[120.37459715900003,15.818285736000062],[120.37516759100002,15.81749679100005],[120.3751319390001,15.81622761400007],[120.37431194400004,15.815507266000054],[120.3723510860001,15.814649706000068],[120.3701763160001,15.814889823000046],[120.36835806600004,15.815678778000063],[120.36714590000008,15.81660493800007],[120.365584344,15.81932850900006],[120.36492834800005,15.819836174000038],[120.36374470300008,15.81982245300003],[120.3632099690001,15.819423978000035],[120.3627554210001,15.81908525600005],[120.36018848000002,15.81743876700005],[120.35933283300004,15.817061444000043],[120.35387808400004,15.816787028000018],[120.35248765700008,15.81685563200006],[120.34952854500011,15.817301559000036],[120.34850775900009,15.817612967000057],[120.34717551500012,15.817507371000032],[120.3458273650001,15.816469176000048],[120.34492037100006,15.816127324000032],[120.34307954800012,15.815945676000068],[120.34232684900007,15.815346334000028],[120.34104337800012,15.813391090000039],[120.3407938150001,15.81157304000004],[120.34211293700004,15.80917181600006],[120.34681899600002,15.805535622000036],[120.35049114700007,15.80237962800004],[120.35352156400008,15.800595784000045],[120.35555372600004,15.799086364000061],[120.35708676000003,15.798331650000021],[120.35940413700008,15.79757693400006],[120.36165021100008,15.79719957400005],[120.364309605,15.797026801000067],[120.36857189200009,15.794884594000052],[120.36935832000006,15.794026811000037],[120.37054833192136,15.793257980081412],[120.36823166604283,15.793340077102021],[120.3636962082172,15.793935396648141],[120.35924282862307,15.794958190458942],[120.35491438758419,15.796398610722353],[120.35075254448434,15.798242790415513],[120.34679735755536,15.800472976662471],[120.34308689896095,15.803067701416547],[120.33965688884977,15.80600198783417],[120.3365403518752,15.80924759036691],[120.33376729946878,15.812773266276254],[120.33136444091528,15.816545075975549],[120.32935492600747,15.82052670932724],[120.32775812176271,15.824679834774312],[120.32658942536473,15.82896446796504],[120.32586011515217,15.833339356341206],[120.32557724111649,15.837762376004886],[120.3257435559974,15.84219093705792],[120.32635748767837,15.846582393523818],[120.3274131531892,15.850894453913781],[120.32890041422549,15.855085588488718],[120.33051952073895,15.858511451102073],[120.33122139900001,15.857901646000068],[120.33523629900004,15.856024963000035],[120.33835179100005,15.85510085800007],[120.34055032800008,15.855329495000037],[120.3419169870001,15.855958246000059],[120.34500682300006,15.858187438000073],[120.34601696200002,15.85938776300003],[120.34791840000003,15.86064523700003],[120.34976041800009,15.861502602000028],[120.35207779500001,15.86207417700007],[120.3540386530001,15.862131334000022],[120.35558357100001,15.862645750000077],[120.3568908090001,15.863903204000051],[120.35677936500008,15.866261174000044],[120.35635541600004,15.86711738300005],[120.35374155300006,15.869333032000043],[120.35207779500001,15.870190359000043],[120.35087905000012,15.870545145000051],[120.34857201900002,15.870704754000034],[120.34292712500006,15.870476134000063],[120.34037206800006,15.870647599000053],[120.33988984504693,15.870821543966098],[120.34217342512446,15.87287649584886],[120.34581615747223,15.875561307605569],[120.34971334282459,15.877887561394163],[120.35382744009425,15.879832839576054],[120.35811881383952,15.881378394244793],[120.36254611653095,15.882509328313464],[120.36266027731064,15.882527143694439],[120.3629696790001,15.88248994400004]]]}},{"type":"Feature","properties":{"fid":175,"objectid":9617,"lccode":"06","liqcode":null,"mappers":"DJLBuhay, MITAbigania","project":"LiquePhi","province":"Pangasinan","otherinfo":null,"datemapped":2024,"publishdate":null,"globalid":"{66023685-1332-44EF-8443-E51FD3597412}","st_area(shape)":0.04411879143836554,"st_perimeter(shape)":22.502158641584156,"liqcodepk":null,"creator":null,"createdate":null,"editor":null,"modifydate":null,"codemove":null},"geometry":{"type":"MultiPolygon","coordinates":[[[[120.34037206800006,15.870647599000053],[120.34292712500006,15.870476134000063],[120.34857201900002,15.870704754000034],[120.35087905000012,15.870545145000051],[120.35207779500001,15.870190359000043],[120.35374155300006,15.869333032000043],[120.35635541600004,15.86711738300005],[120.35677936500008,15.866261174000044],[120.3568908090001,15.863903204000051],[120.35558357100001,15.862645750000077],[120.3540386530001,15.862131334000022],[120.35207779500001,15.86207417700007],[120.34976041800009,15.861502602000028],[120.34791840000003,15.86064523700003],[120.34601696200002,15.85938776300003],[120.34500682300006,15.858187438000073],[120.3419169870001,15.855958246000059],[120.34055032800008,15.855329495000037],[120.33835179100005,15.85510085800007],[120.33523629900004,15.856024963000035],[120.33122139900001,15.857901646000068],[120.33051952073895,15.858511451102073],[120.3308049736935,15.859115429296319],[120.33310851239318,15.862945159127829],[120.33578886456232,15.866537885641387],[120.33882023062503,15.869858997037811],[120.33988984504693,15.870821543966098],[120.34037206800006,15.870647599000053]]],[[[120.41501181400008,15.854888819000053],[120.41330052000002,15.856489276000044],[120.4112564740001,15.85895852700003],[120.40911735700003,15.860879035000044],[120.40416636000009,15.86455233000003],[120.40142115900007,15.866335610000021],[120.398925522,15.868633275000036],[120.39703596800005,15.871342428000048],[120.3960733660001,15.873297110000067],[120.39525337100008,15.876109076000033],[120.39422712800001,15.87765215200005],[120.39245879100007,15.878639752000026],[120.39114679900001,15.87885921800006],[120.38823759900004,15.878804352000035],[120.38601291700002,15.878145952000066],[120.38395936400003,15.87721321600003],[120.38116425000011,15.877158350000057],[120.37916774000007,15.876664546000024],[120.37842618,15.876170742000056],[120.37637262700002,15.873921173000042],[120.37494654800004,15.872055657000029],[120.37426203100006,15.870299862000024],[120.3725507370001,15.868434313000023],[120.37203734900004,15.86640413700007],[120.37266482300004,15.863496012000038],[120.37277890900009,15.86141091500002],[120.37249369400001,15.860148873000067],[120.37113067500002,15.857951141000056],[120.37112465800011,15.857021167000024],[120.37169217400002,15.855764706000059],[120.37306412500004,15.853509300000042],[120.37352047000003,15.85147897400003],[120.37340638400008,15.849613251000049],[120.37414794500013,15.847034135000062],[120.37490434900008,15.845400875000053],[120.37682406600005,15.842838131000061],[120.3776846190001,15.84116240700007],[120.37876843800007,15.838418551000077],[120.37941823300004,15.836175729000043],[120.37940691600012,15.833258050000037],[120.37905835800007,15.831882361000055],[120.37708169500003,15.829277559000047],[120.37724665500002,15.826712130000033],[120.37598042700004,15.822788640000057],[120.3759281460001,15.821223492000055],[120.37660079900003,15.819923986000047],[120.37727712700007,15.81796107900004],[120.37734454100006,15.817071368000025],[120.37694286900012,15.814196797000024],[120.37724262000006,15.812823311000045],[120.37851683500003,15.810884969000025],[120.379076757,15.809426949000056],[120.37955211600003,15.807231523000038],[120.38040776300011,15.805127549000074],[120.3817387700001,15.80311503300004],[120.38249934500003,15.800919538000072],[120.3845909260001,15.798358096000074],[120.38573178900003,15.797168845000042],[120.386917462173,15.795501381246691],[120.38631827453078,15.795285629304217],[120.38189258597195,15.794155441250933],[120.37737384809402,15.793450626974476],[120.37280555252701,15.793177965666],[120.37054833192136,15.793257980081412],[120.36935832000006,15.794026811000037],[120.36857189200009,15.794884594000052],[120.364309605,15.797026801000067],[120.36165021100008,15.79719957400005],[120.35940413700008,15.79757693400006],[120.35708676000003,15.798331650000021],[120.35555372600004,15.799086364000061],[120.35352156400008,15.800595784000045],[120.35049114700007,15.80237962800004],[120.34681899600002,15.805535622000036],[120.34211293700004,15.80917181600006],[120.3407938150001,15.81157304000004],[120.34104337800012,15.813391090000039],[120.34232684900007,15.815346334000028],[120.34307954800012,15.815945676000068],[120.34492037100006,15.816127324000032],[120.3458273650001,15.816469176000048],[120.34717551500012,15.817507371000032],[120.34850775900009,15.817612967000057],[120.34952854500011,15.817301559000036],[120.35248765700008,15.81685563200006],[120.35387808400004,15.816787028000018],[120.35933283300004,15.817061444000043],[120.36018848000002,15.81743876700005],[120.3627554210001,15.81908525600005],[120.3632099690001,15.819423978000035],[120.36374470300008,15.81982245300003],[120.36492834800005,15.819836174000038],[120.365584344,15.81932850900006],[120.36714590000008,15.81660493800007],[120.36835806600004,15.815678778000063],[120.3701763160001,15.814889823000046],[120.3723510860001,15.814649706000068],[120.37431194400004,15.815507266000054],[120.3751319390001,15.81622761400007],[120.37516759100002,15.81749679100005],[120.37459715900003,15.818285736000062],[120.37135283100008,15.819897916000059],[120.37081805200013,15.821235674000032],[120.37131717900003,15.822847831000047],[120.37238673800005,15.824425675000048],[120.37281456100006,15.825557598000044],[120.37270760500009,15.827272622000065],[120.37217282600011,15.828644631000031],[120.37081805200013,15.830291029000021],[120.37046153200005,15.831148523000026],[120.37088935500003,15.832246109000035],[120.37181630600001,15.832692002000044],[120.37359890400012,15.832589104000023],[120.37431194400004,15.832897798000037],[120.37509628700002,15.834784255000049],[120.37502498300013,15.836533500000034],[120.37449020300006,15.838694310000054],[120.37370586000009,15.840031943000042],[120.37135283100008,15.842810075000045],[120.37067544400009,15.84339313500004],[120.36974849300009,15.844970818000036],[120.36842937000004,15.848572006000042],[120.36810850300003,15.850595502000033],[120.36885719400004,15.852927641000061],[120.36885719400004,15.854539546000066],[120.3682154590001,15.85632291400003],[120.36711024800003,15.857969087000072],[120.36782328700008,15.860198257000043],[120.36800629000005,15.862926795000018],[120.36658021200003,15.866721992000066],[120.366594662,15.86896444600006],[120.3677438100001,15.870473469000046],[120.36904833800008,15.87309400600003],[120.36894138200012,15.875837391000056],[120.368086908,15.877686089000061],[120.36633087200005,15.880656533000032],[120.36493053700009,15.881918427000073],[120.3629696790001,15.88248994400004],[120.36266027731064,15.882527143694439],[120.36706668749338,15.883214739467586],[120.37163696465225,15.883487825578253],[120.37621290508416,15.883325950544055],[120.38075041028111,15.88273066991458],[120.38520575199077,15.881707716039704],[120.38953599448621,15.880266942882717],[120.39369940915468,15.87842223102803],[120.39765587736989,15.87619135380231],[120.401367277729,15.873595805806213],[120.40479785389194,15.87066059552008],[120.40791455945245,15.867414003996117],[120.41068737650049,15.863887311979225],[120.41308960479603,15.860114498104473],[120.41509811876686,15.856131911099302],[120.41578094947411,15.854354110423575],[120.41501181400008,15.854888819000053]]]]}},{"type":"Feature","properties":{"fid":176,"objectid":9618,"lccode":"05","liqcode":null,"mappers":"DJLBuhay, MITAbigania","project":"LiquePhi","province":"Pangasinan","otherinfo":null,"datemapped":2024,"publishdate":null,"globalid":"{5ACB73C5-6107-4512-9787-F18573022798}","st_area(shape)":0.06533832536059311,"st_perimeter(shape)":23.271340040578984,"liqcodepk":null,"creator":null,"createdate":null,"editor":null,"modifydate":null,"codemove":null},"geometry":{"type":"Polygon","coordinates":[[[120.38573178900003,15.797168845000042],[120.3845909260001,15.798358096000074],[120.38249934500003,15.800919538000072],[120.3817387700001,15.80311503300004],[120.38040776300011,15.805127549000074],[120.37955211600003,15.807231523000038],[120.379076757,15.809426949000056],[120.37851683500003,15.810884969000025],[120.37724262000006,15.812823311000045],[120.37694286900012,15.814196797000024],[120.37734454100006,15.817071368000025],[120.37727712700007,15.81796107900004],[120.37660079900003,15.819923986000047],[120.3759281460001,15.821223492000055],[120.37598042700004,15.822788640000057],[120.37724665500002,15.826712130000033],[120.37708169500003,15.829277559000047],[120.37905835800007,15.831882361000055],[120.37940691600012,15.833258050000037],[120.37941823300004,15.836175729000043],[120.37876843800007,15.838418551000077],[120.3776846190001,15.84116240700007],[120.37682406600005,15.842838131000061],[120.37490434900008,15.845400875000053],[120.37414794500013,15.847034135000062],[120.37340638400008,15.849613251000049],[120.37352047000003,15.85147897400003],[120.37306412500004,15.853509300000042],[120.37169217400002,15.855764706000059],[120.37112465800011,15.857021167000024],[120.37113067500002,15.857951141000056],[120.37249369400001,15.860148873000067],[120.37277890900009,15.86141091500002],[120.37266482300004,15.863496012000038],[120.37203734900004,15.86640413700007],[120.3725507370001,15.868434313000023],[120.37426203100006,15.870299862000024],[120.37494654800004,15.872055657000029],[120.37637262700002,15.873921173000042],[120.37842618,15.876170742000056],[120.37916774000007,15.876664546000024],[120.38116425000011,15.877158350000057],[120.38395936400003,15.87721321600003],[120.38601291700002,15.878145952000066],[120.38823759900004,15.878804352000035],[120.39114679900001,15.87885921800006],[120.39245879100007,15.878639752000026],[120.39422712800001,15.87765215200005],[120.39525337100008,15.876109076000033],[120.3960733660001,15.873297110000067],[120.39703596800005,15.871342428000048],[120.398925522,15.868633275000036],[120.40142115900007,15.866335610000021],[120.40416636000009,15.86455233000003],[120.40911735700003,15.860879035000044],[120.4112564740001,15.85895852700003],[120.41330052000002,15.856489276000044],[120.41501181400008,15.854888819000053],[120.41578094947411,15.854354110423575],[120.41669358986115,15.851977919169027],[120.41786067212739,15.847692539963802],[120.41858814925708,15.843317054710699],[120.41886904170298,15.838893610245258],[120.41870067287664,15.834464812790495],[120.4180846938265,15.830073317407697],[120.41702706620181,15.82576141708122],[120.41553800370986,15.82157063539905],[120.41363187267326,15.817541326752048],[120.41132705268652,15.813712287898417],[120.40864575875109,15.81012038462616],[120.40561382663445,15.806800197097795],[120.40226046354681,15.803783687277875],[120.39861796655526,15.801099891628985],[120.39472141145926,15.798774642016424],[120.39060831512562,15.796830317488833],[120.386917462173,15.795501381246691],[120.38573178900003,15.797168845000042]]]}},{"type":"Feature","properties":{"fid":180,"objectid":9619,"lccode":"07","liqcode":null,"mappers":"DJLBuhay, MITAbigania","project":"EHM","province":"Tarlac","otherinfo":"merged into one feature in 2024","datemapped":2021,"publishdate":null,"globalid":"{86B5AD80-4B79-45B5-89D4-1FDEF062B016}","st_area(shape)":0.06253734240529021,"st_perimeter(shape)":3.2108098594058267,"liqcodepk":null,"creator":null,"createdate":null,"editor":null,"modifydate":null,"codemove":null},"geometry":{"type":"Polygon","coordinates":[]}}]}