{"type":"FeatureCollection","features":[{"type":"Feature","properties":{"fid":194,"objectid":2170,"lccode":"01","liqcode":null,"mappers":"DJLBuhay, MJVReyes, MITAbigania, KLPapiona, KMVitto","project":"MELP","province":"Davao del Norte","otherinfo":null,"datemapped":2018,"publishdate":null,"globalid":"{9AB618B6-D0DC-4322-9386-ECE8955C87EA}","st_area(shape)":0.06864336268566588,"st_perimeter(shape)":8.586566217312162,"liqcodepk":null,"creator":null,"createdate":null,"editor":null,"modifydate":null,"codemove":null},"geometry":{"type":"Polygon","coordinates":[]}}]}