{"type":"FeatureCollection","features":[{"type":"Feature","properties":{"fid":48,"objectid":1897,"lccode":"05","liqcode":"2010600050000000","mappers":"PJDelosReyes, ACPidlaoan","project":"READY","province":"Abra","otherinfo":null,"datemapped":2011,"publishdate":null,"globalid":"{6F1B2D48-A8B0-430F-BF24-324356CDBB9C}","st_area(shape)":0.01258216709511878,"st_perimeter(shape)":4.5647277548728225,"liqcodepk":"201060005000000000091","creator":"SNOOPYPC","createdate":"2019-02-19T15:21:28","editor":"LENOVO","modifydate":"2019-03-10T17:50:55","codemove":"na"},"geometry":{"type":"MultiPolygon","coordinates":[[[[120.71423402600009,17.40183454000004],[120.71466519600006,17.399418598000068],[120.71468640800003,17.397713272000026],[120.71430246600005,17.396333324000064],[120.71405568200011,17.39313937200006],[120.71326797600011,17.391974989000058],[120.7098774330001,17.39276130400003],[120.70867584500002,17.39348404000003],[120.7095167750001,17.393830680000068],[120.70957680300012,17.394759838000027],[120.70749436900007,17.396331454000062],[120.70695335100005,17.398360903000018],[120.70783992600002,17.40125016200005],[120.70804482998597,17.40309562903252],[120.71126253491096,17.40267508180025],[120.7142391505958,17.40199541219414],[120.71423402600009,17.40183454000004]]],[[[120.69556706300013,17.316027289000026],[120.69645037700003,17.318678443000064],[120.6971619630001,17.321327528000037],[120.69777989300009,17.326891536000065],[120.69723968300002,17.328865986000036],[120.69714469200005,17.331890990000034],[120.69763403600007,17.333987300000043],[120.69915435700013,17.33609556900006],[120.6998813870001,17.34210104000005],[120.70059513000001,17.34458504600008],[120.70068359400011,17.34667683200007],[120.70063658000004,17.350445073000056],[120.70122667000008,17.35135973900003],[120.70312386800005,17.353114582000043],[120.70327995300012,17.354381821000057],[120.70280633100005,17.35561436100005],[120.70248141400009,17.35869859100006],[120.70185938700001,17.36033512700004],[120.70193570900005,17.36110623600007],[120.70504361200005,17.36456006400004],[120.70627300900003,17.367050080000062],[120.70814836900001,17.368281973000023],[120.70920663900006,17.370715009000037],[120.70878304800011,17.37252581000007],[120.70838362900007,17.373254426000074],[120.70956312900012,17.37285530400004],[120.71030334900003,17.373221459000035],[120.71017261800012,17.374519727000067],[120.71255106,17.371296634000032],[120.71288457100002,17.369814991000055],[120.71216239900002,17.367991046000043],[120.71086130900007,17.36665567600005],[120.70972450300006,17.365927407000072],[120.70969053200008,17.36405634700003],[120.71213329300008,17.361113335000024],[120.71267681900008,17.358870635000077],[120.71168065300003,17.35604634800006],[120.711061803,17.352827447000035],[120.71130839900003,17.34911647200005],[120.71094127700009,17.34638880600005],[120.71057886400001,17.34558687200007],[120.70961103000002,17.345108113000038],[120.7088971600001,17.342624125000036],[120.7061994410001,17.340749967000022],[120.70453379500009,17.338805173000026],[120.7041462320001,17.337727834000074],[120.70407811500002,17.336296593000043],[120.70465511600003,17.333662317000062],[120.70491361300004,17.33129940000003],[120.7055992940001,17.329134031000024],[120.70553697500009,17.327235188000028],[120.70447790500009,17.324884698000066],[120.70313147700006,17.322613457000045],[120.7019239130001,17.318390585000028],[120.69990199000004,17.315176237000053],[120.69971217700004,17.314321273000072],[120.70081648150364,17.313203174283167],[120.6985900122819,17.313282626613866],[120.6951874945073,17.313727525208122],[120.69556706300013,17.316027289000026]]],[[[120.70072073200005,17.40187903200007],[120.70033964900006,17.400279087000058],[120.69982539999998,17.400163145000022],[120.69829360900009,17.398935026000064],[120.69836816200007,17.397560445000067],[120.6994200600001,17.395922039000027],[120.7006315220001,17.395275798000057],[120.70242401000009,17.39397602500003],[120.70342341500009,17.391951872000053],[120.70408802100009,17.389208541000066],[120.70441912600006,17.385636223000063],[120.70432371200003,17.384094575000063],[120.70376187600003,17.383207781000063],[120.70290527300007,17.38297790300004],[120.70107201200007,17.382956781000075],[120.6983146680001,17.38353010600002],[120.69686450600011,17.38494390200003],[120.69461788,17.38590827300004],[120.69246086500004,17.388854306000045],[120.69214263900004,17.391381487000046],[120.69246432300008,17.393145761000024],[120.69253883200008,17.39633770500006],[120.69188999200003,17.397815636000075],[120.69105333900008,17.400556818000037],[120.69044024563804,17.401839286595084],[120.69290961362707,17.402463609056486],[120.69746747406847,17.40316664709284],[120.70127931996923,17.403390543175515],[120.70072073200005,17.40187903200007]]],[[[120.70716299500009,17.387582438000038],[120.70979973400006,17.387502641000022],[120.71066801300005,17.386797383000044],[120.71115299000009,17.38465717300005],[120.71055160100002,17.382339482000077],[120.71010353800011,17.381509102000052],[120.7100750610001,17.379197897000044],[120.7096290610001,17.378202440000052],[120.70930105400011,17.37550006100002],[120.7081340530001,17.377192315000055],[120.70654407500002,17.380640173000067],[120.7063032860001,17.381572736000063],[120.70627104000005,17.384158256000028],[120.70653416400012,17.386031945000074],[120.70658079900011,17.388033744000037],[120.70716299500009,17.387582438000038]]]]}},{"type":"Feature","properties":{"fid":58,"objectid":1907,"lccode":"05","liqcode":"2010600050000000","mappers":"PJDelosReyes, ACPidlaoan","project":"READY","province":"Ilocos Sur","otherinfo":null,"datemapped":2012,"publishdate":null,"globalid":"{7D41ABB3-20BB-4A8A-A22A-9DDDC45B8904}","st_area(shape)":0.029120699274048492,"st_perimeter(shape)":9.226907297832456,"liqcodepk":"201060005000000000102","creator":"SNOOPYPC","createdate":"2019-02-19T15:21:28","editor":"LENOVO","modifydate":"2019-03-10T17:50:55","codemove":"na"},"geometry":{"type":"Polygon","coordinates":[]}},{"type":"Feature","properties":{"fid":63,"objectid":1927,"lccode":"06","liqcode":"2010600060000000","mappers":"PJDelosReyes, ACPidlaoan","project":"READY","province":"Abra","otherinfo":null,"datemapped":2011,"publishdate":null,"globalid":"{2D7190C8-CD2C-4D21-8E96-CD4FC48D3C6E}","st_area(shape)":0.008103563302459305,"st_perimeter(shape)":1.7202435562194207,"liqcodepk":"201060006000000000125","creator":"SNOOPYPC","createdate":"2019-02-19T15:21:28","editor":"LENOVO","modifydate":"2019-03-10T17:50:55","codemove":"na"},"geometry":{"type":"Polygon","coordinates":[[[120.70783992600002,17.40125016200005],[120.70695335100005,17.398360903000018],[120.70749436900007,17.396331454000062],[120.70957680300012,17.394759838000027],[120.7095167750001,17.393830680000068],[120.70867584500002,17.39348404000003],[120.70718763400008,17.393356921000077],[120.70587621600009,17.392839757000047],[120.70517245400002,17.39184132300005],[120.70522846000007,17.38964815000003],[120.70658079900011,17.388033744000037],[120.70653416400012,17.386031945000074],[120.70627104000005,17.384158256000028],[120.7063032860001,17.381572736000063],[120.70654407500002,17.380640173000067],[120.7081340530001,17.377192315000055],[120.70930105400011,17.37550006100002],[120.71017261800012,17.374519727000067],[120.71030334900003,17.373221459000035],[120.70956312900012,17.37285530400004],[120.70838362900007,17.373254426000074],[120.70702128100005,17.374531677000046],[120.70477405400004,17.375558133000027],[120.70179381500007,17.37563383500003],[120.69937682400007,17.376486306000057],[120.69769692300007,17.377952379000078],[120.696047442,17.381564545000057],[120.69401404000007,17.383796810000035],[120.69187576700006,17.385257611000043],[120.68996037300008,17.387216085000034],[120.68805462400009,17.38840433500008],[120.68697422600007,17.392298096000047],[120.68702055900009,17.393172087000032],[120.68859969400012,17.395177915000037],[120.68875014100001,17.396885203000068],[120.68832115403814,17.401290583965423],[120.68844553769738,17.401334946229937],[120.69044024563804,17.401839286595084],[120.69105333900008,17.400556818000037],[120.69188999200003,17.397815636000075],[120.69253883200008,17.39633770500006],[120.69246432300008,17.393145761000024],[120.69214263900004,17.391381487000046],[120.69246086500004,17.388854306000045],[120.69461788,17.38590827300004],[120.69686450600011,17.38494390200003],[120.6983146680001,17.38353010600002],[120.70107201200007,17.382956781000075],[120.70290527300007,17.38297790300004],[120.70376187600003,17.383207781000063],[120.70432371200003,17.384094575000063],[120.70441912600006,17.385636223000063],[120.70408802100009,17.389208541000066],[120.70342341500009,17.391951872000053],[120.70242401000009,17.39397602500003],[120.7006315220001,17.395275798000057],[120.6994200600001,17.395922039000027],[120.69836816200007,17.397560445000067],[120.69829360900009,17.398935026000064],[120.69982539999998,17.400163145000022],[120.70033964900006,17.400279087000058],[120.70072073200005,17.40187903200007],[120.70127931996923,17.403390543175515],[120.70207519455357,17.40343728119285],[120.70668836826079,17.40327289929545],[120.70804482998597,17.40309562903252],[120.70783992600002,17.40125016200005]]]}}]}