{"type":"FeatureCollection","features":[{"type":"Feature","properties":{"fid":58,"objectid":1907,"lccode":"05","liqcode":"2010600050000000","mappers":"PJDelosReyes, ACPidlaoan","project":"READY","province":"Ilocos Sur","otherinfo":null,"datemapped":2012,"publishdate":null,"globalid":"{7D41ABB3-20BB-4A8A-A22A-9DDDC45B8904}","st_area(shape)":0.029120699274048492,"st_perimeter(shape)":9.226907297832456,"liqcodepk":"201060005000000000102","creator":"SNOOPYPC","createdate":"2019-02-19T15:21:28","editor":"LENOVO","modifydate":"2019-03-10T17:50:55","codemove":"na"},"geometry":{"type":"MultiPolygon","coordinates":[[[[120.73386809600002,16.982716221000032],[120.73310719900007,16.98228642800007],[120.7320897830001,16.98043209900004],[120.73173078300012,16.978427132000032],[120.73135604200003,16.977738359000057],[120.7308336000001,16.97567891800003],[120.73045886800004,16.974990144000056],[120.7288810880001,16.974235402000033],[120.72824797400006,16.972280035000036],[120.728429236,16.97086028800004],[120.72784958600003,16.96901073600003],[120.72659954000005,16.96831229000003],[120.72581200400009,16.970093852000048],[120.72516576600005,16.973772732000047],[120.72455758100011,16.974292488000064],[120.72194055048388,16.974547246286424],[120.72509042691152,16.977359331790442],[120.72875786456956,16.980040731305333],[120.73268086385583,16.98236323428629],[120.73390353062577,16.982936442094154],[120.73386809600002,16.982716221000032]]],[[[120.74987442200008,16.987290580000035],[120.74937256300007,16.98578431600003],[120.74861530500004,16.985038684000077],[120.74694708900007,16.982676949000048],[120.74696312300011,16.981334374000028],[120.75146983700006,16.97969910200004],[120.75304612000002,16.977927201000057],[120.75440954500006,16.976944939000074],[120.75634789100003,16.97687949400006],[120.76019232300007,16.975664372000036],[120.76235537800007,16.97564478000004],[120.76449136300006,16.974107155000066],[120.76630011600001,16.973563307000063],[120.7681917750001,16.973627382000075],[120.76869863500006,16.972678984000027],[120.76721393700008,16.97248931400003],[120.76451087400005,16.972459687000025],[120.76094657400007,16.972854184000028],[120.759499731,16.973271904000057],[120.75679453400005,16.97341556000003],[120.75476002200004,16.97400018700006],[120.7522790150001,16.974233047000038],[120.75188075500012,16.97362153700004],[120.75243273800005,16.972673686000064],[120.75267301000008,16.971418929000034],[120.75359772200011,16.969434537000037],[120.75515318900013,16.967456995000077],[120.75640619,16.964392200000077],[120.75724794100005,16.96179975100006],[120.75686615800011,16.959800963000077],[120.75675882800012,16.957458281000072],[120.75737504000006,16.951090928000042],[120.75740281500009,16.948749729000042],[120.75825789600003,16.945030145000032],[120.75968046000004,16.94283431300005],[120.75991900500004,16.941709484000054],[120.76115272100004,16.940248746000066],[120.76155560700012,16.93665423400006],[120.76317109500008,16.933376473000056],[120.76318646900006,16.932075780000048],[120.7637914840001,16.930434627000068],[120.76303194700004,16.92990598400007],[120.76230412300004,16.930505136000022],[120.76182189800012,16.933188191000053],[120.76063232600006,16.93473622000004],[120.75886223400005,16.93584416000004],[120.75717456400001,16.937603461000037],[120.75664668400007,16.940329434000038],[120.75590130900002,16.942402540000042],[120.75472603900005,16.94273653000004],[120.75286252500008,16.940331173000054],[120.75226172100007,16.937809559000073],[120.75086050100005,16.934353279000046],[120.74908320500003,16.93199039600006],[120.74875715300004,16.92951181600005],[120.7482459250001,16.928795289000053],[120.74843369300005,16.924505622000023],[120.74775178900005,16.92204949300003],[120.74704790000011,16.92143615200007],[120.74608409500001,16.921978452000076],[120.74538342500013,16.921101864000036],[120.74464051700011,16.919171610000042],[120.74391027500008,16.918479033000043],[120.74335107900004,16.919499683000023],[120.7428019140001,16.919677958000022],[120.74232480300009,16.920699512000052],[120.74089321200006,16.921473522000042],[120.73963269000001,16.923960932000057],[120.73830300500003,16.925368],[120.73820707000004,16.926525351000063],[120.739514524,16.926987434000065],[120.74091186000008,16.92679226800004],[120.74200206900002,16.927120251000076],[120.74343740200005,16.928320989000046],[120.74565973900008,16.932347511000046],[120.74575723900013,16.933349129000074],[120.74482830800004,16.935550489000033],[120.74438012700013,16.938731409000066],[120.7449730830001,16.941765864000047],[120.74490173600009,16.943160486000068],[120.74600241700013,16.944910357000026],[120.74633666900002,16.94670450900003],[120.74597174900009,16.949780949000058],[120.74635287100011,16.95223376500007],[120.74584670600007,16.95338668000005],[120.74761524100008,16.954196131000057],[120.74853645600002,16.954943474000057],[120.74902226200004,16.95779240400003],[120.74862082000003,16.959341440000053],[120.74870233100013,16.961685637000077],[120.74807635500008,16.96370609100006],[120.74825307600007,16.964945486000033],[120.74793804,16.966126796000022],[120.74802644100009,16.967891860000066],[120.74896350100005,16.969613640000034],[120.74863338800002,16.972058601000075],[120.74837996500003,16.97266138200007],[120.74640218200011,16.97332404200006],[120.74459885100008,16.97311984700008],[120.74329958900012,16.97423759600002],[120.74310363400002,16.97689464300004],[120.74248445700006,16.97833593400003],[120.7423602880001,16.979571998000036],[120.74092787900007,16.98266294700005],[120.74106422800003,16.984981459000036],[120.74315170246315,16.986354282920203],[120.74559518761849,16.986972087891196],[120.74983917352874,16.987625908866683],[120.74987442200008,16.987290580000035]]]]}}]}