{"type":"FeatureCollection","features":[{"type":"Feature","properties":{"fid":199,"objectid":3198,"lccode":"01","liqcode":null,"mappers":"DJLBuhay, MJVReyes, MITAbigania, KLPapiona, KMVitto","project":"MELP","province":"Samar","otherinfo":null,"datemapped":2016,"publishdate":null,"globalid":"{E57C8B37-1D1A-44CC-92F6-03CB1610709E}","st_area(shape)":0.033024573453977024,"st_perimeter(shape)":19.781785712536593,"liqcodepk":null,"creator":null,"createdate":null,"editor":null,"modifydate":null,"codemove":null},"geometry":{"type":"MultiPolygon","coordinates":[[[[124.959236271,11.511418482000064],[124.9597528480001,11.513003463000075],[124.9602835730001,11.513548299000034],[124.96152900300001,11.513774719000027],[124.961125658,11.514659199000052],[124.9594080380001,11.514612252000065],[124.95746538900005,11.514921877000063],[124.95844260000003,11.515967559000044],[124.95975286700002,11.51680494800007],[124.95910182900002,11.518468425000037],[124.95916259700005,11.519539407000021],[124.95834706100005,11.520015229000023],[124.9568967030001,11.520123204000072],[124.95593644100006,11.521062351000067],[124.95709660500006,11.522237379000044],[124.95815956800006,11.522121807000076],[124.95761737900011,11.523201633000038],[124.95871189400009,11.523672559000033],[124.95918501700008,11.524757979000071],[124.95969836600011,11.524649293000039],[124.96045015100003,11.523394907000068],[124.96161921600002,11.522726967000038],[124.96167197100009,11.521942201000059],[124.96007881900005,11.520202373000075],[124.9603347430001,11.51934066500007],[124.9614117090001,11.519381233000047],[124.96228517700003,11.520848499000063],[124.96201172500004,11.521979129000043],[124.96229094400006,11.522471487000075],[124.96335622900007,11.52222514500005],[124.96399215300005,11.521377450000045],[124.9631160690001,11.519069041000023],[124.9623020350001,11.518245484000031],[124.96093057300006,11.518165453000051],[124.96016893300008,11.517333246000018],[124.96070108700006,11.51605490600002],[124.96203850900008,11.516394539000032],[124.9633546970001,11.51589215000007],[124.96350329200006,11.514335468000068],[124.96298671600005,11.513127274000052],[124.96198895400006,11.512164967000045],[124.96101950100001,11.512161434000063],[124.96043923900005,11.510894865000068],[124.96111855700009,11.50971320000002],[124.96213046600008,11.509458465000023],[124.96205970000005,11.508701353000047],[124.96332635700003,11.508708422000039],[124.96351580614301,11.508090658190929],[124.96168322313517,11.508014249953385],[124.9611139832071,11.508045676335259],[124.96113977800007,11.508085761000073],[124.96080012100002,11.509090529000046],[124.95748841600005,11.50951509400005],[124.95731151400003,11.510569392000038],[124.95855694300009,11.510838268000045],[124.959236271,11.511418482000064]]],[[[124.91684310700009,11.560015533000067],[124.91888658600008,11.560340022000048],[124.91965790200005,11.560262185000054],[124.92067688300006,11.559165427000035],[124.9216180320001,11.559292788000047],[124.92190815600007,11.558535673000055],[124.9208184040001,11.55814650800005],[124.92107314500005,11.557021451000024],[124.92015322300004,11.55627849500007],[124.91820723600006,11.555195903000028],[124.9174076170001,11.555620456000042],[124.9168149750001,11.555229520000065],[124.91750137200007,11.554415797000049],[124.91673712800001,11.55376482500003],[124.91667140800006,11.552493800000036],[124.91721830600011,11.551663304000042],[124.91628219641642,11.550824770625985],[124.91616659588831,11.553512439969714],[124.91641739559095,11.55794065984639],[124.91674632993868,11.560030589164493],[124.91684310700009,11.560015533000067]]],[[[124.92264279100003,11.568854609000029],[124.92282936100004,11.568148667000058],[124.91901913423875,11.568749373887744],[124.9195343735985,11.570139710096432],[124.92264279100003,11.568854609000029]]],[[[124.99147373900009,11.586446310000044],[124.99278515000003,11.58616123300004],[124.993141508,11.585249005000033],[124.99386848400003,11.58455057800006],[124.99329830100008,11.583966186000055],[124.99352636600007,11.582612099000073],[124.99545072600006,11.583210738000048],[124.99483777500006,11.581642852000071],[124.99560751300011,11.580759129000056],[124.99660532700013,11.58083039200005],[124.9976357383934,11.58162078416282],[124.99902766544538,11.579742953913371],[124.99883614900013,11.579504803000077],[124.9976815330001,11.579191231000037],[124.99865083500005,11.578435788000032],[124.99873635900008,11.577808632000027],[124.99803788300005,11.576604212000062],[124.99947758500004,11.576290627000049],[124.9992067390001,11.574223866000066],[124.99973258500005,11.572492645000068],[124.99867931500013,11.572634599000025],[124.99721110100006,11.572349536000047],[124.99628456800006,11.574173993000045],[124.99530100100002,11.572762898000063],[124.99359046400001,11.573062230000062],[124.99235743700001,11.57038257100004],[124.99094624000008,11.569926465000036],[124.99043308300008,11.570824440000026],[124.99110304500003,11.571095254000058],[124.99094625000008,11.571921960000056],[124.99222916200007,11.573518350000029],[124.99242872800005,11.574116997000035],[124.99462392400007,11.574986452000074],[124.99505156800001,11.576810903000021],[124.99423906200003,11.57693918900003],[124.9943531030001,11.577780147000052],[124.99362612700008,11.578450066000071],[124.99202962500011,11.578621116000019],[124.99234322800008,11.579533341000058],[124.991302656,11.580687883000053],[124.99053291300002,11.580588112000042],[124.98980236600006,11.579690142000063],[124.9897453430001,11.578777916000034],[124.98897559800004,11.578279046000032],[124.98809182000002,11.57837882500007],[124.98783524500004,11.579462095000052],[124.9885622270001,11.580146262000028],[124.98844819500005,11.580887446000077],[124.98891860100004,11.582355558000073],[124.98956005800007,11.583353302000035],[124.98866203100012,11.584621871000023],[124.98727934400006,11.584408075000054],[124.98709047800003,11.58556973900005],[124.98790298800009,11.586382187000027],[124.98827361300006,11.588007088000039],[124.98706198700005,11.589133123000064],[124.98747910501736,11.590754359066375],[124.98772373210755,11.590607500736242],[124.99131787633819,11.587940825482118],[124.99165825401923,11.587632361601404],[124.99147373900009,11.586446310000044]]],[[[124.97808123700008,11.594849409000059],[124.97841919000007,11.593240034000075],[124.97794932600006,11.592650167000043],[124.97682122100001,11.592275251000046],[124.97605193700008,11.593256229000074],[124.97534587100007,11.59218967900006],[124.97447606700007,11.592673915000036],[124.97345394600006,11.591743918000075],[124.97253888400009,11.591310133000036],[124.97068916600006,11.59148584200005],[124.97008334100008,11.592570445000032],[124.970401045,11.593601395000064],[124.96974574300009,11.594237210000074],[124.97029508900005,11.595094396000034],[124.97089567000012,11.594956378000063],[124.9721270440001,11.593455700000048],[124.97329489800006,11.593964286000073],[124.9721546400001,11.594622549000064],[124.97212107000007,11.595368917000028],[124.97352446900004,11.596258527000032],[124.97393833443073,11.596784524239075],[124.97560415650496,11.596361012774528],[124.97867535277094,11.595253827717626],[124.97808123700008,11.594849409000059]]],[[[124.97004216000005,11.596416762000048],[124.9680465240001,11.594863137000063],[124.96690259200011,11.593088577000058],[124.96665121300009,11.591895875000032],[124.96700232800004,11.591336950000027],[124.96640010500006,11.589952802000026],[124.96480359800013,11.589111851000041],[124.96488911800009,11.587615229000049],[124.9659581950001,11.585612602000026],[124.96780058800005,11.585795525000036],[124.96740147100002,11.58753682200006],[124.96962517500003,11.588220981000063],[124.969953024,11.587208979000025],[124.97191301200007,11.586389391000068],[124.97194151500003,11.585149333000059],[124.97337065800002,11.585801219000075],[124.97471515400002,11.585620779000067],[124.9749168310001,11.586151465000059],[124.97608175800008,11.586796960000074],[124.97634616600011,11.587857484000038],[124.97709368400001,11.587624109000044],[124.97745811800007,11.588646564000044],[124.97879907600009,11.58851565500004],[124.9792413460001,11.588802223000073],[124.98112364000009,11.588635932000042],[124.98190557600005,11.589714991000053],[124.98264150900002,11.589424879000036],[124.98213554900008,11.588384736000025],[124.9832252990001,11.588367041000026],[124.983716221,11.589251516000045],[124.98441677400001,11.589148914000077],[124.9849713740001,11.588122032000058],[124.9829130510001,11.587167691000042],[124.9815933210001,11.587089863000072],[124.9803487680001,11.585056455000027],[124.97903965100011,11.584794656000042],[124.97891670600006,11.585835687000042],[124.97813123700007,11.585871070000053],[124.9775474370001,11.584784934000028],[124.976823,11.584547013000076],[124.9763099610001,11.583054901000022],[124.97702112700007,11.582609121000079],[124.9776155290001,11.581307167000034],[124.97425870200004,11.579376368000053],[124.97322556600011,11.580211320000046],[124.97421978900003,11.58070927600005],[124.97493096400001,11.582240304000038],[124.9733317250001,11.583051378000047],[124.97320789700008,11.58439224700004],[124.97262056500006,11.58468943400004],[124.97105846000011,11.582041315000028],[124.96969361500008,11.581224949000042],[124.96863216300007,11.579731956000044],[124.96811205600011,11.579898240000034],[124.96938845400007,11.582126233000054],[124.97010669800011,11.582101464000061],[124.97059142900002,11.582901030000071],[124.97035213600009,11.584593453000025],[124.96885542100006,11.585776504000023],[124.96892668600003,11.584393910000072],[124.968356502,11.583481687000072],[124.96651054000004,11.582312906000027],[124.96606962500006,11.582967599000028],[124.96393007000007,11.58366236300003],[124.96302491900009,11.583662364000077],[124.96368407600004,11.582462362000062],[124.96524705400009,11.58257910600003],[124.96647478900002,11.582073179000076],[124.96606082300003,11.581485887000044],[124.96477293600005,11.581337301000074],[124.96423867300008,11.580771238000068],[124.96321968800011,11.58123117200006],[124.96219141100005,11.580984837000072],[124.96171154000001,11.579660002000027],[124.96000691000006,11.578678286000068],[124.95937970500007,11.57728144200007],[124.95940820600003,11.575585272000065],[124.96210399400002,11.574181316000022],[124.96190776700007,11.572931776000074],[124.96102474700002,11.571009396000022],[124.95986075400005,11.56915692500007],[124.9591765350001,11.568529773000025],[124.95787937400007,11.568102173000053],[124.95632563000004,11.567189954000069],[124.955441844,11.565764605000028],[124.9539736270001,11.564909400000033],[124.95340550900006,11.564180542000031],[124.95185115500011,11.563271684000028],[124.94988888900002,11.562646891000043],[124.94895681300011,11.561685667000063],[124.94719077400009,11.561253115000055],[124.9458342910001,11.560654759000045],[124.94470819100002,11.561509977000071],[124.9434680480001,11.561025362000066],[124.94304040800013,11.560013363000053],[124.94030354900009,11.56074030700006],[124.93880683700002,11.562664541000059],[124.93869280600006,11.563576768000072],[124.9399614570001,11.563904593000075],[124.9399044470001,11.565558004000023],[124.93930576700006,11.567168656000034],[124.93866431600009,11.567410970000024],[124.93708510500005,11.566059208000066],[124.93615017200011,11.56591079700007],[124.93577063900011,11.564456938000031],[124.93503652600009,11.563003081000033],[124.93386587200006,11.562219142000057],[124.93015970500005,11.562411583000024],[124.92946302100006,11.56337013700005],[124.928301282,11.563826256000025],[124.92819586000009,11.564777119000041],[124.92884358800005,11.566155328000034],[124.92984434900006,11.56751435000007],[124.92870654800004,11.567905349000057],[124.9277152850001,11.565218148000042],[124.92701436200004,11.564146968000049],[124.9248973220001,11.563853122000067],[124.92419954900005,11.563263261000031],[124.92377903600003,11.56210160000006],[124.92220391700005,11.562628988000027],[124.92270996000002,11.564182621000043],[124.92337992300008,11.564560336000056],[124.92361882500005,11.566614731000072],[124.9246646250001,11.567738869000037],[124.92426550400012,11.568779379000036],[124.92685187100004,11.567407538000051],[124.92826210700002,11.568683148000048],[124.92925992100005,11.56860474900003],[124.93235315200002,11.569937439000055],[124.93360754800005,11.570067497000029],[124.93315141000005,11.57119352800004],[124.93332246700005,11.57176723200007],[124.93460537400006,11.572454959000027],[124.93532968600005,11.573504372000057],[124.93617515800008,11.574047784000072],[124.93726740700004,11.573737764000041],[124.93650835100003,11.572821978000036],[124.93509180800004,11.572321330000019],[124.93352202800007,11.571446527000036],[124.93403948200012,11.569491214000037],[124.93510872300011,11.569924954000046],[124.9359354840001,11.569842992000076],[124.93762641600006,11.568588673000022],[124.93830172300012,11.568656374000053],[124.9387721260001,11.569490203000042],[124.93820869500009,11.57105034600005],[124.939788657,11.570977911000055],[124.9410118720001,11.571446490000028],[124.94118293100007,11.572308828000075],[124.94243821900011,11.572713266000052],[124.94429842500006,11.571629989000026],[124.94633946800002,11.571930100000028],[124.94704597700002,11.571466060000033],[124.94840728600003,11.572378279000075],[124.94967771499999,11.571957794000069],[124.95008397200002,11.572713229000042],[124.95133609600009,11.573596714000074],[124.95216301200001,11.573702093000065],[124.95310421700003,11.57328716300003],[124.9539109640001,11.575546223000057],[124.95507927000006,11.576564707000045],[124.95672805800007,11.578740514000058],[124.95775678000007,11.579797460000064],[124.95819551600003,11.580913669000038],[124.9589497090001,11.58180158500005],[124.96026003400006,11.582465917000034],[124.96183804700003,11.582380999000062],[124.96275708300003,11.582802006000062],[124.96287305100009,11.583686798000029],[124.96182337900005,11.584221305000026],[124.9603195950001,11.585448364000056],[124.95907293400012,11.585386909000022],[124.95787265300008,11.585980643000026],[124.95787265300008,11.58764541800002],[124.95839554800011,11.588623323000036],[124.95817170800001,11.591534984000079],[124.95784386000004,11.592632508000062],[124.95724517500003,11.593373695000025],[124.95625643400001,11.593850402000044],[124.9571952670001,11.595992429000033],[124.95713584800001,11.596749119000037],[124.95893032600009,11.59800638400003],[124.96002365100003,11.597901612000042],[124.96127146700009,11.598181004000024],[124.96172078625085,11.598372984841163],[124.96231209083676,11.598397601101077],[124.96680338218648,11.59814944441184],[124.97057129739129,11.597572134222226],[124.97004216000005,11.596416762000048]],[[124.95921227900008,11.59019514700003],[124.9598553400001,11.588415843000062],[124.96059908200006,11.587853431000042],[124.96142837600007,11.588907762000074],[124.96049519500002,11.592447199000048],[124.96123643100009,11.592974576000074],[124.96120792900003,11.594414184000073],[124.960737536,11.595340666000025],[124.95985375799998,11.595611487000044],[124.95908401400004,11.595155378000072],[124.958000663,11.593245409000072],[124.95838552400006,11.59132118000002],[124.95921227900008,11.59019514700003]]]]}}]}