{"type":"FeatureCollection","features":[{"type":"Feature","properties":{"fid":21,"objectid":1867,"lccode":"07","liqcode":"2010600070000000","mappers":"DJLBuhay","project":"Negros Occidental Multi-Hazard Mapping","province":"Negros Occidental","otherinfo":null,"datemapped":2018,"publishdate":null,"globalid":"{BDFFB75F-E1DC-47A8-B9CF-113E0CE8D2E7}","st_area(shape)":0.051419613090430895,"st_perimeter(shape)":11.901738684521376,"liqcodepk":"201060007000000000059","creator":"SNOOPYPC","createdate":"2019-02-19T15:21:28","editor":"LENOVO","modifydate":"2019-03-10T17:50:55","codemove":"na"},"geometry":{"type":"Polygon","coordinates":[]}},{"type":"Feature","properties":{"fid":32,"objectid":1878,"lccode":"07","liqcode":"2010600070000000","mappers":"PJDelosReyes, ACPidlaoan","project":"READY","province":"Iloilo","otherinfo":null,"datemapped":2010,"publishdate":null,"globalid":"{2F92972A-C07C-4633-B325-DF2A08960C6C}","st_area(shape)":0.031106077518548395,"st_perimeter(shape)":5.287074988133156,"liqcodepk":"201060007000000000071","creator":"SNOOPYPC","createdate":"2019-02-19T15:21:28","editor":"LENOVO","modifydate":"2019-03-10T17:50:55","codemove":"na"},"geometry":{"type":"Polygon","coordinates":[[[122.60497021000003,10.806187347000048],[122.6053609710001,10.808884058000045],[122.6050973660001,10.80943600200004],[122.60194007900009,10.811640891000025],[122.60049393600002,10.811931349000073],[122.60039319400005,10.813555509000025],[122.60193583800003,10.814856914000073],[122.60150659600002,10.816415639000068],[122.60186640700009,10.817682966000064],[122.60334350200004,10.81888680900005],[122.60376873900009,10.820316701000026],[122.60570764500005,10.820156791000045],[122.60659408000004,10.820742662000043],[122.6071831180001,10.822627477000026],[122.60823192200006,10.824707818000036],[122.60931582800004,10.825034069000028],[122.6112231210001,10.823964468000042],[122.61408207300008,10.823805663000028],[122.61792624300006,10.824167784000055],[122.62048972900003,10.823813610000059],[122.62127985200004,10.822612637000079],[122.6215791080001,10.819786768000027],[122.62230668300003,10.816051893000063],[122.62392016100011,10.813325186000045],[122.62608989900002,10.812450752000073],[122.62907958100004,10.812811604000046],[122.630294713,10.813332882000054],[122.63485753600003,10.81710654200003],[122.6359411730001,10.817660104000025],[122.6372541500001,10.818831044000035],[122.63817198000004,10.820651271000028],[122.63872805200005,10.822828500000067],[122.638918321,10.828546035000043],[122.6399349410001,10.83023644000002],[122.643285052,10.831669684000078],[122.645520884,10.832139640000035],[122.64705004500001,10.833481773000072],[122.64757239700009,10.835600899000042],[122.64774410600012,10.838368293000027],[122.64752401200009,10.839621888000067],[122.64774041400005,10.84152456000004],[122.6476050210001,10.845113063000042],[122.64790926800003,10.846799642000065],[122.64838915200005,10.847837844000024],[122.65074727700006,10.851083330000053],[122.65158312300002,10.853424060000066],[122.65284294300011,10.854295952000026],[122.65318166200008,10.855562386000031],[122.65235787600011,10.858370516000035],[122.6533922750001,10.863831658000036],[122.65351028700002,10.865651752000078],[122.653486498,10.868876169000034],[122.65472750800006,10.868778647000054],[122.65516958700006,10.867176822000033],[122.65487426700007,10.862923254000066],[122.65447595600004,10.861241367000048],[122.65439745400009,10.859896110000024],[122.6547998760001,10.857997392000073],[122.656162933,10.856099839000022],[122.656206386,10.853132593000053],[122.65652774700004,10.852104249000035],[122.65732937900009,10.851076441000032],[122.65913146400011,10.85024757600007],[122.66129241400006,10.850566520000028],[122.66305265300002,10.85132010900003],[122.66449333400011,10.851519521000057],[122.66597439800012,10.85136289700006],[122.66709419700011,10.852194975000033],[122.66769265800008,10.853936470000065],[122.66833228900008,10.854609791000026],[122.67009291700003,10.85504687300005],[122.67141549100006,10.853505277000068],[122.67153694900003,10.852199748000027],[122.67217942100001,10.850340864000032],[122.6721009810001,10.848797769000043],[122.67058233000012,10.846778344000029],[122.6699450200001,10.843928992000029],[122.67086681800004,10.842782643000021],[122.67202856700011,10.841794782000022],[122.67383094400009,10.840609756000049],[122.6749533310001,10.83902832600006],[122.67523468,10.837881287000071],[122.67467558000008,10.836772875000063],[122.67220223700008,10.833195874000069],[122.67303991700011,10.831944269000074],[122.67421993900007,10.831662504000064],[122.67678133100004,10.831583550000058],[122.67922679100002,10.83170039400005],[122.67991972000004,10.83274663800006],[122.68047987700002,10.834364468000047],[122.68152008900007,10.836245913000026],[122.68155466151349,10.836281931145704],[122.68155827972895,10.836210643684206],[122.68134269997685,10.831778098942426],[122.68068867982886,10.82738778520121],[122.67960253655197,10.823081981405704],[122.67809474763713,10.818902150887336],[122.67617984923254,10.814888542202503],[122.67387629556865,10.811079801730216],[122.67120628075052,10.807512601751135],[122.66819552465215,10.804221287579693],[122.6648730249878,10.8012375471357],[122.66127077795701,10.798590106124983],[122.6574234701565,10.796304451751203],[122.65336814472367,10.79440258760624],[122.64914384491944,10.792902822086749],[122.64479123857014,10.791819592362389],[122.64035222696819,10.79116332558035],[122.63586954197713,10.790940338633726],[122.63138633519644,10.791152777452107],[122.62694576311719,10.791798596394347],[122.6225905722354,10.792871577939732],[122.61836268809137,10.794361392488227],[122.61430281216575,10.796253697696772],[122.61045003048926,10.798530276400216],[122.60684143771313,10.801169211796202],[122.60352357793553,10.804134554181376],[122.60497021000003,10.806187347000048]]]}},{"type":"Feature","properties":{"fid":46,"objectid":1895,"lccode":"05","liqcode":"2010600050000000","mappers":"DJLBuhay","project":"Negros Occidental Multi-Hazard Mapping","province":"Negros Occidental","otherinfo":null,"datemapped":2018,"publishdate":null,"globalid":"{149718D2-4D93-4457-9604-37CB70EA27A9}","st_area(shape)":0.01745435689673941,"st_perimeter(shape)":6.697527242466418,"liqcodepk":"201060005000000000089","creator":"SNOOPYPC","createdate":"2019-02-19T15:21:28","editor":"LENOVO","modifydate":"2019-03-10T17:50:55","codemove":"na"},"geometry":{"type":"Polygon","coordinates":[]}},{"type":"Feature","properties":{"fid":59,"objectid":1908,"lccode":"05","liqcode":"2010600050000000","mappers":"PJDelosReyes, ACPidlaoan","project":"READY","province":"Iloilo","otherinfo":null,"datemapped":2010,"publishdate":null,"globalid":"{282D04BA-68E2-41E5-9B8A-0D8D85396F2D}","st_area(shape)":0.06128738608791496,"st_perimeter(shape)":10.692281506054618,"liqcodepk":"201060005000000000103","creator":"SNOOPYPC","createdate":"2019-02-19T15:21:28","editor":"LENOVO","modifydate":"2019-03-10T17:50:55","codemove":"na"},"geometry":{"type":"MultiPolygon","coordinates":[[[[122.60566068300012,10.869593964000044],[122.6066285060001,10.870246221000059],[122.6064906024551,10.870846250066394],[122.60675019424637,10.87107941584023],[122.61035278660509,10.873727494131924],[122.61420068704393,10.876013745049542],[122.61825682965078,10.877916142076332],[122.62248213976123,10.879416356337265],[122.62683591072341,10.880499933417752],[122.63127619648944,10.881156432821891],[122.63576021623032,10.881379528717023],[122.64024476705278,10.881167070986717],[122.64468664081491,10.880521105998897],[122.64904304099767,10.879447856886753],[122.65327199558796,10.877957663532777],[122.65733276196845,10.876064882837346],[122.65800822922796,10.875665733544944],[122.6566741040001,10.875349070000029],[122.65553141600003,10.874822183000047],[122.6547877700001,10.874111738000067],[122.65364647100012,10.872323315000074],[122.65285152800004,10.869983451000051],[122.65200142700007,10.869351725000056],[122.65072627500003,10.869156239000061],[122.64915296000004,10.86798713300004],[122.64862918200005,10.867035324000026],[122.64753582199998,10.866817880000042],[122.64674817000004,10.867119609000044],[122.64416730500012,10.86720307400003],[122.64359788600008,10.867850991000068],[122.64232863800011,10.86841156300005],[122.64189064700008,10.86892987900006],[122.64140763200011,10.870442662000071],[122.64070678900009,10.871263302000045],[122.63934981600006,10.872039951000033],[122.63873638000007,10.872947219000025],[122.6376431870001,10.872643299000059],[122.63764506600013,10.871086735000063],[122.63803959000005,10.870395493000046],[122.63755973700006,10.869270746000042],[122.63454251100005,10.868445625000048],[122.63366764000013,10.868487894000054],[122.6327040320001,10.869524394000049],[122.63003410400006,10.870904785000048],[122.62911594600008,10.870557735000032],[122.62819886200009,10.869346006000058],[122.62741191500004,10.868999200000074],[122.62662593700009,10.86787406500002],[122.62680245800003,10.866620438000039],[122.62588684800005,10.864241303000028],[122.62413813600007,10.863460933000054],[122.62273872300013,10.863243027000067],[122.62177868900007,10.86142587100005],[122.61967841100011,10.862028637000034],[122.61849820000009,10.861378599000034],[122.61766851800007,10.860253389000034],[122.61762632000011,10.859086027000044],[122.61710225200011,10.858393579000051],[122.61697358700009,10.856404470000028],[122.61732482000004,10.855367258000058],[122.61540185600008,10.854154240000073],[122.61229794600001,10.852853284000046],[122.61103174600011,10.851122152000071],[122.61147078600004,10.849868865000074],[122.61221468700012,10.849610391000056],[122.6124350670001,10.848313607000021],[122.6120425780001,10.847405124000035],[122.61038173800011,10.84645181900004],[122.609332353,10.846147857000059],[122.6075844300001,10.844935014000043],[122.60627227100008,10.844933340000068],[122.60504624500004,10.845926198000027],[122.6041717800001,10.84570888400003],[122.6038672300001,10.844497872000032],[122.60474316700004,10.843591010000068],[122.60478908000005,10.841948064000063],[122.60513931600009,10.841689101000041],[122.60400558800008,10.83905021300006],[122.60286931400003,10.838356955000052],[122.60208470600004,10.836323866000045],[122.60029294200001,10.835240588000033],[122.59898255400003,10.833941826000054],[122.59727744000007,10.833463999000056],[122.59684081600007,10.832944604000033],[122.59698173299999,10.829787176000021],[122.59731512100005,10.828298591000022],[122.59686631600005,10.826004978000073],[122.59834421900007,10.824577471000053],[122.59819646500011,10.822462919000033],[122.59874107600001,10.82067676500003],[122.59871458500004,10.817907194000039],[122.59904743500009,10.816805779000045],[122.59895979400004,10.814750890000028],[122.59932254000012,10.813798434000036],[122.59917300500001,10.81296439500005],[122.59778756200001,10.81281367300005],[122.59704743598884,10.812251664496367],[122.5955018208146,10.8147934210149],[122.59357726041148,10.818802466398939],[122.59205940001796,10.822978688932645],[122.5909628719094,10.827281875812929],[122.59085029249252,10.828025287856502],[122.59123228800001,10.828073765000054],[122.59107267800006,10.828896005000045],[122.59069050524657,10.829080427006872],[122.59029825294391,10.831670590059144],[122.59012272998166,10.83510827908131],[122.59024837600008,10.835106149000067],[122.5911380880001,10.836064686000041],[122.59011757491547,10.837046311801661],[122.59025128635601,10.839812816952058],[122.59124893500005,10.84004778600007],[122.5914031100001,10.840622512000037],[122.59032585248798,10.840801870618503],[122.59093891624156,10.844925592816638],[122.59112453961664,10.845662334995385],[122.59120230500004,10.845830645000033],[122.59118367713955,10.845897052051612],[122.59202385021828,10.849231664178438],[122.5935305686872,10.853411873501724],[122.59544457663668,10.857425957672863],[122.59578753431788,10.857993266602737],[122.59633900100005,10.85774793900003],[122.5974233610001,10.858094036000068],[122.59773131400004,10.859626315000067],[122.59838754700003,10.861427231000048],[122.5993934190001,10.862539158000057],[122.60121382700004,10.862962785000034],[122.60097832600002,10.86526029400005],[122.60085043918181,10.865276983608588],[122.6034276098352,10.868095021868495],[122.60504966243835,10.869551984974077],[122.60566068300012,10.869593964000044]]],[[[122.66694444000008,10.869079209000065],[122.66596072800007,10.869025518000056],[122.6634629890001,10.867629972000028],[122.66245310900001,10.867234636000033],[122.66059164900003,10.867442812000036],[122.65811703700001,10.869095739000047],[122.65633526700002,10.869409135000069],[122.65497857100002,10.869985847000066],[122.65489710000008,10.87148373200006],[122.65619775300001,10.873403798000027],[122.65731348800013,10.874272257000031],[122.65954377809764,10.874758332400875],[122.66118621988878,10.873787750238343],[122.66479524871006,10.871148203824049],[122.66718576539687,10.869011337873577],[122.66694444000008,10.869079209000065]]],[[[122.6730960540001,10.860202727000056],[122.6721115380001,10.860911292000022],[122.67226985600009,10.861988991000034],[122.67203911042837,10.86369607938911],[122.67382190043335,10.86132532576528],[122.67466407661902,10.859939805419055],[122.6730960540001,10.860202727000056]]]]}},{"type":"Feature","properties":{"fid":61,"objectid":1925,"lccode":"06","liqcode":"2010600060000000","mappers":"DJLBuhay","project":"Negros Occidental Multi-Hazard Mapping","province":"Negros Occidental","otherinfo":null,"datemapped":2018,"publishdate":null,"globalid":"{E5539A65-5F4C-46A4-8778-850E85BFF908}","st_area(shape)":0.021565408471292534,"st_perimeter(shape)":8.733756823540528,"liqcodepk":"201060006000000000123","creator":"SNOOPYPC","createdate":"2019-02-19T15:21:28","editor":"LENOVO","modifydate":"2019-03-10T17:50:55","codemove":"na"},"geometry":{"type":"Polygon","coordinates":[]}},{"type":"Feature","properties":{"fid":73,"objectid":1937,"lccode":"06","liqcode":"2010600060000000","mappers":"PJDelosReyes, ACPidlaoan","project":"READY","province":"Iloilo","otherinfo":null,"datemapped":2010,"publishdate":null,"globalid":"{DBB85F45-4FB4-4F72-8BD3-A1308397A487}","st_area(shape)":0.017575391436836466,"st_perimeter(shape)":7.287100410898002,"liqcodepk":"201060006000000000136","creator":"SNOOPYPC","createdate":"2019-02-19T15:21:28","editor":"LENOVO","modifydate":"2019-03-10T17:50:55","codemove":"na"},"geometry":{"type":"Polygon","coordinates":[[[122.67226985600009,10.861988991000034],[122.6721115380001,10.860911292000022],[122.6730960540001,10.860202727000056],[122.67466407661902,10.859939805419055],[122.67613402198161,10.857521462593677],[122.67805776521034,10.853511884328373],[122.6795746152979,10.849335213053807],[122.68066997879433,10.845031678817895],[122.68133332359692,10.840642731949936],[122.68155466151349,10.836281931145704],[122.68152008900007,10.836245913000026],[122.68047987700002,10.834364468000047],[122.67991972000004,10.83274663800006],[122.67922679100002,10.83170039400005],[122.67678133100004,10.831583550000058],[122.67421993900007,10.831662504000064],[122.67303991700011,10.831944269000074],[122.67220223700008,10.833195874000069],[122.67467558000008,10.836772875000063],[122.67523468,10.837881287000071],[122.6749533310001,10.83902832600006],[122.67383094400009,10.840609756000049],[122.67202856700011,10.841794782000022],[122.67086681800004,10.842782643000021],[122.6699450200001,10.843928992000029],[122.67058233000012,10.846778344000029],[122.6721009810001,10.848797769000043],[122.67217942100001,10.850340864000032],[122.67153694900003,10.852199748000027],[122.67141549100006,10.853505277000068],[122.67009291700003,10.85504687300005],[122.66833228900008,10.854609791000026],[122.66769265800008,10.853936470000065],[122.66709419700011,10.852194975000033],[122.66597439800012,10.85136289700006],[122.66449333400011,10.851519521000057],[122.66305265300002,10.85132010900003],[122.66129241400006,10.850566520000028],[122.65913146400011,10.85024757600007],[122.65732937900009,10.851076441000032],[122.65652774700004,10.852104249000035],[122.656206386,10.853132593000053],[122.656162933,10.856099839000022],[122.6547998760001,10.857997392000073],[122.65439745400009,10.859896110000024],[122.65447595600004,10.861241367000048],[122.65487426700007,10.862923254000066],[122.65516958700006,10.867176822000033],[122.65472750800006,10.868778647000054],[122.653486498,10.868876169000034],[122.65351028700002,10.865651752000078],[122.6533922750001,10.863831658000036],[122.65235787600011,10.858370516000035],[122.65318166200008,10.855562386000031],[122.65284294300011,10.854295952000026],[122.65158312300002,10.853424060000066],[122.65074727700006,10.851083330000053],[122.64838915200005,10.847837844000024],[122.64790926800003,10.846799642000065],[122.6476050210001,10.845113063000042],[122.64774041400005,10.84152456000004],[122.64752401200009,10.839621888000067],[122.64774410600012,10.838368293000027],[122.64757239700009,10.835600899000042],[122.64705004500001,10.833481773000072],[122.645520884,10.832139640000035],[122.643285052,10.831669684000078],[122.6399349410001,10.83023644000002],[122.638918321,10.828546035000043],[122.63872805200005,10.822828500000067],[122.63817198000004,10.820651271000028],[122.6372541500001,10.818831044000035],[122.6359411730001,10.817660104000025],[122.63485753600003,10.81710654200003],[122.630294713,10.813332882000054],[122.62907958100004,10.812811604000046],[122.62608989900002,10.812450752000073],[122.62392016100011,10.813325186000045],[122.62230668300003,10.816051893000063],[122.6215791080001,10.819786768000027],[122.62127985200004,10.822612637000079],[122.62048972900003,10.823813610000059],[122.61792624300006,10.824167784000055],[122.61408207300008,10.823805663000028],[122.6112231210001,10.823964468000042],[122.60931582800004,10.825034069000028],[122.60823192200006,10.824707818000036],[122.6071831180001,10.822627477000026],[122.60659408000004,10.820742662000043],[122.60570764500005,10.820156791000045],[122.60376873900009,10.820316701000026],[122.60334350200004,10.81888680900005],[122.60186640700009,10.817682966000064],[122.60150659600002,10.816415639000068],[122.60193583800003,10.814856914000073],[122.60039319400005,10.813555509000025],[122.60049393600002,10.811931349000073],[122.60194007900009,10.811640891000025],[122.6050973660001,10.80943600200004],[122.6053609710001,10.808884058000045],[122.60497021000003,10.806187347000048],[122.60352357793553,10.804134554181376],[122.60351178024202,10.804145098216381],[122.60049312185168,10.807429285465377],[122.59781453500203,10.810990154386667],[122.59704743598884,10.812251664496367],[122.59778756200001,10.81281367300005],[122.59917300500001,10.81296439500005],[122.59932254000012,10.813798434000036],[122.59895979400004,10.814750890000028],[122.59904743500009,10.816805779000045],[122.59871458500004,10.817907194000039],[122.59874107600001,10.82067676500003],[122.59819646500011,10.822462919000033],[122.59834421900007,10.824577471000053],[122.59686631600005,10.826004978000073],[122.59731512100005,10.828298591000022],[122.59698173299999,10.829787176000021],[122.59684081600007,10.832944604000033],[122.59727744000007,10.833463999000056],[122.59898255400003,10.833941826000054],[122.60029294200001,10.835240588000033],[122.60208470600004,10.836323866000045],[122.60286931400003,10.838356955000052],[122.60400558800008,10.83905021300006],[122.60513931600009,10.841689101000041],[122.60478908000005,10.841948064000063],[122.60474316700004,10.843591010000068],[122.6038672300001,10.844497872000032],[122.6041717800001,10.84570888400003],[122.60504624500004,10.845926198000027],[122.60627227100008,10.844933340000068],[122.6075844300001,10.844935014000043],[122.609332353,10.846147857000059],[122.61038173800011,10.84645181900004],[122.6120425780001,10.847405124000035],[122.6124350670001,10.848313607000021],[122.61221468700012,10.849610391000056],[122.61147078600004,10.849868865000074],[122.61103174600011,10.851122152000071],[122.61229794600001,10.852853284000046],[122.61540185600008,10.854154240000073],[122.61732482000004,10.855367258000058],[122.61697358700009,10.856404470000028],[122.61710225200011,10.858393579000051],[122.61762632000011,10.859086027000044],[122.61766851800007,10.860253389000034],[122.61849820000009,10.861378599000034],[122.61967841100011,10.862028637000034],[122.62177868900007,10.86142587100005],[122.62273872300013,10.863243027000067],[122.62413813600007,10.863460933000054],[122.62588684800005,10.864241303000028],[122.62680245800003,10.866620438000039],[122.62662593700009,10.86787406500002],[122.62741191500004,10.868999200000074],[122.62819886200009,10.869346006000058],[122.62911594600008,10.870557735000032],[122.63003410400006,10.870904785000048],[122.6327040320001,10.869524394000049],[122.63366764000013,10.868487894000054],[122.63454251100005,10.868445625000048],[122.63755973700006,10.869270746000042],[122.63803959000005,10.870395493000046],[122.63764506600013,10.871086735000063],[122.6376431870001,10.872643299000059],[122.63873638000007,10.872947219000025],[122.63934981600006,10.872039951000033],[122.64070678900009,10.871263302000045],[122.64140763200011,10.870442662000071],[122.64189064700008,10.86892987900006],[122.64232863800011,10.86841156300005],[122.64359788600008,10.867850991000068],[122.64416730500012,10.86720307400003],[122.64674817000004,10.867119609000044],[122.64753582199998,10.866817880000042],[122.64862918200005,10.867035324000026],[122.64915296000004,10.86798713300004],[122.65072627500003,10.869156239000061],[122.65200142700007,10.869351725000056],[122.65285152800004,10.869983451000051],[122.65364647100012,10.872323315000074],[122.6547877700001,10.874111738000067],[122.65553141600003,10.874822183000047],[122.6566741040001,10.875349070000029],[122.65800822922796,10.875665733544944],[122.65954377809764,10.874758332400875],[122.65731348800013,10.874272257000031],[122.65619775300001,10.873403798000027],[122.65489710000008,10.87148373200006],[122.65497857100002,10.869985847000066],[122.65633526700002,10.869409135000069],[122.65811703700001,10.869095739000047],[122.66059164900003,10.867442812000036],[122.66245310900001,10.867234636000033],[122.6634629890001,10.867629972000028],[122.66596072800007,10.869025518000056],[122.66694444000008,10.869079209000065],[122.66718576539687,10.869011337873577],[122.66812508527074,10.868171672743916],[122.67114365891285,10.864886831967254],[122.67203911042837,10.86369607938911],[122.67226985600009,10.861988991000034]]]}}]}