{"type":"FeatureCollection","features":[{"type":"Feature","properties":{"fid":16,"objectid":1861,"lccode":"07","liqcode":"2010600070000000","mappers":"MITAbigania, DJLBuhay","project":"Cebu Multi-Hazard Mapping","province":"Cebu","otherinfo":null,"datemapped":2016,"publishdate":null,"globalid":"{C53CB127-C117-49E0-BEC2-5269D4100696}","st_area(shape)":0.02168908556211633,"st_perimeter(shape)":9.044842936189752,"liqcodepk":"201060007000000000053","creator":"SNOOPYPC","createdate":"2019-02-19T15:21:28","editor":"LENOVO","modifydate":"2019-03-10T17:50:55","codemove":"na"},"geometry":{"type":"Polygon","coordinates":[]}},{"type":"Feature","properties":{"fid":25,"objectid":1871,"lccode":"07","liqcode":"2010600070000000","mappers":"PJDelosReyes, ACPidlaoan","project":"READY","province":"Bohol","otherinfo":null,"datemapped":2008,"publishdate":null,"globalid":"{24D4EC03-5006-45F6-AD98-9C84307BF998}","st_area(shape)":0.043795715989879205,"st_perimeter(shape)":13.054531899785706,"liqcodepk":"201060007000000000063","creator":"SNOOPYPC","createdate":"2019-02-19T15:21:28","editor":"LENOVO","modifydate":"2019-03-10T17:50:55","codemove":"na"},"geometry":{"type":"Polygon","coordinates":[]}},{"type":"Feature","properties":{"fid":40,"objectid":1888,"lccode":"05","liqcode":"2010600050000000","mappers":"MITAbigania, DJLBuhay","project":"Cebu Multi-Hazard Mapping","province":"Cebu","otherinfo":null,"datemapped":2016,"publishdate":null,"globalid":"{6B113CA7-0A16-415A-8510-4591ABBD34CB}","st_area(shape)":0.011277825227989341,"st_perimeter(shape)":7.92725888477651,"liqcodepk":"201060005000000000082","creator":"SNOOPYPC","createdate":"2019-02-19T15:21:28","editor":"LENOVO","modifydate":"2019-03-10T17:50:55","codemove":"na"},"geometry":{"type":"Polygon","coordinates":[]}},{"type":"Feature","properties":{"fid":52,"objectid":1901,"lccode":"05","liqcode":"2010600050000000","mappers":"PJDelosReyes, ACPidlaoan","project":"READY","province":"Bohol","otherinfo":null,"datemapped":2008,"publishdate":null,"globalid":"{6E90D3A1-B401-4667-B32C-C40E7388D630}","st_area(shape)":0.010533775520257218,"st_perimeter(shape)":3.327242015595593,"liqcodepk":"201060005000000000095","creator":"SNOOPYPC","createdate":"2019-02-19T15:21:28","editor":"LENOVO","modifydate":"2019-03-10T17:50:55","codemove":"na"},"geometry":{"type":"Polygon","coordinates":[[[124.32042122800011,9.889168717000075],[124.32085351600006,9.88946625600005],[124.31979315000002,9.893830675000059],[124.32010386500009,9.896052389000031],[124.31990467000003,9.900156951000039],[124.31965572600006,9.902594486000055],[124.319749666,9.904517815000077],[124.31876253700011,9.905633114000068],[124.3176864190001,9.906064857000048],[124.31574738300003,9.90632893600002],[124.31544782300011,9.906885821000058],[124.31558551400008,9.908979935000046],[124.31511249800008,9.90928102400005],[124.31377307900006,9.908559513000052],[124.3125658990001,9.90856423500003],[124.30937291300006,9.907892708000077],[124.30889972100009,9.90815112000007],[124.30734716600011,9.908028886000068],[124.30579681000007,9.908462440000052],[124.30333665200011,9.907788002000077],[124.30273444900003,9.90813233800003],[124.30048989400005,9.907457042000033],[124.29859324000006,9.90754990600004],[124.29695904200003,9.90858213100006],[124.29618213700007,9.908371415000033],[124.29622177700004,9.90747354700005],[124.29703648700001,9.90635897000004],[124.29423357600001,9.906198740000034],[124.29366507300006,9.904149021000022],[124.29404867000005,9.90303611100006],[124.29430015100003,9.901196949000054],[124.29309674500008,9.902142061000063],[124.29185736000011,9.904925503000072],[124.29069377300004,9.905058170000073],[124.28755359800004,9.90686566000005],[124.28673961000004,9.908194023000021],[124.28591978600002,9.908026118000066],[124.28544191000005,9.907087468000041],[124.2833691530001,9.906240439000046],[124.28340210600005,9.903632677000076],[124.28313760700007,9.902137488000047],[124.28175443000009,9.901202287000045],[124.2803730080001,9.900737359000061],[124.28015062100009,9.898985526000045],[124.28100820500002,9.89778529700004],[124.28126324000004,9.896843843000056],[124.28087140800007,9.895862183000077],[124.28138578500011,9.895090696000066],[124.28111998100009,9.89325359600002],[124.280424734,9.891845566000027],[124.28042059500001,9.890776814000048],[124.279508522,9.889027604000034],[124.27751653100007,9.88672677300002],[124.27600567400007,9.886219548000044],[124.27449712700003,9.886310789000047],[124.27329271700012,9.886999265000043],[124.27243413800011,9.887942999000073],[124.27213789100006,9.889397565000024],[124.27089079500001,9.890214480000052],[124.27007782700002,9.891799282000022],[124.27064566500007,9.89372078100007],[124.27056582200011,9.895388336000053],[124.26884286000006,9.895779519000031],[124.26837104700007,9.896422545000066],[124.26906822800004,9.898343647000047],[124.26825352000002,9.899500928000064],[124.26839484500012,9.902621005000071],[124.26736279800004,9.903308816000049],[124.26581632000011,9.904768095000064],[124.267035157,9.907798677000075],[124.26725412900011,9.908695575000026],[124.26704319900013,9.909893338000073],[124.26644169000006,9.910451329000066],[124.26756477800008,9.911002811000056],[124.26782757700006,9.912070499000036],[124.26972313700003,9.911678659000076],[124.27058655100006,9.911974632000067],[124.27201308200007,9.912952384000048],[124.273480897,9.913459866000037],[124.27589747900005,9.914006406000054],[124.27676140000007,9.914430554000033],[124.27913366500003,9.91467799700007],[124.27969672500001,9.91535985300004],[124.2809483640001,9.915697078000049],[124.28276531000006,9.917271767000047],[124.28514326100004,9.918972669000027],[124.28373056400005,9.920037532000036],[124.28493356100012,9.920469670000045],[124.28662170300004,9.922173109000026],[124.2880471520001,9.922851546000063],[124.28874017100009,9.923661167000036],[124.28947879500005,9.925111760000048],[124.29086234200008,9.926089583000019],[124.29185918200007,9.927410980000047],[124.29221480400008,9.930145516000037],[124.29195995600003,9.931129646000045],[124.29122868000002,9.93155998800006],[124.2894616420001,9.931737750000025],[124.28985314500005,9.932633959000041],[124.28968555400002,9.93387432000003],[124.29046570300012,9.934897224000053],[124.29004325800008,9.937121805000062],[124.28913977700006,9.93763824000007],[124.28798418200006,9.939822792000028],[124.28768789600008,9.941234694000059],[124.28506824700004,9.94393791400006],[124.28287456000011,9.945314245000075],[124.28283613500001,9.946511349000046],[124.28227743500008,9.946983686000065],[124.28263309500005,9.949718236000022],[124.28237971100009,9.951087120000066],[124.28109216900009,9.952631014000076],[124.28002316800007,9.95494350100006],[124.27924981800005,9.955673135000042],[124.28071741400005,9.956052276000033],[124.280249463,9.957678550000026],[124.28055328900007,9.958190341000034],[124.28184669200004,9.958142620000046],[124.28235781602673,9.958678938839101],[124.28273017888216,9.958695641566871],[124.28299087189734,9.95868194153855],[124.28370215200005,9.958477497000048],[124.28404146600006,9.957022760000028],[124.28524625300008,9.956376889000067],[124.28657595300001,9.954576340000074],[124.28808237800003,9.953886629000067],[124.288386789,9.954526604000021],[124.28791964100003,9.956366596000063],[124.28899814800002,9.956490722000067],[124.28990563200011,9.95700017400003],[124.29201695600013,9.956607257000028],[124.29240235500004,9.955921858000066],[124.29507168700002,9.954885528000034],[124.29580199300005,9.954198700000061],[124.29782574600007,9.953464180000026],[124.29984687700005,9.952088424000067],[124.30156295600011,9.94990156500006],[124.30375708700001,9.948653399000023],[124.30526487400004,9.948305520000075],[124.30917753200004,9.945511578000039],[124.31084956900008,9.94311114100003],[124.31209921300002,9.942935290000037],[124.31408539400002,9.943611489000032],[124.31667118600001,9.943302087000063],[124.31683025760981,9.94322710111729],[124.31791682743922,9.942029014221477],[124.32056838286542,9.938454840800379],[124.32285376050112,9.934640197088292],[124.32475096142699,9.930621826666007],[124.32624172768814,9.92643843378511],[124.32731171761863,9.922130310428027],[124.32795064336979,9.91773894813705],[124.32815236934101,9.913306638355659],[124.3279149705903,9.90887606513369],[124.32724075068816,9.90448989411866],[124.32613621886942,9.900190361788802],[124.32461202672823,9.896018868878528],[124.3226828650897,9.892015581904419],[124.32072819706094,9.888810740413364],[124.32042122800011,9.889168717000075]]]}},{"type":"Feature","properties":{"fid":66,"objectid":1930,"lccode":"06","liqcode":"2010600060000000","mappers":"PJDelosReyes, ACPidlaoan","project":"READY","province":"Bohol","otherinfo":null,"datemapped":2008,"publishdate":null,"globalid":"{D63C31C2-E045-4C3D-A292-79031F3364A0}","st_area(shape)":0.006668240995906857,"st_perimeter(shape)":3.000289637999567,"liqcodepk":"201060006000000000128","creator":"SNOOPYPC","createdate":"2019-02-19T15:21:28","editor":"LENOVO","modifydate":"2019-03-10T17:50:55","codemove":"na"},"geometry":{"type":"Polygon","coordinates":[]}},{"type":"Feature","properties":{"fid":91,"objectid":1919,"lccode":"06","liqcode":"2010600060000000","mappers":"MITAbigania, DJLBuhay","project":"Cebu Multi-Hazard Mapping","province":"Cebu","otherinfo":null,"datemapped":2016,"publishdate":null,"globalid":"{EDC44F95-33EE-45BE-975C-40D829DF5178}","st_area(shape)":0.012637099910309046,"st_perimeter(shape)":9.940336299625505,"liqcodepk":"201060006000000000117","creator":"SNOOPYPC","createdate":"2019-02-19T15:21:28","editor":"LENOVO","modifydate":"2019-03-10T17:50:55","codemove":"na"},"geometry":{"type":"Polygon","coordinates":[]}}]}