{"type":"FeatureCollection","features":[{"type":"Feature","properties":{"fid":101,"objectid":1958,"lccode":"01","liqcode":"2010600010000000","mappers":"DJLBuhay, MJVReyes, MITAbigania, KLPapiona, KMVitto","project":"MELP","province":"Bukidnon","otherinfo":null,"datemapped":2018,"publishdate":null,"globalid":"{A5D2276A-AD83-4D6E-864E-FDB93B8103F6}","st_area(shape)":0.03131405547495108,"st_perimeter(shape)":7.842158519871042,"liqcodepk":"201060001000000001354","creator":"SDE","createdate":"2019-06-04T14:00:05","editor":"SDE","modifydate":"2019-06-04T14:01:32","codemove":"na"},"geometry":{"type":"Polygon","coordinates":[[[125.1200157610001,8.002926923000077],[125.12129920300005,8.003774204000026],[125.12265399900002,8.002679875000068],[125.12372354000001,8.00320943200006],[125.12472179900011,8.002821135000032],[125.12493575000009,8.001267845000028],[125.12575576300004,8.000385309000022],[125.12668270500001,8.000526541000056],[125.1274670790001,7.999185072000047],[125.1276453900001,7.997137532000067],[125.12864365500003,7.9965374130000555],[125.13106797000012,7.996819894000055],[125.13270796000008,7.996502212000055],[125.13395577200002,7.996502244000056],[125.1346331750001,7.995796206000024],[125.13531055700004,7.99586682900002],[125.13613053000007,7.9966082050000304],[125.13884004500007,7.997455536000074],[125.13987392800004,7.9981969140000615],[125.13969565400009,7.998779400000047],[125.13846562900004,8.00026206900003],[125.13839426500012,8.002662617000055],[125.13878639300003,8.004357124000023],[125.13992718600002,8.006934188000061],[125.14096105000012,8.008363932000067],[125.14147796800013,8.009723054000064],[125.14285054100003,8.010535022000056],[125.14291171959768,8.011513313819577],[125.14549716147478,8.011626442730114],[125.14994027212036,8.011385658145503],[125.15433828625044,8.010711888503],[125.15864883620553,8.009611628233388],[125.16283039842858,8.00809548007734],[125.16684269377058,8.006178052717758],[125.17064707572696,8.003877819804512],[125.17278480027065,8.002279933094297],[125.17237272400008,8.001019167000036],[125.17236415200011,7.999392914000053],[125.17170734000001,7.998592770000072],[125.17162623200011,7.997770480000042],[125.17237155000011,7.99715432500005],[125.17323454500001,7.997015875000047],[125.17388126800006,7.995902780000052],[125.17472183900009,7.9951521920000355],[125.17595111400011,7.995317946000058],[125.17568210200011,7.996814829000071],[125.17502197700001,7.997205731000067],[125.17401387200005,7.997124915000029],[125.17364232500007,7.997643450000053],[125.17337986500002,7.99973987800007],[125.17407771900002,8.001042041000062],[125.17438451457704,8.001054764954052],[125.17748789176083,7.998221051957882],[125.18045844729996,7.994919009752827],[125.18308996673112,7.991342622074516],[125.18535711497859,7.9875263369552085],[125.1872380683121,7.983506911545758],[125.18871472412617,7.979323057961174],[125.18977287481191,7.975015070353191],[125.1900915827812,7.9727920395484695],[125.18912701200009,7.972234446000072],[125.18926202900002,7.970547664000034],[125.19001505100005,7.970041469000021],[125.19042253598111,7.970164993395821],[125.1905970843367,7.966193439791143],[125.19035523451423,7.96176474903885],[125.18967913729072,7.957381010726933],[125.188575316085,7.953084436955174],[125.18705441174944,7.948916399441543],[125.18513107969498,7.944917031347718],[125.18282384843783,7.941124841057902],[125.18074791455189,7.938364749854426],[125.17884312600007,7.939457510000071],[125.1765257080001,7.939440888000037],[125.175100401,7.940415063000044],[125.17250024900012,7.940337168000041],[125.17178232200001,7.940670943000043],[125.17137250200005,7.942122396000058],[125.17036940900006,7.942974243000039],[125.1686265620001,7.9427393500000685],[125.16812047700012,7.942297134000058],[125.16817145700008,7.941034092000052],[125.16777703500009,7.9399235640000265],[125.16817356400009,7.938680720000039],[125.16680585200002,7.93861606400003],[125.1644800480001,7.936992241000042],[125.16329892400006,7.936826157000042],[125.1632922010001,7.935534710000073],[125.16230750600006,7.934391819000042],[125.16118067900004,7.933594053000033],[125.161632671,7.931941488000062],[125.16065640700003,7.931170462000068],[125.15779902800013,7.9309711420000335],[125.1567011510001,7.9302019120000296],[125.15634872900011,7.928854840000042],[125.15572626900007,7.928169253000021],[125.15419486100006,7.927539079000041],[125.15377269400007,7.926141627000051],[125.153650125,7.924707267000032],[125.15283597000005,7.923132965000038],[125.1511594520001,7.921792688000038],[125.15112925709475,7.921665835063023],[125.14947082568183,7.921429304309455],[125.14502641687032,7.921234564074355],[125.14058424834765,7.921475039169217],[125.13618708716615,7.922148418130824],[125.13187726820681,7.923248221542066],[125.12769628693502,7.924763864219097],[125.12368440017413,7.926680756904329],[125.11988023872718,7.928980446495128],[125.11632043556519,7.931640793468105],[125.11303927315429,7.93463618480093],[125.11006835331354,7.937937780352267],[125.10980442085103,7.93829637107759],[125.11113786400007,7.939057060000038],[125.116367523,7.939030612000066],[125.1198748270001,7.939969517000064],[125.12218267800007,7.9409144830000296],[125.12401075200013,7.941861871000069],[125.12607849200005,7.943402117000061],[125.12714650700002,7.945194282000046],[125.12790215900007,7.948015728000028],[125.12820412200004,7.949882578000028],[125.13123093900002,7.9535288570000375],[125.13360030200012,7.954984225000033],[125.13440242700005,7.956573022000043],[125.13541848700005,7.957243862000039],[125.13876225700005,7.962502124000022],[125.14032720600005,7.964503090000049],[125.14061865000009,7.965190392000068],[125.1401493850001,7.9676390680000395],[125.14034887200012,7.968693177000033],[125.1412294050001,7.97005989400003],[125.14089067100008,7.97173686700006],[125.1408728040001,7.973396188000036],[125.14203141400002,7.976273534000027],[125.14324354400004,7.977473912000052],[125.14586390700003,7.979203883000026],[125.14675517500007,7.980267182000034],[125.145436011,7.9821694090000515],[125.14461603200006,7.981675133000065],[125.1430117020001,7.981639790000029],[125.14151429500009,7.982945995000023],[125.14140729000007,7.984887697000034],[125.14058728799999,7.985311320000052],[125.13794905500005,7.985346557000071],[125.13705773600009,7.986335035000027],[125.13777072800008,7.988029618000042],[125.13755678300002,7.989371139000069],[125.13673678800001,7.989547634000077],[125.1359524610001,7.989053369000032],[125.13484728900004,7.987747117000024],[125.13324298200007,7.9868291880000575],[125.13099691800006,7.986864435000032],[125.12739606700008,7.987605717000065],[125.1260769490001,7.9876762910000725],[125.12547084000005,7.988823635000074],[125.12359907400001,7.990694658000053],[125.12315339400004,7.991983210000056],[125.12308205800004,7.993289418000075],[125.12258292900003,7.993430617000058],[125.12158469400003,7.9927951390000676],[125.11930299300003,7.992265538000023],[125.1169856260001,7.992336086000022],[125.11374134300002,7.9911357010000765],[125.11213701300005,7.99110035700005],[125.10960572000009,7.991700446000038],[125.107894439,7.99148858500007],[125.1074178946667,7.991281403363236],[125.10769323710937,7.991734061806931],[125.10790110379409,7.992010482413652],[125.1087857120001,7.992406486000047],[125.11156655700007,7.992194738000024],[125.11381259200004,7.9932891860000295],[125.11424039500004,7.994030557000032],[125.11395516200002,7.994736607000049],[125.11292124700002,7.995266121000044],[125.11238645200002,7.995972163000036],[125.11228093161529,7.99737181730565],[125.1133671745918,7.998554233003314],[125.11667945624167,8.001515973709497],[125.11827118353789,8.002680099784326],[125.1200157610001,8.002926923000077]],[[125.1682899320001,7.996700460000054],[125.1666636650001,7.995410303000029],[125.167352176,7.994940340000027],[125.16828551900005,7.9958610230000335],[125.1698928290001,7.996283113000057],[125.17042036100008,7.996682146000067],[125.16969794400008,7.9975469070000695],[125.16923311000006,7.996752928000038],[125.1682899320001,7.996700460000054]]]}}]}