{"type":"FeatureCollection","features":[{"type":"Feature","properties":{"fid":29,"objectid":1875,"lccode":"07","liqcode":"2010600070000000","mappers":"PJDelosReyes, ACPidlaoan","project":"READY","province":"Eastern Samar","otherinfo":null,"datemapped":2009,"publishdate":null,"globalid":"{D5672507-FBAD-4ABD-B8D4-BDE6B091D8D6}","st_area(shape)":0.012796244732220548,"st_perimeter(shape)":5.603456702340647,"liqcodepk":"201060007000000000068","creator":"SNOOPYPC","createdate":"2019-02-19T15:21:28","editor":"LENOVO","modifydate":"2019-03-10T17:50:55","codemove":"na"},"geometry":{"type":"Polygon","coordinates":[]}},{"type":"Feature","properties":{"fid":56,"objectid":1905,"lccode":"05","liqcode":"2010600050000000","mappers":"PJDelosReyes, ACPidlaoan","project":"READY","province":"Eastern Samar","otherinfo":null,"datemapped":2009,"publishdate":null,"globalid":"{5449C31E-E45E-490E-9AB6-5AACF96F6899}","st_area(shape)":0.008694706737108626,"st_perimeter(shape)":4.649223283492149,"liqcodepk":"201060005000000000100","creator":"SNOOPYPC","createdate":"2019-02-19T15:21:28","editor":"LENOVO","modifydate":"2019-03-10T17:50:55","codemove":"na"},"geometry":{"type":"MultiPolygon","coordinates":[[[[125.53390529900003,11.15878978300003],[125.53237094700012,11.16008570400004],[125.53075562600009,11.162534408000054],[125.52937146600004,11.163522735000072],[125.52842624000004,11.163132150000024],[125.52891186500005,11.16224220300006],[125.52831774200001,11.16096289500007],[125.5281201150001,11.15886079100005],[125.52851092900003,11.157373885000023],[125.52751010700003,11.155743611000046],[125.52730732700002,11.153043695000063],[125.5268209520001,11.151254148000023],[125.52448897700003,11.148682826000027],[125.52271226399999,11.145486819000043],[125.521379195,11.144324361000029],[125.52094065500013,11.145211641000058],[125.52180660800002,11.146820864000064],[125.52328307900008,11.149000757000065],[125.5247066190001,11.15284193800005],[125.52448610900001,11.155877598000075],[125.52361943900007,11.157060821000071],[125.52187764200005,11.15785019500004],[125.520216687,11.160344690000047],[125.51835995300009,11.160691679000026],[125.51781185700008,11.162067783000055],[125.5169210460001,11.162829104000025],[125.51661716600006,11.163960105000054],[125.51559514500003,11.165343907000022],[125.51460296200001,11.16541476500004],[125.51469082900007,11.16698291800003],[125.51633625600005,11.167428732000076],[125.51701026500007,11.168874705000063],[125.51746894800011,11.170927208000021],[125.51738512800011,11.172573056000031],[125.51853215200003,11.174885898000069],[125.5213083750001,11.175757669000062],[125.52281022000011,11.17659174100004],[125.52308665000011,11.177387812000061],[125.52523128600001,11.178893884000047],[125.52679386100012,11.178251669000073],[125.52719926600004,11.179796532000067],[125.5276206010001,11.18034944800007],[125.52854744500007,11.179857767000042],[125.52909163800008,11.177627441000025],[125.52970871600007,11.178154398000059],[125.53053232600008,11.179889308000039],[125.53139596000005,11.180583646000057],[125.53198054300005,11.180191603000022],[125.53198699900008,11.178110910000044],[125.530972399,11.176958306000074],[125.53047169700004,11.175728720000048],[125.52940793200003,11.174552223000036],[125.52990965200001,11.173072236000055],[125.530543898,11.172752409000054],[125.53206535900007,11.173029791000031],[125.53328340500003,11.172221175000065],[125.5332291850001,11.17161682900007],[125.53175691100012,11.17136315600004],[125.53081129000007,11.16967760700004],[125.5298752540001,11.169104924000067],[125.52908250300005,11.168095511000043],[125.52916500300012,11.166304514000043],[125.52893105500003,11.165368791000049],[125.53014362400006,11.164870365000068],[125.53086964700005,11.165277341000035],[125.53185372100008,11.164743260000025],[125.53180592600006,11.163617163000024],[125.53346438000007,11.161913386000036],[125.53436619500008,11.160666606000063],[125.53573670600008,11.160842818000049],[125.53614869293098,11.160679588181456],[125.53556341725782,11.159107000581256],[125.53545084464358,11.158877089504575],[125.53390529900003,11.15878978300003]]],[[[125.514581,11.16216358200006],[125.5150254760001,11.16169479000007],[125.51540949700006,11.159410711000023],[125.51645715600011,11.158403136000059],[125.51813791000006,11.158322674000031],[125.51866873400002,11.157678200000019],[125.51894347200003,11.155727123000075],[125.52076708300002,11.153962328000034],[125.52081832200008,11.151833883000052],[125.5199693400001,11.149604348000024],[125.5186506550001,11.147511731000066],[125.51731949300006,11.146570656000053],[125.51714828900003,11.145156059000042],[125.51577133,11.145479444000044],[125.51514879100012,11.146200956000028],[125.5143984880001,11.148929498000026],[125.51393663200008,11.151464555000077],[125.5122514090001,11.152338252000048],[125.51270555900011,11.154531381000025],[125.51378507800005,11.156337041000029],[125.51418431200011,11.157766454000068],[125.51323273100002,11.159589241000047],[125.51392372300008,11.161207180000076],[125.51384220500006,11.162974968000073],[125.51410243500005,11.163734431000023],[125.514581,11.16216358200006]]]]}},{"type":"Feature","properties":{"fid":70,"objectid":1934,"lccode":"06","liqcode":"2010600060000000","mappers":"PJDelosReyes, ACPidlaoan","project":"READY","province":"Eastern Samar","otherinfo":null,"datemapped":2009,"publishdate":null,"globalid":"{1E082AF3-CE25-4665-9081-FF755916BF3C}","st_area(shape)":0.013613834755412488,"st_perimeter(shape)":9.457887959290924,"liqcodepk":"201060006000000000133","creator":"SNOOPYPC","createdate":"2019-02-19T15:21:28","editor":"LENOVO","modifydate":"2019-03-10T17:50:55","codemove":"na"},"geometry":{"type":"MultiPolygon","coordinates":[[[[125.53570660300011,11.190613872000027],[125.53426223600002,11.189884372000048],[125.53340449800011,11.18997647200007],[125.53217036500008,11.191216056000028],[125.53172720900011,11.192088671000022],[125.53184980200001,11.19384658000007],[125.53291860800003,11.195808395000027],[125.53073942100002,11.19697125700003],[125.53029828100011,11.198076924000077],[125.53202616100009,11.199312628000028],[125.5310271830001,11.200444256000027],[125.52866920900011,11.200803364000022],[125.52694437200013,11.202386130000036],[125.52627427200002,11.204320320000022],[125.52760338920696,11.206726155383793],[125.52905988713177,11.205111949121871],[125.531703771661,11.201528437955098],[125.53318597452356,11.199038639684671],[125.53319988600002,11.198438748000058],[125.5335968507556,11.198348444462429],[125.53397910872954,11.197706319826278],[125.53417243441793,11.197293607735054],[125.533668927,11.196839185000043],[125.53376557700005,11.196205634000021],[125.53478498513668,11.195985926760917],[125.53488626729545,11.195769707398718],[125.53448727700004,11.194824008000069],[125.53585829475008,11.193694588470207],[125.53586399925159,11.193682410224461],[125.53734030709201,11.18949546620065],[125.53745681671056,11.189018864394463],[125.53570660300011,11.190613872000027]]],[[[125.51543244100002,11.138616771000043],[125.51589249800007,11.139963740000042],[125.51632107700004,11.142861082000023],[125.51725524900007,11.144580507000056],[125.51714828900003,11.145156059000042],[125.51731721600005,11.146572933000071],[125.51864837800007,11.14751400800003],[125.51996706300007,11.149606625000045],[125.52081604500006,11.151836160000071],[125.52076708300002,11.153962328000034],[125.51894347200003,11.155727123000075],[125.51866873400002,11.157678200000019],[125.51813791000006,11.158322674000031],[125.51645715600011,11.158403136000059],[125.51540949700006,11.159410711000023],[125.5150254760001,11.16169479000007],[125.514581,11.16216358200006],[125.51410243500005,11.163734431000023],[125.51460296200001,11.16541476500004],[125.51559514500003,11.165343907000022],[125.51661716600006,11.163960105000054],[125.5169210460001,11.162829104000025],[125.51781185700008,11.162067783000055],[125.51835995300009,11.160691679000026],[125.520216687,11.160344690000047],[125.52187764200005,11.15785019500004],[125.52361943900007,11.157060821000071],[125.52448610900001,11.155877598000075],[125.5247066190001,11.15284193800005],[125.52328307900008,11.149000757000065],[125.52180660800002,11.146820864000064],[125.52094065500013,11.145211641000058],[125.521379195,11.144324361000029],[125.52271226399999,11.145486819000043],[125.52448897700003,11.148682826000027],[125.5268209520001,11.151254148000023],[125.52730732700002,11.153043695000063],[125.52751010700003,11.155743611000046],[125.52851092900003,11.157373885000023],[125.5281201150001,11.15886079100005],[125.52831774200001,11.16096289500007],[125.52891186500005,11.16224220300006],[125.52842624000004,11.163132150000024],[125.52937146600004,11.163522735000072],[125.53075562600009,11.162534408000054],[125.53237094700012,11.16008570400004],[125.53390529900003,11.15878978300003],[125.53545084464358,11.158877089504575],[125.53360912566743,11.155115608531196],[125.53126811989829,11.151332558469292],[125.53019203376344,11.149925083697259],[125.52974980100011,11.150232937000052],[125.52967784201581,11.149252535522024],[125.52856295027395,11.147794272637627],[125.52551967025731,11.1445348161723],[125.5244366786634,11.143581985606156],[125.52440108100008,11.143701091000025],[125.52268438400006,11.142253960000062],[125.51991075800005,11.140461479000066],[125.5199295865172,11.139975430243831],[125.51853897172737,11.138974926205597],[125.51541035547915,11.137158569477466],[125.51543244100002,11.138616771000043]]]]}}]}