{"type":"FeatureCollection","features":[{"type":"Feature","properties":{"fid":21,"objectid":1867,"lccode":"07","liqcode":"2010600070000000","mappers":"DJLBuhay","project":"Negros Occidental Multi-Hazard Mapping","province":"Negros Occidental","otherinfo":null,"datemapped":2018,"publishdate":null,"globalid":"{BDFFB75F-E1DC-47A8-B9CF-113E0CE8D2E7}","st_area(shape)":0.051419613090430895,"st_perimeter(shape)":11.901738684521376,"liqcodepk":"201060007000000000059","creator":"SNOOPYPC","createdate":"2019-02-19T15:21:28","editor":"LENOVO","modifydate":"2019-03-10T17:50:55","codemove":"na"},"geometry":{"type":"Polygon","coordinates":[]}},{"type":"Feature","properties":{"fid":32,"objectid":1878,"lccode":"07","liqcode":"2010600070000000","mappers":"PJDelosReyes, ACPidlaoan","project":"READY","province":"Iloilo","otherinfo":null,"datemapped":2010,"publishdate":null,"globalid":"{2F92972A-C07C-4633-B325-DF2A08960C6C}","st_area(shape)":0.031106077518548395,"st_perimeter(shape)":5.287074988133156,"liqcodepk":"201060007000000000071","creator":"SNOOPYPC","createdate":"2019-02-19T15:21:28","editor":"LENOVO","modifydate":"2019-03-10T17:50:55","codemove":"na"},"geometry":{"type":"Polygon","coordinates":[]}},{"type":"Feature","properties":{"fid":46,"objectid":1895,"lccode":"05","liqcode":"2010600050000000","mappers":"DJLBuhay","project":"Negros Occidental Multi-Hazard Mapping","province":"Negros Occidental","otherinfo":null,"datemapped":2018,"publishdate":null,"globalid":"{149718D2-4D93-4457-9604-37CB70EA27A9}","st_area(shape)":0.01745435689673941,"st_perimeter(shape)":6.697527242466418,"liqcodepk":"201060005000000000089","creator":"SNOOPYPC","createdate":"2019-02-19T15:21:28","editor":"LENOVO","modifydate":"2019-03-10T17:50:55","codemove":"na"},"geometry":{"type":"Polygon","coordinates":[]}},{"type":"Feature","properties":{"fid":59,"objectid":1908,"lccode":"05","liqcode":"2010600050000000","mappers":"PJDelosReyes, ACPidlaoan","project":"READY","province":"Iloilo","otherinfo":null,"datemapped":2010,"publishdate":null,"globalid":"{282D04BA-68E2-41E5-9B8A-0D8D85396F2D}","st_area(shape)":0.06128738608791496,"st_perimeter(shape)":10.692281506054618,"liqcodepk":"201060005000000000103","creator":"SNOOPYPC","createdate":"2019-02-19T15:21:28","editor":"LENOVO","modifydate":"2019-03-10T17:50:55","codemove":"na"},"geometry":{"type":"MultiPolygon","coordinates":[[[[122.47200911000004,10.946944236000038],[122.46882721100006,10.94919823200007],[122.46715959500011,10.949846326000056],[122.46541522300004,10.950073115000068],[122.46413443000006,10.951104874000068],[122.46138012900006,10.952593528000024],[122.4610289640001,10.953894998000067],[122.46040711800002,10.954889657000022],[122.45742296200001,10.954846028000079],[122.45691809200002,10.955419636000045],[122.4552441830001,10.959476084000075],[122.45326181300004,10.962651128000061],[122.45376473600004,10.963149863000067],[122.4546571630001,10.962577044000055],[122.45547103500007,10.962616745000046],[122.45760058000006,10.963731128000061],[122.46019714100011,10.963812320000045],[122.46178699600011,10.963355634000036],[122.46260176400007,10.962859147000074],[122.46388123500003,10.962593405000064],[122.4658996060001,10.960911852000034],[122.467567356,10.960225432000072],[122.46840509913218,10.96022689387241],[122.46880254563052,10.959400305967664],[122.47032286932877,10.955224830622209],[122.47142165745629,10.950922202395159],[122.47202704262388,10.94693737994192],[122.47200911000004,10.946944236000038]]],[[[122.41701411700001,10.899588866000046],[122.41862982400006,10.90074537600003],[122.42019480900001,10.900748341000053],[122.42178716400007,10.900253245000043],[122.42314196700012,10.899181017000046],[122.42728038000008,10.898821777000022],[122.43139332100009,10.897885665000047],[122.43420465700001,10.897995749000074],[122.43478672800008,10.898783266000066],[122.43465190300005,10.899936462000026],[122.43350916300004,10.90108779700006],[122.43332225600012,10.901769011000056],[122.43361135900012,10.903185198000074],[122.43671302300004,10.904056021000027],[122.43814382900008,10.90484509100003],[122.43926157800001,10.902854809000072],[122.44117456100003,10.901128089000052],[122.4416001630001,10.900499746000035],[122.44297512196921,10.899859079773844],[122.43992233754142,10.898773231864274],[122.43556909329592,10.897687021232464],[122.43112911422095,10.897027698276943],[122.42664514142159,10.89680160893838],[122.42216033874077,10.897010928642496],[122.41771787780307,10.897653641423405],[122.41462607132755,10.898412820087986],[122.41701411700001,10.899588866000046]]]]}},{"type":"Feature","properties":{"fid":61,"objectid":1925,"lccode":"06","liqcode":"2010600060000000","mappers":"DJLBuhay","project":"Negros Occidental Multi-Hazard Mapping","province":"Negros Occidental","otherinfo":null,"datemapped":2018,"publishdate":null,"globalid":"{E5539A65-5F4C-46A4-8778-850E85BFF908}","st_area(shape)":0.021565408471292534,"st_perimeter(shape)":8.733756823540528,"liqcodepk":"201060006000000000123","creator":"SNOOPYPC","createdate":"2019-02-19T15:21:28","editor":"LENOVO","modifydate":"2019-03-10T17:50:55","codemove":"na"},"geometry":{"type":"Polygon","coordinates":[]}},{"type":"Feature","properties":{"fid":73,"objectid":1937,"lccode":"06","liqcode":"2010600060000000","mappers":"PJDelosReyes, ACPidlaoan","project":"READY","province":"Iloilo","otherinfo":null,"datemapped":2010,"publishdate":null,"globalid":"{DBB85F45-4FB4-4F72-8BD3-A1308397A487}","st_area(shape)":0.017575391436836466,"st_perimeter(shape)":7.287100410898002,"liqcodepk":"201060006000000000136","creator":"SNOOPYPC","createdate":"2019-02-19T15:21:28","editor":"LENOVO","modifydate":"2019-03-10T17:50:55","codemove":"na"},"geometry":{"type":"Polygon","coordinates":[]}}]}