{"type":"FeatureCollection","features":[{"type":"Feature","properties":{"fid":193,"objectid":2144,"lccode":"01","liqcode":null,"mappers":"DJLBuhay, MJVReyes, MITAbigania, KLPapiona, KMVitto","project":"MELP","province":"Lanao del Norte","otherinfo":null,"datemapped":2018,"publishdate":null,"globalid":"{8CF0E7EB-3CCD-4F04-8515-11CAD40BD1AE}","st_area(shape)":0.03055360554823452,"st_perimeter(shape)":7.260406778623517,"liqcodepk":null,"creator":null,"createdate":null,"editor":null,"modifydate":null,"codemove":null},"geometry":{"type":"Polygon","coordinates":[]}},{"type":"Feature","properties":{"fid":197,"objectid":2628,"lccode":"01","liqcode":null,"mappers":"DJLBuhay, MJVReyes, MITAbigania, KLPapiona, KMVitto","project":"MELP","province":"Misamis Occidental","otherinfo":null,"datemapped":2018,"publishdate":null,"globalid":"{27D44928-E916-4E54-8319-EC621626DBD2}","st_area(shape)":0.012871931313296916,"st_perimeter(shape)":4.6460872002031275,"liqcodepk":null,"creator":null,"createdate":null,"editor":null,"modifydate":null,"codemove":null},"geometry":{"type":"Polygon","coordinates":[[[123.63870533700003,8.015649404000042],[123.63665942000013,8.018541436000021],[123.63455349100002,8.020725786000071],[123.63392317800003,8.020257682000024],[123.63629416700009,8.017195580000022],[123.63852188600004,8.013803833000054],[123.63912357700009,8.013307386000065],[123.63849328900005,8.011917265000022],[123.6382784440001,8.010527151000076],[123.63657370400006,8.010215037000023],[123.63627282400013,8.011704431000057],[123.63771968900005,8.012498817000049],[123.63769643700005,8.013288518000026],[123.63681303300008,8.013860523000062],[123.63432437400002,8.017477530000065],[123.6325049630001,8.019477495000046],[123.63234730900001,8.02200232100006],[123.63297758400005,8.02384630700004],[123.63485419500012,8.025420818000043],[123.63693546800006,8.026049157000044],[123.63723237300007,8.026438919000045],[123.63731809800004,8.029066231000058],[123.6361576600001,8.031250551000028],[123.63562896100008,8.031857444000023],[123.63395127300011,8.032311],[123.63192337800001,8.031699575000058],[123.63061365900012,8.030753951000063],[123.62923299600004,8.028617274000053],[123.62835404900011,8.027910139000028],[123.62704682100004,8.027615936000073],[123.62474903700003,8.027989132000073],[123.62369518500009,8.02912748600005],[123.62313519000007,8.030736368000023],[123.6230640120001,8.032313983000053],[123.62172043000011,8.033388416000037],[123.61888093500012,8.03217202400003],[123.61580092800011,8.032129384000028],[123.61521611200011,8.031776291000028],[123.61487691700006,8.029786700000045],[123.613839288,8.028078368000019],[123.61279163200004,8.02748668600003],[123.61187025900006,8.027451572000075],[123.60969620700008,8.028227309000044],[123.608724187,8.02810089500002],[123.60783595200007,8.029732048000028],[123.60697640600007,8.030029890000037],[123.6053466400001,8.029403847000026],[123.60235450800006,8.029747606000058],[123.60188219100007,8.029037116000039],[123.60266089100003,8.028403608000076],[123.60308875600003,8.026944555000057],[123.60203685300006,8.024758642000052],[123.60149086800004,8.02489195700002],[123.59961312600001,8.026909163000028],[123.59850385900006,8.029468030000032],[123.5973865110001,8.031022481000036],[123.59365272600009,8.032451053000045],[123.5916876110001,8.033756880000054],[123.59102238200013,8.035190343000066],[123.59063064800013,8.03788735000006],[123.58936831300004,8.040922733000063],[123.58808480800008,8.042169919000058],[123.58686287200008,8.042695537000043],[123.58387785200013,8.043240525000042],[123.5831291500001,8.043652321000025],[123.58173872600003,8.043628749000048],[123.57931438300011,8.044087561000026],[123.57730597500006,8.044699345000026],[123.57650350600011,8.044318009000053],[123.57553129400003,8.04313490800007],[123.57246567500012,8.040907981000032],[123.57100446200002,8.04089375600006],[123.56866933600008,8.042638285000065],[123.56812494500004,8.043219800000031],[123.56758053400006,8.044553046000033],[123.56669231500007,8.045616790000052],[123.56663125600005,8.046842414000025],[123.56650940201388,8.046969693093418],[123.56709847087394,8.047500350442908],[123.57067879793537,8.050139234389555],[123.57450144147248,8.052415601264624],[123.5753458319636,8.052812196430231],[123.57554695200008,8.051514785000052],[123.57541625700003,8.050538205000068],[123.57687798300003,8.050597077000022],[123.57820901200012,8.049761728000023],[123.57985796000001,8.048120413000046],[123.58137911100005,8.047991030000045],[123.5823439060001,8.048274750000076],[123.58325679400002,8.047473376000028],[123.58426991000012,8.047185136000053],[123.58433141500007,8.046483210000076],[123.58589507500005,8.046061519000036],[123.5875885360001,8.046249825000075],[123.58964554700003,8.045947877000062],[123.59016165900003,8.047114116000046],[123.59110438000003,8.047950972000024],[123.5909517350001,8.04498506200002],[123.59135580600002,8.044437947000064],[123.59300175700004,8.043708491000075],[123.59678204900003,8.043739189000064],[123.59720274600012,8.04349681900004],[123.59997433700005,8.042856468000025],[123.60129942000002,8.042156415000022],[123.60301071700006,8.041962321000026],[123.60348605600007,8.04265654200003],[123.60739592900008,8.04102114600005],[123.60955139500004,8.041107604000047],[123.61092881000003,8.04077920900005],[123.61423516500008,8.04065070200005],[123.6163742750001,8.040786075000026],[123.61800834000007,8.040121327000065],[123.61913731300001,8.040286087000027],[123.61990978100005,8.039939003000029],[123.62194787700003,8.040097906000028],[123.6241523220001,8.041186349000045],[123.62705201600012,8.041021704000057],[123.63050697900009,8.04120198000004],[123.63093944627944,8.041149805348736],[123.63094993317287,8.041138237142107],[123.63359693718712,8.0375693911449],[123.63588019215719,8.033759119678859],[123.63777771681622,8.029744123335096],[123.63927124687385,8.025563073369637],[123.64034641052545,8.02125623910045],[123.6409928664062,8.01686509995856],[123.64116578387907,8.013241279262566],[123.63870533700003,8.015649404000042]]]}},{"type":"Feature","properties":{"fid":208,"objectid":7461,"lccode":"01","liqcode":null,"mappers":"DJLBuhay, MJVReyes, MITAbigania, KLPapiona, KMVitto","project":"MELP","province":"Zamboanga del Sur","otherinfo":null,"datemapped":2020,"publishdate":2021,"globalid":"{956CA67A-D8B3-4AFB-A15B-79E0A6393BB2}","st_area(shape)":0.059065434056611577,"st_perimeter(shape)":16.76855550220317,"liqcodepk":null,"creator":null,"createdate":null,"editor":null,"modifydate":null,"codemove":null},"geometry":{"type":"Polygon","coordinates":[[[123.56659083000012,8.046769444000063],[123.56661922400009,8.045602737000024],[123.56754818700004,8.044554445000074],[123.56784686500009,8.043507022000028],[123.56850611800007,8.042758247000052],[123.57105453100009,8.040810267000039],[123.57225505800012,8.040808597000021],[123.57561990900001,8.043197058000034],[123.57637180600011,8.044302841000043],[123.57733282700008,8.04472029400006],[123.57916275500008,8.044089513000072],[123.58159315700006,8.043607447000054],[123.58297389800009,8.04369523300005],[123.58411367700012,8.04318506800007],[123.585704081,8.04297340200003],[123.5879238980001,8.042162541000039],[123.5893927300001,8.040904030000037],[123.59049914800005,8.038090483000078],[123.59106506300009,8.035098226000057],[123.59172321900009,8.033631471000033],[123.59322241300002,8.032642135000057],[123.59751156900006,8.030841061000048],[123.59844011100007,8.029583306000063],[123.59957671500001,8.026949184000046],[123.60132571100007,8.02486989000005],[123.60197446600013,8.024764924000063],[123.60299795600007,8.02685743400002],[123.60257994800008,8.028323851000039],[123.60186058200009,8.028953106000072],[123.6022217860001,8.029670523000052],[123.60336242600012,8.02978851000006],[123.6040520880001,8.029368696000063],[123.60519255000008,8.029367021000043],[123.60681413900011,8.02999283400004],[123.60789417700005,8.029722011000047],[123.60873184600008,8.027925910000022],[123.60984264800004,8.028163581000056],[123.61170236500006,8.027472791000037],[123.61280909200002,8.027467013000033],[123.61369790100004,8.027962409000052],[123.61475684200002,8.029636031000052],[123.61519218700005,8.031741349000072],[123.61579293700004,8.03207549000007],[123.61867411700008,8.032071167000028],[123.62170135700002,8.03338283100004],[123.62306816900004,8.032232054000076],[123.6230839540001,8.03069978600007],[123.62378324100005,8.02880877700005],[123.62475293100012,8.027913391000027],[123.62698384100008,8.027557639000067],[123.62880032700004,8.028202856000064],[123.63029238800004,8.030450124000025],[123.63173474400004,8.031596619000027],[123.6339447160001,8.032287229000076],[123.6356727120001,8.031829866000068],[123.63732486800006,8.028931615000033],[123.63717667100002,8.026275462000056],[123.63698414800001,8.02598858400006],[123.63449275000005,8.025205256000048],[123.63279585300006,8.02353637300007],[123.63224604800006,8.02176793500007],[123.63244697300001,8.019459026000051],[123.6345214600001,8.017137775000037],[123.63674911200006,8.013807877000033],[123.63569793000012,8.013889233000041],[123.63485884400008,8.013083566000038],[123.63345339500006,8.012475477000068],[123.63471190000008,8.011217143000064],[123.63442146400007,8.009709912000062],[123.63431042600007,8.007771639000053],[123.63470606300007,8.007447957000066],[123.63603869100007,8.007553596000038],[123.63946127400006,8.008445732000045],[123.64100654063226,8.008541121202423],[123.64097899632249,8.00799947026974],[123.64031883206708,8.003610358320543],[123.63923028082046,7.999306876545988],[123.63772383780828,7.995130465581894],[123.63581402104637,7.991121341310653],[123.63351923113889,7.987318107763512],[123.63086157376706,7.983757385575171],[123.6278666465895,7.980473459559847],[123.6245632926135,7.977497948793138],[123.62098332241702,7.974859502366957],[123.61716120789535,7.972583523737672],[123.61313375047858,7.970691926312588],[123.60893972700697,7.969202922619847],[123.60461951666291,7.968130849084508],[123.60154477338833,7.967680741420494],[123.60091679300002,7.968978231000048],[123.59966092900005,7.970546680000042],[123.59907861400006,7.9723473570000465],[123.59783079800002,7.9728181210000475],[123.59729834600013,7.973949892000067],[123.59418892400004,7.975217953000026],[123.59224866600003,7.974856972000056],[123.58998024800007,7.973328584000056],[123.58892415300012,7.973464104000073],[123.58810016100006,7.974748011000032],[123.58858218200011,7.97606835200003],[123.58796807600004,7.976394695000067],[123.58585551300008,7.976416834000077],[123.58601038300003,7.977278154000031],[123.58695697300004,7.977243275000034],[123.58731749800006,7.97808040500007],[123.58649231900006,7.978541062000033],[123.58509064600004,7.978772789000063],[123.58518768200008,7.979481029000056],[123.586343294,7.980582600000047],[123.58613360800007,7.982887556000036],[123.58726969600004,7.984953638000034],[123.58713621299998,7.985623913000041],[123.5862346870001,7.986429295000049],[123.58608434400003,7.988273334000041],[123.5852774770001,7.988594070000034],[123.58395166800007,7.988174748000061],[123.58264626200003,7.98859778600007],[123.58059071100001,7.988236916000061],[123.57692035900006,7.986806153000031],[123.57505803000004,7.987268234000055],[123.57363652500008,7.987078755000029],[123.57163951000008,7.987368700000046],[123.56979534200003,7.987084065000034],[123.5675484070001,7.987202027000023],[123.56620465000003,7.9876825030000305],[123.56658993100008,7.9885243710000395],[123.56614961800005,7.989558824000028],[123.56328928000006,7.9905582910000685],[123.55885222500001,7.990238841000063],[123.55816158500011,7.990814136000038],[123.55772169000011,7.992174052000053],[123.55563026000004,7.993689355000072],[123.55467023000004,7.993901244000027],[123.55405698375114,7.994902725630965],[123.5538921529772,7.995251336699242],[123.55239781642713,7.999432139261978],[123.55132175161997,8.003738812283835],[123.55067433455137,8.008129882530419],[123.55046181399622,8.012563062658984],[123.55068625080146,8.016995658424307],[123.55134549749575,8.02138497985531],[123.55243321843277,8.025688752442461],[123.55393895029513,8.029865524374198],[123.55584820239615,8.033875065896375],[123.55814259583126,8.037678756943045],[123.56080004015546,8.041239959298078],[123.56379494589754,8.04452436969473],[123.56645845763403,8.046923800200306],[123.56659083000012,8.046769444000063]],[[123.62458573600009,8.012389371000038],[123.62674541500007,8.011668151000038],[123.62797489200013,8.01103808000005],[123.62887516700006,8.011006794000023],[123.62929793500007,8.01271126300003],[123.62818937100009,8.013909524000042],[123.62777132700012,8.01528621800003],[123.62777366600005,8.016811842000038],[123.62705486600011,8.017770194000036],[123.62681633400007,8.018787642000063],[123.62624671500011,8.019177394000051],[123.6245362080001,8.019269733000044],[123.62270879400012,8.021426329000066],[123.62150924400011,8.022026427000071],[123.6201890540001,8.022237817000073],[123.61892965400011,8.022957656000074],[123.61655945800011,8.023439841000028],[123.61602001400001,8.023949192000032],[123.6148194110001,8.023861243000056],[123.61283711400006,8.022847111000033],[123.61124627299999,8.022699903000046],[123.61061745800009,8.023658096000078],[123.61211947600009,8.024613125000032],[123.61221107800009,8.025659991000055],[123.61143273800009,8.026977379000071],[123.60894241400001,8.027429786000024],[123.6077699450001,8.026085373000058],[123.60674643400013,8.02399287600002],[123.60563436000007,8.022887681000041],[123.60566065200011,8.020374834000052],[123.60544942100012,8.01959737000004],[123.60421714100005,8.018372689000046],[123.60358469800008,8.01687789600004],[123.60394390600005,8.016249167000067],[123.60625352800002,8.015408173000028],[123.60697379500003,8.01540711300004],[123.60808518400006,8.016063591000034],[123.6088355080001,8.016092398000069],[123.61135765100005,8.01689635200006],[123.61363877200006,8.017072448000022],[123.61675935100004,8.016678903000072],[123.61939888500001,8.015717685000025],[123.62164721800002,8.014069013000038],[123.62365644800003,8.013078806000069],[123.62458573600009,8.012389371000038]]]}}]}