{"type":"FeatureCollection","features":[{"type":"Feature","properties":{"fid":192,"objectid":2053,"lccode":"01","liqcode":null,"mappers":"DJLBuhay, MJVReyes, MITAbigania, KLPapiona, KMVitto","project":"MELP","province":"Lanao del Sur","otherinfo":null,"datemapped":2018,"publishdate":null,"globalid":"{22B1851D-C2EE-4AE5-B511-229F233C1746}","st_area(shape)":0.021864599324414365,"st_perimeter(shape)":5.17999445853216,"liqcodepk":null,"creator":null,"createdate":null,"editor":null,"modifydate":null,"codemove":null},"geometry":{"type":"Polygon","coordinates":[]}},{"type":"Feature","properties":{"fid":233,"objectid":9207,"lccode":"05","liqcode":null,"mappers":"DJLBuhay, BDBBrusas, CJMLegaspi, MITAbigania, JKAMarquez, HALVidal, MITAbigania","project":"LiquePhi Project","province":"Cotabato","otherinfo":null,"datemapped":2024,"publishdate":null,"globalid":"{0A4358E8-2438-4617-BE2C-2A3EAF7F303E}","st_area(shape)":0.07866121498552288,"st_perimeter(shape)":16.126339153406974,"liqcodepk":null,"creator":"DJLB-PC","createdate":"2024-07-12T08:00:00","editor":null,"modifydate":null,"codemove":null},"geometry":{"type":"Polygon","coordinates":[]}}]}