{"type":"FeatureCollection","features":[{"type":"Feature","properties":{"fid":189,"objectid":10018,"lccode":"02","liqcode":null,"mappers":"OPCHalasan, KSSochayseng, AATMagnaye, RPADizon, MJVReyes, HALVidal, MITAbigania, DJLBuhay","project":"ACER-DeLTA Liquefaction","province":"South Cotabato","otherinfo":"General Santos merged with the rest of South Cotabato","datemapped":2025,"publishdate":2025,"globalid":"{5C1DBB9D-146F-4CBC-A9A0-7B9670F2F55D}","st_area(shape)":0.0277513408469407,"st_perimeter(shape)":12.12541707282386,"liqcodepk":null,"creator":null,"createdate":null,"editor":"DJLB","modifydate":"2025-07-07T08:00:00","codemove":null},"geometry":{"type":"Polygon","coordinates":[]}},{"type":"Feature","properties":{"fid":210,"objectid":10019,"lccode":"03","liqcode":null,"mappers":"OPCHalasan, KSSochayseng, AATMagnaye, RPADizon, MJVReyes, HALVidal, MITAbigania, DJLBuhay","project":"ACER-DeLTA Liquefaction","province":"South Cotabato","otherinfo":"General Santos merged with the rest of South Cotabato","datemapped":2025,"publishdate":2025,"globalid":"{A08B4111-30CD-46F1-8E61-734C7ABFBD03}","st_area(shape)":0.027808614318137116,"st_perimeter(shape)":9.22104192901392,"liqcodepk":null,"creator":null,"createdate":null,"editor":"DJLB","modifydate":"2025-07-07T08:00:00","codemove":null},"geometry":{"type":"Polygon","coordinates":[]}},{"type":"Feature","properties":{"fid":211,"objectid":10020,"lccode":"04","liqcode":null,"mappers":"OPCHalasan, KSSochayseng, AATMagnaye, RPADizon, MJVReyes, HALVidal, MITAbigania, DJLBuhay","project":"ACER-DeLTA Liquefaction","province":"South Cotabato","otherinfo":"General Santos merged with the rest of South Cotabato","datemapped":2025,"publishdate":2025,"globalid":"{10411778-8217-49CD-9A6B-AC131A16B836}","st_area(shape)":0.0318710172763168,"st_perimeter(shape)":5.428132055188376,"liqcodepk":null,"creator":null,"createdate":null,"editor":"DJLB","modifydate":"2025-07-07T08:00:00","codemove":null},"geometry":{"type":"Polygon","coordinates":[]}},{"type":"Feature","properties":{"fid":237,"objectid":9212,"lccode":"07","liqcode":null,"mappers":"DJLBuhay, BDBBrusas, CJMLegaspi, MITAbigania, JKAMarquez, HALVidal, MITAbigania","project":"LiquePhi Project","province":"Davao del Sur","otherinfo":null,"datemapped":2024,"publishdate":null,"globalid":"{AB7D2B81-4AEF-470C-9924-9BE0788AD6B8}","st_area(shape)":0.010657240155882559,"st_perimeter(shape)":3.1693888263058136,"liqcodepk":null,"creator":"SDE","createdate":"2024-07-12T08:00:00","editor":null,"modifydate":null,"codemove":null},"geometry":{"type":"Polygon","coordinates":[[[125.2559461530001,6.6839021730000345],[125.25601800700007,6.683105578000037],[125.25681554900007,6.682900107000021],[125.2584716540001,6.68313805300005],[125.26016583000013,6.682433733000039],[125.26032763300009,6.682329036000055],[125.26070834700012,6.6820815720000715],[125.26133693200006,6.681482267000034],[125.26191220900013,6.679072043000076],[125.26132305700003,6.677929431000052],[125.261009004,6.677109108000025],[125.26154200300003,6.67628105600005],[125.26284594800006,6.675138914000059],[125.2640394560001,6.672917151000035],[125.26467051400004,6.67183307700003],[125.26542663600003,6.669626282000025],[125.26589776900006,6.66752759700006],[125.26640272100009,6.666382888000043],[125.26666911900007,6.6662175490000655],[125.26840873000003,6.665795339000055],[125.26889297600009,6.665752033000046],[125.2705881380001,6.665360979000068],[125.27315795600009,6.665218211000023],[125.27477503800004,6.665337660000033],[125.2751034040001,6.665337660000033],[125.27657391100003,6.6655375350000545],[125.27748762400005,6.666508355000075],[125.27967196900012,6.668392888000027],[125.28173928400007,6.669358627000064],[125.28263572800007,6.6702669050000605],[125.28330673600011,6.671994394000023],[125.28450598500002,6.671965840000041],[125.2850770550001,6.671851626000035],[125.28749883900002,6.672305057000073],[125.28985954000007,6.672057660000064],[125.29164413600006,6.672271812000076],[125.29330602951657,6.67227181389359],[125.2941870098694,6.671465976426028],[125.29715064000128,6.668165901491883],[125.29812990542888,6.666832790609716],[125.29744404900009,6.6665053090000574],[125.29692056800002,6.665743881000027],[125.2964668190001,6.664277726000025],[125.2964382040001,6.662808576000032],[125.29725198000006,6.661266685000045],[125.29829418400004,6.66041007900003],[125.29977666200011,6.659867792000058],[125.299150273,6.658590612000068],[125.29800813200008,6.6579719520000245],[125.29624733100003,6.655901821000043],[125.29512898400002,6.65411722500005],[125.29420099400011,6.652118478000034],[125.29401063700004,6.6517139690000695],[125.29405822700006,6.650214909000055],[125.29417720000004,6.649929374000065],[125.29600938500005,6.6480495990000446],[125.29672322300007,6.646479155000065],[125.29655666100007,6.645027684000071],[125.29567626000006,6.644147283000052],[125.29417720000004,6.643243088000078],[125.29217234600003,6.642420935000074],[125.28889977100006,6.641270347000044],[125.28708930800009,6.640875245000072],[125.28435922800007,6.64020345700004],[125.2832733030001,6.64007676600005],[125.2793182350001,6.639268424000022],[125.27749080900003,6.639325531000053],[125.27484484900003,6.639782388000071],[125.27427377800005,6.639953709000054],[125.27398396600007,6.640012745000034],[125.27234359100011,6.640026311000042],[125.27219496100008,6.639976768000053],[125.27146431900007,6.639748029000031],[125.26997953500008,6.640404760000024],[125.26920859000006,6.639805136000063],[125.26919431300009,6.639648091000025],[125.26856613500001,6.638662994000071],[125.26792368100007,6.63880576200006],[125.26727158600012,6.639626560000066],[125.26698645200008,6.639799677000044],[125.2668913230001,6.639860832000068],[125.26681989000008,6.639906753000047],[125.26551118700003,6.64008521200003],[125.26407161300007,6.63970449800007],[125.26336967200007,6.639181017000054],[125.26284619000013,6.639038249000066],[125.26257255200007,6.639133428000036],[125.26150179500007,6.640180391000059],[125.26000019700007,6.64027878300004],[125.2598480690001,6.640358850000039],[125.25965771200002,6.640573002000052],[125.25956253400011,6.640703872000074],[125.2582657280001,6.641227353000033],[125.25824193300002,6.641298737000056],[125.25717798000004,6.642176910000046],[125.25691020300009,6.642298047000055],[125.25607662400012,6.642702619000034],[125.2543277200001,6.641846013000076],[125.25313798900005,6.641846013000076],[125.25339133800003,6.641066373000057],[125.25338405800005,6.64088435900004],[125.25288814600005,6.640275569000039],[125.25267399400003,6.640192288000037],[125.25140098300005,6.640001931000029],[125.25088939900003,6.638966866000033],[125.2507109390001,6.638954968000065],[125.24933444600003,6.639076014000069],[125.24919513200005,6.638788099000067],[125.248307683,6.638550460000033],[125.24746909400005,6.639514142000054],[125.24669857300012,6.6393096570000685],[125.2466777530001,6.638502871000071],[125.24490505400001,6.638502871000071],[125.24475038900006,6.638443384000028],[125.24384619400008,6.638348206000045],[125.24317994500007,6.638895482000068],[125.24107970200008,6.638580403000049],[125.23872429700009,6.639146577000074],[125.23861722200002,6.639010948000021],[125.23748884300005,6.638993151000022],[125.23734659000003,6.639096608000044],[125.23589464200008,6.638669357000026],[125.2349267840001,6.639484200000027],[125.23440933300003,6.638840279000022],[125.23512568,6.638216159000023],[125.23466969600008,6.636833741000033],[125.23379229500006,6.637145798000064],[125.23244848600007,6.636855977000039],[125.23244848600007,6.63625635300002],[125.23204436400009,6.635974407000048],[125.23112729900002,6.636586624000073],[125.23103806900008,6.63728261700004],[125.23024095000007,6.6376395360000515],[125.23016956600009,6.637627638000026],[125.2299008640001,6.637355013000047],[125.22975493600006,6.636932120000038],[125.22950292000009,6.636306451000052],[125.22910296300006,6.636056478000057],[125.22858626900008,6.636233691000029],[125.22852237500003,6.6362991830000615],[125.22717245100011,6.636470225000039],[125.22635613900003,6.635199872000045],[125.22498828900005,6.635426637000023],[125.22251365000012,6.635111358000073],[125.22249845100009,6.635400146000051],[125.22067083900005,6.635367931000076],[125.21997254599998,6.636830506000024],[125.21954424300007,6.636544971000034],[125.21890178900003,6.635438522000072],[125.21827249400008,6.635012950000032],[125.21757809500002,6.632076819000078],[125.2175614876531,6.632049140296628],[125.2170812060601,6.635389518049136],[125.21763520200011,6.636683455000024],[125.2189677,6.637901739000029],[125.21963394900001,6.638111132000062],[125.2209919610001,6.637828351000054],[125.22226538700012,6.637223001000053],[125.22316482300003,6.636980296000046],[125.22486375800008,6.637065957000062],[125.22540627500007,6.637451429000065],[125.22647815300002,6.636997389000045],[125.22781744600002,6.636909435000065],[125.22829702100012,6.636995969000053],[125.22850533100006,6.637125031000039],[125.2299061220001,6.637949448000029],[125.23078057400005,6.638056523000046],[125.2321249690001,6.637711502000059],[125.232303429,6.6377709880000575],[125.23249973400004,6.637812629000052],[125.23483405400009,6.637548776000075],[125.23474832500006,6.638300418000026],[125.23406861600006,6.638723396000046],[125.23396368200007,6.639494571000056],[125.2360272850001,6.640312054000049],[125.23601538800006,6.640442925000059],[125.23623659000009,6.64072268800004],[125.23636073700004,6.64078802800003],[125.23733205400005,6.640893380000021],[125.23742227300012,6.640845896000031],[125.23755014000005,6.6404786160000535],[125.23757393500011,6.640323952000074],[125.23837105400004,6.640787946000045],[125.23964406600011,6.640573795000022],[125.24020943400001,6.63944496800002],[125.24029509500008,6.63934503100006],[125.24181175500007,6.63985916300004],[125.24319184200012,6.640049520000047],[125.24342543400007,6.640010588000052],[125.2435617860001,6.639975959000023],[125.24454813500006,6.639216709000038],[125.24513110300005,6.639668807000021],[125.24603529800005,6.639597423000054],[125.24745132400004,6.640282538000066],[125.24887900100008,6.640154047000066],[125.24949290200004,6.640439583000046],[125.24994975800007,6.640568074000042],[125.25147344700008,6.640889153000046],[125.25210162500002,6.641545884000038],[125.252035,6.642621400000052],[125.25249102200007,6.643194999000059],[125.253875869,6.643180722000068],[125.2541756810001,6.643337766000059],[125.25531782200007,6.643623301000047],[125.25591772500002,6.644240481000054],[125.25596306700005,6.644259315000057],[125.2572510550001,6.64382888700004],[125.25797441100008,6.642382175000022],[125.25919269500004,6.64189676500007],[125.26133062500003,6.641581895000057],[125.26216860900001,6.640565348000052],[125.26354869600004,6.640869919000068],[125.26408169600006,6.64067956200006],[125.26589008600001,6.641050758000063],[125.2675176370001,6.641117383000051],[125.2684884570001,6.640089456000055],[125.26935458100003,6.641126901000065],[125.27073466800003,6.641307740000058],[125.27176080000004,6.640985232000047],[125.2727793580001,6.642257346000064],[125.27300907600011,6.642558308000048],[125.27343495900004,6.643161448000058],[125.2735420350001,6.64332801000006],[125.27486858400005,6.6443749730000246],[125.27630220900005,6.644226257000071],[125.2769446640001,6.645683677000023],[125.27784468100003,6.645574863000037],[125.27825599400012,6.644511124000075],[125.27941932200008,6.644706692000055],[125.27924005500005,6.646300297000039],[125.27954121100004,6.64684779700002],[125.28070584000012,6.64684779700002],[125.28278021600012,6.6453083200000265],[125.28363605900007,6.644170796000024],[125.28588674000002,6.643643894000037],[125.28645181800005,6.644817946000045],[125.285603551,6.645520175000057],[125.28414201900011,6.64601476000007],[125.2827974170001,6.646068727000054],[125.28141887700006,6.647957379000047],[125.28120496600002,6.648169852000024],[125.27861505600004,6.650842356000055],[125.27870414200005,6.6514924540000475],[125.28003880300002,6.652870961000076],[125.27994341300005,6.6539763020000455],[125.27879980600007,6.65495730300006],[125.27873028700003,6.65544550200002],[125.27861686000007,6.655747359000032],[125.2781286610001,6.655692199000042],[125.2780557220001,6.655434243000058],[125.2773061150001,6.654705857000068],[125.27635868400012,6.654652797000038],[125.27542790200005,6.655101890000026],[125.27490013000012,6.65580742800006],[125.2753210080001,6.65785830900006],[125.27542094600007,6.657894],[125.27706035700011,6.659212543000024],[125.2794751780001,6.660780084000066],[125.27966532200003,6.6608461850000245],[125.28136710500006,6.660676211000065],[125.28169034900009,6.661091703000066],[125.28172837800003,6.661346664000062],[125.28170409200006,6.663066342000035],[125.28065830400011,6.662783053000056],[125.27895014100011,6.6629398120000465],[125.27726175600004,6.661781408000025],[125.27604823100012,6.661828997000043],[125.27509644700001,6.662376273000065],[125.27456638700005,6.663182609000044],[125.27406416500004,6.663491669000051],[125.27230732600005,6.663400916000057],[125.27001114600012,6.663079688000037],[125.26893444000008,6.663293840000051],[125.26739050000005,6.66401221500007],[125.26640044300005,6.665254099000037],[125.26613177800004,6.66557836100003],[125.26499685300006,6.666982155000028],[125.26461495700005,6.668622179000067],[125.26458680000007,6.668815311000059],[125.26404416700007,6.671301772000049],[125.2635373160001,6.672003475000053],[125.2630352750001,6.67379544800002],[125.26301623900007,6.673985804000041],[125.26282588300012,6.674233268000022],[125.26263552600007,6.674366518000057],[125.262235776,6.674499768000032],[125.26046545699998,6.6746139820000385],[125.25963163500012,6.67492112600007],[125.25946153000008,6.675049487000023],[125.25938178900003,6.675117267000075],[125.25886289000003,6.677039843000045],[125.25889144400003,6.677368208000075],[125.25849169400009,6.678496073000076],[125.25704244200006,6.678573666000034],[125.2556934480001,6.67803921600006],[125.25516520800012,6.677510976000065],[125.25556495700006,6.675355184000068],[125.25471569300011,6.674082204000057],[125.2531822630001,6.673742029000038],[125.25117399800003,6.674075153000046],[125.25014628200005,6.674715957000047],[125.24959669800013,6.675519272000032],[125.24933971599998,6.676875565000044],[125.24959669800013,6.677874938000058],[125.2484117260001,6.678603053000074],[125.2471425980001,6.676361111000062],[125.24637743000005,6.675424291000072],[125.24540185100011,6.674912706000042],[125.24422580200007,6.674840133000033],[125.24281176200009,6.675295662000053],[125.24221497700012,6.676826510000071],[125.24232109100001,6.678453082000033],[125.24121781700002,6.678823363000049],[125.23877723720446,6.678322119588631],[125.24095178747957,6.679611848753507],[125.24098791980629,6.679628734125665],[125.24125099000004,6.6797013330000246],[125.24172688300007,6.679701333000025],[125.24195691600005,6.679755459000033],[125.24246166000012,6.67981554800002],[125.24250734600004,6.67981554800002],[125.24336624000013,6.679478612000026],[125.24366549200012,6.67876386100005],[125.2436797690001,6.678235620000067],[125.24366549200012,6.677864424000063],[125.2431062390001,6.676687891000029],[125.24426684800004,6.675700308000048],[125.24552716900007,6.675681272000076],[125.2460518580001,6.676038606000022],[125.24653428500004,6.677339041000039],[125.24678213000006,6.677958653000076],[125.24799217500004,6.679265297000028],[125.24883798400003,6.679443437000032],[125.24921884400008,6.679418046000024],[125.2500472370001,6.678871635000063],[125.25042475000011,6.67760368000006],[125.2503961970001,6.677032609000038],[125.25049568200008,6.675929926000038],[125.25132849300007,6.67490675800002],[125.25211371600007,6.674609325000063],[125.25380313300003,6.6746093250000635],[125.25449317700009,6.675275574000068],[125.25469350400012,6.676190280000069],[125.25441046100003,6.677335454000058],[125.25441760000001,6.677535329000023],[125.25581672300007,6.6789487290000675],[125.25629547000005,6.67901202300004],[125.25643776200002,6.679005836000045],[125.25826972100003,6.679538928000055],[125.25900310400004,6.679314409000027],[125.25915869300002,6.67922247000007],[125.25937379100004,6.679072554000072],[125.25947492500006,6.679036859000063],[125.25994081300007,6.678943987000025],[125.25996156300005,6.6789504720000545],[125.26031605700007,6.679748321000034],[125.26025895000011,6.680043374000036],[125.25984968300008,6.681356836000021],[125.25973405300012,6.681440405000044],[125.25944851800013,6.6816545570000585],[125.2592343670001,6.681821119000062],[125.25849673400012,6.68224942200004],[125.2582825820001,6.682368395000024],[125.25802084100009,6.68243977900005],[125.25788744800002,6.682499065000059],[125.25785094500009,6.682515289000038],[125.2573768210001,6.6826778450000575],[125.25717694600009,6.682677845000056],[125.25657896400001,6.682343162000051],[125.25641374100007,6.68229910300005],[125.25538581400009,6.682213442000034],[125.2538504600001,6.682606461000034],[125.25363704243847,6.684048121869236],[125.2554956328472,6.6843150672534435],[125.2559461530001,6.6839021730000345]]]}},{"type":"Feature","properties":{"fid":238,"objectid":9213,"lccode":"06","liqcode":null,"mappers":"DJLBuhay, BDBBrusas, CJMLegaspi, MITAbigania, JKAMarquez, HALVidal, MITAbigania","project":"LiquePhi Project","province":"Davao del Sur","otherinfo":null,"datemapped":2024,"publishdate":null,"globalid":"{D997888D-0F93-46DE-ACA0-5EB4E32C5A82}","st_area(shape)":0.00887826813287371,"st_perimeter(shape)":4.7210885749308416,"liqcodepk":null,"creator":"SDE","createdate":"2024-07-12T08:00:00","editor":null,"modifydate":null,"codemove":null},"geometry":{"type":"MultiPolygon","coordinates":[[[[125.2582825820001,6.682368395000024],[125.25849673400012,6.68224942200004],[125.2592343670001,6.681821119000062],[125.25944851800013,6.6816545570000585],[125.25973405300012,6.681440405000044],[125.25984968300008,6.681356836000021],[125.26025895000011,6.680043374000036],[125.26031605700007,6.679748321000034],[125.25996156300005,6.6789504720000545],[125.25994081300007,6.678943987000025],[125.25947492500006,6.679036859000063],[125.25937379100004,6.679072554000072],[125.25915869300002,6.67922247000007],[125.25900310400004,6.679314409000027],[125.25826972100003,6.679538928000055],[125.25643776200002,6.679005836000045],[125.25629547000005,6.67901202300004],[125.25581672300007,6.6789487290000675],[125.25441760000001,6.677535329000023],[125.25441046100003,6.677335454000058],[125.25469350400012,6.676190280000069],[125.25449317700009,6.675275574000068],[125.25380313300003,6.6746093250000635],[125.25211371600007,6.674609325000063],[125.25132849300007,6.67490675800002],[125.25049568200008,6.675929926000038],[125.2503961970001,6.677032609000038],[125.25042475000011,6.67760368000006],[125.2500472370001,6.678871635000063],[125.24921884400008,6.679418046000024],[125.24883798400003,6.679443437000032],[125.24799217500004,6.679265297000028],[125.24678213000006,6.677958653000076],[125.24653428500004,6.677339041000039],[125.2460518580001,6.676038606000022],[125.24552716900007,6.675681272000076],[125.24426684800004,6.675700308000048],[125.2431062390001,6.676687891000029],[125.24366549200012,6.677864424000063],[125.2436797690001,6.678235620000067],[125.24366549200012,6.67876386100005],[125.24336624000013,6.679478612000026],[125.24250734600004,6.67981554800002],[125.24246166000012,6.67981554800002],[125.24195691600005,6.679755459000033],[125.24172688300007,6.679701333000025],[125.24125099000004,6.6797013330000246],[125.24098791980629,6.679628734125665],[125.24202675987537,6.680114203395834],[125.24335317100008,6.679647640000043],[125.24345461800011,6.679570190000048],[125.2438450950001,6.678582843000073],[125.24388792600007,6.678454352000073],[125.2438797220001,6.677919878000067],[125.24389267800008,6.677822708000065],[125.24465410500011,6.676656772000058],[125.2454750190001,6.676954205000071],[125.24638138900002,6.678560518000042],[125.24648132600008,6.678681870000049],[125.24693818300011,6.679088758000035],[125.24723799500008,6.679302910000047],[125.24756636100004,6.67951706100007],[125.24849629900008,6.679819082000051],[125.24898170900008,6.679781011000045],[125.2493852660001,6.679547129000073],[125.2494642690001,6.679531936000045],[125.24992231500003,6.679246400000066],[125.25007698000003,6.679091735000043],[125.25031030000002,6.678824901000039],[125.25035263000007,6.678782571000056],[125.25067972700003,6.678147295000032],[125.25103315400007,6.675628713000037],[125.25216094100007,6.675052211000037],[125.2533744660001,6.675099800000054],[125.25407640700007,6.675694665000037],[125.25413597300007,6.677047706000052],[125.25411328900009,6.67721216600006],[125.25413080600002,6.677375676000052],[125.25418816200012,6.677471269000022],[125.25433172200007,6.677597218000074],[125.25440511400006,6.6776619760000235],[125.25440961100003,6.677664224000068],[125.25570332100006,6.678954616000053],[125.25717409100004,6.679393396000021],[125.25717315800013,6.67944463200007],[125.25750628300011,6.679980011000053],[125.25899356500008,6.679907834000061],[125.25938379700005,6.6809262430000445],[125.25867221900013,6.681764607000049],[125.25851755400004,6.681871682000063],[125.25777159300003,6.68225447800006],[125.25769307100006,6.682290468000077],[125.25712840500012,6.682505572000026],[125.25696660200003,6.682486537000045],[125.2565813299555,6.6823444861982475],[125.25717694600009,6.682677845000056],[125.2573768210001,6.6826778450000575],[125.25785094500009,6.682515289000038],[125.25788744800002,6.682499065000059],[125.25802084100009,6.68243977900005],[125.2582825820001,6.682368395000024]]],[[[125.24121781700002,6.678823363000049],[125.24232109100001,6.678453082000033],[125.24221497700012,6.676826510000071],[125.24281176200009,6.675295662000053],[125.24422580200007,6.674840133000033],[125.24540185100011,6.674912706000042],[125.24637743000005,6.675424291000072],[125.2471425980001,6.676361111000062],[125.2484117260001,6.678603053000074],[125.24959669800013,6.677874938000058],[125.24933971599998,6.676875565000044],[125.24959669800013,6.675519272000032],[125.25014628200005,6.674715957000047],[125.25117399800003,6.674075153000046],[125.2531822630001,6.673742029000038],[125.25471569300011,6.674082204000057],[125.25556495700006,6.675355184000068],[125.25516520800012,6.677510976000065],[125.2556934480001,6.67803921600006],[125.25704244200006,6.678573666000034],[125.25849169400009,6.678496073000076],[125.25889144400003,6.677368208000075],[125.25886289000003,6.677039843000045],[125.25938178900003,6.675117267000075],[125.25946153000008,6.675049487000023],[125.25963163500012,6.67492112600007],[125.26046545699998,6.6746139820000385],[125.262235776,6.674499768000032],[125.26263552600007,6.674366518000057],[125.26282588300012,6.674233268000022],[125.26301623900007,6.673985804000041],[125.2630352750001,6.67379544800002],[125.2635373160001,6.672003475000053],[125.26404416700007,6.671301772000049],[125.26458680000007,6.668815311000059],[125.26461495700005,6.668622179000067],[125.26499685300006,6.666982155000028],[125.26613177800004,6.66557836100003],[125.26640044300005,6.665254099000037],[125.26739050000005,6.66401221500007],[125.26893444000008,6.663293840000051],[125.27001114600012,6.663079688000037],[125.27230732600005,6.663400916000057],[125.27403396800003,6.663510252000038],[125.27456638700005,6.663182609000044],[125.27509644700001,6.662376273000065],[125.27604823100012,6.661828997000043],[125.27726175600004,6.661781408000025],[125.27895014100011,6.6629398120000465],[125.28065830400011,6.662783053000056],[125.28170409200006,6.663066342000035],[125.28172837800003,6.661346664000062],[125.28169034900009,6.661091703000066],[125.28136710500006,6.660676211000065],[125.27966532200003,6.6608461850000245],[125.2794751780001,6.660780084000066],[125.27706035700011,6.659212543000024],[125.27542094600007,6.657894],[125.2753210080001,6.65785830900006],[125.27490013000012,6.65580742800006],[125.27542790200005,6.655101890000026],[125.27635868400012,6.654652797000038],[125.2773061150001,6.654705857000068],[125.2780557220001,6.655434243000058],[125.2781286610001,6.655692199000042],[125.27861686000007,6.655747359000032],[125.27873028700003,6.65544550200002],[125.27879980600007,6.65495730300006],[125.27994341300005,6.6539763020000455],[125.28003880300002,6.652870961000076],[125.27870414200005,6.6514924540000475],[125.27861505600004,6.650842356000055],[125.28120496600002,6.648169852000024],[125.28141887700006,6.647957379000047],[125.2827974170001,6.646068727000054],[125.28414201900011,6.64601476000007],[125.285603551,6.645520175000057],[125.28645181800005,6.644817946000045],[125.28588674000002,6.643643894000037],[125.28363605900007,6.644170796000024],[125.28278021600012,6.6453083200000265],[125.28070584000012,6.64684779700002],[125.27954121100004,6.64684779700002],[125.27924005500005,6.646300297000039],[125.27941932200008,6.644706692000055],[125.27825599400012,6.644511124000075],[125.27784468100003,6.645574863000037],[125.2769446640001,6.645683677000023],[125.27630220900005,6.644226257000071],[125.27486858400005,6.6443749730000246],[125.2735420350001,6.64332801000006],[125.27343495900004,6.643161448000058],[125.27300907600011,6.642558308000048],[125.2727793580001,6.642257346000064],[125.27176080000004,6.640985232000047],[125.27073466800003,6.641307740000058],[125.26935458100003,6.641126901000065],[125.2684884570001,6.640089456000055],[125.2675176370001,6.641117383000051],[125.26589008600001,6.641050758000063],[125.26408169600006,6.64067956200006],[125.26354869600004,6.640869919000068],[125.26216860900001,6.640565348000052],[125.26133062500003,6.641581895000057],[125.25919269500004,6.64189676500007],[125.25797441100008,6.642382175000022],[125.2572510550001,6.64382888700004],[125.25596306700005,6.644259315000057],[125.25591772500002,6.644240481000054],[125.25531782200007,6.643623301000047],[125.2541756810001,6.643337766000059],[125.253875869,6.643180722000068],[125.25249102200007,6.643194999000059],[125.252035,6.642621400000052],[125.25210162500002,6.641545884000038],[125.25147344700008,6.640889153000046],[125.24994975800007,6.640568074000042],[125.24949290200004,6.640439583000046],[125.24887900100008,6.640154047000066],[125.24745132400004,6.640282538000066],[125.24603529800005,6.639597423000054],[125.24513110300005,6.639668807000021],[125.24454813500006,6.639216709000038],[125.2435617860001,6.639975959000023],[125.24342543400007,6.640010588000052],[125.24319184200012,6.640049520000047],[125.24181175500007,6.63985916300004],[125.24029509500008,6.63934503100006],[125.24020943400001,6.63944496800002],[125.23964406600011,6.640573795000022],[125.23837105400004,6.640787946000045],[125.23757393500011,6.640323952000074],[125.23755014000005,6.6404786160000535],[125.23742227300012,6.640845896000031],[125.23733205400005,6.640893380000021],[125.23636073700004,6.64078802800003],[125.23623659000009,6.64072268800004],[125.23601538800006,6.640442925000059],[125.2360272850001,6.640312054000049],[125.23396368200007,6.639494571000056],[125.23406861600006,6.638723396000046],[125.23474832500006,6.638300418000026],[125.23483405400009,6.637548776000075],[125.23249973400004,6.637812629000052],[125.232303429,6.6377709880000575],[125.2321249690001,6.637711502000059],[125.23078057400005,6.638056523000046],[125.2299061220001,6.637949448000029],[125.22850533100006,6.637125031000039],[125.22829702100012,6.636995969000053],[125.22781744600002,6.636909435000065],[125.22647815300002,6.636997389000045],[125.22540627500007,6.637451429000065],[125.22486375800008,6.637065957000062],[125.22316482300003,6.636980296000046],[125.22226538700012,6.637223001000053],[125.2209919610001,6.637828351000054],[125.21963394900001,6.638111132000062],[125.2189677,6.637901739000029],[125.21763520200011,6.636683455000024],[125.2170812060601,6.635389518049136],[125.21707547670333,6.635429365999048],[125.21700083417605,6.637101194653221],[125.21825774600006,6.638792543000022],[125.21947127100009,6.639613457000053],[125.22068479600013,6.639791917000024],[125.22386137700005,6.639577765000069],[125.22557458900008,6.639827609000064],[125.22768041200005,6.639720533000059],[125.22942931500005,6.639399306000031],[125.2308213000001,6.639577765000069],[125.23167790600007,6.640006068000046],[125.23321265800007,6.641398053000045],[125.23631785500002,6.642397427000049],[125.23806675900005,6.642504502000066],[125.24088642000004,6.642218967000075],[125.24495529900003,6.642504502000064],[125.24670420200005,6.642718654000021],[125.24856018200012,6.643468184000026],[125.25309305500002,6.64578815900006],[125.25655517100006,6.646751840000037],[125.26023143800013,6.646751840000034],[125.26297971600003,6.646430613000064],[125.26529968999999,6.6460023100000285],[125.26633475600012,6.645930926000061],[125.27004671500003,6.646180770000056],[125.27104608800005,6.646394921000025],[125.27183131100004,6.646680456000069],[125.2734731390001,6.647715522000055],[125.27482943100004,6.6490004310000455],[125.27554327000006,6.650677951000033],[125.27603957800012,6.6525697950000335],[125.276011024,6.653397847000065],[125.27598356900013,6.653475990000059],[125.27576804900004,6.653937812000038],[125.275268363,6.654366115000073],[125.2750066220001,6.6546278560000465],[125.27474488100006,6.654865802000075],[125.27448314000004,6.655484462000062],[125.27469729200006,6.6578401290000215],[125.27462590800008,6.659458162000021],[125.27386448100002,6.661361731000055],[125.27267475000009,6.662099364000028],[125.27096153800007,6.661932801000034],[125.26903417500012,6.662503872000058],[125.26617882200003,6.664240879000032],[125.26594087600007,6.664383646000034],[125.26584784800004,6.664426582000033],[125.26482692100001,6.665518893000067],[125.26356580700008,6.668612192000067],[125.26361339600011,6.670230226000057],[125.26170982700013,6.673847006000072],[125.25914000900003,6.67432289900006],[125.25890206300005,6.674418077000041],[125.25847376000002,6.674798791000057],[125.25830636700005,6.675991679000047],[125.25747723500001,6.6768098240000295],[125.25608588500006,6.676227274000041],[125.25592102200005,6.674852285000042],[125.2555462570001,6.674215780000055],[125.25432083500006,6.6735852220000424],[125.25217337100004,6.673494565000055],[125.25008590400013,6.674403749000021],[125.24929528500002,6.675243622000039],[125.24924011300004,6.677323337000074],[125.24848820300006,6.6779610320000415],[125.24780291900004,6.677304301000049],[125.24700438800005,6.6755186670000635],[125.24613905800003,6.674817545000053],[125.24486604600008,6.674503456000025],[125.24261258500007,6.67512571700007],[125.24201220000009,6.676249939000058],[125.24211177000007,6.677865538000046],[125.24153149200005,6.678379639000069],[125.2397885370001,6.67831420400006],[125.2390915400001,6.678067677000058],[125.23812064490373,6.67793268993338],[125.23877723720446,6.678322119588631],[125.24121781700002,6.678823363000049]]],[[[125.21757809500002,6.632076819000078],[125.21827249400008,6.635012950000032],[125.21890178900003,6.635438522000072],[125.21954424300007,6.636544971000034],[125.21997254599998,6.636830506000024],[125.22067083900005,6.635367931000076],[125.22249845100009,6.635400146000051],[125.22251365000012,6.635111358000073],[125.22498828900005,6.635426637000023],[125.22635613900003,6.635199872000045],[125.22717245100011,6.636470225000039],[125.22852237500003,6.6362991830000615],[125.22858626900008,6.636233691000029],[125.22910296300006,6.636056478000057],[125.22950292000009,6.636306451000052],[125.22975493600006,6.636932120000038],[125.2299008640001,6.637355013000047],[125.23016956600009,6.637627638000026],[125.23024095000007,6.6376395360000515],[125.23103806900008,6.63728261700004],[125.23112729900002,6.636586624000073],[125.23204436400009,6.635974407000048],[125.23244848600007,6.63625635300002],[125.23244848600007,6.636855977000039],[125.23379229500006,6.637145798000064],[125.23466969600008,6.636833741000033],[125.23512568,6.638216159000023],[125.23440933300003,6.638840279000022],[125.2349267840001,6.639484200000027],[125.23589464200008,6.638669357000026],[125.23734659000003,6.639096608000044],[125.23748884300005,6.638993151000022],[125.23861722200002,6.639010948000021],[125.23872429700009,6.639146577000074],[125.24107970200008,6.638580403000049],[125.24317994500007,6.638895482000068],[125.24384619400008,6.638348206000045],[125.24475038900006,6.638443384000028],[125.24490505400001,6.638502871000071],[125.2466777530001,6.638502871000071],[125.24669857300012,6.6393096570000685],[125.24746909400005,6.639514142000054],[125.248307683,6.638550460000033],[125.24919513200005,6.638788099000067],[125.24933444600003,6.639076014000069],[125.2507109390001,6.638954968000065],[125.25088939900003,6.638966866000033],[125.25140098300005,6.640001931000029],[125.25267399400003,6.640192288000037],[125.25288814600005,6.640275569000039],[125.25338405800005,6.64088435900004],[125.25339133800003,6.641066373000057],[125.25313798900005,6.641846013000076],[125.2543277200001,6.641846013000076],[125.25607662400012,6.642702619000034],[125.25691020300009,6.642298047000055],[125.25717798000004,6.642176910000046],[125.25824193300002,6.641298737000056],[125.2582657280001,6.641227353000033],[125.25956253400011,6.640703872000074],[125.25965771200002,6.640573002000052],[125.2598480690001,6.640358850000039],[125.26000019700007,6.64027878300004],[125.26150179500007,6.640180391000059],[125.26257255200007,6.639133428000036],[125.26284619000013,6.639038249000066],[125.26336967200007,6.639181017000054],[125.26407161300007,6.63970449800007],[125.26551118700003,6.64008521200003],[125.26681989000008,6.639906753000047],[125.2668913230001,6.639860832000068],[125.26698645200008,6.639799677000044],[125.26727158600012,6.639626560000066],[125.26792368100007,6.63880576200006],[125.26856613500001,6.638662994000071],[125.26919431300009,6.639648091000025],[125.26920859000006,6.639805136000063],[125.26997953500008,6.640404760000024],[125.27146431900007,6.639748029000031],[125.27219496100008,6.639976768000053],[125.27234359100011,6.640026311000042],[125.27398396600007,6.640012745000034],[125.27427377800005,6.639953709000054],[125.27484484900003,6.639782388000071],[125.27749080900003,6.639325531000053],[125.2793182350001,6.639268424000022],[125.2832733030001,6.64007676600005],[125.28435922800007,6.64020345700004],[125.28708930800009,6.640875245000072],[125.28889977100006,6.641270347000044],[125.29217234600003,6.642420935000074],[125.29417720000004,6.643243088000078],[125.29567626000006,6.644147283000052],[125.29655666100007,6.645027684000071],[125.29672322300007,6.646479155000065],[125.29600938500005,6.6480495990000446],[125.29417720000004,6.649929374000065],[125.29405822700006,6.650214909000055],[125.29401063700004,6.6517139690000695],[125.29420099400011,6.652118478000034],[125.29512898400002,6.65411722500005],[125.29624733100003,6.655901821000043],[125.29800813200008,6.6579719520000245],[125.299150273,6.658590612000068],[125.29977666200011,6.659867792000058],[125.29829418400004,6.66041007900003],[125.29725198000006,6.661266685000045],[125.2964382040001,6.662808576000032],[125.2964668190001,6.664277726000025],[125.29692056800002,6.665743881000027],[125.29744404900009,6.6665053090000574],[125.29812990542888,6.666832790609716],[125.29849759748188,6.666332235865903],[125.29799390300003,6.665798014000075],[125.29785113500009,6.6655600680000475],[125.29737524300005,6.664156186000071],[125.29766077800004,6.662728509000033],[125.29789872400012,6.662300206000054],[125.29906063500005,6.661884128000054],[125.29932713500013,6.661884128000054],[125.3014206907455,6.66181921207329],[125.30203915077935,6.660776531074031],[125.30391696891088,6.656758406700395],[125.30539182776135,6.652575601857905],[125.30644953527938,6.648268399715821],[125.3070799173929,6.643878280077533],[125.30717199711295,6.6418072514121365],[125.30610082400005,6.64212230100003],[125.30444471900012,6.642407837000064],[125.30330257700007,6.641779659000065],[125.30227465000006,6.63932405500003],[125.30181779400006,6.638810092000028],[125.30004747500004,6.638010593000048],[125.29987615400013,6.637096880000058],[125.30056143800006,6.635669203000019],[125.30295993500012,6.633384921000072],[125.30484446800006,6.632299886000054],[125.30592950200003,6.631957244000033],[125.30654628680105,6.63180304806892],[125.30636740995654,6.630634726126143],[125.30610186495309,6.6295952301424235],[125.30245604900007,6.632650208000029],[125.30037917200004,6.633815286000073],[125.2989514950001,6.634886043000052],[125.29745243500008,6.635885417000054],[125.29620857200007,6.636300038000059],[125.29114840800003,6.636803364000059],[125.28967159700005,6.637681910000025],[125.28830340700006,6.638871640000047],[125.28639983800008,6.639644965000057],[125.28379765500007,6.639586171000076],[125.28341401800004,6.63947715300003],[125.28192624400005,6.639071397000065],[125.28102204900007,6.638785861000031],[125.28002934300002,6.638502231000075],[125.27844897300008,6.638278329000059],[125.27611718700005,6.638596313000048],[125.2743423380001,6.638313099000071],[125.27330013400001,6.637570707000064],[125.2730859820001,6.637542153000025],[125.27201522500002,6.636871145000045],[125.27197239500003,6.634558309000055],[125.27245077200007,6.633223086000044],[125.27247698300006,6.632751287000074],[125.27217226900008,6.63130320700003],[125.27205474200002,6.631250319000059],[125.270773146,6.631203269000026],[125.27021635200003,6.630375217000052],[125.27013069200008,6.629975467000064],[125.27074459300003,6.62894754000007],[125.27116800899998,6.62858777100007],[125.27137648300004,6.628170825000041],[125.27161442900002,6.626951351000058],[125.27158468500011,6.62635648600002],[125.27155494200008,6.625553418000037],[125.27200109100012,6.623977025000044],[125.27193955100006,6.623566756000058],[125.27173340200011,6.623144213000045],[125.27028778600003,6.622990160000029],[125.2698363620001,6.622527206000029],[125.2706031580001,6.621121671000024],[125.2707518740001,6.620021171000076],[125.27066264400003,6.619664252000064],[125.26994880600013,6.619039643000065],[125.26855087300008,6.618652981000025],[125.26792626400004,6.618593494000039],[125.26753642500012,6.618470387000059],[125.26710302900005,6.618438284000035],[125.26671392900005,6.618473331000075],[125.26627013900008,6.617282068000064],[125.26677103600004,6.616931441000076],[125.2670569620001,6.616788478000047],[125.26687187800007,6.615514698000027],[125.26619996500007,6.615446657000064],[125.26505782400011,6.616360370000051],[125.26482939600011,6.618587545000024],[125.26502463100007,6.619542900000055],[125.26774719600007,6.620566530000077],[125.2679613470001,6.62078068200003],[125.26831826600005,6.62145169000007],[125.26830399000006,6.622865089000072],[125.26903210500006,6.623721695000028],[125.26933191700004,6.624663962000056],[125.26936047000004,6.626462834000052],[125.26941757700003,6.626762646000033],[125.26947468400012,6.627904788000023],[125.26790424000001,6.629303911000021],[125.26764725800001,6.631216998000071],[125.26780430300006,6.6319736660000235],[125.2690313810001,6.633073526000032],[125.2693169160001,6.633573212000045],[125.26907540100001,6.635838162000027],[125.26949119800008,6.637635699000043],[125.27035079200006,6.6383128010000405],[125.2705411490001,6.638503158000048],[125.2706172920001,6.638693515000057],[125.27019850700002,6.639454943000029],[125.26925951400007,6.638527870000076],[125.26907823500005,6.63821710600007],[125.26823426700001,6.637986621000038],[125.26716695800008,6.638795192000032],[125.26699183000005,6.639097686000072],[125.26683954400005,6.639249972000073],[125.26661111600005,6.639611650000062],[125.2658783820001,6.639869264000025],[125.26571643900003,6.639897185000052],[125.26487886900007,6.639706828000043],[125.2633843550001,6.638538285000039],[125.26284104500007,6.638538285000038],[125.26251981700011,6.638609669000061],[125.26216289800004,6.638788128000043],[125.26141132600004,6.639161511000054],[125.26134186500006,6.639221049000072],[125.2611328380001,6.639400214000033],[125.2609659100001,6.639504544000033],[125.26065182100001,6.639647312000022],[125.26033773300003,6.639704419000054],[125.2601806880001,6.639704419000053],[125.25911825900005,6.640319272000056],[125.25784524100004,6.6402315720000615],[125.25717542900009,6.64137979800006],[125.25621843200008,6.641693889000066],[125.25429106800004,6.64096577400005],[125.25370572100009,6.640009231000022],[125.25332024800002,6.6398664630000335],[125.25234942800012,6.639466713000047],[125.2513500550001,6.638181805000044],[125.25089319800007,6.638110421000023],[125.25050772600002,6.638167528000054],[125.24999376200003,6.638281742000059],[125.24906577200012,6.6375536270000435],[125.24826627300001,6.637467966000032],[125.2475809880001,6.6379676530000316],[125.24548348600003,6.637909146000027],[125.24418905800007,6.637616472000045],[125.24309450600003,6.63818754300007],[125.24047868600007,6.6379805290000595],[125.24014556100009,6.638028119000069],[125.2390272140001,6.638099502000045],[125.23861636600009,6.638023419000036],[125.23662378900008,6.638010939000026],[125.23517707600003,6.636088335000066],[125.23331157900009,6.636088335000065],[125.23274050800002,6.6354982290000635],[125.2325882230001,6.63526980000006],[125.23234075900008,6.635022336000077],[125.23205522400008,6.635022336000077],[125.2306656180001,6.635688585000024],[125.2303610470001,6.635707621000051],[125.23013261900007,6.635669550000046],[125.22959962000004,6.635593407000044],[125.22878108500002,6.6353649790000295],[125.22751820200006,6.635693589000027],[125.22686466700009,6.634890831000064],[125.2252942230001,6.635138295000046],[125.22291476200009,6.634253136000042],[125.22169647800003,6.634862278000071],[125.22044012300012,6.634738546000051],[125.22003085500013,6.635652259000039],[125.21922183800008,6.635281063000035],[125.2185936610001,6.634043743000064],[125.2182890900001,6.63265413800002],[125.21820342900003,6.632501853000063],[125.21812077100003,6.632391642000072],[125.21809201700013,6.632301374000064],[125.21794924900009,6.63102598200004],[125.21779771668083,6.630668800058479],[125.21770671278648,6.631039095090715],[125.2175614876531,6.632049140296628],[125.21757809500002,6.632076819000078]]],[[[125.26284594800006,6.675138914000059],[125.26154200300003,6.67628105600005],[125.261009004,6.677109108000025],[125.26132305700003,6.677929431000052],[125.26129112500008,6.677727010000068],[125.26154810700008,6.6764456710000655],[125.26268311000001,6.675439159000065],[125.26284594800006,6.675138914000059]]],[[[125.2613932910001,6.6817053980000765],[125.26152416200011,6.681491246000064],[125.26163123700009,6.68133658100004],[125.26171451800008,6.680872586000021],[125.26170262100005,6.680753613000035],[125.26209523200009,6.679349731000057],[125.26203574600004,6.679171272000077],[125.26191220900013,6.679072043000076],[125.26133693200006,6.681482267000034],[125.26070834700012,6.6820815720000715],[125.26097688600011,6.682026625000048],[125.26116724200007,6.681931447000067],[125.2612624210001,6.681860063000044],[125.2613932910001,6.6817053980000765]]],[[[125.2565745356868,6.682341981129932],[125.2565813299555,6.6823444861982475],[125.25657896400001,6.682343162000051],[125.2565745356868,6.682341981129932]]],[[[125.29164413600006,6.672271812000076],[125.28985954000007,6.672057660000064],[125.28749883900002,6.672305057000073],[125.2850770550001,6.671851626000035],[125.28450598500002,6.671965840000041],[125.28330673600011,6.671994394000023],[125.28263572800007,6.6702669050000605],[125.28173928400007,6.669358627000064],[125.27967196900012,6.668392888000027],[125.27748762400005,6.666508355000075],[125.27657391100003,6.6655375350000545],[125.2751034040001,6.665337660000033],[125.27477503800004,6.665337660000033],[125.27315795600009,6.665218211000023],[125.2705881380001,6.665360979000068],[125.26889297600009,6.665752033000046],[125.26840873000003,6.665795339000055],[125.26666911900007,6.6662175490000655],[125.26640272100009,6.666382888000043],[125.26589776900006,6.66752759700006],[125.26542663600003,6.669626282000025],[125.26467051400004,6.67183307700003],[125.2640394560001,6.672917151000035],[125.26392757300006,6.6738557270000465],[125.2643273220001,6.673608263000062],[125.26503164300003,6.672313837000046],[125.26617378400012,6.669230055000071],[125.266630641,6.667307451000055],[125.26744917500002,6.666565059000049],[125.26957982400008,6.666097296000031],[125.27024607300007,6.665978323000046],[125.27169754400008,6.666097296000032],[125.27236500100003,6.666218894000053],[125.27383074900001,6.666295036000065],[125.2752774610001,6.66671382100003],[125.27657188800002,6.667913070000052],[125.27729524400003,6.668522212000026],[125.27784727900007,6.668826783000044],[125.27996024100003,6.670730352000019],[125.28046942700007,6.671066801000052],[125.28120671500004,6.671389484000029],[125.28214766100005,6.6723731250000355],[125.28236181300007,6.674329042000067],[125.28254741100012,6.674614577000057],[125.28343257000006,6.67484300500007],[125.28391798000008,6.674100613000063],[125.28521716600005,6.673686587000021],[125.28677333300004,6.6741148900000535],[125.287440585,6.674541432000069],[125.28775930200004,6.67473519400005],[125.28833314200006,6.675164150000057],[125.28914718429091,6.675782686159444],[125.29091409289278,6.6744597143748665],[125.29330602951657,6.67227181389359],[125.29164413600006,6.672271812000076]]],[[[125.25667691800004,6.6831038430000245],[125.258018934,6.68351786900007],[125.25876291200007,6.683400879000033],[125.26019657200004,6.682564848000026],[125.26032763300009,6.682329036000055],[125.26016583000013,6.682433733000039],[125.2584716540001,6.68313805300005],[125.25681554900007,6.682900107000021],[125.25601800700007,6.683105578000037],[125.2559461530001,6.6839021730000345],[125.2554956328472,6.6843150672534435],[125.25572286612952,6.684347703760208],[125.25667691800004,6.6831038430000245]]],[[[125.2538504600001,6.682606461000034],[125.25538581400009,6.682213442000034],[125.25641374100007,6.68229910300005],[125.2565745356868,6.682341981129932],[125.25554939500012,6.6819640070000315],[125.25451440500001,6.682066063000035],[125.25353929500011,6.68265036100007],[125.25329663800005,6.683560519000023],[125.2530382573705,6.683918884258447],[125.25346233780996,6.684023029021197],[125.25363704243847,6.684048121869236],[125.2538504600001,6.682606461000034]]]]}},{"type":"Feature","properties":{"fid":239,"objectid":9214,"lccode":"05","liqcode":null,"mappers":"DJLBuhay, BDBBrusas, CJMLegaspi, MITAbigania, JKAMarquez, HALVidal, MITAbigania","project":"LiquePhi Project","province":"Davao del Sur","otherinfo":null,"datemapped":2024,"publishdate":null,"globalid":"{F02B3348-FBC1-4E78-9026-FFF928AFF07F}","st_area(shape)":0.02374253236126774,"st_perimeter(shape)":7.103624433553948,"liqcodepk":null,"creator":"SDE","createdate":"2024-07-12T08:00:00","editor":null,"modifydate":null,"codemove":null},"geometry":{"type":"MultiPolygon","coordinates":[[[[125.26129112500008,6.677727010000068],[125.26236384600008,6.676415392000023],[125.26268311000001,6.675439159000065],[125.26154810700008,6.6764456710000655],[125.26129112500008,6.677727010000068]]],[[[125.25679540789508,6.679280422675852],[125.25678713100001,6.679125409000052],[125.25611556559448,6.6790776029551004],[125.25679540789508,6.679280422675852]]],[[[125.2612624210001,6.681860063000044],[125.26116724200007,6.681931447000067],[125.26097688600011,6.682026625000048],[125.26228118700011,6.681538598000031],[125.26272638400008,6.680104021000034],[125.26203574600004,6.679171272000077],[125.26209523200009,6.679349731000057],[125.26170262100005,6.680753613000035],[125.26171451800008,6.680872586000021],[125.26163123700009,6.68133658100004],[125.26152416200011,6.681491246000064],[125.2613932910001,6.6817053980000765],[125.2612624210001,6.681860063000044]]],[[[125.25867221900013,6.681764607000049],[125.25938379700005,6.6809262430000445],[125.25899356500008,6.679907834000061],[125.25750628300011,6.679980011000053],[125.25717315800013,6.67944463200007],[125.25717409100004,6.679393396000021],[125.25679540789508,6.679280422675852],[125.25696660200003,6.682486537000045],[125.25712840500012,6.682505572000026],[125.25769307100006,6.682290468000077],[125.25777159300003,6.68225447800006],[125.25851755400004,6.681871682000063],[125.25867221900013,6.681764607000049]]],[[[125.2592010300001,6.684137944000044],[125.26021289600011,6.683387596000046],[125.26019657200004,6.682564848000026],[125.25876291200007,6.683400879000033],[125.258018934,6.68351786900007],[125.25667691800004,6.6831038430000245],[125.25572286612952,6.684347703760208],[125.25785341147157,6.684653698948017],[125.25880612664636,6.6846961114953265],[125.2592010300001,6.684137944000044]]],[[[125.28833314200006,6.675164150000057],[125.28775930200004,6.67473519400005],[125.287440585,6.674541432000069],[125.28677333300004,6.6741148900000535],[125.28521716600005,6.673686587000021],[125.28391798000008,6.674100613000063],[125.28343257000006,6.67484300500007],[125.28254741100012,6.674614577000057],[125.28236181300007,6.674329042000067],[125.28214766100005,6.6723731250000355],[125.28120671500004,6.671389484000029],[125.28046942700007,6.671066801000052],[125.27996024100003,6.670730352000019],[125.27784727900007,6.668826783000044],[125.27729524400003,6.668522212000026],[125.27657188800002,6.667913070000052],[125.2752774610001,6.66671382100003],[125.27383074900001,6.666295036000065],[125.27236500100003,6.666218894000053],[125.27169754400008,6.666097296000032],[125.27024607300007,6.665978323000046],[125.26957982400008,6.666097296000031],[125.26744917500002,6.666565059000049],[125.266630641,6.667307451000055],[125.26617378400012,6.669230055000071],[125.26503164300003,6.672313837000046],[125.2643273220001,6.673608263000062],[125.26392757300006,6.6738557270000465],[125.26472707200003,6.673417906000053],[125.26562174900005,6.672275765000052],[125.26706846200013,6.669667876000061],[125.26750628200013,6.667954664000035],[125.2683819240001,6.667117094000048],[125.26987487700002,6.6674071900000635],[125.27108840200002,6.667307252000058],[125.27184507100004,6.666850396000029],[125.27312998000002,6.667378636000022],[125.27342979200012,6.6690775710000585],[125.27400086300008,6.669805686000074],[125.27567124400002,6.670876444000042],[125.27611382400006,6.672075692000022],[125.27608527000007,6.673032236000041],[125.2772416890001,6.674231484000074],[125.27861225800005,6.673945949000028],[125.2799822630001,6.6755710240000194],[125.28074369,6.6754377750000335],[125.28123861900009,6.676275345000022],[125.28059140500012,6.678064699000061],[125.28116247600009,6.678369270000076],[125.28129572600005,6.679606590000049],[125.28293118775878,6.679721359808186],[125.28356914396574,6.679416056888224],[125.28378502514747,6.679285321877644],[125.28442672000007,6.678333418000022],[125.28473605000012,6.677357839000024],[125.2856878340001,6.676953330000059],[125.28613245235226,6.677863739671425],[125.28736340608855,6.677118277893806],[125.28914718429091,6.675782686159444],[125.28833314200006,6.675164150000057]]],[[[125.30227465000006,6.63932405500003],[125.30330257700007,6.641779659000065],[125.30444471900012,6.642407837000064],[125.30610082400005,6.64212230100003],[125.30717199711295,6.6418072514121365],[125.30721223886597,6.640902162012777],[125.30526920200009,6.641412032000062],[125.3044363910001,6.6412038290000615],[125.30375229500011,6.639508464000072],[125.3028005110001,6.638140273000032],[125.30137283400006,6.637366949000068],[125.30193795600007,6.636177218000056],[125.30464459300003,6.633678784000039],[125.30631021600004,6.633143405000054],[125.30674412403671,6.633095194542893],[125.30654628680105,6.63180304806892],[125.30592950200003,6.631957244000033],[125.30484446800006,6.632299886000054],[125.30295993500012,6.633384921000072],[125.30056143800006,6.635669203000019],[125.29987615400013,6.637096880000058],[125.30004747500004,6.638010593000048],[125.30181779400006,6.638810092000028],[125.30227465000006,6.63932405500003]]],[[[125.29932713500013,6.661884128000054],[125.29906063500005,6.661884128000054],[125.29789872400012,6.662300206000054],[125.29766077800004,6.662728509000033],[125.29737524300005,6.664156186000071],[125.29785113500009,6.6655600680000475],[125.29799390300003,6.665798014000075],[125.29849759748188,6.666332235865903],[125.29914403608542,6.665452209385277],[125.29856862800011,6.6648172750000745],[125.29825703500002,6.66394034600006],[125.29869949800002,6.662996987000043],[125.29982974200006,6.662806630000035],[125.30026994200011,6.663270625000051],[125.30026768267166,6.663763094886772],[125.3014206907455,6.66181921207329],[125.29932713500013,6.661884128000054]]],[[[125.25411328900009,6.67721216600006],[125.25413597300007,6.677047706000052],[125.25407640700007,6.675694665000037],[125.2533744660001,6.675099800000054],[125.25216094100007,6.675052211000037],[125.25103315400007,6.675628713000037],[125.25067972700003,6.678147295000032],[125.25035263000007,6.678782571000056],[125.25031030000002,6.678824901000039],[125.25007698000003,6.679091735000043],[125.24992231500003,6.679246400000066],[125.2494642690001,6.679531936000045],[125.2493852660001,6.679547129000073],[125.24898170900008,6.679781011000045],[125.24849629900008,6.679819082000051],[125.24756636100004,6.67951706100007],[125.24723799500008,6.679302910000047],[125.24693818300011,6.679088758000035],[125.24648132600008,6.678681870000049],[125.24638138900002,6.678560518000042],[125.2454750190001,6.676954205000071],[125.24465410500011,6.676656772000058],[125.24389267800008,6.677822708000065],[125.2438797220001,6.677919878000067],[125.24388792600007,6.678454352000073],[125.2438450950001,6.678582843000073],[125.24345461800011,6.679570190000048],[125.24335317100008,6.679647640000043],[125.24202675987537,6.680114203395834],[125.24497062396453,6.681489906353982],[125.24915424145314,6.682965035403104],[125.2530382573705,6.683918884258447],[125.25329663800005,6.683560519000023],[125.25148146800007,6.683321569000044],[125.251081719,6.682793328000058],[125.25006806800002,6.680280618000039],[125.25043806200006,6.678873671000076],[125.25227753500008,6.678569054000035],[125.25347678300012,6.678811759000041],[125.25437957400005,6.677782020000051],[125.25573421900005,6.679050456000026],[125.25611556559448,6.6790776029551004],[125.25570332100006,6.678954616000053],[125.25440961100003,6.677664224000068],[125.25440511400006,6.6776619760000235],[125.25433172200007,6.677597218000074],[125.25418816200012,6.677471269000022],[125.25413080600002,6.677375676000052],[125.25411328900009,6.67721216600006]]],[[[125.2390915400001,6.678067677000058],[125.2397885370001,6.67831420400006],[125.24153149200005,6.678379639000069],[125.24211177000007,6.677865538000046],[125.24201220000009,6.676249939000058],[125.24261258500007,6.67512571700007],[125.24486604600008,6.674503456000025],[125.24613905800003,6.674817545000053],[125.24700438800005,6.6755186670000635],[125.24780291900004,6.677304301000049],[125.24848820300006,6.6779610320000415],[125.24924011300004,6.677323337000074],[125.24929528500002,6.675243622000039],[125.25008590400013,6.674403749000021],[125.25217337100004,6.673494565000055],[125.25432083500006,6.6735852220000424],[125.2555462570001,6.674215780000055],[125.25592102200005,6.674852285000042],[125.25608588500006,6.676227274000041],[125.25747723500001,6.6768098240000295],[125.25830636700005,6.675991679000047],[125.25847376000002,6.674798791000057],[125.25890206300005,6.674418077000041],[125.25914000900003,6.67432289900006],[125.26170982700013,6.673847006000072],[125.26361339600011,6.670230226000057],[125.26356580700008,6.668612192000067],[125.26482692100001,6.665518893000067],[125.26584784800004,6.664426582000033],[125.26594087600007,6.664383646000034],[125.26617882200003,6.664240879000032],[125.26903417500012,6.662503872000058],[125.27096153800007,6.661932801000034],[125.27267475000009,6.662099364000028],[125.27386448100002,6.661361731000055],[125.27462590800008,6.659458162000021],[125.27469729200006,6.6578401290000215],[125.27448314000004,6.655484462000062],[125.27474488100006,6.654865802000075],[125.2750066220001,6.6546278560000465],[125.275268363,6.654366115000073],[125.27576804900004,6.653937812000038],[125.27598356900013,6.653475990000059],[125.276011024,6.653397847000065],[125.27603957800012,6.6525697950000335],[125.27554327000006,6.650677951000033],[125.27482943100004,6.6490004310000455],[125.2734731390001,6.647715522000055],[125.27183131100004,6.646680456000069],[125.27104608800005,6.646394921000025],[125.27004671500003,6.646180770000056],[125.26633475600012,6.645930926000061],[125.26529968999999,6.6460023100000285],[125.26297971600003,6.646430613000064],[125.26023143800013,6.646751840000034],[125.25655517100006,6.646751840000037],[125.25309305500002,6.64578815900006],[125.24856018200012,6.643468184000026],[125.24670420200005,6.642718654000021],[125.24495529900003,6.642504502000064],[125.24088642000004,6.642218967000075],[125.23806675900005,6.642504502000066],[125.23631785500002,6.642397427000049],[125.23321265800007,6.641398053000045],[125.23167790600007,6.640006068000046],[125.2308213000001,6.639577765000069],[125.22942931500005,6.639399306000031],[125.22768041200005,6.639720533000059],[125.22557458900008,6.639827609000064],[125.22386137700005,6.639577765000069],[125.22068479600013,6.639791917000024],[125.21947127100009,6.639613457000053],[125.21825774600006,6.638792543000022],[125.21700083417605,6.637101194653221],[125.21687764789328,6.639860363927136],[125.21704369551101,6.642957015403682],[125.21789599500003,6.643518424000036],[125.2200660640001,6.644489244000056],[125.22366380900006,6.644660565000038],[125.22811816000001,6.644146602000033],[125.23005980000006,6.64426081600004],[125.23348622400009,6.644831887000067],[125.23742661100005,6.645974028000068],[125.23999642900004,6.646316670000033],[125.24205228300002,6.646887741000058],[125.24502185100005,6.6473445970000276],[125.247877204,6.648086989000036],[125.24889334700003,6.648572971000021],[125.25012734600011,6.649809999000069],[125.25107913100008,6.652070487000059],[125.25151258200003,6.654954420000024],[125.25151258200003,6.656382096000072],[125.25073416100008,6.657458325000051],[125.25084633300004,6.658571200000039],[125.24868535000009,6.661711844000024],[125.24759771600009,6.662656330000061],[125.24595588800004,6.662132848000056],[125.2450827250001,6.660382656000023],[125.24411190500005,6.6593547280000385],[125.241840593,6.6574173340000575],[125.24068548100003,6.655185913000025],[125.23936177500002,6.65425770500002],[125.237496501,6.653464609000023],[125.23463213200012,6.653130059000034],[125.23303313500003,6.6524447740000605],[125.23093518500002,6.650187033000065],[125.23016548800003,6.6496980830000325],[125.22960036600011,6.650263205000044],[125.22979650700006,6.651409005000063],[125.23062450500005,6.6529306940000765],[125.2320319580001,6.654119121000064],[125.23428949000002,6.655300127000031],[125.23576439000011,6.655791760000055],[125.23804745200006,6.655854938000063],[125.23939441800006,6.656587235000076],[125.23962384500011,6.657996453000066],[125.23870180400003,6.657877480000024],[125.23605980900005,6.65672780400007],[125.23401341600005,6.656672453000054],[125.23218336100001,6.657152430000053],[125.23130296000011,6.658151804000054],[125.23102736200008,6.6597118160000255],[125.23216934000004,6.65998290600004],[125.235374524,6.6589549790000415],[125.23657377300003,6.659012086000074],[125.23971466100011,6.659583157000042],[125.2412894680001,6.659632332000059],[125.2434607260001,6.660673346000065],[125.243371496,6.661535901000036],[125.24151749900011,6.662323106000031],[125.2412565520001,6.663009581000039],[125.24257426800013,6.663595339000041],[125.24432328100012,6.663023064000072],[125.24518583500004,6.66302306400007],[125.24526044900006,6.6639513980000515],[125.2438137370001,6.665093539000053],[125.24316357400005,6.665205214000024],[125.24211315800007,6.664722793000067],[125.23891516200001,6.66460857800007],[125.23578696400011,6.662725632000048],[125.23510435600006,6.6630260390000435],[125.23584645100004,6.664123565000067],[125.23567812800003,6.66486487900005],[125.23427998600003,6.664735820000033],[125.23169780400009,6.664037508000035],[125.23101133000013,6.664905344000032],[125.23194810000007,6.665465184000027],[125.23520320300008,6.666378897000072],[125.23708773600002,6.666321790000039],[125.23848379900005,6.665972775000057],[125.23831019400008,6.666884810000056],[125.23457082000004,6.667898688000036],[125.23184048600002,6.668987249000054],[125.22947084400005,6.670703500000058],[125.22929907200471,6.670707831167926],[125.23026094475334,6.671759318606018],[125.23356135277542,6.674723010005223],[125.2371364461252,6.677348951255259],[125.23812064490373,6.67793268993338],[125.2390915400001,6.678067677000058]]],[[[125.21794924900009,6.63102598200004],[125.21809201700013,6.632301374000064],[125.21812077100003,6.632391642000072],[125.21820342900003,6.632501853000063],[125.2182890900001,6.63265413800002],[125.2185936610001,6.634043743000064],[125.21922183800008,6.635281063000035],[125.22003085500013,6.635652259000039],[125.22044012300012,6.634738546000051],[125.22169647800003,6.634862278000071],[125.22291476200009,6.634253136000042],[125.2252942230001,6.635138295000046],[125.22686466700009,6.634890831000064],[125.22751820200006,6.635693589000027],[125.22878108500002,6.6353649790000295],[125.22959962000004,6.635593407000044],[125.23013261900007,6.635669550000046],[125.2303610470001,6.635707621000051],[125.2306656180001,6.635688585000024],[125.23205522400008,6.635022336000077],[125.23234075900008,6.635022336000077],[125.2325882230001,6.63526980000006],[125.23274050800002,6.6354982290000635],[125.23331157900009,6.636088335000065],[125.23517707600003,6.636088335000066],[125.23662378900008,6.638010939000026],[125.23861636600009,6.638023419000036],[125.2390272140001,6.638099502000045],[125.24014556100009,6.638028119000069],[125.24047868600007,6.6379805290000595],[125.24309450600003,6.63818754300007],[125.24418905800007,6.637616472000045],[125.24548348600003,6.637909146000027],[125.2475809880001,6.6379676530000316],[125.24826627300001,6.637467966000032],[125.24906577200012,6.6375536270000435],[125.24999376200003,6.638281742000059],[125.25050772600002,6.638167528000054],[125.25089319800007,6.638110421000023],[125.2513500550001,6.638181805000044],[125.25234942800012,6.639466713000047],[125.25332024800002,6.6398664630000335],[125.25370572100009,6.640009231000022],[125.25429106800004,6.64096577400005],[125.25621843200008,6.641693889000066],[125.25717542900009,6.64137979800006],[125.25784524100004,6.6402315720000615],[125.25911825900005,6.640319272000056],[125.2601806880001,6.639704419000053],[125.26033773300003,6.639704419000054],[125.26065182100001,6.639647312000022],[125.2609659100001,6.639504544000033],[125.2611328380001,6.639400214000033],[125.26134186500006,6.639221049000072],[125.26141132600004,6.639161511000054],[125.26216289800004,6.638788128000043],[125.26251981700011,6.638609669000061],[125.26284104500007,6.638538285000038],[125.2633843550001,6.638538285000039],[125.26487886900007,6.639706828000043],[125.26571643900003,6.639897185000052],[125.2658783820001,6.639869264000025],[125.26661111600005,6.639611650000062],[125.26683954400005,6.639249972000073],[125.26699183000005,6.639097686000072],[125.26716695800008,6.638795192000032],[125.26823426700001,6.637986621000038],[125.26907823500005,6.63821710600007],[125.26925951400007,6.638527870000076],[125.27019850700002,6.639454943000029],[125.2706172920001,6.638693515000057],[125.2705411490001,6.638503158000048],[125.27035079200006,6.6383128010000405],[125.26949119800008,6.637635699000043],[125.26907540100001,6.635838162000027],[125.2693169160001,6.633573212000045],[125.2690313810001,6.633073526000032],[125.26780430300006,6.6319736660000235],[125.26764725800001,6.631216998000071],[125.26790424000001,6.629303911000021],[125.26947468400012,6.627904788000023],[125.26941757700003,6.626762646000033],[125.26936047000004,6.626462834000052],[125.26933191700004,6.624663962000056],[125.26903210500006,6.623721695000028],[125.26830399000006,6.622865089000072],[125.26831826600005,6.62145169000007],[125.2679613470001,6.62078068200003],[125.26774719600007,6.620566530000077],[125.26502463100007,6.619542900000055],[125.26482939600011,6.618587545000024],[125.26505782400011,6.616360370000051],[125.26619996500007,6.615446657000064],[125.26687187800007,6.615514698000027],[125.2670569620001,6.616788478000047],[125.26677103600004,6.616931441000076],[125.26627013900008,6.617282068000064],[125.26671392900005,6.618473331000075],[125.26710302900005,6.618438284000035],[125.26753642500012,6.618470387000059],[125.26792626400004,6.618593494000039],[125.26855087300008,6.618652981000025],[125.26994880600013,6.619039643000065],[125.27066264400003,6.619664252000064],[125.2707518740001,6.620021171000076],[125.2706031580001,6.621121671000024],[125.2698363620001,6.622527206000029],[125.27028778600003,6.622990160000029],[125.27173340200011,6.623144213000045],[125.27193955100006,6.623566756000058],[125.27200109100012,6.623977025000044],[125.27155494200008,6.625553418000037],[125.27158468500011,6.62635648600002],[125.27161442900002,6.626951351000058],[125.27137648300004,6.628170825000041],[125.27116800899998,6.62858777100007],[125.27074459300003,6.62894754000007],[125.27013069200008,6.629975467000064],[125.27021635200003,6.630375217000052],[125.270773146,6.631203269000026],[125.27205474200002,6.631250319000059],[125.27217226900008,6.63130320700003],[125.27247698300006,6.632751287000074],[125.27245077200007,6.633223086000044],[125.27197239500003,6.634558309000055],[125.27201522500002,6.636871145000045],[125.2730859820001,6.637542153000025],[125.27330013400001,6.637570707000064],[125.2743423380001,6.638313099000071],[125.27611718700005,6.638596313000048],[125.27844897300008,6.638278329000059],[125.28002934300002,6.638502231000075],[125.28102204900007,6.638785861000031],[125.28192624400005,6.639071397000065],[125.28341401800004,6.63947715300003],[125.28379765500007,6.639586171000076],[125.28639983800008,6.639644965000057],[125.28830340700006,6.638871640000047],[125.28967159700005,6.637681910000025],[125.29114840800003,6.636803364000059],[125.29620857200007,6.636300038000059],[125.29745243500008,6.635885417000054],[125.2989514950001,6.634886043000052],[125.30037917200004,6.633815286000073],[125.30245604900007,6.632650208000029],[125.30610186495309,6.6295952301424235],[125.30526968634868,6.626337554296496],[125.30375605354666,6.622168648818155],[125.30291655457022,6.620414882772784],[125.3028574550001,6.621318021000036],[125.30185318600003,6.623446330000035],[125.30080509200003,6.624369507000039],[125.29963729000008,6.62500310200005],[125.29741414700004,6.625252487000068],[125.29619945800005,6.626358183000037],[125.29587012300011,6.627555469000072],[125.29583797600004,6.630965376000063],[125.29558236800005,6.632018278000033],[125.29479714600006,6.6329462670000225],[125.29315531800013,6.6332555970000735],[125.29170384600002,6.633921846000019],[125.29027617000008,6.636301307000053],[125.28918161800006,6.637134119000051],[125.28796809300003,6.63746724300006],[125.28656421100006,6.638371438000036],[125.28508894500011,6.638704563000033],[125.28463684700012,6.639275634000056],[125.28185287800012,6.638585590000047],[125.28053786700002,6.637623198000028],[125.27980654100007,6.636372691000076],[125.27885475700009,6.637086529000042],[125.27621355500003,6.635563674000025],[125.27503427700003,6.634059833000039],[125.27515972800008,6.632706588000075],[125.27474148500005,6.632161555000039],[125.27498755300009,6.631036810000068],[125.27368427000012,6.630068313000038],[125.2733172930001,6.629286611000055],[125.27404290000005,6.628434296000023],[125.27314050600012,6.62723065800003],[125.27388687000007,6.625684691000061],[125.27376227600007,6.624585132000051],[125.27315168500002,6.6244324590000465],[125.27272666200008,6.6230114020000315],[125.27204002700013,6.621914398000058],[125.27323692800007,6.619775366000056],[125.27279257600001,6.618420005000075],[125.2714132530001,6.616879775000028],[125.27055664700003,6.61497620600005],[125.27032544600003,6.613638872000025],[125.26937366200002,6.611765046000074],[125.26979006800003,6.611080951000076],[125.2712025300001,6.609788251000055],[125.27168768800006,6.610890594000068],[125.27443596500007,6.612580012000025],[125.27559672900009,6.611272712000074],[125.2753444560001,6.610736917000053],[125.27310392100004,6.610815634000062],[125.27239008200002,6.610565791000055],[125.27199747100008,6.609661595000034],[125.272806488,6.607758027000045],[125.27233059600006,6.607198853000058],[125.27108704800003,6.607018999000046],[125.26999872400006,6.606021020000071],[125.27024894400006,6.605422709000038],[125.27168304900012,6.604325020000032],[125.27052663100005,6.603511244000059],[125.2706836760001,6.602668915000038],[125.27045841100005,6.60110774800006],[125.27064861800011,6.60045443000007],[125.27150481400008,6.59983068300005],[125.2717669650001,6.598693629000025],[125.27271874900009,6.597563385000058],[125.27171078800006,6.5967083600000365],[125.2714739290862,6.595481003939118],[125.27069341412317,6.595289271419883],[125.26799850570907,6.594902050850672],[125.26719998600002,6.595301310000023],[125.26554388100008,6.594787347000022],[125.26476341800002,6.594863489000032],[125.26448437700004,6.59577488800005],[125.26270791200012,6.5967747500000655],[125.260997513,6.598283912000057],[125.26210114900003,6.599023340000028],[125.26322152700003,6.60116430200003],[125.26632606800003,6.603088331000037],[125.2690845190001,6.60356279900003],[125.2703408750001,6.604267119000042],[125.26946334500006,6.6054142570000645],[125.2689755560001,6.606750786000022],[125.26949858400009,6.607892474000038],[125.27085487600003,6.609129793000021],[125.26979311700008,6.6098932880000225],[125.26894314300012,6.611538908000057],[125.26737269800003,6.611931519000051],[125.26726562300007,6.613002276000032],[125.26763035400008,6.613962980000053],[125.26667857000007,6.614938559000052],[125.26615508800013,6.614962354000056],[125.26541745600004,6.613962980000053],[125.26580225400005,6.612506735000067],[125.26583794600003,6.611039221000055],[125.26555989200006,6.610341918000074],[125.263740288,6.610486086000036],[125.262288817,6.609986399000035],[125.26083734600002,6.610129167000024],[125.2590765440001,6.6107954160000295],[125.25864824100006,6.612151709000044],[125.25815585600003,6.612560093000071],[125.2551164350001,6.61263389100003],[125.25414051600002,6.611905741000044],[125.25286755500008,6.612158541000043],[125.2516123380001,6.610359092000067],[125.25060106700005,6.610002173000055],[125.2483211430001,6.608799190000071],[125.2479676790001,6.608228787000029],[125.24664521400007,6.607711941000047],[125.2459738130001,6.60582094600005],[125.24531949300001,6.605252295000072],[125.24339204100009,6.604929034000065],[125.24263657300004,6.603950782000027],[125.24139924200007,6.603590587000041],[125.23978858800001,6.603446201000052],[125.23797543900004,6.603660353000066],[125.23748367846274,6.601775276409603],[125.23698339122922,6.6020781921332405],[125.237142628,6.603374817000032],[125.23814051400008,6.6054086610000695],[125.23734339500002,6.60605111600006],[125.23867589300006,6.607395511000051],[125.23848553600011,6.608299707000073],[125.2391517850001,6.608656626000027],[125.23919937400001,6.609489437000037],[125.23829517900003,6.6098939460000565],[125.23929455300005,6.610691065000024],[125.23889004400009,6.6117023360000635],[125.23749806,6.611488184000051],[125.23764082700006,6.612701710000066],[125.2373191260001,6.614381639000044],[125.23622222400002,6.614832413000045],[125.23487823400002,6.611819678000074],[125.23411711900009,6.610506411000075],[125.23348569400002,6.6110235100000505],[125.23497285700012,6.614057323000055],[125.23517087300003,6.616248881000046],[125.23609272700003,6.617535758000029],[125.23607550000008,6.618889055000068],[125.23555696000005,6.620645994000029],[125.23510675800003,6.621093902000042],[125.23394558100006,6.620770295000057],[125.23287958200001,6.619304547000069],[125.23261308300006,6.619989832000044],[125.23322222500009,6.62094161600004],[125.23377508500006,6.623165138000045],[125.23428822300002,6.624463219000063],[125.23369811700003,6.626671358000067],[125.23380027100006,6.628668514000026],[125.23408580600005,6.629858244000048],[125.233152989,6.630119198000044],[125.23260217000006,6.6292326320000265],[125.23167182200007,6.628827639000065],[125.23122924200003,6.627985310000041],[125.23074383200003,6.626129330000025],[125.2296159670001,6.624458949000029],[125.22938341700001,6.623019261000023],[125.22954046200006,6.62107762100004],[125.2288059220001,6.621486412000024],[125.22829195800013,6.62031571700004],[125.22760667400007,6.619744646000071],[125.22790648600007,6.618459738000069],[125.22666440700004,6.617517471000042],[125.22673579100002,6.6166608650000285],[125.22565075700005,6.615347403000042],[125.22428873315964,6.614875089006275],[125.22328294424335,6.616570209608133],[125.22428197200009,6.6168465340000475],[125.22559543400008,6.617017856000076],[125.22708021800008,6.618673960000024],[125.22656625400009,6.619302138000024],[125.22536700600006,6.61913081700004],[125.2249217750001,6.620455905000028],[125.22588097000006,6.6215864210000746],[125.22862210900007,6.623756489000072],[125.22896475100005,6.626212093000048],[125.23050664200001,6.6275826620000675],[125.23062085600009,6.628610589000061],[125.23143764500003,6.629706252000061],[125.23231231900002,6.6299911830000715],[125.23331562800001,6.631004010000024],[125.23319846300001,6.631634735000032],[125.23126676200003,6.631256247000067],[125.23077042800003,6.6324372680000465],[125.2288573410001,6.634179034000057],[125.22796266400007,6.6340267480000525],[125.22637246900001,6.634296008000034],[125.22538711400011,6.63381535700006],[125.22395943700008,6.632102145000033],[125.22315042100001,6.629579916000067],[125.22157997600006,6.627961883000069],[125.22049866500005,6.626418576000049],[125.21972399700007,6.62629626000006],[125.21948605100012,6.627390812000044],[125.22005712100007,6.628342597000026],[125.22210345800012,6.630436522000024],[125.22262693900007,6.631959377000042],[125.22334513400007,6.63307805900007],[125.22325648800006,6.633641939000028],[125.22131909500001,6.634356087000072],[125.21961527100008,6.632750127000065],[125.21852428500006,6.629576098000029],[125.21875271400008,6.627554745000054],[125.21865421016678,6.627183717591978],[125.21779771668083,6.630668800058479],[125.21794924900009,6.63102598200004]]],[[[125.22778806700002,6.668464443000063],[125.22666972000003,6.666941587000053],[125.22659833600007,6.665918419000035],[125.22590455800004,6.665549846000032],[125.22590312271961,6.66666497002142],[125.22726701190507,6.668486424354847],[125.22815299565215,6.66945496812441],[125.22778806700002,6.668464443000063]]],[[[125.27112310200003,6.681190445000027],[125.27033788000007,6.680262455000046],[125.26855752800007,6.680063195000058],[125.26770092200002,6.681276720000026],[125.26753436000003,6.68387985000004],[125.26780054754366,6.684446830852534],[125.27088710312724,6.6839745148831],[125.27112310200003,6.681190445000027]]]]}}]}