{"type":"FeatureCollection","features":[{"type":"Feature","properties":{"fid":96,"objectid":1951,"lccode":"01","liqcode":"2010600010000000","mappers":"DJLBuhay, MJVReyes, MITAbigania, KLPapiona, KMVitto","project":"MELP","province":"Occidental Mindoro","otherinfo":null,"datemapped":2018,"publishdate":null,"globalid":"{C5AA9548-05C4-42DC-9659-04CEB911292E}","st_area(shape)":0.08333386498474091,"st_perimeter(shape)":18.751147816133788,"liqcodepk":"201060001000000000550","creator":null,"createdate":"2019-06-04T13:29:47","editor":"SDE","modifydate":"2019-06-04T10:00:42","codemove":"na"},"geometry":{"type":"Polygon","coordinates":[[[121.04563227900007,12.35735165400007],[121.04027134000013,12.360341347000029],[121.0361022290001,12.364006841000048],[121.03128615700007,12.370561914000064],[121.02675354200004,12.378429236000047],[121.01656384400009,12.398171384000022],[121.0145275750001,12.401581128000032],[121.0117238260001,12.405182354000031],[121.00987833900001,12.40822588700007],[121.00752049700009,12.411154677000068],[121.00453404300002,12.413706483000054],[121.00241400700008,12.415087073000048],[121.00103991000005,12.415717147000066],[120.99863726,12.416024898000046],[120.99598305500001,12.41696180400004],[120.99193622600002,12.417699853000043],[120.99025969900003,12.417103542000065],[120.98958626300009,12.41735680700003],[120.98911450278673,12.417755173806887],[120.98955827409861,12.418695693451673],[120.99184858840387,12.422516493673621],[120.99450897169136,12.4260982363919],[120.99751381321411,12.429406418181049],[121.00083418074,12.432409169044062],[121.00443809894868,12.435077559739714],[121.00829085730501,12.437385880816931],[121.01235534444733,12.439311890652192],[121.01659240586609,12.440837030083946],[121.02096122141766,12.441946601559948],[121.02541969902094,12.442629911056004],[121.02992488072275,12.442880371384797],[121.03443335719446,12.4426955658873],[121.0389016866371,12.442077271883567],[121.04328681402778,12.44103144365016],[121.0442480397784,12.440701249724274],[121.04341729600003,12.440090333000056],[121.04229468100006,12.439723506000062],[121.03983941000001,12.439794969000047],[121.03832612200007,12.439455032000069],[121.03817232700011,12.438156143000073],[121.0394023560001,12.43625676100004],[121.04067560700003,12.435189872000024],[121.04191126800002,12.433284351000054],[121.04344856900003,12.432053335000033],[121.04539448200002,12.431658311000037],[121.04769797300003,12.431847608000053],[121.04941095100003,12.431582289000056],[121.04986359400006,12.430304647000066],[121.05087985600005,12.428574363000049],[121.05423545400004,12.427223458000071],[121.05539112200007,12.427231760000037],[121.05624000200011,12.427596564000053],[121.05788360300004,12.427429004000034],[121.06044533900001,12.426490813000042],[121.06239482900003,12.426086277000026],[121.06415340200012,12.426173412000027],[121.06459477700001,12.427097811000065],[121.0649459077534,12.427304295450693],[121.06559059734008,12.42661532251016],[121.06830474430586,12.423072520223112],[121.07065243506239,12.419285272237769],[121.07261106738274,12.415290062977112],[121.07416178993311,12.411125379027032],[121.07528968337922,12.406831338085377],[121.07598390348744,12.40244930224287],[121.07623778486519,12.398021479333966],[121.07604890436866,12.393590516208576],[121.07541910359747,12.389199087850669],[121.07435447029192,12.384889486306967],[121.07286527884582,12.380703213387665],[121.07096589053961,12.376680581061398],[121.06867461448688,12.372860323389716],[121.06601353066075,12.369279223731795],[121.06300827672968,12.365971760800688],[121.0596878007744,12.362969776968106],[121.05608408228231,12.360302171998722],[121.05223182411362,12.357994625148585],[121.04871417997221,12.356328062757392],[121.04563227900007,12.35735165400007]]]}},{"type":"Feature","properties":{"fid":99,"objectid":1955,"lccode":"01","liqcode":"2010600010000000","mappers":"DJLBuhay, MJVReyes, MITAbigania, KLPapiona, KMVitto","project":"MELP","province":"Palawan","otherinfo":null,"datemapped":2018,"publishdate":null,"globalid":"{E70402A7-ADA2-4D45-93BC-46C7B654BDC8}","st_area(shape)":0.142808258668549,"st_perimeter(shape)":79.69829854453282,"liqcodepk":"201060001000000000950","creator":"SDE","createdate":"2019-06-04T11:09:46","editor":"SDE","modifydate":"2019-06-04T11:12:34","codemove":"na"},"geometry":{"type":"Polygon","coordinates":[]}},{"type":"Feature","properties":{"fid":227,"objectid":9201,"lccode":"07","liqcode":null,"mappers":"DJLBuhay, CJMLegaspi, RPADizon, MITAbigania","project":"LiquePhi Project","province":"Oriental Mindoro","otherinfo":null,"datemapped":2022,"publishdate":null,"globalid":"{43411E98-449C-4927-9CA8-4F53CDD889D1}","st_area(shape)":0.06400129074299865,"st_perimeter(shape)":8.088152331944666,"liqcodepk":null,"creator":null,"createdate":null,"editor":null,"modifydate":null,"codemove":null},"geometry":{"type":"Polygon","coordinates":[]}},{"type":"Feature","properties":{"fid":228,"objectid":9202,"lccode":"06","liqcode":null,"mappers":"DJLBuhay, CJMLegaspi, RPADizon, MITAbigania","project":"LiquePhi Project","province":"Oriental Mindoro","otherinfo":null,"datemapped":2022,"publishdate":null,"globalid":"{35AEA128-650E-4E7B-9A04-0010CDA19259}","st_area(shape)":0.023290767215288475,"st_perimeter(shape)":8.742681464464527,"liqcodepk":null,"creator":null,"createdate":null,"editor":null,"modifydate":null,"codemove":null},"geometry":{"type":"Polygon","coordinates":[]}},{"type":"Feature","properties":{"fid":229,"objectid":9203,"lccode":"05","liqcode":null,"mappers":"DJLBuhay, CJMLegaspi, RPADizon, MITAbigania","project":"LiquePhi Project","province":"Oriental Mindoro","otherinfo":null,"datemapped":2022,"publishdate":null,"globalid":"{F3BDD761-0F01-4330-8A50-39E3D691BA6D}","st_area(shape)":0.020225090287084545,"st_perimeter(shape)":13.120620867054654,"liqcodepk":null,"creator":null,"createdate":null,"editor":null,"modifydate":null,"codemove":null},"geometry":{"type":"Polygon","coordinates":[]}}]}