{"type":"FeatureCollection","features":[{"type":"Feature","properties":{"fid":10,"objectid":1841,"lccode":"01","liqcode":"2010600010000000","mappers":"DJLBuhay, MJVReyes, MITAbigania, KLPapiona, KMVitto","project":"MELP","province":"Capiz","otherinfo":null,"datemapped":2017,"publishdate":null,"globalid":"{FE12B36A-531F-4D3F-AE5B-76F7E9CFE484}","st_area(shape)":0.04128187917080134,"st_perimeter(shape)":8.871881460062728,"liqcodepk":"201060001000000000013","creator":"SNOOPYPC","createdate":"2019-02-19T15:21:28","editor":"LENOVO","modifydate":"2019-03-10T17:53:06","codemove":"na"},"geometry":{"type":"Polygon","coordinates":[[[122.65267625500009,11.240248225000071],[122.65369361400008,11.240809325000042],[122.65491594900004,11.24022211600004],[122.65677592200005,11.241545091000035],[122.6573856220001,11.242493341000054],[122.65828439500002,11.242773598000042],[122.65864705000003,11.243563638000067],[122.65840156100012,11.244274750000045],[122.656219039,11.245119287000021],[122.6558567300001,11.244042110000063],[122.65454771800012,11.244126734000076],[122.65488081600007,11.245304377000027],[122.65245070900006,11.246421377000047],[122.65176716300003,11.246420578000029],[122.65162064000005,11.247324883000033],[122.65263864100007,11.247369144000062],[122.65335062500003,11.247915532000036],[122.65547334700011,11.248463555000054],[122.65595228200004,11.24931115900006],[122.65800238600002,11.249787297000067],[122.65798650400006,11.250921464000044],[122.65683723900007,11.251178563000051],[122.65715531700006,11.252772532000051],[122.65654333400005,11.25373373000002],[122.65787900200007,11.255745218000072],[122.65844679500005,11.255257740000049],[122.65963930200007,11.255345248000026],[122.65943707000008,11.254167761000073],[122.66003443300009,11.253263967000066],[122.66111085000013,11.253121628000029],[122.66157581900005,11.253495434000058],[122.66106478300003,11.255203309000025],[122.660526117,11.255662111000051],[122.65997189300003,11.25698230200004],[122.66011674500011,11.257484954000063],[122.65851667200002,11.257669759000065],[122.65791973500008,11.258200273000055],[122.65815115400007,11.259291654000037],[122.6603325330001,11.259509506000027],[122.66092916500008,11.25923740900004],[122.66258680400006,11.25958385800004],[122.66497252300007,11.25918456700003],[122.664853278,11.26168251200005],[122.6652157740001,11.262644825000054],[122.66697417600007,11.263924554000026],[122.66720574800001,11.264915431000075],[122.66922605600007,11.266123657000037],[122.66919583500011,11.26711424100006],[122.67005355800006,11.267474115000029],[122.67284617700011,11.26743413300005],[122.67331073100003,11.26820991100004],[122.67352710300008,11.269803752000028],[122.67482168300013,11.269719031000019],[122.67499717200009,11.26887217300003],[122.67587030500012,11.268471137000061],[122.6764512420001,11.26923268000007],[122.67669731500007,11.270295351000074],[122.67765744700012,11.270138470000063],[122.67951763700012,11.271533092000027],[122.68118982100009,11.271965595000037],[122.683327651,11.27221194900005],[122.68432957200004,11.273749192000025],[122.68422686400004,11.27456742000004],[122.68226167900002,11.276029716000037],[122.68115615700003,11.276114671000071],[122.67984608200005,11.277032095000038],[122.67997468400007,11.279113968000045],[122.67914471400003,11.279917051000043],[122.67828502500004,11.28128001400006],[122.67635028500001,11.281464548000029],[122.67572506100011,11.28126287100002],[122.67490916500003,11.282467947000042],[122.67522748600004,11.283961400000063],[122.67490609700009,11.285195730000053],[122.67378393500007,11.28710394800004],[122.67151331500008,11.288422264000072],[122.67123598300009,11.289269005000051],[122.67187398900012,11.29103559400005],[122.67326949500011,11.291826757000024],[122.67466583300008,11.29188572000004],[122.67533368400007,11.293006280000041],[122.67691890200003,11.293266434000031],[122.67782179100004,11.292334227000024],[122.67909954400011,11.292064493000051],[122.68181191000009,11.293359551000037],[122.68130292400008,11.29455537700005],[122.67831395700013,11.293954174000017],[122.6768167240001,11.294416537000075],[122.67523509700004,11.295590057000027],[122.67435760500008,11.295803777000058],[122.67347218400005,11.295500681000021],[122.672511428,11.295813601000074],[122.67106466000007,11.295085409000023],[122.66982318700002,11.295166330000031],[122.67047910400004,11.297579123000046],[122.67059993100008,11.29892424900004],[122.66959383300002,11.299645856000042],[122.66951704700013,11.300436124000043],[122.66816754800004,11.300575901000057],[122.66732255500006,11.301709136000058],[122.66583937500003,11.30123369300003],[122.66474925100012,11.30050026800006],[122.66410909800003,11.300600040000063],[122.66428191600006,11.302093337000029],[122.66580795400012,11.303243602000066],[122.6666806080001,11.303359439000074],[122.66780082200012,11.30455009900004],[122.66932809500008,11.304647520000056],[122.66886534000001,11.306489451000061],[122.6687174867043,11.306674998354298],[122.67164007426138,11.30804321843997],[122.67314610617602,11.308576928732872],[122.67308448200005,11.308195246000027],[122.67369219100009,11.30678417000007],[122.67514777000008,11.305972221000046],[122.67605832900006,11.304728967000074],[122.67750093900008,11.304658758000073],[122.67827806100003,11.303487135000069],[122.68015729800005,11.303202035000027],[122.6811275770001,11.302736487000058],[122.68164957600004,11.302055102000052],[122.68191772400007,11.300727390000077],[122.681725647,11.29902830000003],[122.68372854400002,11.298626371000069],[122.68537793300003,11.298670873000047],[122.68606195000008,11.298355750000042],[122.68709457500005,11.298500410000027],[122.68717509300005,11.296247352000025],[122.6877536730001,11.295840332000067],[122.68844596800012,11.294584842000061],[122.68792580900002,11.293591285000048],[122.68942893200006,11.293556972000031],[122.68964795700003,11.292779542000062],[122.6904001260001,11.292194093000033],[122.69117727700008,11.290914757000053],[122.69362592900006,11.290821586000048],[122.69489904600005,11.291229659000065],[122.69552477500007,11.290986237000025],[122.69520611500003,11.289708155000026],[122.69586126500008,11.289148913000076],[122.69759236200002,11.289007116000048],[122.6987262120001,11.289697396000065],[122.70182519300009,11.288997046000075],[122.70232032600008,11.288437628000052],[122.70251095800008,11.286944712000038],[122.7036749350001,11.286630028000046],[122.70252701100003,11.285480334000056],[122.70264407100001,11.284805682000066],[122.70373498700006,11.28480677300007],[122.703954038,11.283959940000043],[122.70321286600006,11.283327500000041],[122.70136484800003,11.28404348600003],[122.70063885200013,11.282808069000055],[122.70228355200004,11.281776034000073],[122.7042622560001,11.28126116800007],[122.70430693500008,11.280241879000073],[122.70280894300005,11.280068100000051],[122.70132945800005,11.280755742000052],[122.70000140000002,11.280352411000028],[122.69949329800012,11.279404348000067],[122.69831499600001,11.279532363000042],[122.69760280300012,11.27902915000004],[122.69751907300008,11.277210552000042],[122.69800488700004,11.276277854000055],[122.69791457300005,11.274935799000051],[122.69664824900008,11.274641390000053],[122.69596244600007,11.275567898000077],[122.69487937300003,11.273909772000025],[122.69435245900003,11.272438854000029],[122.69199709900012,11.271575012000026],[122.6928271480001,11.270642679000048],[122.6924941730001,11.269177940000075],[122.69149001900007,11.269708101000047],[122.69127389900007,11.267784064000068],[122.69198767400006,11.266765472000033],[122.69293325800005,11.26659416900003],[122.69278890900011,11.26556032900004],[122.69210581800007,11.265085847000021],[122.69191762500009,11.264252957000053],[122.69012015800003,11.260981401000038],[122.69002422000005,11.26002418000007],[122.69073012700005,11.259427834000062],[122.69211216800011,11.259113419000073],[122.69286930600005,11.258324577000051],[122.69310318500006,11.257219344000076],[122.6927942960001,11.256640262000076],[122.69176566700004,11.256448776000068],[122.69078117100004,11.255072486000074],[122.69129659900011,11.254120913000065],[122.69275492800011,11.253339579000055],[122.69329146600013,11.25268423500006],[122.69444908700007,11.25249500500007],[122.69468610600006,11.251310402000056],[122.69533084800003,11.25097663100007],[122.69488139100008,11.249046699000074],[122.69426004500009,11.248834481000072],[122.6927373750001,11.249679232000062],[122.6906797380001,11.249698257000032],[122.69012197000006,11.250163152000026],[122.68808585400006,11.250097550000019],[122.68712061600002,11.25077359100004],[122.68716206700005,11.252085428000044],[122.68798840600006,11.252792120000036],[122.68849591500009,11.254213977000063],[122.68846551500009,11.25543427500003],[122.68799924000008,11.256237768000057],[122.68561241900012,11.257699648000028],[122.68446111500009,11.259823236000045],[122.68437286300002,11.260727621000054],[122.68534614700002,11.261819770000045],[122.68351289700003,11.262420810000037],[122.6804442350001,11.262230887000044],[122.67922396900009,11.260908747000029],[122.67765447700003,11.259744148000038],[122.675895136,11.259282818000031],[122.67483480900012,11.258032618000072],[122.67330799600006,11.257743808000042],[122.67178165700011,11.257038644000032],[122.671346555,11.255961404000058],[122.67037280500007,11.255342984000034],[122.67008341200005,11.254036195000026],[122.669488354,11.252944418000029],[122.66914123500011,11.251249930000029],[122.66751227700001,11.251291184000026],[122.66662574800011,11.250730277000057],[122.66488082600006,11.25044118100004],[122.6654349800001,11.24914969300005],[122.66533478200006,11.247756972000047],[122.66449191500011,11.24718175100003],[122.66276141000004,11.247021870000028],[122.66158433300006,11.246202196000068],[122.66100361500001,11.245325771000067],[122.66116468400004,11.244392763000063],[122.66272192000007,11.243461340000065],[122.6638428450001,11.24252941700007],[122.66374337100002,11.240519353000021],[122.66268162800009,11.240589936000047],[122.662432555,11.242168901000067],[122.66135554200002,11.242856804000041],[122.6600473110001,11.242281041000068],[122.65961202100006,11.241419136000049],[122.65978771900006,11.240414361000036],[122.65914886100006,11.239523510000026],[122.6590049140001,11.238259947000074],[122.657638162,11.237999956000067],[122.65702804600006,11.23741062600004],[122.65451210600008,11.237393361000043],[122.65379886000007,11.23792373400005],[122.65318664200004,11.239100278000022],[122.65268880172198,11.239090060774009],[122.65249667785757,11.239345158460388],[122.65267625500009,11.240248225000071]],[[122.68947088000003,11.288364645000058],[122.68778672500004,11.28769289400003],[122.68646640200008,11.286854022000057],[122.68621288000008,11.285908598000049],[122.68640844400011,11.284413307000017],[122.68695497600004,11.283420873000066],[122.68823923200013,11.28397256900007],[122.69010454300007,11.285242707000066],[122.69115919900004,11.285148095000066],[122.6930031610001,11.283714330000066],[122.69335584500003,11.282614007000063],[122.69413234800004,11.281908933000068],[122.69415833800007,11.280257928000024],[122.69622117000006,11.278869814000078],[122.6970127710001,11.280186704000071],[122.69712013200001,11.281584169000038],[122.69630530400003,11.281856115000037],[122.69517855200002,11.283663916000023],[122.69405641700007,11.28493574600003],[122.69270972000005,11.286094861000038],[122.69382362700003,11.287280449000038],[122.69356793600002,11.28835694400004],[122.69149521000007,11.28831890300006],[122.691300436,11.289096359000041],[122.69050004700011,11.289442480000044],[122.68964019400005,11.288723742000059],[122.68947088000003,11.288364645000058]],[[122.68469673600009,11.293224656000064],[122.68339003100004,11.292571594000036],[122.68370692200006,11.290992687000026],[122.68512347600006,11.290959827000053],[122.68687829600002,11.293117050000033],[122.68683359100011,11.29425005400003],[122.68642306800007,11.294712502000037],[122.68469673600009,11.293224656000064]]]}},{"type":"Feature","properties":{"fid":32,"objectid":1878,"lccode":"07","liqcode":"2010600070000000","mappers":"PJDelosReyes, ACPidlaoan","project":"READY","province":"Iloilo","otherinfo":null,"datemapped":2010,"publishdate":null,"globalid":"{2F92972A-C07C-4633-B325-DF2A08960C6C}","st_area(shape)":0.031106077518548395,"st_perimeter(shape)":5.287074988133156,"liqcodepk":"201060007000000000071","creator":"SNOOPYPC","createdate":"2019-02-19T15:21:28","editor":"LENOVO","modifydate":"2019-03-10T17:50:55","codemove":"na"},"geometry":{"type":"Polygon","coordinates":[]}},{"type":"Feature","properties":{"fid":59,"objectid":1908,"lccode":"05","liqcode":"2010600050000000","mappers":"PJDelosReyes, ACPidlaoan","project":"READY","province":"Iloilo","otherinfo":null,"datemapped":2010,"publishdate":null,"globalid":"{282D04BA-68E2-41E5-9B8A-0D8D85396F2D}","st_area(shape)":0.06128738608791496,"st_perimeter(shape)":10.692281506054618,"liqcodepk":"201060005000000000103","creator":"SNOOPYPC","createdate":"2019-02-19T15:21:28","editor":"LENOVO","modifydate":"2019-03-10T17:50:55","codemove":"na"},"geometry":{"type":"Polygon","coordinates":[]}},{"type":"Feature","properties":{"fid":73,"objectid":1937,"lccode":"06","liqcode":"2010600060000000","mappers":"PJDelosReyes, ACPidlaoan","project":"READY","province":"Iloilo","otherinfo":null,"datemapped":2010,"publishdate":null,"globalid":"{DBB85F45-4FB4-4F72-8BD3-A1308397A487}","st_area(shape)":0.017575391436836466,"st_perimeter(shape)":7.287100410898002,"liqcodepk":"201060006000000000136","creator":"SNOOPYPC","createdate":"2019-02-19T15:21:28","editor":"LENOVO","modifydate":"2019-03-10T17:50:55","codemove":"na"},"geometry":{"type":"Polygon","coordinates":[]}}]}