{"type":"FeatureCollection","features":[{"type":"Feature","properties":{"fid":189,"objectid":10018,"lccode":"02","liqcode":null,"mappers":"OPCHalasan, KSSochayseng, AATMagnaye, RPADizon, MJVReyes, HALVidal, MITAbigania, DJLBuhay","project":"ACER-DeLTA Liquefaction","province":"South Cotabato","otherinfo":"General Santos merged with the rest of South Cotabato","datemapped":2025,"publishdate":2025,"globalid":"{5C1DBB9D-146F-4CBC-A9A0-7B9670F2F55D}","st_area(shape)":0.0277513408469407,"st_perimeter(shape)":12.12541707282386,"liqcodepk":null,"creator":null,"createdate":null,"editor":"DJLB","modifydate":"2025-07-07T08:00:00","codemove":null},"geometry":{"type":"Polygon","coordinates":[]}},{"type":"Feature","properties":{"fid":210,"objectid":10019,"lccode":"03","liqcode":null,"mappers":"OPCHalasan, KSSochayseng, AATMagnaye, RPADizon, MJVReyes, HALVidal, MITAbigania, DJLBuhay","project":"ACER-DeLTA Liquefaction","province":"South Cotabato","otherinfo":"General Santos merged with the rest of South Cotabato","datemapped":2025,"publishdate":2025,"globalid":"{A08B4111-30CD-46F1-8E61-734C7ABFBD03}","st_area(shape)":0.027808614318137116,"st_perimeter(shape)":9.22104192901392,"liqcodepk":null,"creator":null,"createdate":null,"editor":"DJLB","modifydate":"2025-07-07T08:00:00","codemove":null},"geometry":{"type":"Polygon","coordinates":[]}},{"type":"Feature","properties":{"fid":211,"objectid":10020,"lccode":"04","liqcode":null,"mappers":"OPCHalasan, KSSochayseng, AATMagnaye, RPADizon, MJVReyes, HALVidal, MITAbigania, DJLBuhay","project":"ACER-DeLTA Liquefaction","province":"South Cotabato","otherinfo":"General Santos merged with the rest of South Cotabato","datemapped":2025,"publishdate":2025,"globalid":"{10411778-8217-49CD-9A6B-AC131A16B836}","st_area(shape)":0.0318710172763168,"st_perimeter(shape)":5.428132055188376,"liqcodepk":null,"creator":null,"createdate":null,"editor":"DJLB","modifydate":"2025-07-07T08:00:00","codemove":null},"geometry":{"type":"Polygon","coordinates":[]}},{"type":"Feature","properties":{"fid":212,"objectid":10021,"lccode":"04","liqcode":null,"mappers":"OPCHalasan, KSSochayseng, AATMagnaye, RPADizon, MJVReyes, HALVidal, MITAbigania, DJLBuhay","project":"ACER-DeLTA Liquefaction","province":"Sarangani","otherinfo":null,"datemapped":2025,"publishdate":2025,"globalid":"{4B0F16AF-9FC5-426E-BE2A-C2A0BDACB3B7}","st_area(shape)":0.00681203411406619,"st_perimeter(shape)":4.420543025412032,"liqcodepk":null,"creator":null,"createdate":null,"editor":"DJLB","modifydate":"2025-07-07T08:00:00","codemove":null},"geometry":{"type":"MultiPolygon","coordinates":[[[[124.62441727400005,5.999553316000059],[124.62375409300013,5.998126109000054],[124.6237959890001,5.995350256000051],[124.6229147604765,5.995388817779222],[124.62320591071784,5.997314574594936],[124.62429551675777,6.001615433529958],[124.6244214003486,6.001964392961189],[124.62441727400005,5.999553316000059]]],[[[124.6235915840001,5.994234542000071],[124.62423331900004,5.992882446000067],[124.62303541300004,5.992215851000027],[124.62252192509797,5.9925292667453185],[124.62254264548724,5.99292749730365],[124.62279030041248,5.99456559284747],[124.6235915840001,5.994234542000071]]],[[[124.62276445799999,5.989105068000071],[124.62545023900009,5.988079167000024],[124.62590658400006,5.988083895000044],[124.62777474700009,5.989199620000021],[124.62935769400006,5.9890010590000315],[124.62953833100006,5.987620585000059],[124.63034737400005,5.9879928720000635],[124.63188031100005,5.988063416000046],[124.63298944100006,5.988481018000073],[124.63563719200009,5.9876347670000305],[124.6374673260001,5.9873038310000775],[124.63837526300006,5.987648950000051],[124.63979061700002,5.987454486000046],[124.64129926500006,5.987685515000067],[124.6416695040001,5.988495200000045],[124.64264810400003,5.988593759000026],[124.643391973,5.987024696000049],[124.64448081800002,5.986486041000036],[124.64535547900005,5.98667987600004],[124.64560741900006,5.9859990910000525],[124.64652010900012,5.98629693400005],[124.64700242000004,5.985933971000065],[124.6470477590001,5.983975642000074],[124.64808879600002,5.9830962900000495],[124.6477227690001,5.982547877000059],[124.64895395000008,5.981356494000068],[124.64940554100008,5.981933275000073],[124.65183938200003,5.981068103000041],[124.65365050100002,5.980652064000028],[124.65377785400005,5.978892332000044],[124.65322168400009,5.978126438000061],[124.65411535900012,5.977540198000042],[124.65417240200009,5.976887769000029],[124.65345461000004,5.974854830000027],[124.65510886100002,5.972680051000053],[124.65630201300009,5.972122172000069],[124.65749744100005,5.972930746000032],[124.65713389200003,5.9747271810000475],[124.66060877000007,5.974590075000037],[124.66116969300003,5.974982480000051],[124.66335360300002,5.97488369800004],[124.6653378310001,5.975152829000024],[124.66560246200004,5.977055035000037],[124.66527051700005,5.977917347000071],[124.66392915500013,5.978518605000034],[124.66381625800011,5.978955921000021],[124.66522451000003,5.979836460000059],[124.66702402500005,5.979328397000075],[124.66872664400012,5.9797155990000315],[124.66974929800007,5.9796742100000415],[124.67145483100012,5.97905225300002],[124.67248967600005,5.97926897700006],[124.67284372100005,5.97765591600006],[124.67252543700012,5.97685030100007],[124.6715353510001,5.976604402000022],[124.67092822900007,5.977538189000029],[124.67036888900009,5.97745466500004],[124.66851377000013,5.977895724000064],[124.66807007800003,5.977545191000047],[124.66841120100003,5.974786632000075],[124.66804042000003,5.974233482000044],[124.66661343500006,5.9740401320000265],[124.66670703700004,5.97231873000004],[124.66538434400002,5.969951515000048],[124.66563034800004,5.968620401000067],[124.66533919000005,5.967976234000048],[124.66584426000007,5.9666524400000736],[124.66652164700008,5.966026001000046],[124.66552339200007,5.965151348000062],[124.66556498600004,5.964459899000076],[124.66623643100003,5.963815727000053],[124.66716338200003,5.963904375000025],[124.671596109,5.9617354620000365],[124.67182190500013,5.960931721000066],[124.67267161000007,5.9602520860000245],[124.67439201500008,5.959556297000064],[124.67665472600004,5.959442827000031],[124.67883187200005,5.958128468000041],[124.67995156200003,5.957890286000064],[124.68154877000006,5.958110134000038],[124.68239015600011,5.957876101000067],[124.68377345100009,5.959074628000054],[124.68691082400004,5.95936539400003],[124.68755255900008,5.958668027000044],[124.68899289900003,5.958672755000068],[124.68986756000005,5.958199964000074],[124.69066616400005,5.958370169000033],[124.69100366900011,5.959017892000077],[124.69234418300005,5.959008437000024],[124.6926816880001,5.958091222000064],[124.6934850460001,5.95720237300003],[124.69466393600008,5.956942337000043],[124.69557662700004,5.957353666000072],[124.69595216100004,5.956488456000045],[124.69747331200006,5.9567626760000385],[124.69772525200004,5.9560487580000645],[124.69836624349207,5.955446290404591],[124.69601307358776,5.9533240202504425],[124.69518275558293,5.952711399189486],[124.69453272300007,5.953070233000061],[124.69045064700003,5.9545365100000245],[124.68888545300001,5.9549027870000355],[124.68140424600006,5.956221881000032],[124.67942199700009,5.956749518000038],[124.67796169300006,5.956824692000055],[124.675669985,5.957665790000022],[124.67033122300005,5.96015408900007],[124.6657829840001,5.962771447000022],[124.66150474800007,5.9649500480000475],[124.65972310100004,5.965265868000074],[124.6575539170001,5.96664368100005],[124.65541907800004,5.968339911000044],[124.65307175300008,5.969363957000041],[124.65196939400005,5.972928839000076],[124.65066845400008,5.97530994500005],[124.64751438800012,5.9791243330000725],[124.64408187400011,5.982206769000071],[124.64043706900007,5.984318599000062],[124.63635733500007,5.985621907000051],[124.63178860300002,5.986268800000062],[124.63031261200001,5.986213487000042],[124.62860844800004,5.986655997000071],[124.62829160500007,5.986338569000052],[124.62681746700002,5.986440974000059],[124.62624401000006,5.986149663000048],[124.6233234020001,5.986445852000032],[124.62241066025872,5.9863590146094925],[124.62231209946736,5.988496455848114],[124.62236889833417,5.989588140959888],[124.62276445799999,5.989105068000071]]]]}},{"type":"Feature","properties":{"fid":213,"objectid":10022,"lccode":"03","liqcode":null,"mappers":"OPCHalasan, KSSochayseng, AATMagnaye, RPADizon, MJVReyes, HALVidal, MITAbigania, DJLBuhay","project":"ACER-DeLTA Liquefaction","province":"Sarangani","otherinfo":null,"datemapped":2025,"publishdate":2025,"globalid":"{6B71C9FC-C348-4B94-AE03-7E47FA7930C0}","st_area(shape)":0.011541225204631354,"st_perimeter(shape)":8.576922001598057,"liqcodepk":null,"creator":null,"createdate":null,"editor":"DJLB","modifydate":"2025-07-07T08:00:00","codemove":null},"geometry":{"type":"Polygon","coordinates":[[[124.69772525200004,5.9560487580000645],[124.69747331200006,5.9567626760000385],[124.69595216100004,5.956488456000045],[124.69557662700004,5.957353666000072],[124.69466393600008,5.956942337000043],[124.6934850460001,5.95720237300003],[124.6926816880001,5.958091222000064],[124.69234418300005,5.959008437000024],[124.69100366900011,5.959017892000077],[124.69066616400005,5.958370169000033],[124.68986756000005,5.958199964000074],[124.68899289900003,5.958672755000068],[124.68755255900008,5.958668027000044],[124.68691082400004,5.95936539400003],[124.68377345100009,5.959074628000054],[124.68239015600011,5.957876101000067],[124.68154877000006,5.958110134000038],[124.67995156200003,5.957890286000064],[124.67883187200005,5.958128468000041],[124.67665472600004,5.959442827000031],[124.67439201500008,5.959556297000064],[124.67267161000007,5.9602520860000245],[124.67182190500013,5.960931721000066],[124.671596109,5.9617354620000365],[124.66716338200003,5.963904375000025],[124.66623643100003,5.963815727000053],[124.66556498600004,5.964459899000076],[124.66552339200007,5.965151348000062],[124.66652164700008,5.966026001000046],[124.66584426000007,5.9666524400000736],[124.66533919000005,5.967976234000048],[124.66563034800004,5.968620401000067],[124.66538434400002,5.969951515000048],[124.66670703700004,5.97231873000004],[124.66661343500006,5.9740401320000265],[124.66804042000003,5.974233482000044],[124.66841120100003,5.974786632000075],[124.66807007800003,5.977545191000047],[124.66851377000013,5.977895724000064],[124.67036888900009,5.97745466500004],[124.67092822900007,5.977538189000029],[124.6715353510001,5.976604402000022],[124.67252543700012,5.97685030100007],[124.67284372100005,5.97765591600006],[124.67248967600005,5.97926897700006],[124.67145483100012,5.97905225300002],[124.66974929800007,5.9796742100000415],[124.66872664400012,5.9797155990000315],[124.66702402500005,5.979328397000075],[124.66522451000003,5.979836460000059],[124.66381625800011,5.978955921000021],[124.66392915500013,5.978518605000034],[124.66527051700005,5.977917347000071],[124.66560246200004,5.977055035000037],[124.6653378310001,5.975152829000024],[124.66335360300002,5.97488369800004],[124.66116969300003,5.974982480000051],[124.66060877000007,5.974590075000037],[124.65713389200003,5.9747271810000475],[124.65749744100005,5.972930746000032],[124.65630201300009,5.972122172000069],[124.65510886100002,5.972680051000053],[124.65345461000004,5.974854830000027],[124.65417240200009,5.976887769000029],[124.65411535900012,5.977540198000042],[124.65322168400009,5.978126438000061],[124.65377785400005,5.978892332000044],[124.65365050100002,5.980652064000028],[124.65183938200003,5.981068103000041],[124.64940554100008,5.981933275000073],[124.64895395000008,5.981356494000068],[124.6477227690001,5.982547877000059],[124.64808879600002,5.9830962900000495],[124.6470477590001,5.983975642000074],[124.64700242000004,5.985933971000065],[124.64652010900012,5.98629693400005],[124.64560741900006,5.9859990910000525],[124.64535547900005,5.98667987600004],[124.64448081800002,5.986486041000036],[124.643391973,5.987024696000049],[124.64264810400003,5.988593759000026],[124.6416695040001,5.988495200000045],[124.64129926500006,5.987685515000067],[124.63979061700002,5.987454486000046],[124.63837526300006,5.987648950000051],[124.6374673260001,5.9873038310000775],[124.63563719200009,5.9876347670000305],[124.63298944100006,5.988481018000073],[124.63188031100005,5.988063416000046],[124.63034737400005,5.9879928720000635],[124.62953833100006,5.987620585000059],[124.62935769400006,5.9890010590000315],[124.62777474700009,5.989199620000021],[124.62590658400006,5.988083895000044],[124.62545023900009,5.988079167000024],[124.62276445799999,5.989105068000071],[124.62236889833417,5.989588140959888],[124.62252192509797,5.9925292667453185],[124.62303541300004,5.992215851000027],[124.62423331900004,5.992882446000067],[124.6235915840001,5.994234542000071],[124.62279030041248,5.99456559284747],[124.6229147604765,5.995388817779222],[124.6237959890001,5.995350256000051],[124.62375409300013,5.998126109000054],[124.62441727400005,5.999553316000059],[124.6244214003486,6.001964392961189],[124.6253292553816,6.004481020379817],[124.62573135300012,6.004551120000031],[124.62673255100005,6.005148249000056],[124.62690843400004,6.0062544850000545],[124.62643189889414,6.0071139390341655],[124.62724798029495,6.008828156017078],[124.62805226800005,6.008813041000053],[124.62795457900006,6.00986759500006],[124.6278580929204,6.010043369963913],[124.62924363092795,6.012342064745374],[124.630105167,6.012377035000041],[124.63125301800005,6.013422601000058],[124.63170950500012,6.014596567000069],[124.63391590800006,6.016163736000067],[124.63391480200006,6.016053477000069],[124.63393242000006,6.015276284000037],[124.63455452200004,6.013442704000057],[124.63330670300002,6.01290023000007],[124.63323539900013,6.011184167000067],[124.63194221700006,6.0099477320000565],[124.63272201100004,6.00856751300006],[124.63177723400008,6.007978941000032],[124.63103305800009,6.006580174000021],[124.63096568500009,6.005818020000048],[124.63169195300009,6.0048079850000695],[124.63175227700005,6.004018476000054],[124.63260436000006,6.002362661000062],[124.63147062700011,6.001876906000064],[124.63128523700006,6.000724567000018],[124.63028341600013,6.000582742000064],[124.62940637900012,5.999717599000064],[124.63036185100009,5.998426975000029],[124.6313708020001,5.997781662000021],[124.63146349700003,5.99727462900006],[124.63299653100012,5.997388091000062],[124.63362400600012,5.997122165000065],[124.63363470100013,5.995874082000057],[124.63511069200001,5.996519398000034],[124.63590216600005,5.996030093000059],[124.63825945100008,5.995829280000065],[124.63642657800007,5.993583838000062],[124.63625155500007,5.992439992000071],[124.6368718990001,5.991189021000025],[124.63821597700006,5.99105428300004],[124.63951370900008,5.991756336000038],[124.64093265699998,5.991727971000046],[124.64223395300006,5.990476330000035],[124.64266593100002,5.989166986000042],[124.64407589600013,5.987450297000066],[124.64705409600005,5.9866650030000415],[124.64736904800007,5.986217464000049],[124.6473500080001,5.983956041000055],[124.64798817800012,5.983714930000076],[124.64906610300011,5.984190153000043],[124.64979696800003,5.985236154000062],[124.65108638100003,5.985750289000066],[124.65230170400002,5.985893085000043],[124.65323445900005,5.985188555000035],[124.6537050820001,5.983470987000032],[124.65464431500004,5.982122716000048],[124.65524554,5.980483706000031],[124.65461657800006,5.978620826000055],[124.65506817000006,5.9782307870000295],[124.65591787500013,5.975376406000066],[124.65715434500008,5.975246397000034],[124.65802451000002,5.975810415000069],[124.65774880100004,5.97851941600004],[124.65856166600007,5.979895187000067],[124.66076733400008,5.981493156000056],[124.66192721100002,5.98096365300006],[124.66308233400002,5.98148370100006],[124.66300152300005,5.982632534000061],[124.66226471600008,5.982315778000042],[124.66147086500008,5.983010751000051],[124.66204129700007,5.983847553000031],[124.66318691300012,5.984079210000062],[124.6644656300001,5.984887645000072],[124.66533078400005,5.985015292000071],[124.66711813600013,5.983899558000074],[124.66934281800002,5.983459882000034],[124.67103324400011,5.982551802000044],[124.6708287800001,5.981377501000054],[124.67136355900004,5.979781895000031],[124.67244737900012,5.979866994000076],[124.67457936600012,5.981178937000039],[124.67561327300007,5.982497968000074],[124.67522110100003,5.9838666370000615],[124.67444388900003,5.9850721970000205],[124.67484319100004,5.986618148000048],[124.67582005400003,5.987256382000056],[124.67629779000004,5.988398112000028],[124.6786369670001,5.986986116000026],[124.68050709800002,5.988272121000024],[124.68059266400007,5.989884249000056],[124.67971800200007,5.990451566000045],[124.68042628700006,5.991293084000061],[124.68107277600008,5.991349816000023],[124.68200923400003,5.9922007890000355],[124.68307404000008,5.992063687000041],[124.68265097000004,5.99007335400006],[124.68299861600009,5.988081753000074],[124.68442469500008,5.988039205000065],[124.68554416500002,5.989638332000028],[124.68639268200002,5.991450199000041],[124.68710215600005,5.992403997000054],[124.68756919700003,5.992134523000061],[124.68897744900005,5.994226492000053],[124.68851880700005,5.9952755650000435],[124.68964065500005,5.995081734000053],[124.68980703100011,5.993635088000074],[124.69101444400009,5.993895106000024],[124.69205548100001,5.995209379000074],[124.69289211400007,5.995417394000069],[124.6934340240001,5.994509694000043],[124.69205060600005,5.994491105000067],[124.69197039100004,5.993539117000068],[124.69105770200008,5.991898634000052],[124.69065839900009,5.990031219000059],[124.68939394300003,5.989109329000029],[124.68848125300008,5.989449719000049],[124.68763511300006,5.989312618000042],[124.6882720950001,5.987577568000063],[124.68784427100003,5.986272733000022],[124.68624748500008,5.986512691000031],[124.68547080200005,5.985534112000039],[124.68635497100003,5.984420742000054],[124.68623375400013,5.9838959690000575],[124.6847363720001,5.982442201000026],[124.68420532900008,5.981423454000037],[124.68475776300012,5.97918716600003],[124.68360264000012,5.979428280000037],[124.68297516500002,5.978165974000032],[124.68097152500002,5.978626929000028],[124.68029413700002,5.978137608000054],[124.67980214100011,5.976932032000035],[124.67980273400008,5.97586887700004],[124.67874863100008,5.974754333000021],[124.67908494200005,5.972989663000022],[124.67896610200012,5.971273473000053],[124.67935585100007,5.97006599100007],[124.67892237200012,5.969108308000044],[124.67963239700009,5.967819802000066],[124.68199018000007,5.966704033000042],[124.68359689600004,5.967375386000072],[124.68411028300011,5.968339864000028],[124.68566478800007,5.968349023000029],[124.68600585800006,5.96713633400003],[124.6872227790001,5.966001652000045],[124.68767437000008,5.964408365000052],[124.68825844600009,5.964205406000075],[124.68960799400008,5.965222794000056],[124.69079163900005,5.965028952000068],[124.69199905200003,5.964135386000067],[124.69279290200006,5.964026645000046],[124.69384344600009,5.965066775000025],[124.69542164000006,5.964693274000069],[124.69601108600011,5.96353967500005],[124.69732307800008,5.963397839000038],[124.69895831400004,5.963799707000021],[124.69942892100005,5.963043249000066],[124.70097859200008,5.9617336260000675],[124.7031874888723,5.96077332401256],[124.7022917428187,5.959571839661147],[124.69930566944038,5.9562935284908844],[124.69836624349207,5.955446290404591],[124.69772525200004,5.9560487580000645]]]}},{"type":"Feature","properties":{"fid":214,"objectid":10023,"lccode":"02","liqcode":null,"mappers":"OPCHalasan, KSSochayseng, AATMagnaye, RPADizon, MJVReyes, HALVidal, MITAbigania, DJLBuhay","project":"ACER-DeLTA Liquefaction","province":"Sarangani","otherinfo":null,"datemapped":2025,"publishdate":2025,"globalid":"{80FA53E4-996E-4B30-88CB-5CF3D52CBB3A}","st_area(shape)":0.00512214156560372,"st_perimeter(shape)":11.803879412251622,"liqcodepk":null,"creator":null,"createdate":null,"editor":"DJLB","modifydate":"2025-07-07T08:00:00","codemove":null},"geometry":{"type":"MultiPolygon","coordinates":[[[[124.69279886800007,5.968002546000038],[124.69286705900005,5.969722274000048],[124.69398415300009,5.969925571000031],[124.69502519100001,5.97094677800004],[124.69530565200012,5.972034172000062],[124.69451180200008,5.973930014000074],[124.69586657600007,5.973584886000027],[124.69766343500008,5.970261245000074],[124.69759213100008,5.968842900000026],[124.69894690600007,5.9673205390000685],[124.70139928500011,5.967080838000071],[124.70214607500009,5.966252047000068],[124.70335824100005,5.9658407240000315],[124.7039667020001,5.966237863000059],[124.70413307700004,5.967400912000073],[124.70501385800003,5.967767604000073],[124.70578328700005,5.969671687000073],[124.7064963270001,5.969216634000078],[124.70466619300008,5.966433123000056],[124.70485633600002,5.965895331000069],[124.70630618300004,5.965883511000071],[124.70653220265325,5.965764271554497],[124.70537752249416,5.963848928932843],[124.7053673480001,5.963850532000039],[124.70521798689602,5.963584295339938],[124.70494253822359,5.963127387182569],[124.7031874888723,5.96077332401256],[124.70097859200008,5.9617336260000675],[124.69942892100005,5.963043249000066],[124.69895831400004,5.963799707000021],[124.69732307800008,5.963397839000038],[124.69601108600011,5.96353967500005],[124.69542164000006,5.964693274000069],[124.69384344600009,5.965066775000025],[124.69279290200006,5.964026645000046],[124.69199905200003,5.964135386000067],[124.69079163900005,5.965028952000068],[124.68960799400008,5.965222794000056],[124.68825844600009,5.964205406000075],[124.68767437000008,5.964408365000052],[124.6872227790001,5.966001652000045],[124.68600585800006,5.96713633400003],[124.68568604397709,5.968273446542344],[124.68613958800006,5.968162976000031],[124.68643906500004,5.966787176000025],[124.68735175500001,5.966219835000061],[124.68783662200009,5.964730562000057],[124.68839279200006,5.964461073000052],[124.68944452900008,5.9658030190000195],[124.68940293600008,5.967120906000048],[124.68974757100011,5.968246721000071],[124.69073988400008,5.967620284000021],[124.69215110700009,5.967584825000074],[124.69279886800007,5.968002546000038]]],[[[124.68566478800007,5.968349023000029],[124.68568604397709,5.968273446542344],[124.6853825840597,5.9683473606074955],[124.68566478800007,5.968349023000029]]],[[[124.65741610729583,5.975416064719961],[124.65754402978024,5.975498980753549],[124.65747037400003,5.975403185000062],[124.65741610729583,5.975416064719961]]],[[[124.66007330900004,5.9891945480000555],[124.66086715900008,5.9898044150000365],[124.66148512600012,5.989189821000023],[124.66312987000003,5.989742955000054],[124.66196999300007,5.991667103000054],[124.66292071200006,5.992286421000074],[124.66384766300006,5.991473269000038],[124.66507409000008,5.991321985000069],[124.66563026000007,5.992229690000045],[124.66631953200012,5.992603171000042],[124.66748891600002,5.993955269000026],[124.6666878860001,5.995118478000051],[124.66688996300002,5.996640543000069],[124.66773134900006,5.995860491000031],[124.66770282800009,5.994706958000051],[124.6682732590001,5.9937141600000245],[124.66841586700002,5.99256062300003],[124.66780265400007,5.991061966000075],[124.66778363900005,5.988830520000022],[124.667217961,5.987497321000036],[124.66884844400009,5.986301221000076],[124.66878664800004,5.985237494000046],[124.66923691300009,5.984617096000021],[124.67025550800007,5.984353416000033],[124.67129976900003,5.98261180000003],[124.67107159700002,5.981779723000045],[124.67131878400006,5.980021012000066],[124.67228851700007,5.97998319000004],[124.67310613500001,5.980758537000042],[124.67460827100001,5.98149606100003],[124.67536884600007,5.9827819970000755],[124.67493151600003,5.983746448000032],[124.67422798400004,5.984200306000046],[124.67474137200008,5.987036914000043],[124.6755399760001,5.987547501000052],[124.67626252200013,5.9887388710000655],[124.6768899970001,5.988738871000066],[124.67856326200003,5.987377305000053],[124.68001106100009,5.988349654000045],[124.68019855900002,5.989480298000046],[124.67928613700009,5.990488914000025],[124.67942280400005,5.991138963000026],[124.68063497000004,5.991599907000022],[124.68152032700004,5.9924686080000225],[124.68155003700008,5.994081906000075],[124.68191249900008,5.99466103700007],[124.68200757000011,5.998378099000034],[124.68254235000008,5.998378099000035],[124.68301176700005,5.997278939000068],[124.6830154260001,5.996293715000035],[124.68368321300011,5.995659741000054],[124.68381274800004,5.994226098000071],[124.68335165000009,5.993190751000042],[124.68359336500009,5.99119825200006],[124.68292729900008,5.988888442000074],[124.68322439900011,5.988262028000064],[124.68424642200011,5.988250209000057],[124.68550612400007,5.989904886000032],[124.68656024600011,5.992081337000059],[124.68652459400006,5.992563554000069],[124.68774389200009,5.993088320000026],[124.68839275700009,5.994499511000072],[124.68829031700012,5.995452831000022],[124.68948346900004,5.995651389000045],[124.68998571100006,5.996248097000035],[124.6900206250001,5.997282406000067],[124.69049123100001,5.999017424000044],[124.69226907600012,6.0005775170000675],[124.69470291700009,6.001508844000056],[124.6958295180001,6.00222270200004],[124.69619079100006,6.003952977000041],[124.6953018690001,6.004907935000061],[124.69744574000005,6.005333411000038],[124.69826811300004,6.003768603000025],[124.69759310200004,6.002752186000066],[124.69736286900002,5.999412491000045],[124.6960675150001,5.998591077000071],[124.69458602100008,5.996833644000048],[124.69401475500001,5.995141519000072],[124.6947598800001,5.993911161000028],[124.69288357200004,5.994231843000022],[124.69238546000008,5.9938686120000275],[124.69139077000011,5.99174473000005],[124.69136937900008,5.990157329000056],[124.69039833200009,5.989438541000028],[124.69009779200007,5.988248542000066],[124.69111387400004,5.986777056000051],[124.69012750200012,5.985725149000073],[124.68962243300007,5.984667331000025],[124.68857664200004,5.983633148000023],[124.68794084900004,5.984052731000077],[124.6870733180001,5.9839049910000295],[124.68612259900011,5.983095372000036],[124.68584332600007,5.982126193000056],[124.68653853800004,5.980004630000053],[124.6866217270001,5.978048529000033],[124.68603941100002,5.977238903000058],[124.68635433700001,5.974951848000046],[124.68615230900002,5.974603175000026],[124.68448855100007,5.974940029000038],[124.68326450000008,5.974124487000039],[124.68246233100001,5.9731493830000195],[124.68072726900004,5.972422485000039],[124.67987756400011,5.97144737600007],[124.67990727400002,5.970779575000051],[124.68136306200006,5.971175529000048],[124.68198318300007,5.970731861000045],[124.68170452900006,5.969250127000064],[124.68253046600012,5.96880098400004],[124.68338017100007,5.969705179000072],[124.68385553100008,5.971212169000068],[124.68464581500007,5.971365822000053],[124.68505312800006,5.969873922000032],[124.68445681600008,5.969240920000059],[124.68474203200002,5.968503380000072],[124.6853825840597,5.9683473606074955],[124.68411028300011,5.968339864000028],[124.68359689600004,5.967375386000072],[124.68199018000007,5.966704033000042],[124.67963239700009,5.967819802000066],[124.67892237200012,5.969108308000044],[124.67935585100007,5.97006599100007],[124.67896610200012,5.971273473000053],[124.67908494200005,5.972989663000022],[124.67874863100008,5.974754333000021],[124.67980273400008,5.97586887700004],[124.67980214100011,5.976932032000035],[124.68029413700002,5.978137608000054],[124.68097152500002,5.978626929000028],[124.68297516500002,5.978165974000032],[124.68360264000012,5.979428280000037],[124.68475776300012,5.97918716600003],[124.68420532900008,5.981423454000037],[124.6847363720001,5.982442201000026],[124.68623375400013,5.9838959690000575],[124.68635497100003,5.984420742000054],[124.68547080200005,5.985534112000039],[124.68624748500008,5.986512691000031],[124.68784427100003,5.986272733000022],[124.6882720950001,5.987577568000063],[124.68763511300006,5.989312618000042],[124.68848125300008,5.989449719000049],[124.68939394300003,5.989109329000029],[124.69065839900009,5.990031219000059],[124.69105770200008,5.991898634000052],[124.69197039100004,5.993539117000068],[124.69205060600005,5.994491105000067],[124.6934340240001,5.994509694000043],[124.69289211400007,5.995417394000069],[124.69205548100001,5.995209379000074],[124.69101444400009,5.993895106000024],[124.68980703100011,5.993635088000074],[124.68964065500005,5.995081734000053],[124.68851880700005,5.9952755650000435],[124.68897744900005,5.994226492000053],[124.68756919700003,5.992134523000061],[124.68710215600005,5.992403997000054],[124.68639268200002,5.991450199000041],[124.68554416500002,5.989638332000028],[124.68442469500008,5.988039205000065],[124.68299861600009,5.988081753000074],[124.68265097000004,5.99007335400006],[124.68307404000008,5.992063687000041],[124.68200923400003,5.9922007890000355],[124.68107277600008,5.991349816000023],[124.68042628700006,5.991293084000061],[124.67971800200007,5.990451566000045],[124.68059266400007,5.989884249000056],[124.68050709800002,5.988272121000024],[124.6786369670001,5.986986116000026],[124.67629779000004,5.988398112000028],[124.67582005400003,5.987256382000056],[124.67484319100004,5.986618148000048],[124.67444388900003,5.9850721970000205],[124.67522110100003,5.9838666370000615],[124.67561327300007,5.982497968000074],[124.67457936600012,5.981178937000039],[124.67244737900012,5.979866994000076],[124.67136355900004,5.979781895000031],[124.6708287800001,5.981377501000054],[124.67103324400011,5.982551802000044],[124.66934281800002,5.983459882000034],[124.66711813600013,5.983899558000074],[124.66533078400005,5.985015292000071],[124.6644656300001,5.984887645000072],[124.66318691300012,5.984079210000062],[124.66204129700007,5.983847553000031],[124.66147086500008,5.983010751000051],[124.66226471600008,5.982315778000042],[124.66300152300005,5.982632534000061],[124.66308233400002,5.98148370100006],[124.66192721100002,5.98096365300006],[124.66076733400008,5.981493156000056],[124.65856166600007,5.979895187000067],[124.65774880100004,5.97851941600004],[124.65802451000002,5.975810415000069],[124.65754402978024,5.975498980753549],[124.65771756100004,5.97572467300006],[124.6574980490001,5.9789673690000305],[124.65917223200006,5.980822570000043],[124.66002577300003,5.982325233000038],[124.65988673000004,5.983261319000064],[124.66099550600006,5.983846371000026],[124.6612379390001,5.984477518000061],[124.66018264099999,5.986175937000041],[124.66110602800005,5.986509238000052],[124.66141857600007,5.987776253000049],[124.66007330900004,5.9891945480000555]]],[[[124.62590888300008,6.004938519000062],[124.62671699400005,6.005482182000037],[124.626300842054,6.006838646567998],[124.62643189889414,6.0071139390341655],[124.62690843400004,6.0062544850000545],[124.62673255100005,6.005148249000056],[124.62573135300012,6.004551120000031],[124.6253292553816,6.004481020379817],[124.62546439604365,6.0048556352650415],[124.62590888300008,6.004938519000062]]],[[[124.62967610700002,6.01257339600005],[124.63109030100009,6.013684344000069],[124.63139928500003,6.014535282000052],[124.63382361800008,6.0163671570000465],[124.63428947100009,6.015455356000074],[124.63521271100001,6.012725952000039],[124.63375710600008,6.011701823000066],[124.63300841500006,6.010007029000063],[124.63315210500001,6.008064859000058],[124.6324522440001,6.007220180000046],[124.63201729000002,6.006071398000073],[124.63319371700004,6.004040670000053],[124.63299415400003,6.0027384990000305],[124.6333791950001,6.001859178000074],[124.6319745080001,6.001774083000042],[124.63162511900009,6.000859303000027],[124.63240708500008,5.9982189620000685],[124.63318192200008,5.997698929000022],[124.6358059050001,5.996928334000073],[124.63671384200006,5.996918878000031],[124.63814942800003,5.997727294000072],[124.63840612200012,5.996871603000047],[124.63946700100009,5.996396069000069],[124.63852020800005,5.995089302000054],[124.63766931500005,5.994517262000044],[124.63742212800001,5.992526938000026],[124.63781192200008,5.99200217200007],[124.63919521900004,5.9918461620000585],[124.64073062900002,5.992139274000067],[124.64217687200004,5.991017594000027],[124.64296121500001,5.989187997000044],[124.64430172900008,5.987642054000048],[124.64684014900001,5.98701800300006],[124.64755318800007,5.986422317000062],[124.64759597000011,5.984365776000062],[124.64809509800013,5.984011199000065],[124.64954354300005,5.985344705000045],[124.65117551000003,5.986140322000038],[124.65160927600004,5.987068127000043],[124.6513478280001,5.987871830000074],[124.65007030000005,5.989242849000048],[124.65065261600013,5.989733342000021],[124.65239956100005,5.9886341650000645],[124.65406926100002,5.988781903000075],[124.65463969200006,5.987339968000072],[124.65389694300005,5.985939395000058],[124.65389567100011,5.984310225000058],[124.65528372100005,5.981416871000021],[124.655492879,5.980093110000041],[124.6549224480001,5.978693701000053],[124.65570203700008,5.976953891000051],[124.6557971090001,5.9758003170000515],[124.65741610729583,5.975416064719961],[124.65715434500008,5.975246397000034],[124.65591787500013,5.975376406000066],[124.65506817000006,5.9782307870000295],[124.65461657800006,5.978620826000055],[124.65524554,5.980483706000031],[124.65464431500004,5.982122716000048],[124.6537050820001,5.983470987000032],[124.65323445900005,5.985188555000035],[124.65230170400002,5.985893085000043],[124.65108638100003,5.985750289000066],[124.64979696800003,5.985236154000062],[124.64906610300011,5.984190153000043],[124.64798817800012,5.983714930000076],[124.6473500080001,5.983956041000055],[124.64736904800007,5.986217464000049],[124.64705409600005,5.9866650030000415],[124.64407589600013,5.987450297000066],[124.64266593100002,5.989166986000042],[124.64223395300006,5.990476330000035],[124.64093265699998,5.991727971000046],[124.63951370900008,5.991756336000038],[124.63821597700006,5.99105428300004],[124.6368718990001,5.991189021000025],[124.63625155500007,5.992439992000071],[124.63642657800007,5.993583838000062],[124.63825945100008,5.995829280000065],[124.63590216600005,5.996030093000059],[124.63511069200001,5.996519398000034],[124.63363470100013,5.995874082000057],[124.63362400600012,5.997122165000065],[124.63299653100012,5.997388091000062],[124.63146349700003,5.99727462900006],[124.6313708020001,5.997781662000021],[124.63036185100009,5.998426975000029],[124.62940637900012,5.999717599000064],[124.63028341600013,6.000582742000064],[124.63128523700006,6.000724567000018],[124.63147062700011,6.001876906000064],[124.63260436000006,6.002362661000062],[124.63175227700005,6.004018476000054],[124.63169195300009,6.0048079850000695],[124.63096568500009,6.005818020000048],[124.63103305800009,6.006580174000021],[124.63177723400008,6.007978941000032],[124.63272201100004,6.00856751300006],[124.63194221700006,6.0099477320000565],[124.63323539900013,6.011184167000067],[124.63330670300002,6.01290023000007],[124.63455452200004,6.013442704000057],[124.63393242000006,6.015276284000037],[124.63391480200006,6.016053477000069],[124.63391590800006,6.016163736000067],[124.63170950500012,6.014596567000069],[124.63125301800005,6.013422601000058],[124.630105167,6.012377035000041],[124.62924363092795,6.012342064745374],[124.62938895175229,6.012583159466683],[124.62967610700002,6.01257339600005]]],[[[124.62795457900006,6.00986759500006],[124.62805226800005,6.008813041000053],[124.62724798029495,6.008828156017078],[124.62729997302537,6.008937368633466],[124.627735443,6.008941306000053],[124.62754427770203,6.009450538611393],[124.6277078023651,6.009794026733512],[124.6278580929204,6.010043369963913],[124.62795457900006,6.00986759500006]]]]}}]}