{"type":"FeatureCollection","features":[{"type":"Feature","properties":{"fid":27,"objectid":1873,"lccode":"07","liqcode":"2010600070000000","mappers":"MITAbigania, MRJSanDiego","project":"READY","province":"Catanduanes","otherinfo":null,"datemapped":2012,"publishdate":null,"globalid":"{6806FBE5-F17E-446D-A93D-3AE6AE77BE83}","st_area(shape)":0.005372229043825049,"st_perimeter(shape)":2.72076790618239,"liqcodepk":"201060007000000000066","creator":"SNOOPYPC","createdate":"2019-02-19T15:21:28","editor":"LENOVO","modifydate":"2019-03-10T17:50:55","codemove":"na"},"geometry":{"type":"Polygon","coordinates":[[[124.30059187500001,13.884870377000029],[124.3010670970001,13.882983871000016],[124.30148056300004,13.88270718500007],[124.30135198900007,13.881516658000065],[124.30009013300004,13.881166010000072],[124.298811526,13.882054469000023],[124.2971340800001,13.882189279000043],[124.29539719800006,13.88367160300004],[124.29469119800001,13.88329258300007],[124.29534219100003,13.881543616000044],[124.2954565120001,13.880173204000071],[124.29488313700006,13.879382160000036],[124.29339906400003,13.879270896000035],[124.29289304200006,13.879630847000042],[124.29214168300007,13.882809889000042],[124.29093998400003,13.883305290000061],[124.29102933800004,13.881100255000035],[124.29050498400012,13.879444269000032],[124.29071090100001,13.878213012000057],[124.29047965900008,13.87682454000003],[124.28970850300004,13.87700729200003],[124.28930071600007,13.878174631000038],[124.28907649300004,13.880306176000035],[124.28856545700012,13.881666207000022],[124.28884477300006,13.88232397100006],[124.28852474500002,13.883495274000039],[124.28881829900001,13.885072224000057],[124.28717835200007,13.88617284800006],[124.28681573800009,13.886750483000073],[124.28555676400003,13.887395561000062],[124.28586929500011,13.888804578000077],[124.28646407700013,13.889313362000053],[124.28794034600003,13.889353755000059],[124.28816184000004,13.888728780000063],[124.29020339100008,13.889200005000076],[124.29078617800008,13.889608067000038],[124.29202688100008,13.888283036000077],[124.29248481200011,13.88711805000003],[124.29348576900007,13.887048943000025],[124.2936791840001,13.88789858000007],[124.29317650900009,13.888851140000043],[124.29329577800002,13.889952246000062],[124.29422331716337,13.890412658926227],[124.29784679788665,13.887757387160768],[124.30077960180736,13.88513199880407],[124.30059187500001,13.884870377000029]]]}},{"type":"Feature","properties":{"fid":54,"objectid":1903,"lccode":"05","liqcode":"2010600050000000","mappers":"MITAbigania, MRJSanDiego","project":"READY","province":"Catanduanes","otherinfo":null,"datemapped":2012,"publishdate":null,"globalid":"{E007E964-0AF4-4562-904F-0A12E9A98ABE}","st_area(shape)":0.0010990424958159351,"st_perimeter(shape)":0.725596945134769,"liqcodepk":"201060005000000000098","creator":"SNOOPYPC","createdate":"2019-02-19T15:21:28","editor":"LENOVO","modifydate":"2019-03-10T17:50:55","codemove":"na"},"geometry":{"type":"Polygon","coordinates":[[[124.29140489000007,13.85784324100007],[124.29455393700005,13.857220784000049],[124.297507622,13.856070960000064],[124.299547705,13.855670237000028],[124.30214167400004,13.856365306000043],[124.30598384400002,13.858414727000024],[124.3077689170001,13.859847934000072],[124.30838636700004,13.85853918300006],[124.30907368900013,13.857910167000055],[124.3084799280001,13.857099378000044],[124.30735398200012,13.857413049000057],[124.30693509600007,13.856998362000072],[124.3081142320001,13.856155414000051],[124.3072035560001,13.855658306000063],[124.30647744300006,13.85611742800006],[124.30560976900006,13.854768070000032],[124.30454397000005,13.85430684700003],[124.30385520600011,13.853064081000067],[124.30256066600008,13.852296773000033],[124.30152288700003,13.852014339000048],[124.29910599500009,13.85062401600004],[124.2973126710001,13.851242598000054],[124.29632750600003,13.851297434000061],[124.29546790800009,13.852685982000024],[124.29444701900003,13.852945261000057],[124.29358156600006,13.853968154000029],[124.29234564300009,13.854056385000034],[124.29164222500003,13.852801274000056],[124.29084172700004,13.852132611000057],[124.28890798500004,13.851325754000072],[124.28837684200005,13.850178001000076],[124.28615187900004,13.848684763000051],[124.28544318200012,13.848764042000026],[124.2841459020001,13.847761473000046],[124.28390196500004,13.846852343000023],[124.28405702400005,13.845719327000038],[124.2826949790001,13.844588384000076],[124.2800186090001,13.843400132000054],[124.27922447200001,13.842347995000068],[124.27732357700005,13.84096884200005],[124.27598139500002,13.839090751000072],[124.2752401350001,13.838972052000031],[124.27228751400001,13.83913914900006],[124.27106139300008,13.837411181000048],[124.27043315300011,13.836974822000055],[124.26945387600006,13.837769379000065],[124.26964303600006,13.83892980200005],[124.27085881800008,13.840313568000054],[124.2719478480001,13.840986592000032],[124.2736030740001,13.84051840500007],[124.27507670000011,13.84242547100007],[124.27648530100008,13.845092067000051],[124.27657991300009,13.846519779000062],[124.27699628000003,13.84855380800008],[124.27675120100002,13.849498665000056],[124.27488878400003,13.850260069000058],[124.27248612300002,13.84984424800007],[124.27054141800011,13.850966037000033],[124.27067630500007,13.85147165400002],[124.27201387700006,13.85270546400005],[124.27314374000004,13.852879632000052],[124.27372464700011,13.853441132000057],[124.27540890500006,13.853035229000055],[124.27743125100007,13.851170425000074],[124.27841442600005,13.850875442000074],[124.28007908100007,13.848608393000063],[124.28069998300009,13.848977426000031],[124.28129925600003,13.85080080400007],[124.28295156200011,13.851613807000033],[124.28400412000008,13.851826017000066],[124.28411871700008,13.85424346900004],[124.28477833600004,13.855767176000027],[124.28387877000011,13.85618728600002],[124.2836729820001,13.857558270000025],[124.28440357700003,13.85866793100007],[124.28591771900005,13.859303492000038],[124.28679249900007,13.857636971000034],[124.287493476,13.857647384000073],[124.2880274160001,13.858676905000037],[124.29049154400002,13.859676460000058],[124.29140114900008,13.859775239000044],[124.29140489000007,13.85784324100007]]]}},{"type":"Feature","properties":{"fid":68,"objectid":1932,"lccode":"06","liqcode":"2010600060000000","mappers":"MITAbigania, MRJSanDiego","project":"READY","province":"Catanduanes","otherinfo":null,"datemapped":2012,"publishdate":null,"globalid":"{D676DE65-50B9-47A4-8AF0-BD7D44E0FC56}","st_area(shape)":0.0021118625030801673,"st_perimeter(shape)":1.6727362060815718,"liqcodepk":"201060006000000000131","creator":"SNOOPYPC","createdate":"2019-02-19T15:21:28","editor":"LENOVO","modifydate":"2019-03-10T17:50:55","codemove":"na"},"geometry":{"type":"Polygon","coordinates":[[[124.31005204200004,13.867519838000021],[124.31058936400007,13.866384317000037],[124.30928172200004,13.864372499000067],[124.31130649900003,13.863276101000055],[124.31153453900004,13.861018992000025],[124.31138943200006,13.860503609000034],[124.31009225500009,13.859781009000072],[124.3077689170001,13.859847934000072],[124.30598384400002,13.858414727000024],[124.30214167400004,13.856365306000043],[124.299547705,13.855670237000028],[124.297507622,13.856070960000064],[124.29455393700005,13.857220784000049],[124.29140489000007,13.85784324100007],[124.29140114900008,13.859775239000044],[124.29193284000007,13.860338939000028],[124.29208086900006,13.861390279000034],[124.29282911100006,13.862163691000031],[124.29383247700001,13.86213552100003],[124.29378257200005,13.860081614000025],[124.29498707200003,13.858792200000034],[124.29575551200003,13.858681755000076],[124.29811727200001,13.860682466000073],[124.29807935900011,13.862152706000074],[124.3001812440001,13.862606735000046],[124.30073621300005,13.864276636000056],[124.29943137700002,13.86416471900003],[124.29849746100001,13.863429100000074],[124.29782994100002,13.864417156000057],[124.29833560600002,13.864905872000065],[124.29835644900004,13.866047537000043],[124.29874785600009,13.866816134000032],[124.29790667400003,13.86765291200004],[124.29941461300007,13.868419104000052],[124.30032945900008,13.868493687000067],[124.30066517300007,13.87039775200003],[124.30181818500012,13.87173656700003],[124.30224365200002,13.872766535000038],[124.30236820000005,13.874220723000061],[124.30155668700002,13.873771335000074],[124.30142984500003,13.872164596000063],[124.29960903600009,13.871382458000026],[124.29843926700005,13.870540271000037],[124.29710770000007,13.870526097000035],[124.29621844600001,13.869373038000049],[124.29466493300004,13.868492193000062],[124.29447298400008,13.867710784000055],[124.29347339300013,13.86697838600003],[124.29258701400012,13.867000786000066],[124.2922001280001,13.868258850000077],[124.29257201700011,13.86886740600005],[124.292897464,13.870788804000028],[124.29364509800008,13.871198432000025],[124.29373858500003,13.872399818000076],[124.29426139200007,13.87352879600007],[124.29555766700001,13.873532054000068],[124.2963036020001,13.874430188000076],[124.29616364100004,13.875359498000021],[124.29751005600008,13.87739395900007],[124.29770247300009,13.878434120000065],[124.29827220800007,13.878570009000043],[124.29949171300005,13.877539339000066],[124.30042804300003,13.87630093900003],[124.30078902800004,13.878040466000073],[124.30252204300005,13.879063561000066],[124.30357870900002,13.879057928000062],[124.30463207800005,13.878476586000033],[124.30616634400008,13.878708893000065],[124.30619755233235,13.87882961429683],[124.3069096331751,13.877880788117771],[124.30922237378635,13.874063777118296],[124.31114096742098,13.870043663587673],[124.31166394992796,13.868590535709988],[124.31005204200004,13.867519838000021]]]}}]}