{
"type": "FeatureCollection",
"name": "SYSTRA ID_113",
"crs": { "type": "name", "properties": { "name": "urn:ogc:def:crs:OGC:1.3:CRS84" } },
"xy_coordinate_resolution": 1e-15,
"features": [
{"type":"Feature","properties":{"fid":94,"HAZ":1.0,"layer":"Iloilo_StormSurge_SSA4","path":"/Users/jhannaroseverzo/Downloads/Iloilo/Iloilo_StormSurge_SSA4.shp","Risk Level":"Low","fid_2":113,"SYSTRA ID":"113","DAR ID":"181","Target Year":"2027","Bridge Category":"Original List","Bridge Name":"STA. MONICA BRIDGE","Coordinates Y":"10.740083","Coordinates X":"122.449111","Region":"VI","Province":"ILOILO","ARC 2026":"non-ARC","LINEAR METER IVF 2026":"20","EIRR 2026":"0.17","NEW/REPLACEMENT BRIDGE 2026":"replacement","Visited by SYSTRA":"Yes","Selected for 2nd Visit of SYSTRA":"No","Final Funder":"Trésor","2023 IVF URL":"https://drive.google.com/open?id=1SipVGKOA7cbEgvT13Wa-6tIbuJU2qTOX","2026 IVF URL":"https://docs.google.com/spreadsheets/u/1/d/12_pOPTsfNFvX68wg4zU1yu1ppzUsen8v/edit"},"geometry":{"type":"MultiPolygon","coordinates":[[[[122.445664285505671,10.69526952113914],[122.445664613885839,10.695088645960039],[122.445481731214528,10.695088321133829],[122.445481402726003,10.695269196307246],[122.445664285505671,10.69526952113914]]],[[[122.446578371647206,10.69545201889658],[122.446761254570234,10.695452343091207],[122.44676158230638,10.695271467880575],[122.446578699491624,10.695271143691544],[122.446578371647206,10.69545201889658]]],[[[122.447675342073609,10.695634837694103],[122.44767566927402,10.695453962457536],[122.447492786321504,10.69545363879857],[122.447492459012835,10.695634514029452],[122.447675342073609,10.695634837694103]]],[[[122.448955523663059,10.695637100346213],[122.44877264056133,10.695636777431629],[122.448589757465371,10.695636454409842],[122.448589430800808,10.695817329672254],[122.448772314005126,10.695817652699636],[122.448955197215213,10.695817975619816],[122.449138080430984,10.695818298432881],[122.449138406770658,10.695637423153682],[122.448955523663059,10.695637100346213]]],[[[122.450051844984785,10.69618166149874],[122.450234728452443,10.696181983680132],[122.450235054153694,10.696001108371712],[122.450052170794564,10.696000786195915],[122.450051844984785,10.69618166149874]]],[[[122.450783378890236,10.696182949581269],[122.450966262381073,10.696183271334027],[122.450966587648978,10.696002396003314],[122.450783704266414,10.696002074256151],[122.450783378890236,10.696182949581269]]],[[[122.451880355190795,10.696365753847038],[122.452063238824977,10.696366074962439],[122.452063563448775,10.696185199600551],[122.451880679922937,10.696184878490657],[122.451697796402968,10.696184557273559],[122.451697471562554,10.696365432624434],[122.451880355190795,10.696365753847038]]],[[[122.453891751939508,10.696550155639008],[122.454074635745741,10.696550475581391],[122.454074959183629,10.696369600160528],[122.453892075485669,10.69636928022374],[122.453891751939508,10.696550155639008]]],[[[122.449685099953285,10.696723642677165],[122.449867983734293,10.696723965089484],[122.449868309669668,10.696543089798562],[122.449868635599344,10.696362214505418],[122.449685752035052,10.696361892104202],[122.449685425997188,10.696542767391749],[122.449685099953285,10.696723642677165]]],[[[122.457914875843571,10.69673804515371],[122.458097759885163,10.696738362744197],[122.458098080945319,10.696557487204229],[122.457915197011985,10.696557169619249],[122.457914875843571,10.69673804515371]]],[[[122.449501237686803,10.697265945984492],[122.449684121786945,10.697266268520712],[122.449684447848256,10.697085393241602],[122.449684773903698,10.69690451796045],[122.449501890020372,10.696904195435332],[122.449501563856472,10.697085070710978],[122.449318679870473,10.69708474807315],[122.449318353592545,10.697265623341069],[122.449501237686803,10.697265945984492]]],[[[122.463034676733116,10.697289524235755],[122.463034994885206,10.697108648554567],[122.462852110472525,10.697108333846218],[122.462851792212163,10.697289209521989],[122.463034676733116,10.697289524235755]]],[[[122.463865137855649,10.697290951959461],[122.463766274468213,10.697256855439102],[122.463766214874198,10.697290782019321],[122.463865137855649,10.697290951959461]]],[[[122.465228340839488,10.697835919669453],[122.465396884855934,10.697836208436163],[122.465228455133897,10.697770677895683],[122.465228340839488,10.697835919669453]]],[[[122.46175448520566,10.697287318989014],[122.461754166289481,10.697468194630057],[122.461937050884771,10.697468509992193],[122.461937369692507,10.697287634345733],[122.46175448520566,10.697287318989014]]],[[[122.461753847367703,10.697649070268968],[122.461754166289481,10.697468194630057],[122.46157128169996,10.697467879160717],[122.46157096266974,10.697648754794121],[122.461753847367703,10.697649070268968]]],[[[122.462119616780328,10.697649700897051],[122.462302501495344,10.697650016050376],[122.462485386215874,10.697650331096499],[122.462485704704392,10.697469455435828],[122.462302820092049,10.697469140395123],[122.462119935485475,10.697468825247215],[122.462119616780328,10.697649700897051]]],[[[122.461387758833368,10.697829314838105],[122.46157064363392,10.697829630425483],[122.46157096266974,10.697648754794121],[122.461388077977645,10.697648439212161],[122.461387758833368,10.697829314838105]]],[[[122.461936732071081,10.697649385636522],[122.461753847367703,10.697649070268968],[122.461753528439971,10.697829945905747],[122.461936413251891,10.697830261278808],[122.461936732071081,10.697649385636522]]],[[[122.465776679066835,10.698017735113131],[122.465776738111671,10.697983997014383],[122.465593977029542,10.697912890606647],[122.4655937940272,10.698017421985119],[122.465776679066835,10.698017735113131]]],[[[122.465593477363697,10.698198297731766],[122.4655937940272,10.698017421985119],[122.46541090899332,10.698017108749815],[122.465410592221374,10.698197984491133],[122.465593477363697,10.698198297731766]]],[[[122.465227390198848,10.698378546877153],[122.465227073307176,10.69855942260879],[122.465409958660615,10.698559735967462],[122.465410275443929,10.698378860230319],[122.465410592221374,10.698197984491133],[122.465227707084651,10.698197671143296],[122.465227390198848,10.698378546877153]]],[[[122.466507587032908,10.698380738099202],[122.466324701753891,10.698380425388988],[122.466141816480572,10.698380112571661],[122.466141500130774,10.698560988330387],[122.466324385512465,10.698561301153221],[122.466324069265426,10.698742176915234],[122.466323753012716,10.698923052675203],[122.466506638616806,10.69892336540167],[122.466506322466756,10.699104241164926],[122.466689208184974,10.699104553789608],[122.466872093908691,10.699104866307175],[122.467054979638107,10.699105178717451],[122.467055295462984,10.698924302937941],[122.467238181089797,10.698924615235684],[122.467238496800633,10.698743739448714],[122.467055611282348,10.698743427156389],[122.466872725769576,10.69874311475686],[122.466873041691613,10.698562238978594],[122.467055927095942,10.698562551372705],[122.467056038551306,10.698498716445918],[122.466683306091952,10.698336713203705],[122.46650778333273,10.698268422992578],[122.466507587032908,10.698380738099202]]],[[[122.467421382324602,10.698744051633925],[122.467421533213283,10.698657573875067],[122.467238785833189,10.698578145139146],[122.467238496800633,10.698743739448714],[122.467421382324602,10.698744051633925]]],[[[122.465592210652957,10.698921800697748],[122.465775096234395,10.69892211385285],[122.465775412812178,10.698741238109134],[122.465592527339112,10.698740924959361],[122.465592210652957,10.698921800697748]]],[[[122.465043236925681,10.699101736309226],[122.465042919903098,10.699282612027007],[122.465042602874746,10.699463487742834],[122.465042285840781,10.699644363456441],[122.465225171838682,10.699644676954824],[122.46522548876429,10.69946380123571],[122.465225805684284,10.699282925514554],[122.465226122598423,10.699102049791266],[122.465226439507063,10.698921174065935],[122.465226756410004,10.698740298338384],[122.465043870953892,10.69873998486718],[122.465043553942593,10.698920860589224],[122.465043236925681,10.699101736309226]]],[[[122.465590943851538,10.69964530362998],[122.46559126056043,10.699464427900031],[122.465591577263538,10.699283552168039],[122.465408691471154,10.699283238894898],[122.465408374659518,10.699464114621472],[122.465408057842268,10.699644990346004],[122.465407741019348,10.699825866068403],[122.465590627136976,10.699826179357798],[122.465590943851538,10.69964530362998]]],[[[122.465224221027967,10.700187304099464],[122.465407107356626,10.700187617506897],[122.465407424190829,10.700006741788672],[122.465224537970528,10.700006428386656],[122.465224221027967,10.700187304099464]]],[[[122.470527926855027,10.700196349396419],[122.470528023980734,10.700140365593818],[122.470345305314481,10.700043375293454],[122.470345040368443,10.700196038990319],[122.470527926855027,10.700196349396419]]],[[[122.470710185947993,10.700558411438189],[122.47071049965048,10.700377535567819],[122.470527613049768,10.700377225263503],[122.470527299238839,10.700558101128456],[122.470526985422396,10.700738976991277],[122.470526671600282,10.700919852852055],[122.470709558526153,10.700920163172535],[122.470709872239823,10.700739287306428],[122.47089275906302,10.700739597514287],[122.470893072662662,10.70055872164072],[122.470710185947993,10.700558411438189]]],[[[122.471072824217103,10.702367790430779],[122.471255712027059,10.70236810047246],[122.471438599842529,10.702368410406939],[122.471438286511841,10.702549286275621],[122.471621174441253,10.702549596108225],[122.471804062376364,10.702549905833715],[122.471804375490166,10.702369029954374],[122.471987263322418,10.702369339567243],[122.47217015116027,10.702369649072908],[122.472353039003721,10.702369958471371],[122.472353351786765,10.702189082573911],[122.472536239527457,10.702189391859841],[122.472719127273649,10.702189701038479],[122.472719439834293,10.70200882512823],[122.472902327477712,10.702009134194336],[122.473085215126829,10.702009443153328],[122.473085527465074,10.7018285672302],[122.473268415011248,10.701828876076659],[122.473451302563106,10.701829184815827],[122.473479872479786,10.701829233029001],[122.473194484907822,10.701647874773448],[122.473085839797633,10.701647691305029],[122.472902952365502,10.701647382356784],[122.472720064938699,10.701647073301336],[122.472537177517665,10.701646764138685],[122.472354290102231,10.701646454868831],[122.472354602862808,10.701465578962933],[122.472171715561416,10.701465269591205],[122.472171402692396,10.701646145491774],[122.472171089817692,10.70182702139021],[122.471988202305099,10.701826711900621],[122.471805314798004,10.701826402303739],[122.471622427296495,10.701826092599743],[122.471439539800684,10.701825782788456],[122.471439853108905,10.701644906911424],[122.471256965727136,10.701644596998351],[122.471256652310473,10.701825472870054],[122.471073764825931,10.701825162844449],[122.470890877346733,10.701824852711551],[122.47070798987329,10.70182454247154],[122.470708303615126,10.701643666615913],[122.470525416255654,10.701643356274028],[122.470342528901853,10.701643045824939],[122.47015964155365,10.701642735268647],[122.469976754211146,10.701642424605152],[122.469977068380985,10.701461548768888],[122.47015995561506,10.701461859426965],[122.470160269670856,10.701280983583329],[122.470343156802159,10.701281294128874],[122.470343470744012,10.701100418277688],[122.470526357772556,10.701100728710701],[122.470526671600282,10.700919852852055],[122.470343784679997,10.70091954242446],[122.47016089776541,10.700919231889573],[122.470160583720883,10.701100107737473],[122.469977696703623,10.701099797090142],[122.469977382544968,10.701280672930581],[122.46979449542485,10.701280362170541],[122.469794181152423,10.701461238003519],[122.469611293929376,10.701460927131036],[122.469428406712083,10.701460616151261],[122.469428092217257,10.70164149197136],[122.469245204897035,10.701641180879053],[122.469062317582583,10.701640869679542],[122.469062002865357,10.701821745486852],[122.469061688142261,10.702002621291941],[122.468878800616693,10.70200230997448],[122.46887848577974,10.702183185772197],[122.468878170937018,10.702364061567694],[122.468877856088781,10.702544937361148],[122.46887754123486,10.70272581315256],[122.469060429194116,10.702726124491514],[122.469243317158899,10.702726435723354],[122.469243631796004,10.702545559921196],[122.469426519658114,10.702545871040416],[122.469426834181178,10.702364995230797],[122.469427148698571,10.702184119419135],[122.46961003634955,10.702184430420315],[122.469792924006043,10.702184741314381],[122.469793238301023,10.702003865489841],[122.469976125854757,10.702004176271286],[122.469976440035794,10.701823300439285],[122.470159327486755,10.701823611108109],[122.470342214943301,10.701823921669819],[122.470341900979079,10.702004797512567],[122.470524788549668,10.702005107972402],[122.470707676125954,10.702005418325035],[122.47070736237302,10.702186294176398],[122.4707070486144,10.702367170025719],[122.470889936412902,10.702367480281806],[122.471072824217103,10.702367790430779]],[[122.469244261053277,10.702183808310663],[122.469244575673514,10.702002932502198],[122.469244890288252,10.701822056691691],[122.469427777716561,10.701822367789417],[122.469610665150739,10.70182267877985],[122.469610350752987,10.702003554601193],[122.469427463210366,10.702003243605342],[122.469427148698571,10.702184119419135],[122.469244261053277,10.702183808310663]]],[[[122.474912224281638,10.703097782660377],[122.474911912988333,10.703278658622052],[122.475094801457601,10.703278966438935],[122.475094490267239,10.703459842403808],[122.475094179071363,10.703640718366549],[122.474911290385123,10.703640410539007],[122.474910979075219,10.703821286494376],[122.474728090286305,10.703820978554303],[122.474545201502977,10.703820670506937],[122.474544889970758,10.704001546449605],[122.474544578432671,10.704182422390053],[122.474544266889268,10.704363298328458],[122.474361377786195,10.704362990157902],[122.474361066128751,10.704543866088935],[122.474543955340252,10.704544174264731],[122.474726844557267,10.704544482333324],[122.474726533111109,10.704725358272883],[122.474909422441996,10.704725666239602],[122.474909111098683,10.704906542182359],[122.474908799749869,10.705087418122984],[122.475091689303156,10.705087725993069],[122.475274578862198,10.705088033755951],[122.475274889994211,10.704907157804668],[122.475092000543782,10.704906850047115],[122.475092311778553,10.704725974099029],[122.475092623007995,10.7045450981489],[122.475275512241708,10.704545405895795],[122.475458401480935,10.704545713535486],[122.475641290725832,10.704546021067886],[122.475640979821819,10.704726897034002],[122.475640668912121,10.704907772998075],[122.475457779450409,10.704907465454928],[122.475457468426768,10.705088341411541],[122.475640357996923,10.705088648959928],[122.475823247572663,10.705088956401111],[122.475823558379432,10.704908080433841],[122.476006447852242,10.704908387762492],[122.476189337330638,10.704908694983851],[122.476372226814561,10.704909002098008],[122.476371916333136,10.705089878081088],[122.476554805931002,10.705090185093281],[122.476554495552435,10.705271061079648],[122.476737385264343,10.705271367989878],[122.476737074988634,10.705452243979442],[122.476919964814485,10.705452550787799],[122.477102854646034,10.705452857488863],[122.477103164704857,10.70527198148873],[122.477286054433463,10.705272288077262],[122.477468944167398,10.705272594558592],[122.477651833907103,10.705272900932629],[122.477652143635083,10.705092024914466],[122.477652453357464,10.70491114889426],[122.477835342885783,10.704911455150524],[122.477838636244471,10.70491146066346],[122.477481586881112,10.704620662921656],[122.477470075697994,10.70461201467824],[122.477469873660056,10.704729966513694],[122.477469563834745,10.704910842530792],[122.477469254003822,10.705091718545757],[122.477286364378244,10.705091412069757],[122.477286674317526,10.704910536060121],[122.477103784805806,10.704910229482158],[122.477104094848016,10.704729353475718],[122.476921205450438,10.704729046795793],[122.476738316058274,10.704728740008663],[122.476555426671524,10.704728433114331],[122.476372537290473,10.704728126112707],[122.476372847760871,10.704547250125364],[122.476373158225599,10.704366374135889],[122.476190269067018,10.70436606703772],[122.476007379913952,10.704365759832259],[122.4758244907663,10.704365452519594],[122.475824801550857,10.704184576543975],[122.476007690589967,10.704184883851399],[122.476008001260482,10.704004007868319],[122.476008311925483,10.703823131883196],[122.476008622584985,10.703642255895941],[122.475825733871034,10.703641948604504],[122.475826044633379,10.703461072620447],[122.47564315603347,10.703460765227137],[122.475460267439161,10.703460457726623],[122.475460578412807,10.703279581751092],[122.475277689932355,10.703279274148615],[122.475278001008775,10.703098398176371],[122.47509511264245,10.703098090471931],[122.475095423821628,10.702917214502884],[122.475095479401801,10.702884907421302],[122.474580729008096,10.702528805957879],[122.474364774269631,10.702391570918607],[122.474364494054598,10.702554230732643],[122.474364182452831,10.702735106684637],[122.474547070580059,10.702735414807231],[122.474546759081136,10.702916290762422],[122.474729647322405,10.702916598783142],[122.474729335926341,10.70309747474162],[122.474912224281638,10.703097782660377]]],[[[122.478017922914034,10.705092637330361],[122.478061178750821,10.705092709714554],[122.478017982989485,10.70505752906128],[122.478017922914034,10.705092637330361]]],[[[122.47893113529949,10.705817670701125],[122.478930826308428,10.705998546747887],[122.479113716526072,10.705998852285171],[122.479113771632854,10.705966582762047],[122.478931156009168,10.705805547530558],[122.47893113529949,10.705817670701125]]],[[[122.473633878107307,10.702010369386906],[122.473633566088708,10.70219124532389],[122.473633254064524,10.702372121258742],[122.473816141952739,10.702372429799491],[122.473999029846453,10.702372738233036],[122.474181917745767,10.702373046559378],[122.47433603282316,10.702373306287962],[122.473634021589618,10.701927191792446],[122.473633878107307,10.702010369386906]]],[[[122.475457157397599,10.705269217366022],[122.475457468426768,10.705088341411541],[122.475274578862198,10.705088033755951],[122.475274267724686,10.705268909705103],[122.475457157397599,10.705269217366022]]],[[[122.479112172030156,10.706903232513655],[122.479295062795529,10.706903537970115],[122.479295371597317,10.706722661923264],[122.479295680393591,10.70654178587437],[122.479295989184365,10.706360909823433],[122.47929629796954,10.706180033770364],[122.479113407638039,10.706179728335043],[122.479113098744236,10.706360604382871],[122.479112789845018,10.706541480428568],[122.479112480940387,10.706722356472133],[122.479112172030156,10.706903232513655]]],[[[122.478927117984554,10.708169059144724],[122.478926808921827,10.708349935164042],[122.479109700549358,10.708350240769983],[122.47910939158939,10.708531116792587],[122.479292283330963,10.708531422296476],[122.479292592182304,10.708350546268631],[122.47929290102833,10.708169670238656],[122.479110009503728,10.708169364745336],[122.479110318452598,10.707988488718557],[122.479110627396054,10.707807612689647],[122.479110936333896,10.707626736658606],[122.479111245266253,10.707445860625521],[122.478928354181036,10.707445555046048],[122.478928045140151,10.707626431073892],[122.478927736093851,10.707807307099605],[122.478927427041967,10.707988183123186],[122.478744535637006,10.707987877420612],[122.478744226471065,10.708168753436821],[122.478927117984554,10.708169059144724]]],[[[122.4796599185551,10.707446776720454],[122.479659609948087,10.707627652769348],[122.479476718737828,10.707627347506422],[122.47929382753307,10.707627042136115],[122.479293518703656,10.707807918172398],[122.479476410016858,10.707808223547945],[122.479476101290572,10.707989099587424],[122.479475792558418,10.708169975624683],[122.479658684094204,10.708170280903508],[122.479658375465078,10.708351156943964],[122.479658066830538,10.708532032982378],[122.479657758190413,10.708712909018749],[122.47965744954486,10.708893785052899],[122.479657140893792,10.709074661085006],[122.479656832237225,10.709255537114982],[122.479839724429112,10.709255842318134],[122.479839415875389,10.709436718351308],[122.480022308181489,10.709437023452496],[122.48002199973071,10.709617899488778],[122.480204892150766,10.709618204487915],[122.480205200492918,10.709437328446304],[122.480205508829741,10.70925645240265],[122.48002261662667,10.709256147414083],[122.480022925066351,10.709075271373537],[122.479840032977222,10.709074966282918],[122.479840341520017,10.70889409024557],[122.479840650057042,10.708713214206091],[122.479840958588724,10.708532338164479],[122.480023850352325,10.708532643239289],[122.480023541929171,10.708713519286141],[122.480023233500518,10.70889439533086],[122.480206125486689,10.708894700308948],[122.480389017478103,10.708895005179743],[122.480571909475216,10.708895309943246],[122.480572217578526,10.708714433882717],[122.480755109472611,10.708714738533688],[122.480755417461879,10.708533862465698],[122.480755725445661,10.708352986395754],[122.480756033423916,10.708172110323678],[122.480756341396585,10.707991234249382],[122.48075664936384,10.707810358173132],[122.480756957325582,10.707629482094662],[122.480757253420833,10.707455572488264],[122.48074993899057,10.707448593811852],[122.480574374146883,10.707448301400037],[122.480574066082198,10.70762917747531],[122.480573758012,10.707810053548451],[122.480573449936301,10.707990929619461],[122.480573141855274,10.708171805688428],[122.480390250291876,10.708171500945975],[122.480389942096707,10.70835237700757],[122.48020705043055,10.708352072152584],[122.480207358734148,10.708171196096318],[122.480207667032332,10.707990320037831],[122.480207975325015,10.707809443977302],[122.4802082836121,10.70762856791473],[122.480025392385315,10.707628262973502],[122.479842501163944,10.707627957925071],[122.479842809662415,10.707447081870937],[122.4796599185551,10.707446776720454]],[[122.480024775588575,10.707990015086123],[122.479841884150403,10.707989710027123],[122.479658992717731,10.707989404860919],[122.479659301335658,10.7078085288162],[122.479842192659888,10.707808833977163],[122.480025083989702,10.707809139030923],[122.480024775588575,10.707990015086123]]],[[[122.479474866329369,10.708712603724114],[122.479475175077866,10.708531727693073],[122.479292283330963,10.708531422296476],[122.479291974473853,10.708712298322189],[122.479474866329369,10.708712603724114]]]]}},
{"type":"Feature","properties":{"fid":95,"HAZ":2.0,"layer":"Iloilo_StormSurge_SSA4","path":"/Users/jhannaroseverzo/Downloads/Iloilo/Iloilo_StormSurge_SSA4.shp","Risk Level":"Medium","fid_2":113,"SYSTRA ID":"113","DAR ID":"181","Target Year":"2027","Bridge Category":"Original List","Bridge Name":"STA. MONICA BRIDGE","Coordinates Y":"10.740083","Coordinates X":"122.449111","Region":"VI","Province":"ILOILO","ARC 2026":"non-ARC","LINEAR METER IVF 2026":"20","EIRR 2026":"0.17","NEW/REPLACEMENT BRIDGE 2026":"replacement","Visited by SYSTRA":"Yes","Selected for 2nd Visit of SYSTRA":"No","Final Funder":"Trésor","2023 IVF URL":"https://drive.google.com/open?id=1SipVGKOA7cbEgvT13Wa-6tIbuJU2qTOX","2026 IVF URL":"https://docs.google.com/spreadsheets/u/1/d/12_pOPTsfNFvX68wg4zU1yu1ppzUsen8v/edit"},"geometry":{"type":"MultiPolygon","coordinates":[[[[122.445115965889656,10.695087671159888],[122.445298848549243,10.695087996200416],[122.445298960126621,10.695026577634561],[122.444933130118514,10.695061556261312],[122.444933083236094,10.695087346012246],[122.445115965889656,10.695087671159888]]],[[[122.446030379245883,10.695089295291206],[122.445847496563019,10.695088970679224],[122.445664613885839,10.695088645960039],[122.445664285505671,10.69526952113914],[122.445847168291039,10.695269845863921],[122.446030051082431,10.695270170481498],[122.446212933879693,10.695270494991961],[122.446213261934787,10.695089619796073],[122.446030379245883,10.695089295291206]]],[[[122.446761254570234,10.695452343091207],[122.446944137499301,10.695452667178719],[122.447127020434237,10.695452991159117],[122.447127347953753,10.695272115937295],[122.446944465127089,10.695271791962492],[122.44676158230638,10.695271467880575],[122.446761254570234,10.695452343091207]]],[[[122.448224318166552,10.695454932791661],[122.448041435196629,10.695454609454037],[122.44785855223239,10.695454286009388],[122.44767566927402,10.695453962457536],[122.447675342073609,10.695634837694103],[122.447858225140266,10.69563516125155],[122.448041108212763,10.695635484701794],[122.448223991291144,10.695635808045013],[122.448224318166552,10.695454932791661]]],[[[122.451881004649138,10.696004003132144],[122.451698121237527,10.696003681920731],[122.451515237831686,10.696003360602026],[122.451332354431614,10.696003039176295],[122.451332679477119,10.695822163832348],[122.451149796191189,10.69582184230501],[122.450966912911113,10.695821520670558],[122.450784029636893,10.695821198928902],[122.450784355001517,10.69564032359961],[122.450601471841523,10.695640001756347],[122.450418588687214,10.695639679806058],[122.450235705538773,10.695639357748567],[122.450235379849246,10.695820233061161],[122.450052496598303,10.695819910890959],[122.450052170794564,10.696000786195915],[122.450235054153694,10.696001108371712],[122.45041793751885,10.696001430440306],[122.450600820889704,10.696001752401786],[122.450783704266414,10.696002074256151],[122.450966587648978,10.696002396003314],[122.450966262381073,10.696183271334027],[122.451149145877778,10.69618359297967],[122.451332029380339,10.696183914518111],[122.451514912888769,10.696184235949437],[122.451697796402968,10.696184557273559],[122.451880679922937,10.696184878490657],[122.452063563448775,10.696185199600551],[122.452063888066618,10.696004324236531],[122.451881004649138,10.696004003132144]]],[[[122.449320963652795,10.695818621138743],[122.449503846880376,10.695818943737491],[122.449503520751662,10.695999819025749],[122.44968640409337,10.696000141522978],[122.449686078067231,10.696181016814611],[122.449685752035052,10.696361892104202],[122.449868635599344,10.696362214505418],[122.449868309669668,10.696543089798562],[122.449867983734293,10.696723965089484],[122.449685099953285,10.696723642677165],[122.449684773903698,10.69690451796045],[122.449684447848256,10.697085393241602],[122.44986733184588,10.697085715665112],[122.449867657793064,10.696904840378364],[122.450050541688114,10.696905162689164],[122.450050867520986,10.696724287394689],[122.450051193348173,10.696543412098171],[122.450051519169406,10.696362536799521],[122.450051844984785,10.69618166149874],[122.450052170794564,10.696000786195915],[122.449869287440947,10.696000463913004],[122.449869613353044,10.695819588613643],[122.449686730113825,10.695819266229124],[122.449687056128425,10.695638390933228],[122.449504173003419,10.69563806844719],[122.449504499120508,10.695457193154757],[122.449321616109458,10.695456870567201],[122.449138733104363,10.695456547872441],[122.448955850105222,10.695456225070567],[122.44877296711168,10.695455902161489],[122.44877264056133,10.695636777431629],[122.448955523663059,10.695637100346213],[122.449138406770658,10.695637423153682],[122.449138080430984,10.695818298432881],[122.449320963652795,10.695818621138743]]],[[[122.452429006110691,10.696366716871898],[122.452611889762281,10.696367037665867],[122.452794773419654,10.696367358352722],[122.452977657082812,10.696367678932463],[122.452977981164906,10.696186803542775],[122.452795097610021,10.69618648296863],[122.452612214061006,10.696186162287281],[122.452429330517759,10.696185841498819],[122.452246446980382,10.696185520603242],[122.452063563448775,10.696185199600551],[122.452063238824977,10.696366074962439],[122.452246122464942,10.696366395970726],[122.452429006110691,10.696366716871898]]],[[[122.454623287199425,10.696551434765501],[122.45480617102875,10.69655175427925],[122.454806494033306,10.69637087883636],[122.454623610312169,10.696370559328118],[122.454440726596886,10.696370239712762],[122.454257842887458,10.696369919990202],[122.454074959183629,10.696369600160528],[122.454074635745741,10.696550475581391],[122.454257519557828,10.696550795416572],[122.454440403375784,10.696551115144638],[122.454623287199425,10.696551434765501]]],[[[122.461207108687063,10.696562869756322],[122.461389992723511,10.696563185412712],[122.461522440406426,10.696563413938712],[122.461207252311198,10.696481487961965],[122.461207108687063,10.696562869756322]]],[[[122.458463527985415,10.696738997603918],[122.458646412044246,10.696739314872973],[122.45882929610876,10.696739632034914],[122.458829616735486,10.696558756473008],[122.458646732779329,10.696558439316574],[122.458463848828856,10.696558122052936],[122.458280964884153,10.696557804682184],[122.458098080945319,10.696557487204229],[122.458097759885163,10.696738362744197],[122.458280643932355,10.696738680227659],[122.458463527985415,10.696738997603918]]],[[[122.460475572598909,10.696561606059442],[122.460292688591153,10.696561289867303],[122.460109804589166,10.696560973568049],[122.459926920592864,10.696560657161593],[122.459744036602331,10.69656034064811],[122.459561152617496,10.696560024027336],[122.459378268638417,10.696559707299537],[122.459195384665037,10.696559390464445],[122.459195064254843,10.696740266037365],[122.459377948336595,10.696740582877874],[122.459560832424017,10.69674089961118],[122.459743716517309,10.696741216237372],[122.459926600616114,10.69674153275645],[122.460109484720775,10.696741849168324],[122.460292368831119,10.696742165472996],[122.460475252947319,10.696742481670642],[122.460658137069032,10.696742797760995],[122.460841021196515,10.696743113744324],[122.460841340631575,10.696562238122199],[122.460658456612535,10.696561922144378],[122.460475572598909,10.696561606059442]]],[[[122.463217879303571,10.697108963155712],[122.463338057730056,10.697109169818461],[122.463317341200849,10.697102024993885],[122.463217944266233,10.69707201736723],[122.463217879303571,10.697108963155712]]],[[[122.463217561259924,10.697289838842407],[122.463217879303571,10.697108963155712],[122.463034994885206,10.697108648554567],[122.463034676733116,10.697289524235755],[122.463217561259924,10.697289838842407]]],[[[122.463766274468213,10.697256855439102],[122.463583500156986,10.697193819281972],[122.463583330330422,10.69729046773419],[122.463766214874198,10.697290782019321],[122.463766274468213,10.697256855439102]]],[[[122.463217243210607,10.69747071452697],[122.463400127851372,10.697471029031925],[122.463583012497821,10.697471343429678],[122.463583330330422,10.69729046773419],[122.463400445792331,10.697290153341855],[122.463217561259924,10.697289838842407],[122.463217243210607,10.69747071452697]]],[[[122.461937369692507,10.697287634345733],[122.461937050884771,10.697468509992193],[122.461754166289481,10.697468194630057],[122.461753847367703,10.697649070268968],[122.461936732071081,10.697649385636522],[122.462119616780328,10.697649700897051],[122.462119935485475,10.697468825247215],[122.462302820092049,10.697469140395123],[122.462485704704392,10.697469455435828],[122.462485386215874,10.697650331096499],[122.46266827094226,10.697650646035507],[122.462668589322419,10.697469770369329],[122.462851473946131,10.697470085195716],[122.462851792212163,10.697289209521989],[122.462668907696809,10.697288894701108],[122.462486023187139,10.697288579772936],[122.462303138683254,10.697288264737738],[122.462120254184953,10.697287949595337],[122.461937369692507,10.697287634345733]]],[[[122.463034040411983,10.697651275592003],[122.463216925155422,10.697651590209491],[122.463217243210607,10.69747071452697],[122.463034358575527,10.6974703999149],[122.463034040411983,10.697651275592003]]],[[[122.46157064363392,10.697829630425483],[122.461753528439971,10.697829945905747],[122.461753847367703,10.697649070268968],[122.46157096266974,10.697648754794121],[122.46157064363392,10.697829630425483]]],[[[122.46266827094226,10.697650646035507],[122.462667952556401,10.697831521699554],[122.462850837396829,10.697831836536777],[122.46303372224294,10.697832151266885],[122.463034040411983,10.697651275592003],[122.46285115567423,10.697650960867312],[122.46266827094226,10.697650646035507]]],[[[122.461570324592145,10.698010506054713],[122.46157064363392,10.697829630425483],[122.461387758833368,10.697829314838105],[122.461387439683421,10.698010190461828],[122.461570324592145,10.698010506054713]]],[[[122.461204235516206,10.698190750378002],[122.461387120527604,10.698191066083508],[122.461387439683421,10.698010190461828],[122.461204554780196,10.698009874761828],[122.461204235516206,10.698190750378002]]],[[[122.461203916246347,10.698371625992133],[122.461204235516206,10.698190750378002],[122.461021350510407,10.698190434565381],[122.461021031132276,10.698371310174005],[122.461203916246347,10.698371625992133]]],[[[122.467238496800633,10.698743739448714],[122.467238785833189,10.698578145139146],[122.467056038551306,10.698498716445918],[122.467055927095942,10.698562551372705],[122.466873041691613,10.698562238978594],[122.466872725769576,10.69874311475686],[122.467055611282348,10.698743427156389],[122.467238496800633,10.698743739448714]]],[[[122.465776679066835,10.698017735113131],[122.4655937940272,10.698017421985119],[122.465593477363697,10.698198297731766],[122.465410592221374,10.698197984491133],[122.465410275443929,10.698378860230319],[122.465409958660615,10.698559735967462],[122.465227073307176,10.69855942260879],[122.465226756410004,10.698740298338384],[122.465226439507063,10.698921174065935],[122.465226122598423,10.699102049791266],[122.465225805684284,10.699282925514554],[122.46522548876429,10.69946380123571],[122.465225171838682,10.699644676954824],[122.465224854907405,10.699825552671806],[122.465224537970528,10.700006428386656],[122.465407424190829,10.700006741788672],[122.465407741019348,10.699825866068403],[122.465408057842268,10.699644990346004],[122.465408374659518,10.699464114621472],[122.465408691471154,10.699283238894898],[122.465591577263538,10.699283552168039],[122.465591893961133,10.699102676433915],[122.465592210652957,10.698921800697748],[122.465592527339112,10.698740924959361],[122.465775412812178,10.698741238109134],[122.465775729384461,10.698560362363287],[122.465958614754783,10.698560675400438],[122.466141500130774,10.698560988330387],[122.466141816480572,10.698380112571661],[122.466324701753891,10.698380425388988],[122.466507587032908,10.698380738099202],[122.46650778333273,10.698268422992578],[122.465776738111671,10.697983997014383],[122.465776679066835,10.698017735113131]]],[[[122.470527926855027,10.700196349396419],[122.470527613049768,10.700377225263503],[122.47071049965048,10.700377535567819],[122.470710185947993,10.700558411438189],[122.470893072662662,10.70055872164072],[122.47089275906302,10.700739597514287],[122.470709872239823,10.700739287306428],[122.470709558526153,10.700920163172535],[122.470526671600282,10.700919852852055],[122.470526357772556,10.701100728710701],[122.470343470744012,10.701100418277688],[122.470343156802159,10.701281294128874],[122.470160269670856,10.701280983583329],[122.47015995561506,10.701461859426965],[122.469977068380985,10.701461548768888],[122.469976754211146,10.701642424605152],[122.47015964155365,10.701642735268647],[122.470342528901853,10.701643045824939],[122.470525416255654,10.701643356274028],[122.470708303615126,10.701643666615913],[122.47070798987329,10.70182454247154],[122.470890877346733,10.701824852711551],[122.471073764825931,10.701825162844449],[122.471256652310473,10.701825472870054],[122.471256965727136,10.701644596998351],[122.471439853108905,10.701644906911424],[122.471439539800684,10.701825782788456],[122.471622427296495,10.701826092599743],[122.471805314798004,10.701826402303739],[122.471988202305099,10.701826711900621],[122.472171089817692,10.70182702139021],[122.472171402692396,10.701646145491774],[122.472171715561416,10.701465269591205],[122.472354602862808,10.701465578962933],[122.472354290102231,10.701646454868831],[122.472537177517665,10.701646764138685],[122.472720064938699,10.701647073301336],[122.472902952365502,10.701647382356784],[122.473085839797633,10.701647691305029],[122.473194484907822,10.701647874773448],[122.47307027948429,10.701568944640695],[122.471647333756067,10.700740876264756],[122.471624306411314,10.700740837273871],[122.471623993239518,10.700921713166712],[122.471441106285667,10.700921403382248],[122.471441419565835,10.700740527494736],[122.47125853272594,10.700740217608397],[122.471258846108853,10.700559341724171],[122.471317514506666,10.700559441131148],[122.470528023980734,10.700140365593818],[122.470527926855027,10.700196349396419]]],[[[122.475095423821628,10.702917214502884],[122.47509511264245,10.703098090471931],[122.475278001008775,10.703098398176371],[122.475277689932355,10.703279274148615],[122.475460578412807,10.703279581751092],[122.475460267439161,10.703460457726623],[122.47564315603347,10.703460765227137],[122.475826044633379,10.703461072620447],[122.475825733871034,10.703641948604504],[122.476008622584985,10.703642255895941],[122.476008311925483,10.703823131883196],[122.476008001260482,10.704004007868319],[122.476007690589967,10.704184883851399],[122.475824801550857,10.704184576543975],[122.4758244907663,10.704365452519594],[122.476007379913952,10.704365759832259],[122.476190269067018,10.70436606703772],[122.476373158225599,10.704366374135889],[122.476372847760871,10.704547250125364],[122.476372537290473,10.704728126112707],[122.476555426671524,10.704728433114331],[122.476738316058274,10.704728740008663],[122.476921205450438,10.704729046795793],[122.477104094848016,10.704729353475718],[122.477103784805806,10.704910229482158],[122.477286674317526,10.704910536060121],[122.477286364378244,10.705091412069757],[122.477469254003822,10.705091718545757],[122.477469563834745,10.704910842530792],[122.477469873660056,10.704729966513694],[122.477470075697994,10.70461201467824],[122.476051920841797,10.703546568297371],[122.475095479401801,10.702884907421302],[122.475095423821628,10.702917214502884]]],[[[122.479113716526072,10.705998852285171],[122.479113407638039,10.706179728335043],[122.47929629796954,10.706180033770364],[122.479295989184365,10.706360909823433],[122.479295680393591,10.70654178587437],[122.479295371597317,10.706722661923264],[122.479295062795529,10.706903537970115],[122.479112172030156,10.706903232513655],[122.479111863114326,10.707084108553046],[122.479111554192997,10.707264984590394],[122.479111245266253,10.707445860625521],[122.479110936333896,10.707626736658606],[122.479110627396054,10.707807612689647],[122.479110318452598,10.707988488718557],[122.479110009503728,10.708169364745336],[122.47929290102833,10.708169670238656],[122.479292592182304,10.708350546268631],[122.479292283330963,10.708531422296476],[122.479475175077866,10.708531727693073],[122.479474866329369,10.708712603724114],[122.479474557575372,10.708893479753025],[122.47965744954486,10.708893785052899],[122.479657758190413,10.708712909018749],[122.479658066830538,10.708532032982378],[122.479658375465078,10.708351156943964],[122.479658684094204,10.708170280903508],[122.479475792558418,10.708169975624683],[122.479476101290572,10.707989099587424],[122.479476410016858,10.707808223547945],[122.479293518703656,10.707807918172398],[122.47929382753307,10.707627042136115],[122.479476718737828,10.707627347506422],[122.479659609948087,10.707627652769348],[122.4796599185551,10.707446776720454],[122.479842809662415,10.707447081870937],[122.479842501163944,10.707627957925071],[122.480025392385315,10.707628262973502],[122.4802082836121,10.70762856791473],[122.480207975325015,10.707809443977302],[122.480207667032332,10.707990320037831],[122.480207358734148,10.708171196096318],[122.48020705043055,10.708352072152584],[122.480389942096707,10.70835237700757],[122.480390250291876,10.708171500945975],[122.480573141855274,10.708171805688428],[122.480573449936301,10.707990929619461],[122.480573758012,10.707810053548451],[122.480574066082198,10.70762917747531],[122.480574374146883,10.707448301400037],[122.48074993899057,10.707448593811852],[122.480207592240617,10.706931142372135],[122.479113771632854,10.705966582762047],[122.479113716526072,10.705998852285171]]],[[[122.469244575673514,10.702002932502198],[122.469244261053277,10.702183808310663],[122.469427148698571,10.702184119419135],[122.469427463210366,10.702003243605342],[122.469610350752987,10.702003554601193],[122.469610665150739,10.70182267877985],[122.469427777716561,10.701822367789417],[122.469244890288252,10.701822056691691],[122.469244575673514,10.702002932502198]]],[[[122.475640979821819,10.704726897034002],[122.475641290725832,10.704546021067886],[122.475458401480935,10.704545713535486],[122.475275512241708,10.704545405895795],[122.475092623007995,10.7045450981489],[122.475092311778553,10.704725974099029],[122.475092000543782,10.704906850047115],[122.475274889994211,10.704907157804668],[122.475274578862198,10.705088033755951],[122.475457468426768,10.705088341411541],[122.475457779450409,10.704907465454928],[122.475640668912121,10.704907772998075],[122.475640979821819,10.704726897034002]]]]}},
{"type":"Feature","properties":{"fid":96,"HAZ":3.0,"layer":"Iloilo_StormSurge_SSA4","path":"/Users/jhannaroseverzo/Downloads/Iloilo/Iloilo_StormSurge_SSA4.shp","Risk Level":"High","fid_2":113,"SYSTRA ID":"113","DAR ID":"181","Target Year":"2027","Bridge Category":"Original List","Bridge Name":"STA. MONICA BRIDGE","Coordinates Y":"10.740083","Coordinates X":"122.449111","Region":"VI","Province":"ILOILO","ARC 2026":"non-ARC","LINEAR METER IVF 2026":"20","EIRR 2026":"0.17","NEW/REPLACEMENT BRIDGE 2026":"replacement","Visited by SYSTRA":"Yes","Selected for 2nd Visit of SYSTRA":"No","Final Funder":"Trésor","2023 IVF URL":"https://drive.google.com/open?id=1SipVGKOA7cbEgvT13Wa-6tIbuJU2qTOX","2026 IVF URL":"https://docs.google.com/spreadsheets/u/1/d/12_pOPTsfNFvX68wg4zU1yu1ppzUsen8v/edit"},"geometry":{"type":"MultiPolygon","coordinates":[[[[122.462851473946131,10.697470085195716],[122.462668589322419,10.697469770369329],[122.46266827094226,10.697650646035507],[122.46285115567423,10.697650960867312],[122.463034040411983,10.697651275592003],[122.463034358575527,10.6974703999149],[122.463217243210607,10.69747071452697],[122.463217561259924,10.697289838842407],[122.463034676733116,10.697289524235755],[122.462851792212163,10.697289209521989],[122.462851473946131,10.697470085195716]]],[[[122.445298848549243,10.695087996200416],[122.445481731214528,10.695088321133829],[122.445664613885839,10.695088645960039],[122.445847496563019,10.695088970679224],[122.446030379245883,10.695089295291206],[122.446213261934787,10.695089619796073],[122.446212933879693,10.695270494991961],[122.446395816682639,10.69527081939531],[122.446578699491624,10.695271143691544],[122.44676158230638,10.695271467880575],[122.446944465127089,10.695271791962492],[122.447127347953753,10.695272115937295],[122.447127020434237,10.695452991159117],[122.447309903374929,10.695453315032401],[122.447492786321504,10.69545363879857],[122.44767566927402,10.695453962457536],[122.44785855223239,10.695454286009388],[122.448041435196629,10.695454609454037],[122.448224318166552,10.695454932791661],[122.448223991291144,10.695635808045013],[122.448406874375365,10.695636131281029],[122.448589757465371,10.695636454409842],[122.44877264056133,10.695636777431629],[122.44877296711168,10.695455902161489],[122.448955850105222,10.695456225070567],[122.449138733104363,10.695456547872441],[122.449321616109458,10.695456870567201],[122.449504499120508,10.695457193154757],[122.449504173003419,10.69563806844719],[122.449687056128425,10.695638390933228],[122.449686730113825,10.695819266229124],[122.449869613353044,10.695819588613643],[122.449869287440947,10.696000463913004],[122.450052170794564,10.696000786195915],[122.450052496598303,10.695819910890959],[122.450235379849246,10.695820233061161],[122.450235705538773,10.695639357748567],[122.450418588687214,10.695639679806058],[122.450601471841523,10.695640001756347],[122.450784355001517,10.69564032359961],[122.450784029636893,10.695821198928902],[122.450966912911113,10.695821520670558],[122.451149796191189,10.69582184230501],[122.451332679477119,10.695822163832348],[122.451332354431614,10.696003039176295],[122.451515237831686,10.696003360602026],[122.451698121237527,10.696003681920731],[122.451881004649138,10.696004003132144],[122.452063888066618,10.696004324236531],[122.452063563448775,10.696185199600551],[122.452246446980382,10.696185520603242],[122.452429330517759,10.696185841498819],[122.452612214061006,10.696186162287281],[122.452795097610021,10.69618648296863],[122.452977981164906,10.696186803542775],[122.452977657082812,10.696367678932463],[122.45316054075181,10.696367999405],[122.453343424426592,10.696368319770423],[122.453526308107158,10.696368640028643],[122.453709191793479,10.696368960179749],[122.453892075485669,10.69636928022374],[122.454074959183629,10.696369600160528],[122.454257842887458,10.696369919990202],[122.454440726596886,10.696370239712762],[122.454623610312169,10.696370559328118],[122.454806494033306,10.69637087883636],[122.45480617102875,10.69655175427925],[122.454989054864114,10.696552073685885],[122.455171938704993,10.696552392985316],[122.455354822551726,10.696552712177633],[122.455537706404314,10.696553031262836],[122.455720590262771,10.696553350240835],[122.455903474126742,10.696553669111632],[122.456086357996568,10.696553987875403],[122.456269241872249,10.69655430653197],[122.456452125753628,10.696554625081335],[122.456635009640763,10.696554943523585],[122.456817893533682,10.696555261858721],[122.457000777432285,10.696555580086654],[122.457183661336842,10.696555898207473],[122.457366545246899,10.696556216221088],[122.45754942916291,10.696556534127678],[122.457732313084605,10.696556851926976],[122.457915197011985,10.696557169619249],[122.458098080945319,10.696557487204229],[122.458280964884153,10.696557804682184],[122.458463848828856,10.696558122052936],[122.458646732779329,10.696558439316574],[122.458829616735486,10.696558756473008],[122.45882929610876,10.696739632034914],[122.459012180178959,10.696739949089741],[122.459195064254843,10.696740266037365],[122.459195384665037,10.696559390464445],[122.459378268638417,10.696559707299537],[122.459561152617496,10.696560024027336],[122.459744036602331,10.69656034064811],[122.459926920592864,10.696560657161593],[122.460109804589166,10.696560973568049],[122.460292688591153,10.696561289867303],[122.460475572598909,10.696561606059442],[122.460658456612535,10.696561922144378],[122.460841340631575,10.696562238122199],[122.461024224656484,10.696562553992818],[122.461207108687063,10.696562869756322],[122.461207252311198,10.696481487961965],[122.459863828907245,10.696132295602789],[122.45811087624223,10.695748722769357],[122.456344053181425,10.695433500840048],[122.454566082909125,10.695187115600383],[122.452779705763291,10.695009946737285],[122.450987675017259,10.694902267254994],[122.449192752641807,10.694864243055196],[122.447397705053589,10.694895932682005],[122.445605298857231,10.694997287232246],[122.445298960126621,10.695026577634561],[122.445298848549243,10.695087996200416]]],[[[122.463217879303571,10.697108963155712],[122.463217561259924,10.697289838842407],[122.463400445792331,10.697290153341855],[122.463583330330422,10.69729046773419],[122.463583500156986,10.697193819281972],[122.463338057730056,10.697109169818461],[122.463217879303571,10.697108963155712]]],[[[122.471258846108853,10.700559341724171],[122.47125853272594,10.700740217608397],[122.471441419565835,10.700740527494736],[122.471441106285667,10.700921403382248],[122.471623993239518,10.700921713166712],[122.471624306411314,10.700740837273871],[122.471647333756067,10.700740876264756],[122.471522900816396,10.70066846381766],[122.471317514506666,10.700559441131148],[122.471258846108853,10.700559341724171]]]]}}
]
}
