{
"type": "FeatureCollection",
"name": "SYSTRA ID_453",
"crs": { "type": "name", "properties": { "name": "urn:ogc:def:crs:OGC:1.3:CRS84" } },
"xy_coordinate_resolution": 1e-15,
"features": [
{"type":"Feature","properties":{"fid":166,"HAZ":1.0,"layer":"Sarangani_StormSurge_SSA4","path":"/Users/jhannaroseverzo/Downloads/Sarangani/Sarangani_StormSurge_SSA4.shp","Risk Level":"Low","fid_2":453,"SYSTRA ID":"453","DAR ID":"453","Target Year":"BUFFER A","Bridge Category":"Buffer List","Bridge Name":"MALAYO BRIDGE 1","Coordinates Y":"5.9675","Coordinates X":"124.779722","Region":"XII","Province":"SARANGANI","ARC 2026":"","LINEAR METER IVF 2026":"","EIRR 2026":"","NEW/REPLACEMENT BRIDGE 2026":"","Visited by SYSTRA":"No","Selected for 2nd Visit of SYSTRA":"No","Final Funder":"No Funder","2023 IVF URL":"https://docs.google.com/spreadsheets/u/1/d/1CaMGSBEafl4d8ZwRrvYZvFiex_RfpLPs/edit","2026 IVF URL":"https://docs.google.com/spreadsheets/u/1/d/1CaMGSBEafl4d8ZwRrvYZvFiex_RfpLPs/edit"},"geometry":{"type":"MultiPolygon","coordinates":[[[[124.776202954535464,5.922480820753581],[124.776202793794297,5.922430519762715],[124.776034604940875,5.922440992269272],[124.776022223825791,5.922442253323291],[124.776022348907674,5.922481399369403],[124.776202954535464,5.922480820753581]]],[[[124.775844632384846,5.923386175209252],[124.775844054524327,5.923205335755174],[124.77566344862592,5.923205914324633],[124.775664026427719,5.923386753796475],[124.775844632384846,5.923386175209252]]],[[[124.775122786092055,5.923569328729513],[124.775123363753707,5.923750168252248],[124.77530396988216,5.923749589805801],[124.775484575992593,5.923749011300469],[124.775665182085163,5.923748432736517],[124.775664604247467,5.923567593267073],[124.775483998213602,5.923568171813262],[124.775303392161803,5.923568750300742],[124.775122786092055,5.923569328729513]]],[[[124.774219755474135,5.92357221999141],[124.774400361633582,5.923571641856537],[124.774580967775094,5.923571063662955],[124.774580390307506,5.923390224085686],[124.774399784224713,5.923390802261505],[124.774219178123971,5.923391380378614],[124.774038572005196,5.923391958436838],[124.773857965868572,5.923392536436353],[124.773677359713915,5.923393114377159],[124.773496753541409,5.923393692259079],[124.773316147350968,5.923394270082291],[124.77313554114258,5.923394847846705],[124.772954934916328,5.92339542555241],[124.772774328672057,5.923396003199318],[124.772593722409937,5.923396580787429],[124.772413116129783,5.923397158316742],[124.772413692893039,5.923577998107174],[124.772233086536332,5.923578575595542],[124.772052480161761,5.923579153025024],[124.771871873769172,5.923579730395797],[124.771691267358719,5.923580307707862],[124.771691843905089,5.923761147568104],[124.771872450374246,5.923760570238365],[124.771873026997255,5.9239414100796],[124.772053633507184,5.923940832673299],[124.77223423999925,5.92394025520829],[124.772414846473296,5.923939677684395],[124.772414269674243,5.92375883789645],[124.772594876071722,5.92375826033161],[124.772775482451266,5.923757682707972],[124.772956088812961,5.923757105025537],[124.772955511855628,5.923576265289551],[124.77313611814067,5.923575687566171],[124.773316724407678,5.923575109783993],[124.773497330656838,5.923574531943018],[124.773677936888049,5.923573954043245],[124.773858543101326,5.923573376084764],[124.77403914929674,5.923572798067486],[124.774219755474135,5.92357221999141]]],[[[124.768980547545141,5.923588965509744],[124.768288999016647,5.923772014159896],[124.768440924399044,5.923771529452967],[124.768621531190348,5.923770953181137],[124.768802137963789,5.923770376850598],[124.768982744719295,5.923769800461262],[124.768982169053473,5.92358896033501],[124.768980547545141,5.923588965509744]]],[[[124.77096999417887,5.923944296229319],[124.7709694178494,5.923763456299355],[124.770788811290714,5.923764033335196],[124.770789387561564,5.923944873282924],[124.77096999417887,5.923944296229319]]],[[[124.76970632341768,5.924129174423051],[124.769705747481225,5.923948334370163],[124.769525140738509,5.923948911012364],[124.769525716616258,5.924129751082926],[124.76970632341768,5.924129174423051]]],[[[124.770068113038604,5.924308860943114],[124.770067536966792,5.924128020926997],[124.769886930201167,5.924128597704378],[124.769887506214275,5.924309437738259],[124.770068113038604,5.924308860943114]]],[[[124.766638305294748,5.924862331050459],[124.766818912616998,5.924861755260288],[124.766818337548386,5.924680914928956],[124.766637730284756,5.924681490701452],[124.766638305294748,5.924862331050459]]],[[[124.76645769795465,5.924862906781833],[124.766458272923785,5.925043747147271],[124.766638880322603,5.925043171398222],[124.766638305294748,5.924862331050459],[124.76645769795465,5.924862906781833]]],[[[124.765374053538849,5.924866359935773],[124.765193446073766,5.924866935255654],[124.765194020631867,5.925047775744904],[124.765374628155726,5.925047200407349],[124.765374053538849,5.924866359935773]]],[[[124.76501341309023,5.925048351023662],[124.765012838590764,5.924867510516737],[124.764832231089983,5.924868085719023],[124.764832805530659,5.925048926243711],[124.76501341309023,5.925048351023662]]],[[[124.766097632942078,5.925225738868697],[124.766097058072504,5.925044898469153],[124.765916450620054,5.925045474041898],[124.765917025430909,5.925226314459117],[124.766097632942078,5.925225738868697]]],[[[124.764837401698898,5.926495650396099],[124.764836827115403,5.926314809881358],[124.764656219127019,5.926315385166333],[124.76465679365181,5.926496225698749],[124.764837401698898,5.926495650396099]]],[[[124.765019159066185,5.926856756025142],[124.765018584388287,5.926675915530563],[124.764837976300242,5.926676490909596],[124.764838550919436,5.92685733142185],[124.765019159066185,5.926856756025142]]],[[[124.765200916721867,5.927217861519626],[124.765200341949551,5.927037021045209],[124.765019733761946,5.927037596518478],[124.765020308475556,5.92721843701057],[124.765200916721867,5.927217861519626]]],[[[124.765202641145947,5.927760382935595],[124.765202066320072,5.927579542464908],[124.765021457956252,5.927580117991202],[124.765022032723408,5.927760958479652],[124.765202641145947,5.927760382935595]]],[[[124.763942403215481,5.929030294635037],[124.764123012156361,5.929029719320308],[124.764122437558029,5.928848878752188],[124.763941828675954,5.928849454049242],[124.763942403215481,5.929030294635037]]],[[[124.763942403215481,5.929030294635037],[124.763761794256851,5.929030869890969],[124.763762368755437,5.929211710493284],[124.763942977772871,5.929211135219678],[124.763942403215481,5.929030294635037]]],[[[124.763762368755437,5.929211710493284],[124.763581759720154,5.929212285708005],[124.763582334177883,5.929393126326751],[124.763762943271871,5.929392551094267],[124.763762368755437,5.929211710493284]]],[[[124.763584057657994,5.929935648175441],[124.763583483146803,5.929754807560425],[124.763402873917357,5.929755382769372],[124.763403448369843,5.929936223401974],[124.763404022840092,5.930117064033421],[124.763584632187033,5.930116488789213],[124.763584057657994,5.929935648175441]]],[[[124.763586355881117,5.930659010623071],[124.763766965386509,5.930658435267041],[124.763766390745204,5.930477594674585],[124.763585781298602,5.930478170013028],[124.763586355881117,5.930659010623071]]],[[[124.763586355881117,5.930659010623071],[124.763405746357961,5.930659585920303],[124.76340632089952,5.930840426546865],[124.76358693048148,5.930839851231958],[124.763586355881117,5.930659010623071]]],[[[124.76340632089952,5.930840426546865],[124.763225711299711,5.930841001802886],[124.763045101682053,5.930841577000109],[124.763045676123966,5.931022417660689],[124.763226285800343,5.931021842445791],[124.763406895458942,5.931021267172095],[124.76340632089952,5.930840426546865]]],[[[124.762865066429654,5.9310229928167],[124.762684456717579,5.931023567913826],[124.76268503105976,5.931204408608512],[124.762865640830626,5.931203833493711],[124.763046250583656,5.931203258320025],[124.763045676123966,5.931022417660689],[124.762865066429654,5.9310229928167]]],[[[124.76268503105976,5.931204408608512],[124.762504421271117,5.931204983664514],[124.76232381146464,5.931205558661631],[124.762324385707061,5.931386399390334],[124.762504995572357,5.931385824375543],[124.76268560541979,5.931385249301954],[124.76268503105976,5.931204408608512]]],[[[124.762324385707061,5.931386399390334],[124.762143775824015,5.931386974346239],[124.762144350025508,5.931567815091373],[124.762324959967259,5.931567240117793],[124.762324385707061,5.931386399390334]]],[[[124.762144350025508,5.931567815091373],[124.761963740065809,5.931568390006156],[124.761964314226262,5.931749230767721],[124.762144924244751,5.931748655835353],[124.762144350025508,5.931567815091373]]],[[[124.761785426602074,5.932292327971464],[124.761966036814727,5.932291753044957],[124.761965462600813,5.932110912287122],[124.761784852446951,5.932111487195954],[124.761785426602074,5.932292327971464]]],[[[124.761604816371658,5.932292902838995],[124.76160539048584,5.932473743630936],[124.761786000775047,5.93247316874573],[124.761785426602074,5.932292327971464],[124.761604816371658,5.932292902838995]]],[[[124.753832844748416,5.930509150903681],[124.753833416157377,5.930689992464963],[124.754014026623068,5.930689420286569],[124.754014598108597,5.93087026182911],[124.754195208615329,5.930869689574333],[124.754375819104382,5.93086911726067],[124.754376390725085,5.931049958766796],[124.754557001255165,5.931049386376749],[124.754557572952436,5.931230227864045],[124.754738183523557,5.931229655397527],[124.754738755297296,5.931410496865993],[124.754919365909458,5.931409924323091],[124.754919937759752,5.931590765772818],[124.75510054841294,5.931590193153443],[124.755101120339802,5.93177103458434],[124.755101692284342,5.931951876013994],[124.755282303037362,5.93195130330065],[124.755282875058455,5.932132144711474],[124.755463485852516,5.932131571921659],[124.755464057950164,5.932312413313653],[124.755464630065504,5.932493254704493],[124.755645240959382,5.932492681820619],[124.755645813151276,5.93267352319263],[124.755646385361032,5.932854364563308],[124.755826996354656,5.932853791585465],[124.755827568640967,5.933034632937403],[124.755828140944942,5.933215474288097],[124.756008752038497,5.933214901216108],[124.75600932441904,5.933395742548061],[124.756009896817346,5.933576583878683],[124.756190508010633,5.933576010712724],[124.756191080485493,5.933756852024516],[124.756191652978131,5.933937693335064],[124.756192225488519,5.934118534644458],[124.756372836840526,5.934117961366766],[124.756373409427482,5.934298802657331],[124.756373982032201,5.934479643946563],[124.75655459348404,5.934479070574902],[124.756555166165327,5.934659911845394],[124.756555738864364,5.934840753114553],[124.756736350416034,5.934840179648834],[124.756736923191639,5.935021020899253],[124.756737495985107,5.93520186214834],[124.756738068796238,5.935382703396272],[124.756918680506615,5.935382129818819],[124.756919253394315,5.935562971047922],[124.756919826299864,5.935743812275781],[124.756920399223077,5.935924653502397],[124.756920972164153,5.936105494727858],[124.756921545122893,5.936286335951987],[124.756922118099496,5.936467177174872],[124.757102730144993,5.936466603433018],[124.757283342172812,5.936466029632189],[124.757463954182882,5.936465455772385],[124.757644566175088,5.936464881853784],[124.757825178149531,5.936464307876207],[124.758005790106296,5.936463733839833],[124.758186402045212,5.936463159744484],[124.758367013966364,5.936462585590249],[124.758547625869753,5.936462011377039],[124.75854705236371,5.936281170312604],[124.758727664190531,5.936280596058094],[124.758727090643461,5.93609975501009],[124.758907702393543,5.936099180714368],[124.758907128805532,5.935918339682619],[124.758906555235185,5.935737498649715],[124.758905981682688,5.935556657615479],[124.758725370108991,5.935557231858354],[124.758724796633061,5.935376390805377],[124.75872422317488,5.935195549751068],[124.758904834630982,5.935194975543453],[124.758904261131789,5.935014134505575],[124.758903687650431,5.934833293466454],[124.759084298971089,5.934832719235125],[124.759083725448619,5.934651878212435],[124.759264336692624,5.934651303939894],[124.759263763129198,5.934470462933547],[124.759263189583635,5.934289621925956],[124.759443800692196,5.934289047629701],[124.759443227105592,5.934108206638541],[124.759442653536667,5.933927365646138],[124.759623264509955,5.933926791326257],[124.759622690900088,5.933745950350197],[124.75962211730797,5.933565109372982],[124.759621543733715,5.933384268394434],[124.75980215451267,5.933383694068603],[124.759801580897388,5.933202853106486],[124.759982191599875,5.933202278739355],[124.759982765273961,5.933383119683885],[124.760163376017388,5.933382545240281],[124.760343986743052,5.933381970737791],[124.760524597450853,5.933381396176504],[124.760705208140905,5.933380821556241],[124.760885818813193,5.933380246877181],[124.760885244845113,5.933199406020847],[124.760704634231629,5.933199980682321],[124.760524023600382,5.933200555284909],[124.760343412951372,5.93320112982861],[124.760342839177454,5.933020288918097],[124.760162228569385,5.933020863385327],[124.760161654872107,5.932840022455984],[124.759981044305079,5.932840596846741],[124.759800433720187,5.932841171178612],[124.759619823117532,5.932841745451508],[124.759620396638496,5.933022586433786],[124.759439785959202,5.933023160665471],[124.759440359439125,5.933204001664091],[124.759440932936826,5.933384842661468],[124.759441506452376,5.933565683657513],[124.759260895578919,5.933566257883246],[124.759261469053428,5.933747098895811],[124.7592620425457,5.933927939907043],[124.759262616055736,5.934108780917121],[124.75908200498813,5.934109355136815],[124.759082578457225,5.934290196163236],[124.758901967312966,5.934290770341718],[124.758902540741019,5.934471611384481],[124.75890311418685,5.934652452426089],[124.758722502907219,5.934653026580946],[124.758723076312009,5.934833867638897],[124.758542464955838,5.934834441752365],[124.758543038319587,5.935015282826747],[124.758362426886762,5.935015856899003],[124.758363000209485,5.935196697989728],[124.758182388700092,5.935197272020684],[124.758182961981774,5.935378113127751],[124.758002350395827,5.935378687117495],[124.758002923636383,5.935559528240994],[124.757822311973868,5.935560102189349],[124.757822885173411,5.93574094332919],[124.757642273434243,5.935741517236334],[124.757461661677311,5.935742091084503],[124.757461088595377,5.93556124990949],[124.757280476879487,5.935561823681187],[124.757279903874107,5.935380982487256],[124.75727933088649,5.935200141292171],[124.757098719270431,5.93520071496981],[124.757098146359382,5.935019873755806],[124.756917534784435,5.935020447356973],[124.75691696195004,5.93483960612414],[124.756916389133309,5.934658764890152],[124.756735777658193,5.934659338397172],[124.756735204918115,5.934478497144354],[124.756734632195801,5.934297655890205],[124.756554020820531,5.934298229303167],[124.75655344817477,5.934117388030277],[124.756552875546788,5.933936546756144],[124.756372264271334,5.933937120075047],[124.756371691719906,5.933756278782084],[124.756371119186241,5.933575437487878],[124.75637054667034,5.933394596192429],[124.756189935553522,5.933395169399599],[124.756189363114188,5.93321432808532],[124.756188790692605,5.933033486769887],[124.756188218288713,5.932852645453121],[124.756007607330602,5.932853218548736],[124.756007035003265,5.932672377213141],[124.756006462693776,5.932491535876391],[124.755825851835425,5.932492108877948],[124.75582527960249,5.93231126752228],[124.755824707387234,5.932130426165457],[124.755644096628714,5.932130999072957],[124.755643524490026,5.931950157697305],[124.755642952369087,5.931769316320409],[124.755462341710398,5.931769889133939],[124.755461769666027,5.931589047738214],[124.75528115904828,5.931589620475272],[124.755280587080478,5.931408779060718],[124.755099976503843,5.931409351721303],[124.755099404612508,5.931228510288008],[124.754918794076829,5.931229082872211],[124.754918222262049,5.931048241419997],[124.754737611767496,5.931048813927816],[124.754737040029198,5.930867972456774],[124.754556429575572,5.930868544888121],[124.754555857913843,5.930687703398338],[124.754375247501343,5.930688275753301],[124.754374675915983,5.930507434244689],[124.754194065544525,5.93050800652318],[124.754013455155302,5.930508578742874],[124.754012931579467,5.93034288749162],[124.753776025077215,5.930509330885779],[124.753832844748416,5.930509150903681]]]]}},
{"type":"Feature","properties":{"fid":167,"HAZ":2.0,"layer":"Sarangani_StormSurge_SSA4","path":"/Users/jhannaroseverzo/Downloads/Sarangani/Sarangani_StormSurge_SSA4.shp","Risk Level":"Medium","fid_2":453,"SYSTRA ID":"453","DAR ID":"453","Target Year":"BUFFER A","Bridge Category":"Buffer List","Bridge Name":"MALAYO BRIDGE 1","Coordinates Y":"5.9675","Coordinates X":"124.779722","Region":"XII","Province":"SARANGANI","ARC 2026":"","LINEAR METER IVF 2026":"","EIRR 2026":"","NEW/REPLACEMENT BRIDGE 2026":"","Visited by SYSTRA":"No","Selected for 2nd Visit of SYSTRA":"No","Final Funder":"No Funder","2023 IVF URL":"https://docs.google.com/spreadsheets/u/1/d/1CaMGSBEafl4d8ZwRrvYZvFiex_RfpLPs/edit","2026 IVF URL":"https://docs.google.com/spreadsheets/u/1/d/1CaMGSBEafl4d8ZwRrvYZvFiex_RfpLPs/edit"},"geometry":{"type":"MultiPolygon","coordinates":[[[[124.776023504620355,5.922843078250647],[124.776204110365555,5.922842499599209],[124.776203532441542,5.922661660177017],[124.776202954535464,5.922480820753581],[124.776022348907674,5.922481399369403],[124.776022926755047,5.922662238810602],[124.776023504620355,5.922843078250647]]],[[[124.776023504620355,5.922843078250647],[124.775842898857206,5.922843656843288],[124.775843476681843,5.923024496299853],[124.776024082503696,5.92302391768936],[124.776023504620355,5.922843078250647]]],[[[124.773856234277702,5.922850017483835],[124.773675628299173,5.922850595371262],[124.773495022302797,5.92285117319998],[124.773314416288386,5.922851750969901],[124.773133810256112,5.922852328681024],[124.773133585399336,5.922781846478966],[124.772772532892247,5.922833028336354],[124.772772598137678,5.922853483927057],[124.772624901141484,5.922853956226523],[124.772515234627861,5.922869502264151],[124.7718699840092,5.92298700764028],[124.771870144061495,5.92303721086099],[124.771689537827086,5.923037788119764],[124.771589378289789,5.923038108219882],[124.771147970693349,5.923118492126764],[124.771148295333148,5.923220359460654],[124.770967688968355,5.923220936502091],[124.770968265244178,5.923401776435696],[124.770968841537865,5.923582616368147],[124.770788235037884,5.923583193386225],[124.770788811290714,5.923764033335196],[124.7709694178494,5.923763456299355],[124.771150024390224,5.923762879204716],[124.771330630913127,5.92376230205128],[124.771511237418068,5.923761724839046],[124.771691843905089,5.923761147568104],[124.771691267358719,5.923580307707862],[124.771871873769172,5.923579730395797],[124.772052480161761,5.923579153025024],[124.772233086536332,5.923578575595542],[124.772413692893039,5.923577998107174],[124.772413116129783,5.923397158316742],[124.772593722409937,5.923396580787429],[124.772774328672057,5.923396003199318],[124.772954934916328,5.92339542555241],[124.77313554114258,5.923394847846705],[124.773316147350968,5.923394270082291],[124.773496753541409,5.923393692259079],[124.773677359713915,5.923393114377159],[124.773857965868572,5.923392536436353],[124.774038572005196,5.923391958436838],[124.774219178123971,5.923391380378614],[124.774399784224713,5.923390802261505],[124.774580390307506,5.923390224085686],[124.774580967775094,5.923571063662955],[124.774761573898743,5.923570485410576],[124.774942180004373,5.923569907099399],[124.775122786092055,5.923569328729513],[124.775303392161803,5.923568750300742],[124.775483998213602,5.923568171813262],[124.775664604247467,5.923567593267073],[124.775664026427719,5.923386753796475],[124.77566344862592,5.923205914324633],[124.775844054524327,5.923205335755174],[124.775843476681843,5.923024496299853],[124.775662870841956,5.923025074851459],[124.77548226498422,5.923025653344357],[124.77530165910855,5.923026231778458],[124.775121053214846,5.92302681015385],[124.774940447303194,5.923027388470445],[124.774759841373694,5.923027966728242],[124.774759263901217,5.922847127165095],[124.774578658012317,5.922847705346332],[124.774398052105639,5.922848283468859],[124.774217446180927,5.922848861532589],[124.774036840238281,5.922849439537611],[124.773856234277702,5.922850017483835]]],[[[124.769163351456953,5.923769224013128],[124.769162775732426,5.92358838390464],[124.768982169053473,5.92358896033501],[124.768980547545141,5.923588965509744],[124.768801711209946,5.92363630238981],[124.768802137963789,5.923770376850598],[124.768982744719295,5.923769800461262],[124.769163351456953,5.923769224013128]]],[[[124.768440924399044,5.923771529452967],[124.76844079807536,5.923731833880931],[124.768288999016647,5.923772014159896],[124.768440924399044,5.923771529452967]]],[[[124.770788811290714,5.923764033335196],[124.770608204714165,5.923764610312329],[124.770427598119596,5.923765187230575],[124.770428174273036,5.923946027213741],[124.770608780926224,5.923945450277731],[124.770789387561564,5.923944873282924],[124.770788811290714,5.923764033335196]]],[[[124.769525140738509,5.923948911012364],[124.769524564878623,5.923768070940557],[124.769343958176762,5.923768647506286],[124.769344533977943,5.923949487595767],[124.769525140738509,5.923948911012364]]],[[[124.768079884752922,5.923827365421777],[124.767899428021167,5.92387513121087],[124.767899679249368,5.923954098146819],[124.768080286153022,5.923953522033706],[124.768079884752922,5.923827365421777]]],[[[124.770428174273036,5.923946027213741],[124.770247567601913,5.923946604091043],[124.770066960912928,5.923947180909547],[124.770067536966792,5.924128020926997],[124.770248143714483,5.924127444090729],[124.770428750444239,5.924126867195753],[124.770428174273036,5.923946027213741]]],[[[124.767358433604528,5.924136666416743],[124.767539040620548,5.924136090462259],[124.767719647618605,5.924135514448977],[124.767719072327864,5.923954674201223],[124.767597453278896,5.923955062071358],[124.767358057542253,5.924018428653226],[124.767358433604528,5.924136666416743]]],[[[124.767358433604528,5.924136666416743],[124.767177826570673,5.924137242312518],[124.766997219519041,5.924137818149497],[124.766997794592811,5.924318658466795],[124.767178401703234,5.924318082612142],[124.767359008795722,5.924317506698692],[124.767358433604528,5.924136666416743]]],[[[124.766997794592811,5.924318658466795],[124.76681718746454,5.924319234262651],[124.766817762497539,5.92450007459647],[124.766998369684515,5.924499498782851],[124.766997794592811,5.924318658466795]]],[[[124.764652197953311,5.925049501404875],[124.764832805530659,5.925048926243711],[124.764832231089983,5.924868085719023],[124.764716532275798,5.924868454161214],[124.764651695154257,5.92489119828701],[124.764652197953311,5.925049501404875]]],[[[124.765917025430909,5.925226314459117],[124.765916450620054,5.925045474041898],[124.765735843149827,5.925046049555757],[124.765736417901977,5.925226889990739],[124.765917025430909,5.925226314459117]]],[[[124.764471590358127,5.925050076507329],[124.764472164699228,5.925230917066035],[124.764472739058277,5.925411757623497],[124.76447331343509,5.925592598179716],[124.764473887829766,5.92577343873478],[124.764654495659784,5.925772863561626],[124.764653921206417,5.925592023024326],[124.764653346770885,5.925411182485693],[124.764652772353216,5.925230341945905],[124.764652197953311,5.925049501404875],[124.764471590358127,5.925050076507329]]],[[[124.765201491512045,5.927398701992889],[124.765200916721867,5.927217861519626],[124.765020308475556,5.92721843701057],[124.76502088320693,5.927399277501507],[124.765201491512045,5.927398701992889]]],[[[124.764841999009164,5.927942374469616],[124.764841424282949,5.927761533964734],[124.764660815824712,5.927762109391107],[124.764661390492222,5.927942949913664],[124.764841999009164,5.927942374469616]]],[[[124.764301897161744,5.928486622291537],[124.764482505890697,5.928486046912148],[124.764481931228332,5.928305206375558],[124.764301322558183,5.928305781737361],[124.764301897161744,5.928486622291537]]],[[[124.764301897161744,5.928486622291537],[124.764121288415026,5.928487197612128],[124.764121862977646,5.928668038182735],[124.764302471783068,5.928667462844469],[124.764301897161744,5.928486622291537]]],[[[124.763582908653461,5.929573966944165],[124.763582334177883,5.929393126326751],[124.763401725065947,5.929393701500349],[124.763402299482721,5.929574542135438],[124.763402873917357,5.929755382769372],[124.763583483146803,5.929754807560425],[124.763582908653461,5.929573966944165]]],[[[124.76232381146464,5.931205558661631],[124.762504421271117,5.931204983664514],[124.76268503105976,5.931204408608512],[124.762684456717579,5.931023567913826],[124.762865066429654,5.9310229928167],[124.763045676123966,5.931022417660689],[124.763045101682053,5.930841577000109],[124.763225711299711,5.930841001802886],[124.76340632089952,5.930840426546865],[124.763405746357961,5.930659585920303],[124.763586355881117,5.930659010623071],[124.763585781298602,5.930478170013028],[124.76358520673385,5.930297329401743],[124.763584632187033,5.930116488789213],[124.763404022840092,5.930117064033421],[124.763403448369843,5.929936223401974],[124.763222839063843,5.929936798569798],[124.763223413475387,5.930117639218832],[124.763223987904695,5.93029847986671],[124.763224562351851,5.930479320513346],[124.763043952851774,5.930479895675219],[124.763044527257989,5.930660736338286],[124.762863917681273,5.930661311458948],[124.762683308086793,5.930661886520813],[124.762683882393262,5.930842727217986],[124.762503272722128,5.930843302238639],[124.762322663033245,5.930843877200406],[124.762323237240054,5.931024717931596],[124.762142627474518,5.93102529285224],[124.761962017691118,5.931025867713998],[124.761781407889956,5.931026442516959],[124.761780833859532,5.930845601732745],[124.761600224099325,5.930846176459234],[124.761419614321255,5.930846751126747],[124.761420188234169,5.931027591946222],[124.76123957837963,5.931028166572613],[124.761240152251517,5.93120900740843],[124.76105954232041,5.93120958199361],[124.761060116151356,5.931390422845858],[124.76106069000015,5.931571263696863],[124.761241300048923,5.931570689076423],[124.761421910079861,5.931570114397097],[124.761422484064013,5.931750955211598],[124.761423058066015,5.931931796024944],[124.76142363208578,5.932112636836958],[124.761424206123394,5.932293477647729],[124.761424780178771,5.932474318457345],[124.76160539048584,5.932473743630936],[124.761604816371658,5.932292902838995],[124.761785426602074,5.932292327971464],[124.761784852446951,5.932111487195954],[124.761965462600813,5.932110912287122],[124.761964888404648,5.931930071528043],[124.761964314226262,5.931749230767721],[124.761963740065809,5.931568390006156],[124.762144350025508,5.931567815091373],[124.762143775824015,5.931386974346239],[124.762324385707061,5.931386399390334],[124.76232381146464,5.931205558661631]]],[[[124.754013455155302,5.930508578742874],[124.754194065544525,5.93050800652318],[124.754374675915983,5.930507434244689],[124.754375247501343,5.930688275753301],[124.754555857913843,5.930687703398338],[124.754556429575572,5.930868544888121],[124.754737040029198,5.930867972456774],[124.754737611767496,5.931048813927816],[124.754918222262049,5.931048241419997],[124.754918794076829,5.931229082872211],[124.755099404612508,5.931228510288008],[124.755099976503843,5.931409351721303],[124.755280587080478,5.931408779060718],[124.75528115904828,5.931589620475272],[124.755461769666027,5.931589047738214],[124.755462341710398,5.931769889133939],[124.755642952369087,5.931769316320409],[124.755643524490026,5.931950157697305],[124.755644096628714,5.932130999072957],[124.755824707387234,5.932130426165457],[124.75582527960249,5.93231126752228],[124.755825851835425,5.932492108877948],[124.756006462693776,5.932491535876391],[124.756007035003265,5.932672377213141],[124.756007607330602,5.932853218548736],[124.756188218288713,5.932852645453121],[124.756188790692605,5.933033486769887],[124.756189363114188,5.93321432808532],[124.756189935553522,5.933395169399599],[124.75637054667034,5.933394596192429],[124.756371119186241,5.933575437487878],[124.756371691719906,5.933756278782084],[124.756372264271334,5.933937120075047],[124.756552875546788,5.933936546756144],[124.75655344817477,5.934117388030277],[124.756554020820531,5.934298229303167],[124.756734632195801,5.934297655890205],[124.756735204918115,5.934478497144354],[124.756735777658193,5.934659338397172],[124.756916389133309,5.934658764890152],[124.75691696195004,5.93483960612414],[124.756917534784435,5.935020447356973],[124.757098146359382,5.935019873755806],[124.757098719270431,5.93520071496981],[124.75727933088649,5.935200141292171],[124.757279903874107,5.935380982487256],[124.757280476879487,5.935561823681187],[124.757461088595377,5.93556124990949],[124.757461661677311,5.935742091084503],[124.757642273434243,5.935741517236334],[124.757822885173411,5.93574094332919],[124.757822311973868,5.935560102189349],[124.758002923636383,5.935559528240994],[124.758002350395827,5.935378687117495],[124.758182961981774,5.935378113127751],[124.758182388700092,5.935197272020684],[124.758363000209485,5.935196697989728],[124.758362426886762,5.935015856899003],[124.758543038319587,5.935015282826747],[124.758542464955838,5.934834441752365],[124.758723076312009,5.934833867638897],[124.758722502907219,5.934653026580946],[124.75890311418685,5.934652452426089],[124.758902540741019,5.934471611384481],[124.758901967312966,5.934290770341718],[124.759082578457225,5.934290196163236],[124.75908200498813,5.934109355136815],[124.759262616055736,5.934108780917121],[124.7592620425457,5.933927939907043],[124.759261469053428,5.933747098895811],[124.759260895578919,5.933566257883246],[124.759441506452376,5.933565683657513],[124.759440932936826,5.933384842661468],[124.759440359439125,5.933204001664091],[124.759439785959202,5.933023160665471],[124.759620396638496,5.933022586433786],[124.759619823117532,5.932841745451508],[124.759800433720187,5.932841171178612],[124.759981044305079,5.932840596846741],[124.760161654872107,5.932840022455984],[124.760162228569385,5.933020863385327],[124.760342839177454,5.933020288918097],[124.760343412951372,5.93320112982861],[124.760524023600382,5.933200555284909],[124.760704634231629,5.933199980682321],[124.760885244845113,5.933199406020847],[124.761065855440748,5.933198831300487],[124.761065281431641,5.933017990460584],[124.760884670894811,5.93301856516327],[124.760704060340117,5.933019139807158],[124.760703486466454,5.932838298930662],[124.760522875952802,5.932838873497989],[124.760522302155707,5.932658032602664],[124.76052172837646,5.932477191706184],[124.760521154614977,5.932296350808372],[124.760520580871344,5.932115509909405],[124.760520007145473,5.931934669009195],[124.760339396907952,5.931935243429439],[124.760158786652582,5.931935817790887],[124.760158213062169,5.931754976854172],[124.759977602847741,5.931755551139148],[124.759796992615634,5.931756125365148],[124.759797566088551,5.931936966337211],[124.759616955779876,5.931937540522],[124.759436345453366,5.931938114647991],[124.759255735109079,5.931938688715096],[124.75925630842346,5.932119529738763],[124.759075698002619,5.932120103764657],[124.758895087563928,5.932120677731664],[124.758895660778549,5.932301518789259],[124.758715050263305,5.932302092715055],[124.758534439730283,5.932302666581965],[124.758535012845172,5.932483507673577],[124.758354402235597,5.932484081499275],[124.758354975309359,5.932664922607319],[124.758355548400885,5.932845763714031],[124.758356121510275,5.933026604819588],[124.758356694637413,5.933207445923902],[124.75835726778233,5.933388287026972],[124.758357840945081,5.933569128128799],[124.758358414125524,5.933749969229382],[124.758358987323817,5.933930810328722],[124.758359560539859,5.934111651426907],[124.75817894938335,5.93411222535217],[124.758179522558365,5.934293066466697],[124.757998911325288,5.93429364035066],[124.757999484459177,5.934474481481619],[124.757818873149532,5.93447505532437],[124.757638261822038,5.934475629108235],[124.75745765047678,5.934476202833213],[124.757457077519192,5.934295361649497],[124.757276466214975,5.934295935298003],[124.757275893334025,5.934115094095546],[124.757275320470853,5.933934252891756],[124.757094709266454,5.933934826446116],[124.757094136479836,5.933753985223586],[124.757093563710981,5.933573143999723],[124.757092990959805,5.933392302774617],[124.757092418226478,5.933211461548357],[124.757091845510914,5.933030620320853],[124.757272456421234,5.933030046854423],[124.757271883664714,5.932849205643262],[124.757271310925802,5.932668364430857],[124.757270738204809,5.932487523217208],[124.757270165501509,5.932306682002316],[124.757089554826294,5.932307255398314],[124.757088982199548,5.932126414164593],[124.756908371565359,5.932126987484207],[124.756907799015181,5.931946146231656],[124.756907226482753,5.931765304977862],[124.756726615948409,5.931765878203418],[124.756726043492463,5.931585036930795],[124.756545432999147,5.931585610079878],[124.756544860619755,5.931404768788425],[124.756544288258212,5.931223927495729],[124.756363677864641,5.931224500550755],[124.756363105579581,5.931043659239318],[124.756182495227037,5.931044232217872],[124.756181923018531,5.930863390887517],[124.756001312707028,5.930863963789687],[124.755820702377676,5.930864536632971],[124.755820130304528,5.9306836952662],[124.755639520016203,5.930684268033101],[124.755638948019524,5.930503426647501],[124.755458337772239,5.93050399933793],[124.755457765852128,5.930323157933589],[124.755277155645871,5.930323730547546],[124.755276583802228,5.930142889124465],[124.755095973637012,5.930143461661949],[124.755095401869923,5.929962620220039],[124.754914791745733,5.929963192681139],[124.754914220055042,5.929782351220311],[124.754836489723502,5.929782597561268],[124.754515865382743,5.929989541304578],[124.754012931579467,5.93034288749162],[124.754013455155302,5.930508578742874]]],[[[124.761424780178771,5.932474318457345],[124.761244169853939,5.932474893224779],[124.761244743868374,5.932655734050826],[124.761425354252012,5.932655159265629],[124.761424780178771,5.932474318457345]]]]}},
{"type":"Feature","properties":{"fid":168,"HAZ":3.0,"layer":"Sarangani_StormSurge_SSA4","path":"/Users/jhannaroseverzo/Downloads/Sarangani/Sarangani_StormSurge_SSA4.shp","Risk Level":"High","fid_2":453,"SYSTRA ID":"453","DAR ID":"453","Target Year":"BUFFER A","Bridge Category":"Buffer List","Bridge Name":"MALAYO BRIDGE 1","Coordinates Y":"5.9675","Coordinates X":"124.779722","Region":"XII","Province":"SARANGANI","ARC 2026":"","LINEAR METER IVF 2026":"","EIRR 2026":"","NEW/REPLACEMENT BRIDGE 2026":"","Visited by SYSTRA":"No","Selected for 2nd Visit of SYSTRA":"No","Final Funder":"No Funder","2023 IVF URL":"https://docs.google.com/spreadsheets/u/1/d/1CaMGSBEafl4d8ZwRrvYZvFiex_RfpLPs/edit","2026 IVF URL":"https://docs.google.com/spreadsheets/u/1/d/1CaMGSBEafl4d8ZwRrvYZvFiex_RfpLPs/edit"},"geometry":{"type":"MultiPolygon","coordinates":[[[[124.754914220055042,5.929782351220311],[124.754914791745733,5.929963192681139],[124.755095401869923,5.929962620220039],[124.755095973637012,5.930143461661949],[124.755276583802228,5.930142889124465],[124.755277155645871,5.930323730547546],[124.755457765852128,5.930323157933589],[124.755458337772239,5.93050399933793],[124.755638948019524,5.930503426647501],[124.755639520016203,5.930684268033101],[124.755820130304528,5.9306836952662],[124.755820702377676,5.930864536632971],[124.756001312707028,5.930863963789687],[124.756181923018531,5.930863390887517],[124.756182495227037,5.931044232217872],[124.756363105579581,5.931043659239318],[124.756363677864641,5.931224500550755],[124.756544288258212,5.931223927495729],[124.756544860619755,5.931404768788425],[124.756545432999147,5.931585610079878],[124.756726043492463,5.931585036930795],[124.756726615948409,5.931765878203418],[124.756907226482753,5.931765304977862],[124.756907799015181,5.931946146231656],[124.756908371565359,5.932126987484207],[124.757088982199548,5.932126414164593],[124.757089554826294,5.932307255398314],[124.757270165501509,5.932306682002316],[124.757270738204809,5.932487523217208],[124.757271310925802,5.932668364430857],[124.757271883664714,5.932849205643262],[124.757272456421234,5.933030046854423],[124.757091845510914,5.933030620320853],[124.757092418226478,5.933211461548357],[124.757092990959805,5.933392302774617],[124.757093563710981,5.933573143999723],[124.757094136479836,5.933753985223586],[124.757094709266454,5.933934826446116],[124.757275320470853,5.933934252891756],[124.757275893334025,5.934115094095546],[124.757276466214975,5.934295935298003],[124.757457077519192,5.934295361649497],[124.75745765047678,5.934476202833213],[124.757638261822038,5.934475629108235],[124.757818873149532,5.93447505532437],[124.757999484459177,5.934474481481619],[124.757998911325288,5.93429364035066],[124.758179522558365,5.934293066466697],[124.75817894938335,5.93411222535217],[124.758359560539859,5.934111651426907],[124.758358987323817,5.933930810328722],[124.758358414125524,5.933749969229382],[124.758357840945081,5.933569128128799],[124.75835726778233,5.933388287026972],[124.758356694637413,5.933207445923902],[124.758356121510275,5.933026604819588],[124.758355548400885,5.932845763714031],[124.758354975309359,5.932664922607319],[124.758354402235597,5.932484081499275],[124.758535012845172,5.932483507673577],[124.758534439730283,5.932302666581965],[124.758715050263305,5.932302092715055],[124.758895660778549,5.932301518789259],[124.758895087563928,5.932120677731664],[124.759075698002619,5.932120103764657],[124.75925630842346,5.932119529738763],[124.759255735109079,5.931938688715096],[124.759436345453366,5.931938114647991],[124.759616955779876,5.931937540522],[124.759797566088551,5.931936966337211],[124.759796992615634,5.931756125365148],[124.759977602847741,5.931755551139148],[124.760158213062169,5.931754976854172],[124.760158786652582,5.931935817790887],[124.760339396907952,5.931935243429439],[124.760520007145473,5.931934669009195],[124.760520580871344,5.932115509909405],[124.760521154614977,5.932296350808372],[124.76052172837646,5.932477191706184],[124.760522302155707,5.932658032602664],[124.760522875952802,5.932838873497989],[124.760703486466454,5.932838298930662],[124.760704060340117,5.933019139807158],[124.760884670894811,5.93301856516327],[124.761065281431641,5.933017990460584],[124.761064707440397,5.932837149619438],[124.761245317900574,5.932836574875541],[124.761244743868374,5.932655734050826],[124.761244169853939,5.932474893224779],[124.761424780178771,5.932474318457345],[124.761424206123394,5.932293477647729],[124.76142363208578,5.932112636836958],[124.761423058066015,5.931931796024944],[124.761422484064013,5.931750955211598],[124.761421910079861,5.931570114397097],[124.761241300048923,5.931570689076423],[124.76106069000015,5.931571263696863],[124.761060116151356,5.931390422845858],[124.76105954232041,5.93120958199361],[124.761240152251517,5.93120900740843],[124.76123957837963,5.931028166572613],[124.761420188234169,5.931027591946222],[124.761419614321255,5.930846751126747],[124.761600224099325,5.930846176459234],[124.761780833859532,5.930845601732745],[124.761781407889956,5.931026442516959],[124.761962017691118,5.931025867713998],[124.762142627474518,5.93102529285224],[124.762323237240054,5.931024717931596],[124.762322663033245,5.930843877200406],[124.762503272722128,5.930843302238639],[124.762683882393262,5.930842727217986],[124.762683308086793,5.930661886520813],[124.762863917681273,5.930661311458948],[124.763044527257989,5.930660736338286],[124.763043952851774,5.930479895675219],[124.763224562351851,5.930479320513346],[124.763223987904695,5.93029847986671],[124.763223413475387,5.930117639218832],[124.763222839063843,5.929936798569798],[124.763403448369843,5.929936223401974],[124.763402873917357,5.929755382769372],[124.763402299482721,5.929574542135438],[124.763401725065947,5.929393701500349],[124.763582334177883,5.929393126326751],[124.763581759720154,5.929212285708005],[124.763762368755437,5.929211710493284],[124.763761794256851,5.929030869890969],[124.763942403215481,5.929030294635037],[124.763941828675954,5.928849454049242],[124.764122437558029,5.928848878752188],[124.764121862977646,5.928668038182735],[124.764121288415026,5.928487197612128],[124.764301897161744,5.928486622291537],[124.764301322558183,5.928305781737361],[124.764481931228332,5.928305206375558],[124.764481356583914,5.928124365837814],[124.764661965177496,5.928123790434977],[124.764661390492222,5.927942949913664],[124.764660815824712,5.927762109391107],[124.764841424282949,5.927761533964734],[124.765022032723408,5.927760958479652],[124.765021457956252,5.927580117991202],[124.765202066320072,5.927579542464908],[124.765201491512045,5.927398701992889],[124.76502088320693,5.927399277501507],[124.765020308475556,5.92721843701057],[124.765019733761946,5.927037596518478],[124.765019159066185,5.926856756025142],[124.764838550919436,5.92685733142185],[124.764837976300242,5.926676490909596],[124.764837401698898,5.926495650396099],[124.76465679365181,5.926496225698749],[124.764656219127019,5.926315385166333],[124.764655644620092,5.926134544632674],[124.764655070131013,5.925953704097772],[124.764654495659784,5.925772863561626],[124.764473887829766,5.92577343873478],[124.76447331343509,5.925592598179716],[124.764472739058277,5.925411757623497],[124.764472164699228,5.925230917066035],[124.764471590358127,5.925050076507329],[124.764652197953311,5.925049501404875],[124.764651695154257,5.92489119828701],[124.763957859452518,5.925134587970335],[124.762308869196858,5.925786880523462],[124.760686720900338,5.926503489103009],[124.759093915494759,5.927283309124409],[124.757532908716982,5.928125138540163],[124.756006107323913,5.929027679691021],[124.754836489723502,5.929782597561268],[124.754914220055042,5.929782351220311]]],[[[124.764832231089983,5.924868085719023],[124.765012838590764,5.924867510516737],[124.765193446073766,5.924866935255654],[124.765374053538849,5.924866359935773],[124.765374628155726,5.925047200407349],[124.765555235661665,5.925046625010907],[124.765735843149827,5.925046049555757],[124.765916450620054,5.925045474041898],[124.766097058072504,5.925044898469153],[124.766277665507033,5.925044322837611],[124.766458272923785,5.925043747147271],[124.76645769795465,5.924862906781833],[124.766638305294748,5.924862331050459],[124.766637730284756,5.924681490701452],[124.766818337548386,5.924680914928956],[124.766817762497539,5.92450007459647],[124.76681718746454,5.924319234262651],[124.766997794592811,5.924318658466795],[124.766997219519041,5.924137818149497],[124.767177826570673,5.924137242312518],[124.767358433604528,5.924136666416743],[124.767358057542253,5.924018428653226],[124.767326159329357,5.92402687191436],[124.765631149395006,5.92454761686436],[124.764716532275798,5.924868454161214],[124.764832231089983,5.924868085719023]]],[[[124.767719072327864,5.923954674201223],[124.767899679249368,5.923954098146819],[124.767899428021167,5.92387513121087],[124.767597453278896,5.923955062071358],[124.767719072327864,5.923954674201223]]],[[[124.768982169053473,5.92358896033501],[124.769162775732426,5.92358838390464],[124.769163351456953,5.923769224013128],[124.769343958176762,5.923768647506286],[124.769524564878623,5.923768070940557],[124.769525140738509,5.923948911012364],[124.769705747481225,5.923948334370163],[124.76970632341768,5.924129174423051],[124.769886930201167,5.924128597704378],[124.770067536966792,5.924128020926997],[124.770066960912928,5.923947180909547],[124.770247567601913,5.923946604091043],[124.770428174273036,5.923946027213741],[124.770427598119596,5.923765187230575],[124.770608204714165,5.923764610312329],[124.770788811290714,5.923764033335196],[124.770788235037884,5.923583193386225],[124.770968841537865,5.923582616368147],[124.770968265244178,5.923401776435696],[124.770967688968355,5.923220936502091],[124.771148295333148,5.923220359460654],[124.771147970693349,5.923118492126764],[124.770770857183479,5.923187167558508],[124.76904027611323,5.923573155724435],[124.768980547545141,5.923588965509744],[124.768982169053473,5.92358896033501]]],[[[124.771689537827086,5.923037788119764],[124.771870144061495,5.92303721086099],[124.7718699840092,5.92298700764028],[124.771589378289789,5.923038108219882],[124.771689537827086,5.923037788119764]]],[[[124.772772598137678,5.922853483927057],[124.772772532892247,5.922833028336354],[124.772624901141484,5.922853956226523],[124.772772598137678,5.922853483927057]]],[[[124.773133810256112,5.922852328681024],[124.773314416288386,5.922851750969901],[124.773495022302797,5.92285117319998],[124.773675628299173,5.922850595371262],[124.773856234277702,5.922850017483835],[124.774036840238281,5.922849439537611],[124.774217446180927,5.922848861532589],[124.774398052105639,5.922848283468859],[124.774578658012317,5.922847705346332],[124.774759263901217,5.922847127165095],[124.774759841373694,5.923027966728242],[124.774940447303194,5.923027388470445],[124.775121053214846,5.92302681015385],[124.77530165910855,5.923026231778458],[124.77548226498422,5.923025653344357],[124.775662870841956,5.923025074851459],[124.775843476681843,5.923024496299853],[124.775842898857206,5.922843656843288],[124.776023504620355,5.922843078250647],[124.776022926755047,5.922662238810602],[124.776022348907674,5.922481399369403],[124.776022223825791,5.922442253323291],[124.774270719295686,5.922620649357293],[124.773133585399336,5.922781846478966],[124.773133810256112,5.922852328681024]]]]}}
]
}
