{
"type": "FeatureCollection",
"name": "SYSTRA ID_305",
"crs": { "type": "name", "properties": { "name": "urn:ogc:def:crs:OGC:1.3:CRS84" } },
"xy_coordinate_resolution": 1e-15,
"features": [
{"type":"Feature","properties":{"fid":100,"HAZ":1.0,"layer":"LanaoDelNorte_StormSurge_SSA4","path":"/Users/jhannaroseverzo/Downloads/LanaoDelNorte/LanaoDelNorte_StormSurge_SSA4.shp","Risk Level":"Low","fid_2":305,"SYSTRA ID":"305","DAR ID":"311","Target Year":"2028","Bridge Category":"Original List","Bridge Name":"MALINDAWAG BRIDGE (ZONE 6)","Coordinates Y":"8.17933","Coordinates X":"124.25648","Region":"X","Province":"LANAO DEL NORTE","ARC 2026":"Puga-an ARC","LINEAR METER IVF 2026":"45","EIRR 2026":"0.38","NEW/REPLACEMENT BRIDGE 2026":"new","Visited by SYSTRA":"No","Selected for 2nd Visit of SYSTRA":"No","Final Funder":"No Funder","2023 IVF URL":"","2026 IVF URL":"https://docs.google.com/spreadsheets/u/1/d/1tsOMXnYcM9DYRLXND3mZxpt7g1voIlUT/edit"},"geometry":{"type":"MultiPolygon","coordinates":[[[[124.235668268946313,8.219500942550644],[124.235667709110672,8.219320075754437],[124.235849254514363,8.219319517976791],[124.235848694609174,8.219138651191331],[124.236030239917994,8.219138093344229],[124.236029679943357,8.218957226569605],[124.23602911998141,8.218776359793294],[124.235847574837067,8.218776917615527],[124.235666029679948,8.21877747535587],[124.235484484510025,8.218778033014322],[124.235485044225413,8.218958899827937],[124.235303498960548,8.218959457416934],[124.235304058606388,8.219140324241385],[124.235304594553895,8.219313528259907],[124.235659214836375,8.219500970364894],[124.235668268946313,8.219500942550644]]],[[[124.234758863089652,8.218961129692675],[124.23475830370316,8.218780262829322],[124.234757744329457,8.218599395964281],[124.234939289468016,8.218598838645823],[124.23493873002478,8.21841797179153],[124.234938170594319,8.218237104935637],[124.234937611176477,8.218056238078058],[124.234937051771411,8.217875371218879],[124.234755506961562,8.217875928487688],[124.234754947651453,8.217695061614299],[124.234573402911053,8.217695618788783],[124.234391858157878,8.217696175881377],[124.234391299024864,8.217515308981609],[124.234209754341137,8.217515865979879],[124.234028209644705,8.217516422896258],[124.234027650688802,8.217335555969933],[124.233846106061819,8.217336112792077],[124.233664561422145,8.217336669532331],[124.233664002643252,8.21715580257945],[124.233482458073041,8.217156359225468],[124.233300913490112,8.217156915789507],[124.233300354888328,8.216976048810247],[124.233118810374776,8.216976605280051],[124.232937265848605,8.216977161667964],[124.232936707423917,8.216796294662148],[124.232755162967123,8.216796850955825],[124.23257361849771,8.216797407167613],[124.232392074015507,8.2167979632976],[124.232391515849983,8.216617096252881],[124.232209971437328,8.216617652288543],[124.232028427011883,8.216618208242314],[124.232027869023469,8.216437341171217],[124.231846324667572,8.216437897030664],[124.231664780298871,8.216438452808399],[124.231664222487481,8.216257585710744],[124.231482678188328,8.216258141394155],[124.231482120471782,8.216077274282556],[124.231300576242091,8.216077829871642],[124.231300018620416,8.215896962745921],[124.231118474460175,8.21589751824086],[124.230936930287228,8.215898073653909],[124.230936372842649,8.21571720650172],[124.230754828739165,8.215717761820533],[124.230573284623077,8.215718317057457],[124.230572727355423,8.215537449878889],[124.230391183308697,8.215538005021576],[124.230209639249352,8.215538560082374],[124.230209082158709,8.215357692877427],[124.230027538168827,8.215358247843989],[124.230026981173125,8.215177380624921],[124.229845437252706,8.215177935497335],[124.229844880351777,8.214997068264234],[124.229663336500806,8.214997623042324],[124.229662779694735,8.214816755795278],[124.229481235913212,8.214817310479132],[124.229480679201998,8.214636443217964],[124.229480122503404,8.214455575955197],[124.229298578873582,8.21445613053247],[124.229298022269759,8.21427526325567],[124.229116478709486,8.214275817738796],[124.229115922200506,8.214094950447874],[124.22893437870961,8.214095504836765],[124.22875283520608,8.214096059143854],[124.228752278874126,8.213915191826553],[124.228570735440059,8.213915746039406],[124.228389191993301,8.21391630017037],[124.22838974816095,8.214097167512362],[124.228208204619406,8.21409772157387],[124.228026661065172,8.214098275553576],[124.227845117498333,8.214098829451393],[124.22766357391879,8.214099383267408],[124.227482030326541,8.214099937001533],[124.227476851427369,8.214099952795587],[124.22849342990682,8.21492595196379],[124.229554967304836,8.215721429964837],[124.229665563851995,8.215721092014254],[124.22966582065402,8.215804499483431],[124.229795350234042,8.215901564298655],[124.229847664983239,8.215901404413044],[124.230029209232285,8.215900849491158],[124.230029731830285,8.216070531629944],[124.230045874774945,8.216081667456773],[124.230211310597298,8.216081161687443],[124.230392854903201,8.216080606589431],[124.230393412126716,8.216261473775459],[124.230574956502068,8.216260918583211],[124.23057551382044,8.216441785755118],[124.23075705826524,8.216441230468634],[124.230757462946087,8.216572539649599],[124.230828987676503,8.216621879285482],[124.230939160192733,8.216621542245877],[124.230939395996444,8.216698041841735],[124.23109002472718,8.216801949492757],[124.231121262284631,8.216801853914673],[124.231121329154249,8.21682354410799],[124.231382948510571,8.217004016004985],[124.231632396774785,8.217162027145386],[124.231667011671476,8.217161921182141],[124.231667079762616,8.21718399682506],[124.232200715584227,8.217522024451739],[124.232212761980946,8.217521987557346],[124.232212785689114,8.217529670169553],[124.232886899831556,8.217956682739647],[124.233068492743783,8.218061971708767],[124.233122161683156,8.218061807205528],[124.233122258469407,8.218093145490588],[124.23442723974162,8.218849783683066],[124.234759061173932,8.219025174970103],[124.234758863089652,8.218961129692675]]],[[[124.23766695088662,8.220037402323248],[124.237666390108444,8.219856535668972],[124.237484844585651,8.219857094302911],[124.237485405281589,8.220037960969711],[124.23766695088662,8.220037402323248]]],[[[124.2492824469374,8.21891628345635],[124.249463991215762,8.218915719561997],[124.24964553548125,8.218915155585664],[124.249644969354819,8.218734289747536],[124.249463425171569,8.218734853711256],[124.249462859140181,8.218553987858828],[124.249281315026209,8.218554551728046],[124.249099770899363,8.218555115515462],[124.248918226759557,8.218555679220989],[124.248918792544316,8.218736545111165],[124.248919358342036,8.218917410999564],[124.249100902646148,8.218916847268902],[124.249100336766276,8.218735981393026],[124.24928188097536,8.218735417593086],[124.2492824469374,8.21891628345635]]],[[[124.241839683059126,8.219120198998047],[124.24183912045423,8.218939332622393],[124.241657575636381,8.218939893077453],[124.241476030805742,8.218940453450712],[124.241476593246333,8.219121319851412],[124.241658138159124,8.21912075946563],[124.241839683059126,8.219120198998047]]],[[[124.240023671700229,8.218944933488652],[124.240024233483211,8.219125799989184],[124.240205778498407,8.219125240258611],[124.240387323500727,8.219124680446059],[124.240568868490342,8.219124120551706],[124.240568306460816,8.218943254088567],[124.240386761553353,8.218943813970485],[124.240205216633186,8.218944373770514],[124.240023671700229,8.218944933488652]]],[[[124.249828212189769,8.219276323173679],[124.249827645955335,8.219095457351449],[124.249827079733862,8.218914591527442],[124.24964553548125,8.218915155585664],[124.24964610162057,8.219096021422194],[124.249646667772751,8.219276887257037],[124.249828212189769,8.219276323173679]]],[[[124.242203335602852,8.219299944166041],[124.242202772820761,8.219119077817121],[124.242021227946339,8.219119638448484],[124.242021790646263,8.219300504810017],[124.242203335602852,8.219299944166041]]],[[[124.23966170504589,8.219307785728551],[124.239661143414537,8.219126919204749],[124.239479598360958,8.219127478689652],[124.239298053294689,8.219128038092753],[124.239298614761651,8.219308904641514],[124.239480159910173,8.219308345225977],[124.23966170504589,8.219307785728551]]],[[[124.24928414490077,8.219458881036461],[124.249283578900105,8.219278015178082],[124.249102034444448,8.21927857901577],[124.24910260036296,8.219459444886672],[124.24928414490077,8.219458881036461]]],[[[124.242203335602852,8.219299944166041],[124.242203898397719,8.219480810513362],[124.242385443423672,8.219480249775062],[124.242384880546638,8.219299383440264],[124.242203335602852,8.219299944166041]]],[[[124.242749096491593,8.219659994360944],[124.242748533437194,8.219479128052791],[124.24256698843692,8.219479688954872],[124.242567551408982,8.219660555275548],[124.242749096491593,8.219659994360944]]],[[[124.238391449896298,8.219492567100177],[124.238209904588885,8.219493126036808],[124.238210465588224,8.219673992657066],[124.23839201097779,8.219673433708001],[124.238391449896298,8.219492567100177]]],[[[124.250191867396779,8.219456060556789],[124.250010322923373,8.21945662481645],[124.250009756593897,8.219275759008431],[124.249828212189769,8.219276323173679],[124.249828778436992,8.21945718899431],[124.24982934469719,8.219638054813254],[124.250010889265724,8.219637490622871],[124.250192433821283,8.219636926350598],[124.250193000258761,8.219817792142718],[124.250193566709115,8.219998657933152],[124.250194133172343,8.220179523721987],[124.250375677961685,8.220178959330076],[124.25037511141629,8.219998093553853],[124.250374544883698,8.219817227775943],[124.250373978364067,8.219636361996345],[124.250373411857311,8.219455496215149],[124.250191867396779,8.219456060556789]]],[[[124.243112749849772,8.219839738567574],[124.243112186618276,8.219658872286066],[124.24293064156133,8.21965943336445],[124.242931204710672,8.219840299658481],[124.243112749849772,8.219839738567574]]],[[[124.241478843136377,8.21984478543734],[124.241478280644642,8.219663919043301],[124.241296735472503,8.219664479384674],[124.241297297881999,8.219845345791148],[124.241478843136377,8.21984478543734]]],[[[124.240026480742827,8.219849265974704],[124.240025918908785,8.219668399480833],[124.239844373634241,8.219668959166997],[124.239844935386131,8.219849825673391],[124.240026480742827,8.219849265974704]]],[[[124.238029481115746,8.219855418155335],[124.238028920185869,8.21967455152433],[124.237847374770809,8.219675110309614],[124.237847935618447,8.219855976953143],[124.238029481115746,8.219855418155335]]],[[[124.243294858302718,8.220020043661984],[124.243294294976081,8.219839177394777],[124.243112749849772,8.219839738567574],[124.243113313094156,8.220020604847305],[124.243294858302718,8.220020043661984]]],[[[124.241842496275808,8.220024530851271],[124.241841933606878,8.219843664483966],[124.24166038837798,8.219844225001554],[124.241660950964757,8.220025091381382],[124.241842496275808,8.220024530851271]]],[[[124.239482406234544,8.220031811354582],[124.23948184463427,8.219850944824918],[124.23930029923919,8.219851504277935],[124.239300860757226,8.220032370820034],[124.239482406234544,8.220031811354582]]],[[[124.249286409032322,8.220182344453191],[124.249285842980129,8.220001478601473],[124.249104298195689,8.220002042489432],[124.249104864165716,8.220182908353761],[124.249286409032322,8.220182344453191]]],[[[124.243294858302718,8.220020043661984],[124.243295421642046,8.220200909927682],[124.243476966919971,8.220200348647948],[124.243476403498306,8.220019482394774],[124.243294858302718,8.220020043661984]]],[[[124.242024604337942,8.220204836592453],[124.242024041573984,8.22002397023927],[124.241842496275808,8.220024530851271],[124.241843058957528,8.220205397216978],[124.242024604337942,8.220204836592453]]],[[[124.238938331130726,8.220214356070548],[124.238937769764306,8.220033489505179],[124.238756224248618,8.220034048724871],[124.238756785532885,8.220214915302764],[124.238938331130726,8.220214356070548]]],[[[124.242206712564496,8.2203851422251],[124.242206149705481,8.220204275886038],[124.242024604337942,8.220204836592453],[124.242025167114704,8.220385702943949],[124.242206712564496,8.2203851422251]]],[[[124.249105996144309,8.220544640077359],[124.249105430148532,8.220363774216404],[124.248923885186798,8.220364338047608],[124.248924451100336,8.220545203921086],[124.249105996144309,8.220544640077359]]],[[[124.242206712564496,8.2203851422251],[124.242207275436286,8.220566008562473],[124.242388820955441,8.220565447749122],[124.242388258001483,8.220384581424272],[124.242206712564496,8.2203851422251]]],[[[124.250377377675392,8.220721556648796],[124.250376811091272,8.220540690877547],[124.250195266137538,8.220541255294593],[124.250195832639406,8.220722121078454],[124.250377377675392,8.220721556648796]]],[[[124.250014287590545,8.220722685426223],[124.250013721170831,8.220541819629839],[124.249832176191333,8.220542383883105],[124.24983274252881,8.220723249692101],[124.250014287590545,8.220722685426223]]],[[[124.249651197454185,8.22072381387609],[124.249650631198875,8.22054294805457],[124.249469086193628,8.220543512144056],[124.249469652366685,8.220724377978188],[124.249651197454185,8.22072381387609]]],[[[124.248743471887735,8.220726633567415],[124.248742906043574,8.220545767683012],[124.248561360973838,8.220546331362959],[124.248379815891226,8.220546894961016],[124.248380381571081,8.220727760870554],[124.248561926735846,8.220727197259974],[124.248743471887735,8.220726633567415]]],[[[124.248017856731067,8.220909753779209],[124.248199402003834,8.220909190319796],[124.248198836393343,8.220728324399333],[124.248017291202828,8.220728887846134],[124.248017856731067,8.220909753779209]]],[[[124.249107694208931,8.221087237650186],[124.249289239486586,8.221086673686822],[124.249288673370017,8.220905807843364],[124.249107128174515,8.220906371794205],[124.249107694208931,8.221087237650186]]],[[[124.247654766146979,8.220910880452186],[124.247473220835573,8.220911443665839],[124.247291675511377,8.220912006797603],[124.24729224072361,8.221092872779261],[124.247473786130058,8.221092309634885],[124.247655331523617,8.221091746408709],[124.247836876904302,8.221091183100553],[124.248018422272196,8.221090619710507],[124.248017856731067,8.220909753779209],[124.247836311445425,8.220910317156642],[124.247654766146979,8.220910880452186]]],[[[124.244205966847943,8.221102433700294],[124.244205403033348,8.220921567505561],[124.24402385747787,8.220922129162949],[124.244024421210227,8.221102995370204],[124.244205966847943,8.221102433700294]]],[[[124.242935147115034,8.22110636366971],[124.242934583875893,8.220925497387404],[124.242753038230703,8.220926058471472],[124.24275360138752,8.221106924766302],[124.242935147115034,8.22110636366971]]],[[[124.249107694208931,8.221087237650186],[124.248926148918315,8.221087801531661],[124.248926714883368,8.221268667398567],[124.249108260256236,8.22126810350448],[124.249107694208931,8.221087237650186]]],[[[124.244569058084764,8.221101310114713],[124.244569622076639,8.221282176282712],[124.244751167757968,8.221281614354519],[124.244932713426508,8.221281052344436],[124.245114259082257,8.221280490252463],[124.245113694843738,8.221099624122035],[124.244932149270227,8.221100186201484],[124.24475060368394,8.221100748199044],[124.244569058084764,8.221101310114713]]],[[[124.248926714883368,8.221268667398567],[124.24874516949771,8.221269231210764],[124.248745735393385,8.221450097088505],[124.248927280861295,8.221449533263785],[124.248926714883368,8.221268667398567]]],[[[124.24547791477093,8.221460231926363],[124.245477350355131,8.221279365822669],[124.245295804725131,8.221279928078511],[124.245114259082257,8.221280490252463],[124.24511482333358,8.221461356381203],[124.245296369058693,8.221460794194728],[124.24547791477093,8.221460231926363]]],[[[124.243299365376814,8.221466973740581],[124.243298801947688,8.221286107486518],[124.243117256163671,8.221286668759413],[124.243117819510644,8.22146753502591],[124.243299365376814,8.221466973740581]]],[[[124.248745735393385,8.221450097088505],[124.248564189912614,8.221450660831335],[124.248564755739011,8.221631526720001],[124.248746301302049,8.221630962964648],[124.248745735393385,8.221450097088505]]],[[[124.247110695304286,8.221093435841658],[124.246929149872187,8.221093998822164],[124.24692971493289,8.221274864827182],[124.246748169405663,8.221275427738322],[124.246566623865547,8.221275990567483],[124.246567188774648,8.221456856595948],[124.24638564313949,8.221457419355831],[124.246386207979228,8.221638285395221],[124.246204662248957,8.221638848085648],[124.246205227019317,8.221819714135874],[124.246023681194018,8.221820276757024],[124.246023116505896,8.221639410694275],[124.24584157074996,8.221639973220922],[124.245841006156866,8.221459107143874],[124.245659460470293,8.221459669576108],[124.24547791477093,8.221460231926363],[124.245478479199534,8.221641098028458],[124.245660024981134,8.221640535665591],[124.245660589504851,8.221821401753475],[124.245842135355829,8.221820839296194],[124.245842699974574,8.222001705369868],[124.246024245895015,8.222001142818085],[124.246205791802566,8.222000580184501],[124.246387337697229,8.222000017468849],[124.24656888357903,8.221999454671396],[124.246569448539546,8.2221803206932],[124.246750994490796,8.222179757801245],[124.246932540429086,8.222179194827399],[124.246931975304165,8.221998328830642],[124.246931410192019,8.221817462832286],[124.246930845092763,8.221636596832242],[124.246930280006396,8.221455730830511],[124.247111825602985,8.221455167824958],[124.247111260447241,8.221274301834152],[124.247292805948717,8.221273738759143],[124.24729224072361,8.221092872779261],[124.247110695304286,8.221093435841658]],[[124.24656831863139,8.221818588647904],[124.246749864418149,8.221818025781085],[124.246750429448028,8.221998891791964],[124.24656888357903,8.221999454671396],[124.24656831863139,8.221818588647904]]],[[[124.243482038291376,8.2218281448512],[124.243481474754432,8.221647278613036],[124.243299928818814,8.221647839992867],[124.243300492273605,8.221828706243555],[124.243482038291376,8.2218281448512]]],[[[124.248201664574324,8.221632653985038],[124.248202230249206,8.221813519897152],[124.248020684565304,8.221814083419359],[124.248021250170822,8.221994949342397],[124.248202795936891,8.221994385807667],[124.24838434169007,8.221993822190958],[124.248383775920146,8.221812956293055],[124.248565321578212,8.221812392607069],[124.248564755739011,8.221631526720001],[124.248383210163112,8.221632090393465],[124.248201664574324,8.221632653985038]]],[[[124.243664147928527,8.222008449600908],[124.243663584296456,8.221827583376955],[124.243482038291376,8.2218281448512],[124.243482601841208,8.222009011087676],[124.243664147928527,8.222008449600908]]],[[[124.248021250170822,8.221994949342397],[124.247839704391879,8.221995512795237],[124.247840269927934,8.2221763787292],[124.24802181578913,8.222175815263837],[124.248021250170822,8.221994949342397]]],[[[124.243846257729984,8.222188754241992],[124.243845694002886,8.22200788803225],[124.243664147928527,8.222008449600908],[124.243664711573388,8.222189315823263],[124.243846257729984,8.222188754241992]]],[[[124.247840269927934,8.2221763787292],[124.247658724053878,8.222176942112673],[124.247659289520655,8.222357808057561],[124.247840835476879,8.222357244661476],[124.247840269927934,8.2221763787292]]],[[[124.243846257729984,8.222188754241992],[124.243846821469972,8.222369620450225],[124.244028367696032,8.222369058774541],[124.244209913909202,8.222368497016967],[124.244209350004809,8.22218763083387],[124.244027803873891,8.222188192578921],[124.243846257729984,8.222188754241992]]],[[[124.246389032370615,8.222542615567034],[124.246388467466673,8.222361749535994],[124.246206921407506,8.222362312276603],[124.246025375335464,8.222362874935323],[124.246025940075,8.222543740991499],[124.246207486229295,8.222543178320256],[124.246389032370615,8.222542615567034]]],[[[124.244391460109583,8.222367935177415],[124.244392024109104,8.22254880134639],[124.244573570378847,8.222548239412424],[124.244755116635815,8.222547677396568],[124.244936662879979,8.222547115298733],[124.244936098633829,8.222366249167417],[124.244754552471903,8.222366811252639],[124.244573006297188,8.222367373255972],[124.244391460109583,8.222367935177415]]],[[[124.247659289520655,8.222357808057561],[124.247477743551556,8.222358371371667],[124.247296197569568,8.222358934603884],[124.247296762884659,8.222539800572131],[124.247115216807558,8.22254036373498],[124.246933670717567,8.222540926815851],[124.246934235881128,8.222721792807635],[124.247115782053356,8.222721229714152],[124.24729732821271,8.222720666538779],[124.247478874359089,8.222720103281516],[124.247478308948885,8.222539237327391],[124.247659855000236,8.222538674000761],[124.247659289520655,8.222357808057561]]],[[[124.238940576724218,8.220937822315681],[124.238759030797482,8.220938381597724],[124.238758469462141,8.220757515026493],[124.238576923604867,8.220758074214123],[124.238395377734889,8.220758633319951],[124.238317997790944,8.220758871591585],[124.238940856690064,8.221028014207821],[124.238940576724218,8.220937822315681]]]]}},
{"type":"Feature","properties":{"fid":101,"HAZ":2.0,"layer":"LanaoDelNorte_StormSurge_SSA4","path":"/Users/jhannaroseverzo/Downloads/LanaoDelNorte/LanaoDelNorte_StormSurge_SSA4.shp","Risk Level":"Medium","fid_2":305,"SYSTRA ID":"305","DAR ID":"311","Target Year":"2028","Bridge Category":"Original List","Bridge Name":"MALINDAWAG BRIDGE (ZONE 6)","Coordinates Y":"8.17933","Coordinates X":"124.25648","Region":"X","Province":"LANAO DEL NORTE","ARC 2026":"Puga-an ARC","LINEAR METER IVF 2026":"45","EIRR 2026":"0.38","NEW/REPLACEMENT BRIDGE 2026":"new","Visited by SYSTRA":"No","Selected for 2nd Visit of SYSTRA":"No","Final Funder":"No Funder","2023 IVF URL":"","2026 IVF URL":"https://docs.google.com/spreadsheets/u/1/d/1tsOMXnYcM9DYRLXND3mZxpt7g1voIlUT/edit"},"geometry":{"type":"MultiPolygon","coordinates":[[[[124.241476593246333,8.219121319851412],[124.241476030805742,8.218940453450712],[124.241294485962413,8.21894101374208],[124.241112941106195,8.218941573951559],[124.240931396237187,8.218942134079148],[124.240749851355403,8.218942694124758],[124.240568306460816,8.218943254088567],[124.240568868490342,8.219124120551706],[124.240750413467083,8.219123560575374],[124.240931958431133,8.219123000517241],[124.241113503382294,8.219122440377129],[124.241295048320751,8.219121880155216],[124.241476593246333,8.219121319851412]]],[[[124.242021790646263,8.219300504810017],[124.242021227946339,8.219119638448484],[124.241839683059126,8.219120198998047],[124.241658138159124,8.21912075946563],[124.241658700694657,8.21930162585212],[124.241840245676812,8.219301065372013],[124.242021790646263,8.219300504810017]]],[[[124.239843250168832,8.219307226149235],[124.24002479527897,8.219306666488029],[124.240024233483211,8.219125799989184],[124.239842688455312,8.219126359637956],[124.239661143414537,8.219126919204749],[124.23966170504589,8.219307785728551],[124.239843250168832,8.219307226149235]]],[[[124.242021790646263,8.219300504810017],[124.24202235335899,8.219481371169772],[124.242203898397719,8.219480810513362],[124.242203335602852,8.219299944166041],[124.242021790646263,8.219300504810017]]],[[[124.238753979239462,8.219310582396693],[124.238754540472655,8.219491448981247],[124.238936085741699,8.219490889798946],[124.239117630997953,8.219490330534756],[124.239299176241403,8.219489771188675],[124.239298614761651,8.219308904641514],[124.239117069600354,8.21930946397516],[124.238935524426353,8.219310023226916],[124.238753979239462,8.219310582396693]]],[[[124.242386006313666,8.219661116108261],[124.242567551408982,8.219660555275548],[124.24256698843692,8.219479688954872],[124.242385443423672,8.219480249775062],[124.242386006313666,8.219661116108261]]],[[[124.24057055465569,8.219666719931],[124.240752099879074,8.219666159917276],[124.240933645089669,8.219665599821573],[124.241115190287488,8.219665039644068],[124.241296735472503,8.219664479384674],[124.241296173075796,8.219483612976513],[124.241114627972934,8.219484173223472],[124.240933082857367,8.219484733388454],[124.240751537728926,8.219485293471633],[124.24056999258778,8.219485853472923],[124.240388447433759,8.219486413392234],[124.240206902267047,8.219486973229744],[124.240025357087532,8.219487532985275],[124.240025918908785,8.219668399480833],[124.240207464170538,8.219667839712779],[124.240389009419516,8.219667279862835],[124.24057055465569,8.219666719931]]],[[[124.238573556354567,8.219672874677046],[124.238572995190822,8.219492008081657],[124.238391449896298,8.219492567100177],[124.23839201097779,8.219673433708001],[124.238573556354567,8.219672874677046]]],[[[124.242931204710672,8.219840299658481],[124.24293064156133,8.21965943336445],[124.242749096491593,8.219659994360944],[124.242749659558697,8.219840860667409],[124.242931204710672,8.219840299658481]]],[[[124.24166038837798,8.219844225001554],[124.241659825804078,8.219663358620126],[124.241478280644642,8.219663919043301],[124.241478843136377,8.21984478543734],[124.24166038837798,8.219844225001554]]],[[[124.239844935386131,8.219849825673391],[124.239844373634241,8.219668959166997],[124.239662828346908,8.219669518771271],[124.239481283046771,8.219670078293655],[124.23948184463427,8.219850944824918],[124.239663390016631,8.219850385290099],[124.239844935386131,8.219849825673391]]],[[[124.238211026600254,8.219854859275726],[124.238210465588224,8.219673992657066],[124.238028920185869,8.21967455152433],[124.238029481115746,8.219855418155335],[124.238211026600254,8.219854859275726]]],[[[124.242931767872818,8.220021165950735],[124.243113313094156,8.220020604847305],[124.243112749849772,8.219839738567574],[124.242931204710672,8.219840299658481],[124.242931767872818,8.220021165950735]]],[[[124.242024041573984,8.22002397023927],[124.242023478822802,8.219843103884488],[124.241841933606878,8.219843664483966],[124.241842496275808,8.220024530851271],[124.242024041573984,8.22002397023927]]],[[[124.239300860757226,8.220032370820034],[124.23930029923919,8.219851504277935],[124.239118753831335,8.219852063648974],[124.238937208410675,8.219852622938122],[124.238937769764306,8.220033489505179],[124.239119315267118,8.220032930203507],[124.239300860757226,8.220032370820034]]],[[[124.23766695088662,8.220037402323248],[124.237848496478875,8.220036843594984],[124.237847935618447,8.219855976953143],[124.237666390108444,8.219856535668972],[124.23766695088662,8.220037402323248]]],[[[124.243295421642046,8.220200909927682],[124.243294858302718,8.220020043661984],[124.243113313094156,8.220020604847305],[124.24311387635133,8.220201471125437],[124.243295421642046,8.220200909927682]]],[[[124.242206149705481,8.220204275886038],[124.242205586859356,8.220023409545378],[124.242024041573984,8.22002397023927],[124.242024604337942,8.220204836592453],[124.242206149705481,8.220204275886038]]],[[[124.238393133179059,8.220035166918587],[124.238393694298821,8.220216033521437],[124.238575239922255,8.22021547445309],[124.238756785532885,8.220214915302764],[124.238756224248618,8.220034048724871],[124.238574678720227,8.220034607862674],[124.238393133179059,8.220035166918587]]],[[[124.237304420290414,8.22021938621174],[124.237485965990402,8.220218827634822],[124.237485405281589,8.220037960969711],[124.237303859663839,8.220038519534194],[124.237304420290414,8.22021938621174]]],[[[124.242206149705481,8.220204275886038],[124.242206712564496,8.2203851422251],[124.242388258001483,8.220384581424272],[124.24238769506033,8.220203715097734],[124.242206149705481,8.220204275886038]]],[[[124.238394255431388,8.2203969001226],[124.238393694298821,8.220216033521437],[124.238212148662697,8.220216592507894],[124.238030603013783,8.220217151412461],[124.238031163981944,8.220398018038582],[124.23821270971311,8.220397459121491],[124.238394255431388,8.2203969001226]]],[[[124.237304420290414,8.22021938621174],[124.237123764840774,8.220219941968111],[124.237304690887385,8.220306682940633],[124.237304420290414,8.22021938621174]]],[[[124.233122161683156,8.218061807205528],[124.233068492743783,8.218061971708767],[124.233122258469407,8.218093145490588],[124.233122161683156,8.218061807205528]]],[[[124.232212761980946,8.217521987557346],[124.232200715584227,8.217522024451739],[124.232212785689114,8.217529670169553],[124.232212761980946,8.217521987557346]]],[[[124.231667011671476,8.217161921182141],[124.231632396774785,8.217162027145386],[124.231667079762616,8.21718399682506],[124.231667011671476,8.217161921182141]]],[[[124.231121262284631,8.216801853914673],[124.23109002472718,8.216801949492757],[124.231121329154249,8.21682354410799],[124.231121262284631,8.216801853914673]]],[[[124.230939160192733,8.216621542245877],[124.230828987676503,8.216621879285482],[124.230939395996444,8.216698041841735],[124.230939160192733,8.216621542245877]]],[[[124.23075705826524,8.216441230468634],[124.23057551382044,8.216441785755118],[124.230574956502068,8.216260918583211],[124.230393412126716,8.216261473775459],[124.230392854903201,8.216080606589431],[124.230211310597298,8.216081161687443],[124.230045874774945,8.216081667456773],[124.230757462946087,8.216572539649599],[124.23075705826524,8.216441230468634]]],[[[124.230029209232285,8.215900849491158],[124.229847664983239,8.215901404413044],[124.229795350234042,8.215901564298655],[124.229917705283611,8.215993252778429],[124.230029731830285,8.216070531629944],[124.230029209232285,8.215900849491158]]],[[[124.229665563851995,8.215721092014254],[124.229554967304836,8.215721429964837],[124.22966582065402,8.215804499483431],[124.229665563851995,8.215721092014254]]],[[[124.242933457436237,8.220563764817728],[124.242934020649713,8.220744631103409],[124.243115566199862,8.220744069949975],[124.243115002904233,8.220563203676816],[124.243114439621394,8.22038233740197],[124.242932894235636,8.220382898530358],[124.24293233104784,8.22020203224139],[124.242750785731459,8.220202593275365],[124.242751348837018,8.220383459576945],[124.242751911955452,8.220564325876749],[124.242933457436237,8.220563764817728]]],[[[124.238031163981944,8.220398018038582],[124.237849618238002,8.220398576873693],[124.237668072481355,8.220399135626915],[124.237668317449163,8.220478139202351],[124.237902387364926,8.220579282799401],[124.238031724962809,8.220578884663015],[124.238031163981944,8.220398018038582]]],[[[124.242752475086689,8.220745192174954],[124.242751911955452,8.220564325876749],[124.242570366461891,8.220564886853881],[124.242388820955441,8.220565447749122],[124.242389383922259,8.220746314072285],[124.242570929510876,8.220745753164609],[124.242571492572736,8.220926619473561],[124.242753038230703,8.220926058471472],[124.242934583875893,8.220925497387404],[124.242934020649713,8.220744631103409],[124.242752475086689,8.220745192174954]]],[[[124.243116692829588,8.221105802491229],[124.24311612950828,8.220924936221445],[124.242934583875893,8.220925497387404],[124.242935147115034,8.22110636366971],[124.243116692829588,8.221105802491229]]],[[[124.24347809380167,8.220562081149145],[124.243477530354426,8.220381214899346],[124.243476966919971,8.220200348647948],[124.243295421642046,8.220200909927682],[124.243295984994262,8.220381776191603],[124.243296548359339,8.220562642453926],[124.24347809380167,8.220562081149145]]],[[[124.245479043640998,8.221821964128866],[124.245479608095266,8.222002830227586],[124.245661154041358,8.222002267839672],[124.245661718590739,8.222183133924181],[124.24566228315301,8.222364000007092],[124.245480737042413,8.222364562420053],[124.245299190919042,8.222365124751034],[124.245298626521361,8.222184258643166],[124.245117080467338,8.222184820879734],[124.24493553440054,8.222185383034413],[124.244753988320866,8.222185945107112],[124.244572442228304,8.222186507097922],[124.244571878172295,8.222005640938184],[124.244390332149194,8.22200620283458],[124.244208786113305,8.222006764649086],[124.244208222234576,8.221825898462614],[124.244026676268049,8.221826460182706],[124.243845130288648,8.221827021820731],[124.243663584296456,8.221827583376955],[124.243664147928527,8.222008449600908],[124.243845694002886,8.22200788803225],[124.243846257729984,8.222188754241992],[124.244027803873891,8.222188192578921],[124.244209350004809,8.22218763083387],[124.244209913909202,8.222368497016967],[124.244391460109583,8.222367935177415],[124.244573006297188,8.222367373255972],[124.244754552471903,8.222366811252639],[124.244936098633829,8.222366249167417],[124.244936662879979,8.222547115298733],[124.245118209111283,8.222546553119008],[124.245299755329697,8.222545990857304],[124.245481301535321,8.222545428513799],[124.245662847728056,8.222544866088226],[124.245844393908015,8.222544303580852],[124.246025940075,8.222543740991499],[124.246025375335464,8.222362874935323],[124.246206921407506,8.222362312276603],[124.246388467466673,8.222361749535994],[124.246389032370615,8.222542615567034],[124.246570578499146,8.222542052731923],[124.246752124614801,8.222541489814832],[124.246933670717567,8.222540926815851],[124.247115216807558,8.22254036373498],[124.247296762884659,8.222539800572131],[124.247296197569568,8.222358934603884],[124.247477743551556,8.222358371371667],[124.247659289520655,8.222357808057561],[124.247658724053878,8.222176942112673],[124.247840269927934,8.2221763787292],[124.247839704391879,8.221995512795237],[124.248021250170822,8.221994949342397],[124.248020684565304,8.221814083419359],[124.248202230249206,8.221813519897152],[124.248201664574324,8.221632653985038],[124.248383210163112,8.221632090393465],[124.248564755739011,8.221631526720001],[124.248564189912614,8.221450660831335],[124.248745735393385,8.221450097088505],[124.24874516949771,8.221269231210764],[124.248926714883368,8.221268667398567],[124.248926148918315,8.221087801531661],[124.249107694208931,8.221087237650186],[124.249107128174515,8.220906371794205],[124.249288673370017,8.220905807843364],[124.249288107266224,8.220724941998396],[124.249469652366685,8.220724377978188],[124.249469086193628,8.220543512144056],[124.249650631198875,8.22054294805457],[124.249832176191333,8.220542383883105],[124.250013721170831,8.220541819629839],[124.250014287590545,8.220722685426223],[124.250195832639406,8.220722121078454],[124.250195266137538,8.220541255294593],[124.250194699648461,8.220360389509134],[124.250194133172343,8.220179523721987],[124.250193566709115,8.219998657933152],[124.250193000258761,8.219817792142718],[124.250192433821283,8.219636926350598],[124.250010889265724,8.219637490622871],[124.24982934469719,8.219638054813254],[124.249828778436992,8.21945718899431],[124.249828212189769,8.219276323173679],[124.249646667772751,8.219276887257037],[124.24964610162057,8.219096021422194],[124.24964553548125,8.218915155585664],[124.249463991215762,8.218915719561997],[124.2492824469374,8.21891628345635],[124.24928188097536,8.218735417593086],[124.249100336766276,8.218735981393026],[124.249100902646148,8.218916847268902],[124.24910146853891,8.21909771314318],[124.249102034444448,8.21927857901577],[124.249283578900105,8.219278015178082],[124.24928414490077,8.219458881036461],[124.249284710914409,8.219639746893153],[124.249285276940824,8.219820612748157],[124.249285842980129,8.220001478601473],[124.249286409032322,8.220182344453191],[124.249104864165716,8.220182908353761],[124.249105430148532,8.220363774216404],[124.249105996144309,8.220544640077359],[124.248924451100336,8.220545203921086],[124.248742906043574,8.220545767683012],[124.248743471887735,8.220726633567415],[124.248561926735846,8.220727197259974],[124.248380381571081,8.220727760870554],[124.248198836393343,8.220728324399333],[124.248199402003834,8.220909190319796],[124.248017856731067,8.220909753779209],[124.248018422272196,8.221090619710507],[124.247836876904302,8.221091183100553],[124.247655331523617,8.221091746408709],[124.247473786130058,8.221092309634885],[124.24729224072361,8.221092872779261],[124.247292805948717,8.221273738759143],[124.247111260447241,8.221274301834152],[124.247111825602985,8.221455167824958],[124.246930280006396,8.221455730830511],[124.246930845092763,8.221636596832242],[124.246931410192019,8.221817462832286],[124.246931975304165,8.221998328830642],[124.246932540429086,8.222179194827399],[124.246750994490796,8.222179757801245],[124.246569448539546,8.2221803206932],[124.24656888357903,8.221999454671396],[124.246387337697229,8.222000017468849],[124.246205791802566,8.222000580184501],[124.246024245895015,8.222001142818085],[124.245842699974574,8.222001705369868],[124.245842135355829,8.221820839296194],[124.245660589504851,8.221821401753475],[124.245660024981134,8.221640535665591],[124.245478479199534,8.221641098028458],[124.24547791477093,8.221460231926363],[124.245296369058693,8.221460794194728],[124.24511482333358,8.221461356381203],[124.245114259082257,8.221280490252463],[124.244932713426508,8.221281052344436],[124.244751167757968,8.221281614354519],[124.244569622076639,8.221282176282712],[124.244569058084764,8.221101310114713],[124.244387512472798,8.221101871948493],[124.244205966847943,8.221102433700294],[124.244024421210227,8.221102995370204],[124.244024984955459,8.221283861575861],[124.244206530675328,8.221283299893427],[124.244388076382421,8.221282738129014],[124.244388640304848,8.221463604307937],[124.244570186081305,8.221463042449111],[124.244751731844872,8.221462480508395],[124.244933277595663,8.221461918485788],[124.244933841777609,8.221642784625454],[124.245115387597764,8.221642222508345],[124.245296933405044,8.221641660309347],[124.24529749776427,8.221822526422278],[124.245479043640998,8.221821964128866]],[[124.247476047436578,8.221815773494461],[124.247476612795353,8.221996639455158],[124.24729506697777,8.221997202662239],[124.247294501701234,8.221816336689018],[124.247476047436578,8.221815773494461]],[[124.247475482090664,8.221634907532076],[124.247657027730881,8.221634344268152],[124.247657593159033,8.221815210218013],[124.247476047436578,8.221815773494461],[124.247475482090664,8.221634907532076]]],[[[124.24347809380167,8.220562081149145],[124.243478657261704,8.220742947397346],[124.243660202773398,8.220742385998152],[124.243659639231112,8.220561519762564],[124.24347809380167,8.220562081149145]]],[[[124.244024421210227,8.221102995370204],[124.24402385747787,8.220922129162949],[124.243842311909603,8.220922690738446],[124.243842875559807,8.221103556958225],[124.244024421210227,8.221102995370204]]],[[[124.243298238531352,8.221105241230857],[124.243116692829588,8.221105802491229],[124.243117256163671,8.221286668759413],[124.243298801947688,8.221286107486518],[124.243298238531352,8.221105241230857]]],[[[124.243481474754432,8.221647278613036],[124.243480911230264,8.221466412373184],[124.243299365376814,8.221466973740581],[124.243299928818814,8.221647839992867],[124.243481474754432,8.221647278613036]]],[[[124.243663584296456,8.221827583376955],[124.243663020677261,8.221646717151314],[124.243481474754432,8.221647278613036],[124.243482038291376,8.2218281448512],[124.243663584296456,8.221827583376955]]]]}},
{"type":"Feature","properties":{"fid":102,"HAZ":3.0,"layer":"LanaoDelNorte_StormSurge_SSA4","path":"/Users/jhannaroseverzo/Downloads/LanaoDelNorte/LanaoDelNorte_StormSurge_SSA4.shp","Risk Level":"High","fid_2":305,"SYSTRA ID":"305","DAR ID":"311","Target Year":"2028","Bridge Category":"Original List","Bridge Name":"MALINDAWAG BRIDGE (ZONE 6)","Coordinates Y":"8.17933","Coordinates X":"124.25648","Region":"X","Province":"LANAO DEL NORTE","ARC 2026":"Puga-an ARC","LINEAR METER IVF 2026":"45","EIRR 2026":"0.38","NEW/REPLACEMENT BRIDGE 2026":"new","Visited by SYSTRA":"No","Selected for 2nd Visit of SYSTRA":"No","Final Funder":"No Funder","2023 IVF URL":"","2026 IVF URL":"https://docs.google.com/spreadsheets/u/1/d/1tsOMXnYcM9DYRLXND3mZxpt7g1voIlUT/edit"},"geometry":{"type":"MultiPolygon","coordinates":[[[[124.242933457436237,8.220563764817728],[124.242751911955452,8.220564325876749],[124.242752475086689,8.220745192174954],[124.242934020649713,8.220744631103409],[124.242933457436237,8.220563764817728]]],[[[124.247657593159033,8.221815210218013],[124.247657027730881,8.221634344268152],[124.247475482090664,8.221634907532076],[124.247476047436578,8.221815773494461],[124.247657593159033,8.221815210218013]]],[[[124.247294501701234,8.221816336689018],[124.24729506697777,8.221997202662239],[124.247476612795353,8.221996639455158],[124.247476047436578,8.221815773494461],[124.247294501701234,8.221816336689018]]],[[[124.24311612950828,8.220924936221445],[124.243116692829588,8.221105802491229],[124.243298238531352,8.221105241230857],[124.243298801947688,8.221286107486518],[124.243299365376814,8.221466973740581],[124.243480911230264,8.221466412373184],[124.243481474754432,8.221647278613036],[124.243663020677261,8.221646717151314],[124.243663584296456,8.221827583376955],[124.243845130288648,8.221827021820731],[124.244026676268049,8.221826460182706],[124.244208222234576,8.221825898462614],[124.244208786113305,8.222006764649086],[124.244390332149194,8.22200620283458],[124.244571878172295,8.222005640938184],[124.244572442228304,8.222186507097922],[124.244753988320866,8.222185945107112],[124.24493553440054,8.222185383034413],[124.245117080467338,8.222184820879734],[124.245298626521361,8.222184258643166],[124.245299190919042,8.222365124751034],[124.245480737042413,8.222364562420053],[124.24566228315301,8.222364000007092],[124.245661718590739,8.222183133924181],[124.245661154041358,8.222002267839672],[124.245479608095266,8.222002830227586],[124.245479043640998,8.221821964128866],[124.24529749776427,8.221822526422278],[124.245296933405044,8.221641660309347],[124.245115387597764,8.221642222508345],[124.244933841777609,8.221642784625454],[124.244933277595663,8.221461918485788],[124.244751731844872,8.221462480508395],[124.244570186081305,8.221463042449111],[124.244388640304848,8.221463604307937],[124.244388076382421,8.221282738129014],[124.244206530675328,8.221283299893427],[124.244024984955459,8.221283861575861],[124.244024421210227,8.221102995370204],[124.243842875559807,8.221103556958225],[124.243842311909603,8.220922690738446],[124.243660766328546,8.220923252232053],[124.243660202773398,8.220742385998152],[124.243478657261704,8.220742947397346],[124.24347809380167,8.220562081149145],[124.243296548359339,8.220562642453926],[124.243295984994262,8.220381776191603],[124.243295421642046,8.220200909927682],[124.24311387635133,8.220201471125437],[124.243113313094156,8.220020604847305],[124.242931767872818,8.220021165950735],[124.242931204710672,8.219840299658481],[124.242749659558697,8.219840860667409],[124.242749096491593,8.219659994360944],[124.242567551408982,8.219660555275548],[124.242386006313666,8.219661116108261],[124.242385443423672,8.219480249775062],[124.242203898397719,8.219480810513362],[124.24202235335899,8.219481371169772],[124.242021790646263,8.219300504810017],[124.241840245676812,8.219301065372013],[124.241658700694657,8.21930162585212],[124.241658138159124,8.21912075946563],[124.241476593246333,8.219121319851412],[124.241295048320751,8.219121880155216],[124.241113503382294,8.219122440377129],[124.240931958431133,8.219123000517241],[124.240750413467083,8.219123560575374],[124.240568868490342,8.219124120551706],[124.240387323500727,8.219124680446059],[124.240205778498407,8.219125240258611],[124.240024233483211,8.219125799989184],[124.24002479527897,8.219306666488029],[124.239843250168832,8.219307226149235],[124.23966170504589,8.219307785728551],[124.239480159910173,8.219308345225977],[124.239298614761651,8.219308904641514],[124.239299176241403,8.219489771188675],[124.239117630997953,8.219490330534756],[124.238936085741699,8.219490889798946],[124.238754540472655,8.219491448981247],[124.238572995190822,8.219492008081657],[124.238573556354567,8.219672874677046],[124.23839201097779,8.219673433708001],[124.238210465588224,8.219673992657066],[124.238211026600254,8.219854859275726],[124.238029481115746,8.219855418155335],[124.237847935618447,8.219855976953143],[124.237848496478875,8.220036843594984],[124.23766695088662,8.220037402323248],[124.237485405281589,8.220037960969711],[124.237485965990402,8.220218827634822],[124.237304420290414,8.22021938621174],[124.237304690887385,8.220306682940633],[124.237607530130688,8.220451872486166],[124.237668317449163,8.220478139202351],[124.237668072481355,8.220399135626915],[124.237849618238002,8.220398576873693],[124.238031163981944,8.220398018038582],[124.238030603013783,8.220217151412461],[124.238212148662697,8.220216592507894],[124.238393694298821,8.220216033521437],[124.238393133179059,8.220035166918587],[124.238574678720227,8.220034607862674],[124.238756224248618,8.220034048724871],[124.238937769764306,8.220033489505179],[124.238937208410675,8.219852622938122],[124.239118753831335,8.219852063648974],[124.23930029923919,8.219851504277935],[124.23948184463427,8.219850944824918],[124.239481283046771,8.219670078293655],[124.239662828346908,8.219669518771271],[124.239844373634241,8.219668959166997],[124.240025918908785,8.219668399480833],[124.240025357087532,8.219487532985275],[124.240206902267047,8.219486973229744],[124.240388447433759,8.219486413392234],[124.24056999258778,8.219485853472923],[124.240751537728926,8.219485293471633],[124.240933082857367,8.219484733388454],[124.241114627972934,8.219484173223472],[124.241296173075796,8.219483612976513],[124.241296735472503,8.219664479384674],[124.241478280644642,8.219663919043301],[124.241659825804078,8.219663358620126],[124.24166038837798,8.219844225001554],[124.241841933606878,8.219843664483966],[124.242023478822802,8.219843103884488],[124.242024041573984,8.22002397023927],[124.242205586859356,8.220023409545378],[124.242206149705481,8.220204275886038],[124.24238769506033,8.220203715097734],[124.242388258001483,8.220384581424272],[124.242388820955441,8.220565447749122],[124.242570366461891,8.220564886853881],[124.242751911955452,8.220564325876749],[124.242751348837018,8.220383459576945],[124.242750785731459,8.220202593275365],[124.24293233104784,8.22020203224139],[124.242932894235636,8.220382898530358],[124.243114439621394,8.22038233740197],[124.243115002904233,8.220563203676816],[124.243115566199862,8.220744069949975],[124.242934020649713,8.220744631103409],[124.242934583875893,8.220925497387404],[124.24311612950828,8.220924936221445]]]]}}
]
}
