{
"type": "FeatureCollection",
"name": "SYSTRA ID_235",
"crs": { "type": "name", "properties": { "name": "urn:ogc:def:crs:OGC:1.3:CRS84" } },
"xy_coordinate_resolution": 1e-15,
"features": [
{"type":"Feature","properties":{"fid":115,"HAZ":1.0,"layer":"Marinduque_StormSurge_SSA4","path":"/Users/jhannaroseverzo/Downloads/Marinduque/Marinduque_StormSurge_SSA4.shp","Risk Level":"Low","fid_2":235,"SYSTRA ID":"235","DAR ID":"133","Target Year":"2028","Bridge Category":"Original List","Bridge Name":"TAMBANGAN BRIDGE","Coordinates Y":"13.38757","Coordinates X":"122.05754","Region":"IV-B","Province":"MARINDUQUE","ARC 2026":"STA. CRUZ ARC","LINEAR METER IVF 2026":"30","EIRR 2026":"0.12","NEW/REPLACEMENT BRIDGE 2026":"new","Visited by SYSTRA":"No","Selected for 2nd Visit of SYSTRA":"Yes","Final Funder":"Buffer AFD","2023 IVF URL":"","2026 IVF URL":"https://docs.google.com/spreadsheets/u/1/d/1cMzEYMSDFMbDpfVaiBBjuCm_UU-KoXm9/edit"},"geometry":{"type":"MultiPolygon","coordinates":[[[[122.086978402695053,13.417373571302067],[122.086977719594543,13.417554396650273],[122.087162441208278,13.41755506527978],[122.087163124170687,13.417374239922159],[122.086978402695053,13.417373571302067]]],[[[122.087532567152138,13.417375576756713],[122.087347845656339,13.417374908407071],[122.087347162832145,13.417555733774018],[122.087531884466046,13.417556402132986],[122.087716606109893,13.417557070356773],[122.087717288657871,13.417376244971175],[122.087532567152138,13.417375576756713]]],[[[122.086792314742013,13.417734553221889],[122.086792997990841,13.417553727885585],[122.086608276397172,13.417553058985627],[122.086423554813635,13.4175523899504],[122.086238833240046,13.417551720779903],[122.086238149576786,13.41773254608823],[122.086422871288491,13.417733215268052],[122.086607593010228,13.417733884312605],[122.086792314742013,13.417734553221889]]],[[[122.091595762951243,13.417571071813478],[122.09159508329455,13.417751897391989],[122.091779805297321,13.417752562649527],[122.0917804848158,13.417571737061779],[122.091595762951243,13.417571071813478]]],[[[122.089194379623052,13.417562411277812],[122.089009657898828,13.417561744136092],[122.088824936184551,13.417561076859103],[122.088640214480307,13.417560409446756],[122.088455492786181,13.417559741899316],[122.088270771102017,13.417559074216518],[122.08827008895851,13.417739899627518],[122.088454810780803,13.417740567319553],[122.0886395326132,13.417741234876408],[122.088824254455474,13.417741902297992],[122.089008976307866,13.417742569584307],[122.089193698170376,13.417743236735442],[122.089193016707668,13.417924062190407],[122.089377738718255,13.417924729215509],[122.089378420042848,13.417743903751306],[122.089379101357409,13.417563078284351],[122.089194379623052,13.417562411277812]]],[[[122.08586870618366,13.417731207322865],[122.085868022234052,13.417912032609786],[122.086052744063707,13.417912702069474],[122.0860534278752,13.417731876773138],[122.08586870618366,13.417731207322865]]],[[[122.090856195383694,13.417749235009053],[122.090855515164435,13.417930060547773],[122.091040237265261,13.417930726355626],[122.091040917346405,13.417749900807669],[122.090856195383694,13.417749235009053]]],[[[122.08568193220853,13.418273013562294],[122.085866654304553,13.418273683175903],[122.085867338274326,13.418092857894221],[122.085682616316504,13.418092188289938],[122.08568193220853,13.418273013562294]]],[[[122.090854834935058,13.418110886083829],[122.090670112706078,13.41811022013138],[122.090669432328639,13.418291045655534],[122.090854154695819,13.41829171161722],[122.090854834935058,13.418110886083829]]],[[[122.085496525866517,13.418453169073869],[122.085311803652459,13.418452499180395],[122.085311119248104,13.418633324428859],[122.085310434833531,13.418814149674658],[122.08549515732382,13.418814819586784],[122.085495841600277,13.418633994331659],[122.085680563962399,13.418634664099189],[122.085681248090523,13.418453838832074],[122.08568193220853,13.418273013562294],[122.085497210122639,13.418272343813415],[122.085496525866517,13.418453169073869]]],[[[122.085125712353289,13.418813479627174],[122.085125027790568,13.418994304861071],[122.084940305182158,13.418993634668992],[122.084939620471204,13.41917445989081],[122.084754897734726,13.419173789554135],[122.084754212875438,13.419354614764051],[122.084938935750046,13.419355285110052],[122.085123658634757,13.419355955320873],[122.085124343217728,13.419175130092215],[122.085309065974286,13.419175800158351],[122.085309750408925,13.418994974917792],[122.085310434833531,13.418814149674658],[122.085125712353289,13.418813479627174]]],[[[122.087893820593166,13.41954681761653],[122.087894503113517,13.419365992250471],[122.087709780077802,13.419365324068695],[122.087525057052218,13.41936465575156],[122.087340334036668,13.419363987299244],[122.0873396511018,13.419544812637414],[122.087524374255551,13.419545481099055],[122.087709097419335,13.419546149425427],[122.087893820593166,13.41954681761653]]],[[[122.088263266971012,13.419548153593015],[122.088078543777115,13.419547485672362],[122.088077861384917,13.419728311045171],[122.088262584717015,13.41972897897506],[122.088263266971012,13.419548153593015]]],[[[122.08327437228715,13.419891722515393],[122.083273686282027,13.420072547639867],[122.083088962945496,13.420071876038959],[122.083088276792139,13.420252701151353],[122.083087590628651,13.420433526261172],[122.083272314241597,13.420434197880821],[122.083271628206106,13.42061502299739],[122.083456351967371,13.420615694491184],[122.083457037864576,13.4204348693652],[122.083641761497589,13.42043554071431],[122.083826485140804,13.42043621192815],[122.084011208793981,13.420436883006721],[122.084195932457376,13.420437553950022],[122.08438065613089,13.420438224758053],[122.084381341327045,13.420257399582598],[122.084566064872405,13.420258070245945],[122.084750788427783,13.420258740774022],[122.084935511993294,13.420259411166919],[122.084936196764829,13.420078585960821],[122.084751473337519,13.420077915577339],[122.084566749920242,13.420077245058588],[122.084382026513097,13.420076574404566],[122.084197303115985,13.420075903615276],[122.084012579729077,13.420075232690715],[122.08382785635213,13.420074561630974],[122.083828541942651,13.419893736478345],[122.084013265181397,13.419894407528849],[122.084197988430191,13.419895078443995],[122.084382711689102,13.41989574922396],[122.084383396854975,13.4197149240406],[122.084568119985818,13.41971559467588],[122.084568805003457,13.419534769480618],[122.084753528006132,13.419535439971304],[122.084754212875438,13.419354614764051],[122.084569490010978,13.419353944282781],[122.084384767156536,13.419353273666241],[122.084384082010814,13.419534098854752],[122.084199359028304,13.419533428093528],[122.084198673734264,13.419714253270049],[122.084013950623685,13.419713582364318],[122.084014636055841,13.419532757197123],[122.083829913093481,13.41953208616536],[122.083645190141269,13.419531414998415],[122.083644504432712,13.41971224014687],[122.083643818714108,13.41989306529266],[122.083459095495527,13.419892393971617],[122.08327437228715,13.419891722515393]]],[[[122.085121604825545,13.419898430990857],[122.085120920202257,13.420079256208945],[122.085305643649733,13.420079926321888],[122.085490367107326,13.420080596299561],[122.085491051454213,13.419899771062733],[122.08530632813482,13.419899101094385],[122.085121604825545,13.419898430990857]]],[[[122.086413984546297,13.420083944158707],[122.086414668202281,13.419903118875071],[122.086229944832525,13.41990244958316],[122.086229261038341,13.420083274857381],[122.086413984546297,13.420083944158707]]],[[[122.086413300880295,13.420264769439589],[122.086598024536485,13.420265438614882],[122.086598708064301,13.420084613324674],[122.086413984546297,13.420083944158707],[122.086413300880295,13.420264769439589]]],[[[122.086967471878978,13.420266776559837],[122.086966788617531,13.420447601866121],[122.086966105345965,13.420628427169829],[122.086781381393209,13.420627758246335],[122.086780697973396,13.420808583538053],[122.086965422064267,13.420809252470873],[122.087150146165257,13.420809921268424],[122.087150829308669,13.420629095958054],[122.087151512442034,13.42044827064502],[122.087152195565366,13.420267445329321],[122.087152878678666,13.420086620011046],[122.087153561781847,13.419905794690196],[122.087154244874981,13.419724969366593],[122.086969521603194,13.419724300625086],[122.08696883837186,13.419905125939275],[122.086968155130478,13.420085951250888],[122.086967471878978,13.420266776559837]]],[[[122.088445261651486,13.42027212292834],[122.088260537894755,13.420271455105743],[122.088259855600626,13.420452280477397],[122.088444579495473,13.42045294830932],[122.088445261651486,13.42027212292834]]],[[[122.086781381393209,13.420627758246335],[122.086782064802975,13.420446932951952],[122.086597340998551,13.420446263902603],[122.086596657450571,13.420627089187571],[122.086781381393209,13.420627758246335]]],[[[122.088998069489037,13.420635776399765],[122.088813345425791,13.420635108964325],[122.088812663526099,13.420815934358716],[122.088827875071118,13.420815989321003],[122.088997989253613,13.420657057453164],[122.088998069489037,13.420635776399765]]],[[[122.097349152188002,13.410358594849098],[122.097164435548862,13.410357934027479],[122.097163760434938,13.410538759988706],[122.097163085311081,13.410719585947268],[122.097193090584696,13.410719693293609],[122.09741096944478,13.410358815954361],[122.097349152188002,13.410358594849098]]],[[[122.096977693133823,13.410899750918654],[122.09697702911663,13.411077560448247],[122.097084151214432,13.41090013186424],[122.096977693133823,13.410899750918654]]],[[[122.096605556785065,13.4116217322309],[122.096420839219107,13.411621070803898],[122.096420163483202,13.411801896709791],[122.0965135509703,13.411802231111242],[122.096605403002229,13.411662892695025],[122.096605556785065,13.4116217322309]]],[[[122.095865334270755,13.411980737465596],[122.096050052082916,13.411981399316614],[122.096234769905109,13.411982061032452],[122.096235445789162,13.411801235138372],[122.096050728104998,13.411800573431771],[122.095866010430868,13.41179991158999],[122.095865334270755,13.411980737465596]]],[[[122.095863305730489,13.412523215076428],[122.095678587513859,13.412522553062518],[122.095679263842001,13.412341727204053],[122.09567994016021,13.412160901343013],[122.095864658100609,13.412161563338449],[122.095865334270755,13.411980737465596],[122.095680616468456,13.411980075479397],[122.095495898676106,13.411979413357928],[122.095311180893788,13.411978751101367],[122.09531050430931,13.412159576946509],[122.095309827714985,13.412340402789075],[122.095494545773519,13.412341065064199],[122.095493869307262,13.412521890913338],[122.095493192831043,13.412702716759901],[122.095677911175756,13.412703378918318],[122.095862629530416,13.412704040941465],[122.09591894395416,13.412704242728896],[122.096037865258936,13.41252384055471],[122.095863305730489,13.412523215076428]]],[[[122.100889015821423,13.402233945520765],[122.10107372644751,13.402234603225144],[122.101074398206237,13.402053776950035],[122.10088968771818,13.402053119254804],[122.100704977239985,13.40205246142448],[122.100704305205198,13.402233287681204],[122.100889015821423,13.402233945520765]]],[[[122.100704305205198,13.402233287681204],[122.100519594599007,13.402232629706551],[122.100518922416342,13.402413455951551],[122.100703633160649,13.402414113935352],[122.100704305205198,13.402233287681204]]],[[[122.100332867011133,13.402774450296191],[122.10033219466078,13.402955276524049],[122.100331522300564,13.403136102749242],[122.100516233586831,13.403136760904994],[122.100516905809101,13.402955934670564],[122.100517578021439,13.402775108433469],[122.100332867011133,13.402774450296191]]]]}},
{"type":"Feature","properties":{"fid":116,"HAZ":2.0,"layer":"Marinduque_StormSurge_SSA4","path":"/Users/jhannaroseverzo/Downloads/Marinduque/Marinduque_StormSurge_SSA4.shp","Risk Level":"Medium","fid_2":235,"SYSTRA ID":"235","DAR ID":"133","Target Year":"2028","Bridge Category":"Original List","Bridge Name":"TAMBANGAN BRIDGE","Coordinates Y":"13.38757","Coordinates X":"122.05754","Region":"IV-B","Province":"MARINDUQUE","ARC 2026":"STA. CRUZ ARC","LINEAR METER IVF 2026":"30","EIRR 2026":"0.12","NEW/REPLACEMENT BRIDGE 2026":"new","Visited by SYSTRA":"No","Selected for 2nd Visit of SYSTRA":"Yes","Final Funder":"Buffer AFD","2023 IVF URL":"","2026 IVF URL":"https://docs.google.com/spreadsheets/u/1/d/1cMzEYMSDFMbDpfVaiBBjuCm_UU-KoXm9/edit"},"geometry":{"type":"MultiPolygon","coordinates":[[[[122.091226319252058,13.417569740911068],[122.091041597417515,13.417569075257047],[122.091040917346405,13.417749900807669],[122.091040237265261,13.417930726355626],[122.091224959376106,13.417931392028299],[122.091225639319148,13.417750566471016],[122.091410361301826,13.417751231999093],[122.09159508329455,13.417751897391989],[122.091595762951243,13.417571071813478],[122.091411041096634,13.417570406429908],[122.091226319252058,13.417569740911068]]],[[[122.090855515164435,13.417930060547773],[122.090854834935058,13.418110886083829],[122.090854154695819,13.41829171161722],[122.091038877073032,13.418292377443725],[122.091039557174156,13.418111551901008],[122.091040237265261,13.417930726355626],[122.090855515164435,13.417930060547773]]],[[[122.090669432328639,13.418291045655534],[122.090484709971491,13.41829037955849],[122.090484029445804,13.418471205070743],[122.090668751941152,13.418471871177024],[122.090853474446448,13.418472537148125],[122.090854154695819,13.41829171161722],[122.090669432328639,13.418291045655534]]],[[[122.090299306960503,13.418470538829192],[122.090114584485235,13.418469872452372],[122.090113903673199,13.418650697943397],[122.090298626286668,13.418651364329543],[122.090483348910098,13.418652030580331],[122.090484029445804,13.418471205070743],[122.090299306960503,13.418470538829192]]],[[[122.08974445847636,13.418649364765384],[122.089559735893005,13.418648697973518],[122.089375013319682,13.418648031046294],[122.089374331944896,13.41882885649744],[122.089559054656419,13.418829523433901],[122.08974377737799,13.418830190235182],[122.089928500109494,13.418830856901105],[122.09011322285113,13.418831523431757],[122.090113903673199,13.418650697943397],[122.089929181069763,13.418650031421981],[122.08974445847636,13.418649364765384]]],[[[122.088086049427972,13.417558406398539],[122.087901327763959,13.417557738445291],[122.087716606109893,13.417557070356773],[122.087531884466046,13.417556402132986],[122.087347162832145,13.417555733774018],[122.087347845656339,13.417374908407071],[122.087163124170687,13.417374239922159],[122.087162441208278,13.41755506527978],[122.086977719594543,13.417554396650273],[122.086792997990841,13.417553727885585],[122.086792314742013,13.417734553221889],[122.086607593010228,13.417733884312605],[122.086422871288491,13.417733215268052],[122.086238149576786,13.41773254608823],[122.0860534278752,13.417731876773138],[122.086052744063707,13.417912702069474],[122.085868022234052,13.417912032609786],[122.085867338274326,13.418092857894221],[122.085866654304553,13.418273683175903],[122.08568193220853,13.418273013562294],[122.085681248090523,13.418453838832074],[122.085680563962399,13.418634664099189],[122.085495841600277,13.418633994331659],[122.08549515732382,13.418814819586784],[122.085310434833531,13.418814149674658],[122.085309750408925,13.418994974917792],[122.085309065974286,13.419175800158351],[122.085124343217728,13.419175130092215],[122.085123658634757,13.419355955320873],[122.084938935750046,13.419355285110052],[122.084754212875438,13.419354614764051],[122.084753528006132,13.419535439971304],[122.084568805003457,13.419534769480618],[122.084568119985818,13.41971559467588],[122.084383396854975,13.4197149240406],[122.084382711689102,13.41989574922396],[122.084197988430191,13.419895078443995],[122.084013265181397,13.419894407528849],[122.083828541942651,13.419893736478345],[122.08382785635213,13.420074561630974],[122.084012579729077,13.420075232690715],[122.084197303115985,13.420075903615276],[122.084382026513097,13.420076574404566],[122.084566749920242,13.420077245058588],[122.084751473337519,13.420077915577339],[122.084936196764829,13.420078585960821],[122.085120920202257,13.420079256208945],[122.085121604825545,13.419898430990857],[122.08530632813482,13.419899101094385],[122.085491051454213,13.419899771062733],[122.085675774783653,13.419900440895722],[122.085860498123211,13.419901110593441],[122.086045221472801,13.41990178015598],[122.086229944832525,13.41990244958316],[122.086414668202281,13.419903118875071],[122.086413984546297,13.420083944158707],[122.086598708064301,13.420084613324674],[122.086598024536485,13.420265438614882],[122.086597340998551,13.420446263902603],[122.086782064802975,13.420446932951952],[122.086781381393209,13.420627758246335],[122.086966105345965,13.420628427169829],[122.086966788617531,13.420447601866121],[122.086967471878978,13.420266776559837],[122.086968155130478,13.420085951250888],[122.08696883837186,13.419905125939275],[122.086969521603194,13.419724300625086],[122.087154244874981,13.419724969366593],[122.087154927958082,13.419544144040502],[122.0873396511018,13.419544812637414],[122.087340334036668,13.419363987299244],[122.087525057052218,13.41936465575156],[122.087709780077802,13.419365324068695],[122.087894503113517,13.419365992250471],[122.087893820593166,13.41954681761653],[122.088078543777115,13.419547485672362],[122.088263266971012,13.419548153593015],[122.088262584717015,13.41972897897506],[122.088261902452999,13.419909804354619],[122.08826122017885,13.420090629731513],[122.088260537894755,13.420271455105743],[122.088445261651486,13.42027212292834],[122.088444579495473,13.42045294830932],[122.088443897329498,13.420633773687635],[122.088628621372678,13.420634441393615],[122.088813345425791,13.420635108964325],[122.088998069489037,13.420635776399765],[122.088998751240496,13.420454950993472],[122.088814027315451,13.420454283567357],[122.088629303400438,13.420453616005974],[122.088629985418265,13.420272790615668],[122.088630667426045,13.420091965222786],[122.088445943797467,13.420091297544785],[122.088446625933329,13.419910472158564],[122.088447308059244,13.419729646769769],[122.088447990175027,13.419548821378308],[122.088448672280776,13.419367995984183],[122.088263949214962,13.419367328208216],[122.088264631448865,13.419186502820841],[122.088079908531284,13.419185834918929],[122.087895185623736,13.419185166881748],[122.087710462726221,13.419184498709297],[122.087525739838838,13.419183830401577],[122.087341016961403,13.419183161958587],[122.087156294094086,13.419182493380328],[122.08715561103115,13.419363318711747],[122.086970888035665,13.419362649988892],[122.086786165050313,13.419361981130768],[122.086785481700858,13.419542806440871],[122.086600758587423,13.419542137438151],[122.086601442075008,13.419361312137374],[122.086416719109721,13.41936064300871],[122.086231996154481,13.419359973744866],[122.08604727320936,13.419359304345663],[122.085862550274285,13.419358634811191],[122.085863234304441,13.41917780954523],[122.085863918324662,13.418996984276605],[122.085864602334752,13.418816159005404],[122.086049324855239,13.418816828511721],[122.086050008717095,13.41863600322853],[122.086234731109499,13.41863667259034],[122.086235414823122,13.418455847295158],[122.086420137087444,13.418456516512373],[122.086420820652833,13.418275691205201],[122.086605542789087,13.418276360277732],[122.086606226206229,13.418095534958658],[122.086790948214315,13.418096203886682],[122.086790264935374,13.418277029215082],[122.086974987091693,13.418277698017162],[122.086975670232533,13.418096872679437],[122.087160392260785,13.418097541336921],[122.087345114299069,13.418098209859137],[122.087345797153461,13.417917384500095],[122.087530519063677,13.417918052877715],[122.087715240983925,13.417918721120154],[122.087899962914207,13.417919389227324],[122.088084684854621,13.417920057199224],[122.088269406804983,13.417920725035854],[122.088454128765463,13.417921392737215],[122.08863885073589,13.417922060303395],[122.08882357271645,13.417922727734306],[122.089008294707043,13.417923395029947],[122.089007613096101,13.41810422047301],[122.089006931475112,13.41828504591332],[122.089006249844104,13.418465871351144],[122.089005568203049,13.418646696786213],[122.089190290756292,13.418647363983888],[122.089375013319682,13.418648031046294],[122.089375694684335,13.418467205592572],[122.089190972259246,13.418466538539493],[122.089191653752053,13.418285713092343],[122.089192335234841,13.418104887642707],[122.089193016707668,13.417924062190407],[122.089193698170376,13.417743236735442],[122.089008976307866,13.417742569584307],[122.088824254455474,13.417741902297992],[122.0886395326132,13.417741234876408],[122.088454810780803,13.417740567319553],[122.08827008895851,13.417739899627518],[122.088270771102017,13.417559074216518],[122.088086049427972,13.417558406398539]]],[[[122.088998069489037,13.420635776399765],[122.088997989253613,13.420657057453164],[122.089020680198146,13.420635858079038],[122.088998069489037,13.420635776399765]]],[[[122.097163085311081,13.410719585947268],[122.097162898198803,13.410769701577504],[122.097193090584696,13.410719693293609],[122.097163085311081,13.410719585947268]]],[[[122.095863305730489,13.412523215076428],[122.096037865258936,13.41252384055471],[122.0965135509703,13.411802231111242],[122.096420163483202,13.411801896709791],[122.096235445789162,13.411801235138372],[122.096234769905109,13.411982061032452],[122.096050052082916,13.411981399316614],[122.095865334270755,13.411980737465596],[122.095864658100609,13.412161563338449],[122.09567994016021,13.412160901343013],[122.095679263842001,13.412341727204053],[122.095678587513859,13.412522553062518],[122.095863305730489,13.412523215076428]]],[[[122.096605556785065,13.4116217322309],[122.096605403002229,13.411662892695025],[122.096632472504126,13.411621828589597],[122.096605556785065,13.4116217322309]]],[[[122.091594403627923,13.417932722967835],[122.091740628653653,13.417933249589408],[122.091905456030318,13.417753015075968],[122.091779805297321,13.417752562649527],[122.09159508329455,13.417751897391989],[122.091594403627923,13.417932722967835]]],[[[122.101146152105585,13.40241568972775],[122.101210876017092,13.40223509147725],[122.10107372644751,13.402234603225144],[122.100889015821423,13.402233945520765],[122.100704305205198,13.402233287681204],[122.100703633160649,13.402414113935352],[122.100888343914804,13.402414771784061],[122.101073054678821,13.402415429497678],[122.101146152105585,13.40241568972775]]],[[[122.100701616967299,13.402956592681987],[122.100702289041692,13.402775766435655],[122.100702961106137,13.402594940186836],[122.100703633160649,13.402414113935352],[122.100518922416342,13.402413455951551],[122.100518250223814,13.402594282193798],[122.100517578021439,13.402775108433469],[122.100516905809101,13.402955934670564],[122.100516233586831,13.403136760904994],[122.10070094488313,13.403137418925565],[122.100885656189206,13.403138076811045],[122.1008872565384,13.40313808250983],[122.100951980420788,13.402957484340591],[122.10088632813553,13.402957250558229],[122.100701616967299,13.402956592681987]]]]}},
{"type":"Feature","properties":{"fid":117,"HAZ":3.0,"layer":"Marinduque_StormSurge_SSA4","path":"/Users/jhannaroseverzo/Downloads/Marinduque/Marinduque_StormSurge_SSA4.shp","Risk Level":"High","fid_2":235,"SYSTRA ID":"235","DAR ID":"133","Target Year":"2028","Bridge Category":"Original List","Bridge Name":"TAMBANGAN BRIDGE","Coordinates Y":"13.38757","Coordinates X":"122.05754","Region":"IV-B","Province":"MARINDUQUE","ARC 2026":"STA. CRUZ ARC","LINEAR METER IVF 2026":"30","EIRR 2026":"0.12","NEW/REPLACEMENT BRIDGE 2026":"new","Visited by SYSTRA":"No","Selected for 2nd Visit of SYSTRA":"Yes","Final Funder":"Buffer AFD","2023 IVF URL":"","2026 IVF URL":"https://docs.google.com/spreadsheets/u/1/d/1cMzEYMSDFMbDpfVaiBBjuCm_UU-KoXm9/edit"},"geometry":{"type":"MultiPolygon","coordinates":[[[[122.091594403627923,13.417932722967835],[122.09159508329455,13.417751897391989],[122.091410361301826,13.417751231999093],[122.091225639319148,13.417750566471016],[122.091224959376106,13.417931392028299],[122.091040237265261,13.417930726355626],[122.091039557174156,13.418111551901008],[122.091038877073032,13.418292377443725],[122.090854154695819,13.41829171161722],[122.090853474446448,13.418472537148125],[122.090668751941152,13.418471871177024],[122.090484029445804,13.418471205070743],[122.090483348910098,13.418652030580331],[122.090298626286668,13.418651364329543],[122.090113903673199,13.418650697943397],[122.09011322285113,13.418831523431757],[122.089928500109494,13.418830856901105],[122.08974377737799,13.418830190235182],[122.089559054656419,13.418829523433901],[122.089374331944896,13.41882885649744],[122.089375013319682,13.418648031046294],[122.089190290756292,13.418647363983888],[122.089005568203049,13.418646696786213],[122.089006249844104,13.418465871351144],[122.089006931475112,13.41828504591332],[122.089007613096101,13.41810422047301],[122.089008294707043,13.417923395029947],[122.08882357271645,13.417922727734306],[122.08863885073589,13.417922060303395],[122.088454128765463,13.417921392737215],[122.088269406804983,13.417920725035854],[122.088084684854621,13.417920057199224],[122.087899962914207,13.417919389227324],[122.087715240983925,13.417918721120154],[122.087530519063677,13.417918052877715],[122.087345797153461,13.417917384500095],[122.087345114299069,13.418098209859137],[122.087160392260785,13.418097541336921],[122.086975670232533,13.418096872679437],[122.086974987091693,13.418277698017162],[122.086790264935374,13.418277029215082],[122.086790948214315,13.418096203886682],[122.086606226206229,13.418095534958658],[122.086605542789087,13.418276360277732],[122.086420820652833,13.418275691205201],[122.086420137087444,13.418456516512373],[122.086235414823122,13.418455847295158],[122.086234731109499,13.41863667259034],[122.086050008717095,13.41863600322853],[122.086049324855239,13.418816828511721],[122.085864602334752,13.418816159005404],[122.085863918324662,13.418996984276605],[122.085863234304441,13.41917780954523],[122.085862550274285,13.419358634811191],[122.08604727320936,13.419359304345663],[122.086231996154481,13.419359973744866],[122.086416719109721,13.41936064300871],[122.086601442075008,13.419361312137374],[122.086600758587423,13.419542137438151],[122.086785481700858,13.419542806440871],[122.086786165050313,13.419361981130768],[122.086970888035665,13.419362649988892],[122.08715561103115,13.419363318711747],[122.087156294094086,13.419182493380328],[122.087341016961403,13.419183161958587],[122.087525739838838,13.419183830401577],[122.087710462726221,13.419184498709297],[122.087895185623736,13.419185166881748],[122.088079908531284,13.419185834918929],[122.088264631448865,13.419186502820841],[122.088263949214962,13.419367328208216],[122.088448672280776,13.419367995984183],[122.088447990175027,13.419548821378308],[122.088447308059244,13.419729646769769],[122.088446625933329,13.419910472158564],[122.088445943797467,13.420091297544785],[122.088630667426045,13.420091965222786],[122.088629985418265,13.420272790615668],[122.088629303400438,13.420453616005974],[122.088814027315451,13.420454283567357],[122.088998751240496,13.420454950993472],[122.088998069489037,13.420635776399765],[122.089020680198146,13.420635858079038],[122.090070105507181,13.419655415872031],[122.091331762537024,13.418380334212621],[122.091740628653653,13.417933249589408],[122.091594403627923,13.417932722967835]]],[[[122.101073054678821,13.402415429497678],[122.100888343914804,13.402414771784061],[122.100703633160649,13.402414113935352],[122.100702961106137,13.402594940186836],[122.100702289041692,13.402775766435655],[122.100701616967299,13.402956592681987],[122.10088632813553,13.402957250558229],[122.100951980420788,13.402957484340591],[122.101146152105585,13.40241568972775],[122.101073054678821,13.402415429497678]]]]}}
]
}
