{
"type": "FeatureCollection",
"name": "SYSTRA ID_62",
"crs": { "type": "name", "properties": { "name": "urn:ogc:def:crs:OGC:1.3:CRS84" } },
"xy_coordinate_resolution": 1e-15,
"features": [
{"type":"Feature","properties":{"fid":154,"HAZ":1.0,"layer":"Pangasinan_StormSurge_SSA4","path":"/Users/jhannaroseverzo/Downloads/Pangasinan/Pangasinan_StormSurge_SSA4.shp","Risk Level":"Low","fid_2":62,"SYSTRA ID":"62","DAR ID":"45","Target Year":"2027","Bridge Category":"Original List","Bridge Name":"LONGOS-LUMBANG BRIDGE","Coordinates Y":"15.990494","Coordinates X":"120.357031","Region":"I","Province":"PANGASINAN","ARC 2026":"Seinor Tesoro Association/ Aliguas Calasiao Farmers","LINEAR METER IVF 2026":"44.95","EIRR 2026":"0.24","NEW/REPLACEMENT BRIDGE 2026":"new","Visited by SYSTRA":"Yes","Selected for 2nd Visit of SYSTRA":"No","Final Funder":"No Funder","2023 IVF URL":"https://drive.google.com/open?id=1aii8tZUarCs2iV0TMXVJGtg-XQgs6ZyK","2026 IVF URL":"https://drive.google.com/open?id=1D-gb3nu8jxzwdrIRRR6pG-_1PR1qmunM"},"geometry":{"type":"MultiPolygon","coordinates":[[[[120.3206276413284,16.018547185711135],[120.320455507977712,16.018545035714155],[120.320808736779099,16.01897244772497],[120.320809560751755,16.018910736325459],[120.320811972220369,16.018730127172493],[120.320998714748484,16.018732459343038],[120.321001126018686,16.018551850158985],[120.320814383658089,16.018549518016151],[120.3206276413284,16.018547185711135]]],[[[120.320443310771722,16.018364244139644],[120.320304664001114,16.018362512298442],[120.320441128926575,16.018527636852181],[120.320443310771722,16.018364244139644]]],[[[120.321544477266329,16.019823110412762],[120.321546888218563,16.019642501166093],[120.32137875968553,16.019640401783903],[120.321542293748024,16.019823083147372],[120.321544477266329,16.019823110412762]]],[[[120.321362555849106,16.019459560121202],[120.321215225545373,16.019457720333659],[120.321360415224362,16.019619909471004],[120.321362555849106,16.019459560121202]]],[[[120.321178223814755,16.019276618966089],[120.321058883252689,16.019275128612996],[120.321144368678162,16.019378567226866],[120.321176385268657,16.019414332463271],[120.321178223814755,16.019276618966089]]],[[[120.320993892115695,16.019093677700841],[120.320908039518372,16.019092605490432],[120.32099254128498,16.019194853862722],[120.320993892115695,16.019093677700841]]],[[[120.321728810107757,16.020006051371677],[120.321731220923226,16.01982544210076],[120.321544477266329,16.019823110412762],[120.321544445542415,16.019825486883501],[120.321705827719896,16.020005764409618],[120.321728810107757,16.020006051371677]]],[[[120.325599877220128,16.023847786043838],[120.325786625242159,16.023850114772603],[120.325784217437359,16.02403072457696],[120.32578415382757,16.024035495896168],[120.326257768854219,16.024453219760076],[120.327539716789545,16.025497728051143],[120.327632450893063,16.025498883742756],[120.32781920076232,16.02550121093595],[120.327821606968755,16.025320600855014],[120.328008356701048,16.025322927858404],[120.328010762709155,16.025142317746472],[120.328013168686525,16.024961707631164],[120.32819991811418,16.024964034417216],[120.328202323893137,16.024783424270911],[120.328015574633085,16.024781097512481],[120.328017980548992,16.024600487390423],[120.327831231487352,16.024598160497344],[120.327833637540138,16.024417550399445],[120.327646888676924,16.024415223371808],[120.327460139844433,16.024412896181989],[120.327273391042581,16.024410568829989],[120.327086642271652,16.024408241315808],[120.326899893531362,16.024405913639445],[120.326902300391666,16.024225303676193],[120.326715551849887,16.024222975865271],[120.326717958847155,16.024042365926178],[120.326720365813685,16.02386175598371],[120.326722772749406,16.023681146037866],[120.32653602474123,16.02367881814763],[120.326533617637836,16.023859428065851],[120.326346869492795,16.023857099985811],[120.326344462190974,16.024037709873035],[120.32615771390897,16.024035381603191],[120.326160121378493,16.02385477174359],[120.325973373295,16.023852443339187],[120.325975780901288,16.023671833503744],[120.325789033016221,16.023669504964783],[120.325602285161892,16.02366717626364],[120.325415537338287,16.023664847400315],[120.325363172370444,16.023664194330529],[120.32557091907816,16.023847424913555],[120.325599877220128,16.023847786043838]]],[[[120.325231197791638,16.02348190864657],[120.32515542549163,16.023480963596601],[120.32523032948896,16.02354702819639],[120.325231197791638,16.02348190864657]]],[[[120.325046858580365,16.023298969782424],[120.325049266932723,16.023118360074967],[120.324862519704283,16.023116030808055],[120.324752440410194,16.023114657711623],[120.324903081481352,16.023258398624897],[120.32504572197557,16.023384206158536],[120.325046858580365,16.023298969782424]]],[[[120.3233878207663,16.021652515042412],[120.323246968729322,16.021650757269335],[120.323385930506973,16.021794196920325],[120.3233878207663,16.021652515042412]]],[[[120.323203484907722,16.021469575075503],[120.323069826626934,16.021467906979343],[120.323201691090503,16.021604020613974],[120.323203484907722,16.021469575075503]]],[[[120.323019149384351,16.021286634998372],[120.322892684422712,16.02128505658423],[120.323017452014057,16.021413844658621],[120.323019149384351,16.021286634998372]]],[[[120.322834814196341,16.021103694810929],[120.322837224190863,16.02092308539444],[120.322650479343537,16.020920754513352],[120.322652889474924,16.020740145121021],[120.322839634154647,16.020742475974487],[120.322842044087693,16.020561866551247],[120.322844453989845,16.020381257124544],[120.323031198365186,16.020383587760584],[120.323217942771336,16.020385918234531],[120.323220352307558,16.020205308749208],[120.323222761812957,16.020024699260421],[120.323225171287532,16.019844089768259],[120.32322758073137,16.019663480272811],[120.323040836995602,16.019661149909442],[120.323043246576319,16.019480540438153],[120.322856503038977,16.019478209940313],[120.322858912756374,16.019297600493271],[120.322672169417459,16.019295269860962],[120.322485426109353,16.01929293906656],[120.322483016056651,16.019473548458269],[120.322669759532445,16.019475879280382],[120.322667349616623,16.019656488696338],[120.32248060597324,16.019654157846603],[120.322478195858992,16.019834767231561],[120.322291452078815,16.019832436192022],[120.322289041766254,16.020013045545983],[120.322102297849298,16.020010714316641],[120.32191555396308,16.020008382925294],[120.321728810107757,16.020006051371677],[120.321728476219675,16.020031064697253],[120.321869361615867,16.020188445587074],[120.32191314328449,16.020188992220458],[120.322099887338211,16.020191323639516],[120.322097476796401,16.020371932959016],[120.322032895435896,16.020371126679695],[120.322344409100126,16.02071911375991],[120.322833213277704,16.021223669054304],[120.322834814196341,16.021103694810929]]],[[[120.328197512304499,16.025144644560147],[120.328195106464179,16.025325254699702],[120.328192700593021,16.025505864835793],[120.328379450554479,16.025508191542443],[120.328381856257934,16.025327581378729],[120.328384261930665,16.02514697121164],[120.328197512304499,16.025144644560147]]],[[[120.338600412525125,16.029428755091718],[120.338602809649231,16.029248143484626],[120.338416054646657,16.02924582514888],[120.338229299674637,16.029243506650953],[120.338231697103552,16.029062895095464],[120.338044942329958,16.0290605764628],[120.337858187587003,16.029058257667867],[120.33786058532074,16.028877646163981],[120.337673830776026,16.02887532723431],[120.337676228646899,16.028694715754494],[120.337489474300611,16.028692396690086],[120.337491872308533,16.028511785234429],[120.337305118160558,16.028509466035285],[120.337307516305529,16.028328854603696],[120.33712076235598,16.028326535269816],[120.336934008436984,16.028324215773754],[120.336936406886778,16.028143604393769],[120.336749653166208,16.02814128476297],[120.336752051753052,16.027960673407144],[120.33656529823071,16.027958353641608],[120.336567696954688,16.027777742309851],[120.336380943630772,16.027775422409668],[120.336383342491786,16.027594811101981],[120.336385741322175,16.027414199791007],[120.336198988364274,16.027411879783621],[120.33601223543711,16.027409559613965],[120.336014634572223,16.027228948354594],[120.336201387331784,16.027231268496717],[120.33620378626857,16.027050657206438],[120.336017033676683,16.02704833709176],[120.335830281115449,16.027046016814989],[120.335643528584939,16.027043696375948],[120.335456776084996,16.027041375774637],[120.335270023615763,16.027039055011144],[120.335083271177183,16.02703673408547],[120.334896518769256,16.027034412997615],[120.334894118658468,16.027215024095248],[120.335080871234183,16.027217345210726],[120.335078471260545,16.027397956332518],[120.335076071256168,16.027578567450934],[120.335073671221252,16.027759178565976],[120.335071271155584,16.027939789677554],[120.334884517909117,16.027937468452119],[120.334697764693388,16.027935147064415],[120.33469536426162,16.028115758117639],[120.334508610908756,16.028113436540131],[120.334321857586616,16.028111114800442],[120.334135104295029,16.028108792898571],[120.333948351034167,16.02810647083443],[120.333950752136772,16.02792585989134],[120.33376399907425,16.027923537692551],[120.333766400313806,16.02774292677362],[120.33357964744971,16.027740604440094],[120.333577246042452,16.027921215331492],[120.333390493041307,16.027918892808252],[120.333388091435637,16.02809950366883],[120.333201338297428,16.028097180955786],[120.333014585189972,16.028094858080561],[120.332827832113139,16.028092535043154],[120.332641079067045,16.028090211843477],[120.332643481343553,16.027909601093121],[120.332456728495799,16.027907277758796],[120.33245432605159,16.028087888481618],[120.332267573066787,16.02808556495749],[120.332080820112708,16.02808324127118],[120.331894067189353,16.028080917422599],[120.331707314296651,16.028078593411838],[120.331704911150965,16.028259204021062],[120.331518158121213,16.028256879820585],[120.331517556266547,16.028302109015378],[120.332129298139336,16.028691653775358],[120.332646418281996,16.028993481402583],[120.332815821109037,16.028995588881795],[120.332818223371248,16.028814978120781],[120.333004977118918,16.028817301268411],[120.333007379182703,16.028636690476489],[120.333194132793324,16.028639013434404],[120.333380886434597,16.02864133622996],[120.33356764010658,16.028643658863334],[120.333565238545944,16.028824269737857],[120.333751992416353,16.028826592236584],[120.333938746317415,16.02882891457304],[120.334125500249115,16.028831236747227],[120.33431225421154,16.02883355875932],[120.334499008204517,16.028835880609055],[120.334501408926627,16.028655269596953],[120.33468816278257,16.028657591256973],[120.334874916669236,16.028659912754723],[120.335061670586541,16.028662234090291],[120.335064070774763,16.028481622992214],[120.335250824555033,16.028483944138067],[120.335437578365926,16.02848626512165],[120.335624332207473,16.028488585943052],[120.335811086079758,16.028490906602183],[120.335808686562373,16.028671517810395],[120.335995440632885,16.02867383833479],[120.335993041252635,16.028854449567071],[120.336179795521488,16.028856769956818],[120.336366549821165,16.028859090184294],[120.33655330415138,16.02886141024959],[120.336550905243556,16.029042021561008],[120.336737659772112,16.029044341491566],[120.336924414331392,16.029046661259855],[120.336922015728391,16.029227272622876],[120.337108770485997,16.029229592256428],[120.337295525274172,16.029231911727798],[120.337293126975979,16.029412523142511],[120.337479881962565,16.029414842479056],[120.337477483801436,16.029595453917839],[120.337664238986434,16.029597773119647],[120.337850994202,16.029600092159274],[120.33784859634568,16.02978070364966],[120.338035351759572,16.02978302255455],[120.338032954040486,16.029963634069006],[120.338219709652705,16.029965952839159],[120.338406465295563,16.029968271447043],[120.338404067881299,16.030148883013101],[120.338590823722583,16.030151201486248],[120.338777579594407,16.030153519797125],[120.338775182484966,16.030334131414786],[120.338961938555215,16.030336449590838],[120.339148694656032,16.030338767604707],[120.3391462978514,16.030519379273972],[120.339333054150629,16.030521697153105],[120.339330657483146,16.030702308846351],[120.339517413980701,16.030704626590659],[120.33970417050881,16.030706944172785],[120.339701774146235,16.030887555917634],[120.33988853087267,16.030889873364934],[120.33988613464723,16.031070485133942],[120.340072891572092,16.031072802446417],[120.340075287629844,16.030892190649965],[120.340077683656858,16.030711578850138],[120.340080079653418,16.030530967046936],[120.340082475619241,16.030350355240358],[120.340084871554524,16.030169743430317],[120.340087267459239,16.02998913161699],[120.339900511540861,16.029986814469272],[120.339898115468372,16.030167426255243],[120.33971135941286,16.03016510891781],[120.339713755653037,16.029984497159372],[120.339526999795865,16.029982179687202],[120.339529396173177,16.029801567952834],[120.339342640514332,16.029799250345928],[120.339345037028693,16.029618638635629],[120.339158281568274,16.029616320893986],[120.338971526138309,16.029614002989984],[120.338973922957578,16.029433391331377],[120.338787167726039,16.029431073292638],[120.338600412525125,16.029428755091718]]],[[[120.329667463801385,16.026969356680038],[120.329516627322732,16.026967478171816],[120.329666110079614,16.027071026464483],[120.329667463801385,16.026969356680038]]],[[[120.329483117226488,16.026786420586031],[120.329296365906927,16.026784094659469],[120.329298770987052,16.026603484381535],[120.329112019865818,16.026601158320325],[120.329114425082921,16.026420548066639],[120.328927674160184,16.026418221870781],[120.328930079514237,16.026237611641253],[120.328743328789841,16.026235285310836],[120.328745734280844,16.026054675105556],[120.328558983754959,16.026052348640491],[120.328561389382926,16.025871738459369],[120.328374639055369,16.025869411859745],[120.328372233259714,16.026050022013333],[120.328371162074774,16.026130437987565],[120.329107405656899,16.026684005979398],[120.329481034630547,16.026942822736061],[120.329483117226488,16.026786420586031]]],[[[120.354058295338447,16.032871662956833],[120.353871534614584,16.032869357567886],[120.353869150666171,16.033049971357944],[120.353682389804987,16.033047665779371],[120.353680005658248,16.033228279538697],[120.353493244659759,16.033225973770588],[120.353306483691739,16.033223667840119],[120.35330409917897,16.033404281541358],[120.353301714635833,16.033584895239311],[120.353299330062129,16.033765508933801],[120.353296945458069,16.033946122624915],[120.353483707097283,16.033948428664718],[120.353481322630529,16.034129042379814],[120.353294560823528,16.034126736312743],[120.353292176158533,16.034307349997107],[120.353289791463069,16.034487963678096],[120.353103029350976,16.034485657394043],[120.353100644457271,16.034666271044301],[120.352913882207787,16.034663964570623],[120.352911497115841,16.03484457819015],[120.352724734729136,16.034842271526756],[120.352537972372801,16.034839964701092],[120.352540357800294,16.034659351136277],[120.352542743197418,16.034478737567998],[120.352355981207097,16.034476430634687],[120.352169219247244,16.034474123539106],[120.352171604949461,16.034293510022163],[120.35198484318785,16.034291202791579],[120.351987229027372,16.034110589298617],[120.351800467464102,16.034108281933118],[120.351613705931285,16.03410597440535],[120.351616092075901,16.033925360963636],[120.351429330741325,16.033923053300953],[120.351426944428837,16.034103666715311],[120.351424558085981,16.034284280126204],[120.351237796446227,16.034281972246539],[120.351235409905129,16.034462585626791],[120.351233023333478,16.034643199003579],[120.351046261388632,16.034640890906843],[120.351043874618739,16.034821504252989],[120.351041487818293,16.035002117595671],[120.350854725568453,16.034999809281953],[120.350852338569766,16.035180422593903],[120.350665576182521,16.035178114090559],[120.350478813825745,16.035175805424856],[120.350316723066626,16.035173801596244],[120.350952655540453,16.035266892929215],[120.351952972480689,16.035374666776455],[120.351970527510943,16.035374883678561],[120.352157290279308,16.035377191073191],[120.352159676133752,16.035196577573124],[120.352346438764798,16.035198884778129],[120.352344053078127,16.035379498305463],[120.352343561039461,16.035416748670677],[120.352774952115496,16.035463226615875],[120.353089832076833,16.035485088978326],[120.353091104577985,16.035388725611583],[120.353277867529144,16.035391032032326],[120.353280252376834,16.035210418368301],[120.35328263719407,16.035029804700812],[120.353469399840037,16.035032110904574],[120.353471784459032,16.034851497206443],[120.353658546967594,16.034853803220578],[120.353656162516472,16.035034416946065],[120.35384292522329,16.035036722825286],[120.353845309506639,16.034856109072443],[120.353847693759604,16.034675495316225],[120.353850077982116,16.034494881556544],[120.354036840216054,16.034497187191516],[120.35403445616133,16.034677800978464],[120.354221218593509,16.034680106478344],[120.35440798105607,16.034682411815954],[120.3545947435491,16.034684716991293],[120.354781506072499,16.034687022004274],[120.354968268626365,16.034689326854984],[120.354965885380238,16.03486994077516],[120.354963502103644,16.03505055469196],[120.354961118796666,16.035231168605296],[120.35514788188442,16.035233473375715],[120.355145498714748,16.035414087313033],[120.355143115514721,16.035594701246975],[120.355142951893612,16.035607101328573],[120.356076535598405,16.035636357441525],[120.356076933087849,16.035606222937243],[120.355890169512307,16.035603918923819],[120.355892552041155,16.035423304880631],[120.35589493453962,16.035242690834068],[120.355708171330193,16.035240386712907],[120.35570578866394,16.035421000732203],[120.355519025317108,16.035418696421416],[120.355521408151134,16.035238082429476],[120.355334645002543,16.035235777983686],[120.35533702797396,16.035055164015727],[120.355339410914922,16.034874550044304],[120.355341793825502,16.034693936069505],[120.355528556470674,16.034696240433316],[120.355530939183012,16.034515626427876],[120.355717701690779,16.03451793060206],[120.355720084204961,16.034337316565889],[120.35572246668859,16.034156702526342],[120.355724849141851,16.033976088483421],[120.355538087137418,16.033973784391126],[120.355540469728069,16.033793170372096],[120.355353707921779,16.033790866144887],[120.355356090649749,16.033610252149838],[120.3551693290418,16.033607947787626],[120.355171711907175,16.033427333816469],[120.354984950497368,16.033425029319254],[120.354798189118029,16.033422724659768],[120.354611427769058,16.033420419837924],[120.354424666450655,16.033418114853898],[120.354427049956669,16.033237500988612],[120.354240288836408,16.033235195869583],[120.354242672479828,16.033054582028278],[120.354055911557722,16.033052276774246],[120.354058295338447,16.032871662956833]],[[120.355535704516384,16.03415439840678],[120.355348942374533,16.03415209412486],[120.35535132516344,16.033971480136561],[120.355538087137418,16.033973784391126],[120.355535704516384,16.03415439840678]],[[120.354048760032924,16.033594118206057],[120.353861998637953,16.033591812707865],[120.35367523727345,16.033589507047314],[120.35367762148104,16.033408893294737],[120.35386438267777,16.033411198927933],[120.353866766687204,16.033230585144626],[120.354053527746615,16.033232890588284],[120.354051143904954,16.033413504398858],[120.354048760032924,16.033594118206057]]],[[[120.350107676873549,16.034990574404024],[120.349920914776035,16.034988265278777],[120.349734152708976,16.034985955991171],[120.349736540683949,16.034805342839981],[120.349738928628454,16.034624729685504],[120.349741316542506,16.034444116527563],[120.34974370442599,16.034263503366248],[120.349930465821856,16.034265812544252],[120.349932853507013,16.034085199352205],[120.349935241161802,16.033904586156783],[120.349748480101496,16.033902277033402],[120.34974609227902,16.034082890201468],[120.349559331081394,16.03408058088846],[120.349556943060591,16.034261194025884],[120.34937018172576,16.034258884523162],[120.349183420421383,16.034256574858258],[120.349185808777818,16.034075961775635],[120.349188197103715,16.033895348689637],[120.349190585399057,16.033714735600263],[120.3493773462001,16.033717045183099],[120.349379734297202,16.033536432063084],[120.349382122363835,16.033355818939516],[120.349384510399915,16.033175205812661],[120.349571270728092,16.03317751515107],[120.34957365856593,16.032996901993485],[120.349386898405527,16.032994592682432],[120.349389286380685,16.032813979548738],[120.349202526418608,16.03281167010277],[120.349015766486914,16.032809360494532],[120.348829006585859,16.032807050724024],[120.348642246715258,16.032804740791246],[120.348455486875139,16.032802430696197],[120.348268727065559,16.03280012043879],[120.348271116016818,16.032619507466034],[120.348084356405494,16.032617197073801],[120.347897596824623,16.032614886519298],[120.347899986080975,16.032434273597968],[120.347713226698431,16.03243196290855],[120.347526467346455,16.032429652056862],[120.347528856907715,16.032249039186869],[120.347342097754066,16.032246728200356],[120.347155338630785,16.032244417051484],[120.347157728497137,16.032063804232916],[120.346970969572183,16.032061492949218],[120.346973359575756,16.031880880154631],[120.346786600849143,16.031878568736108],[120.346599842152983,16.031876257155226],[120.346602232461564,16.031695644412153],[120.346415473963745,16.031693332696445],[120.346417864409531,16.031512719977353],[120.346231106109954,16.031510408126731],[120.346044347841016,16.031508096113928],[120.346046738591724,16.031327483446262],[120.345859980521027,16.031325171298544],[120.345862371409055,16.031144558654859],[120.345675613536599,16.031142246372315],[120.345678004561833,16.0309616337527],[120.345491246887619,16.030959321335331],[120.345493638050087,16.030778708739696],[120.345306880574213,16.030776396187502],[120.345120123128879,16.030774083472949],[120.345122514596255,16.030593470928828],[120.344935757349162,16.030591158079538],[120.344933365714098,16.030771770596214],[120.344746608329785,16.030769457557298],[120.344559850976111,16.030767144356023],[120.344373093653005,16.030764830992478],[120.344370701484053,16.030945443423622],[120.344183944023712,16.030943129870451],[120.344181551656519,16.031123742270776],[120.343994794058943,16.031121428527889],[120.343992401493423,16.031302040897394],[120.344179159258672,16.031304354667636],[120.344176766830373,16.031484967061122],[120.344363524793962,16.031487280696627],[120.344550282788092,16.031489594169773],[120.344547890664714,16.031670206614773],[120.34473464885717,16.031672519953094],[120.344732256871097,16.031853132422164],[120.344919015261809,16.031855445625659],[120.345105773683159,16.031857758666884],[120.345103382001909,16.03203837118738],[120.345290140621586,16.032040684093779],[120.345476899271731,16.032042996837909],[120.345663657952429,16.032045309419768],[120.345661266743946,16.032225922019133],[120.345848025622985,16.032228234466078],[120.346034784532478,16.032230546750842],[120.346221543472524,16.032232858873247],[120.346219152736907,16.032413471551482],[120.34640591187528,16.032415783539061],[120.346592671044121,16.03241809536437],[120.346590280613427,16.032598708093943],[120.346777039980594,16.032601019784426],[120.346963799378329,16.032603331312551],[120.346961409252629,16.032783944093548],[120.347148168848676,16.032786255486847],[120.347145778860295,16.032966868291915],[120.347332538654598,16.0329691795503],[120.347519298479355,16.032971490646414],[120.347516908795967,16.033152103502907],[120.347703668819065,16.033154414464107],[120.347701279272982,16.033335027344581],[120.347888039494322,16.033337338170956],[120.347885650085473,16.03351795107541],[120.348072410505225,16.033520261766871],[120.348070021233596,16.033700874695306],[120.348256781851589,16.033703185251852],[120.34825439271728,16.033883798204268],[120.348252003552417,16.034064411153398],[120.34843876453651,16.034066721602386],[120.348436375508953,16.034247334575497],[120.348623136691302,16.03424964488957],[120.348620747801064,16.034430257886662],[120.348618358880259,16.034610870880378],[120.348805120428707,16.034613181086982],[120.348802731645321,16.034793794104591],[120.348800815894677,16.034938639828798],[120.34913974127015,16.035001508453767],[120.350105663087874,16.035142905462507],[120.350107676873549,16.034990574404024]]],[[[120.354024919638107,16.035400256092331],[120.354027303814519,16.035219642318882],[120.353840540909474,16.035217336574753],[120.353838156565189,16.035397950320757],[120.3538363219768,16.035536918357021],[120.354022944572009,16.035549875710039],[120.354024919638107,16.035400256092331]]]]}},
{"type":"Feature","properties":{"fid":155,"HAZ":2.0,"layer":"Pangasinan_StormSurge_SSA4","path":"/Users/jhannaroseverzo/Downloads/Pangasinan/Pangasinan_StormSurge_SSA4.shp","Risk Level":"Medium","fid_2":62,"SYSTRA ID":"62","DAR ID":"45","Target Year":"2027","Bridge Category":"Original List","Bridge Name":"LONGOS-LUMBANG BRIDGE","Coordinates Y":"15.990494","Coordinates X":"120.357031","Region":"I","Province":"PANGASINAN","ARC 2026":"Seinor Tesoro Association/ Aliguas Calasiao Farmers","LINEAR METER IVF 2026":"44.95","EIRR 2026":"0.24","NEW/REPLACEMENT BRIDGE 2026":"new","Visited by SYSTRA":"Yes","Selected for 2nd Visit of SYSTRA":"No","Final Funder":"No Funder","2023 IVF URL":"https://drive.google.com/open?id=1aii8tZUarCs2iV0TMXVJGtg-XQgs6ZyK","2026 IVF URL":"https://drive.google.com/open?id=1D-gb3nu8jxzwdrIRRR6pG-_1PR1qmunM"},"geometry":{"type":"MultiPolygon","coordinates":[[[[120.355143115514721,16.035594701246975],[120.355145498714748,16.035414087313033],[120.35514788188442,16.035233473375715],[120.354961118796666,16.035231168605296],[120.354963502103644,16.03505055469196],[120.354965885380238,16.03486994077516],[120.354968268626365,16.034689326854984],[120.354781506072499,16.034687022004274],[120.3545947435491,16.034684716991293],[120.35440798105607,16.034682411815954],[120.354221218593509,16.034680106478344],[120.35403445616133,16.034677800978464],[120.354036840216054,16.034497187191516],[120.353850077982116,16.034494881556544],[120.353847693759604,16.034675495316225],[120.353845309506639,16.034856109072443],[120.35384292522329,16.035036722825286],[120.353840540909474,16.035217336574753],[120.354027303814519,16.035219642318882],[120.354024919638107,16.035400256092331],[120.354022944572009,16.035549875710039],[120.354603819344419,16.035590206300654],[120.355142951893612,16.035607101328573],[120.355143115514721,16.035594701246975]]],[[[120.352344053078127,16.035379498305463],[120.352346438764798,16.035198884778129],[120.352159676133752,16.035196577573124],[120.352157290279308,16.035377191073191],[120.351970527510943,16.035374883678561],[120.351952972480689,16.035374666776455],[120.352343561039461,16.035416748670677],[120.352344053078127,16.035379498305463]]],[[[120.348802731645321,16.034793794104591],[120.348805120428707,16.034613181086982],[120.348618358880259,16.034610870880378],[120.348620747801064,16.034430257886662],[120.348623136691302,16.03424964488957],[120.348436375508953,16.034247334575497],[120.34843876453651,16.034066721602386],[120.348252003552417,16.034064411153398],[120.34825439271728,16.033883798204268],[120.348256781851589,16.033703185251852],[120.348070021233596,16.033700874695306],[120.348072410505225,16.033520261766871],[120.347885650085473,16.03351795107541],[120.347888039494322,16.033337338170956],[120.347701279272982,16.033335027344581],[120.347703668819065,16.033154414464107],[120.347516908795967,16.033152103502907],[120.347519298479355,16.032971490646414],[120.347332538654598,16.0329691795503],[120.347145778860295,16.032966868291915],[120.347148168848676,16.032786255486847],[120.346961409252629,16.032783944093548],[120.346963799378329,16.032603331312551],[120.346777039980594,16.032601019784426],[120.346590280613427,16.032598708093943],[120.346592671044121,16.03241809536437],[120.34640591187528,16.032415783539061],[120.346219152736907,16.032413471551482],[120.346221543472524,16.032232858873247],[120.346034784532478,16.032230546750842],[120.345848025622985,16.032228234466078],[120.345661266743946,16.032225922019133],[120.345663657952429,16.032045309419768],[120.345476899271731,16.032042996837909],[120.345290140621586,16.032040684093779],[120.345103382001909,16.03203837118738],[120.345105773683159,16.031857758666884],[120.344919015261809,16.031855445625659],[120.344732256871097,16.031853132422164],[120.34473464885717,16.031672519953094],[120.344547890664714,16.031670206614773],[120.344550282788092,16.031489594169773],[120.344363524793962,16.031487280696627],[120.344176766830373,16.031484967061122],[120.344179159258672,16.031304354667636],[120.343992401493423,16.031302040897394],[120.343994794058943,16.031121428527889],[120.343808036491936,16.031119114622733],[120.343805643758643,16.031299726964793],[120.343618886054486,16.031297412870011],[120.343432128380812,16.031295098612958],[120.343429735281489,16.031475710896753],[120.34324297747068,16.031473396449986],[120.343240584173031,16.031654008702962],[120.343053826225074,16.031651694066479],[120.343051432729013,16.031832306288635],[120.342864674643835,16.031829991462438],[120.342862280949518,16.032010603653774],[120.34267552272712,16.03200828863795],[120.342488764535275,16.032005973459768],[120.342486370474958,16.032186585592839],[120.342299612145979,16.032184270225031],[120.342297217887221,16.032364882327283],[120.342110459421022,16.03236256676967],[120.341923700985376,16.032360251049877],[120.341921306360518,16.032540863093775],[120.341734547787738,16.032538547184267],[120.341732152964553,16.032719159197345],[120.341545394254538,16.032716843098122],[120.341358635575176,16.032714526836539],[120.341171876926367,16.032712210412686],[120.340985118308197,16.032709893826652],[120.340987513802403,16.032529281923352],[120.34080075538256,16.032526965202404],[120.340803151013986,16.032346353323174],[120.340616392792469,16.032344036467489],[120.340618788561031,16.032163424612328],[120.340432030537855,16.032161107621818],[120.340434426443636,16.031980495790727],[120.340436822318878,16.031799883956261],[120.340250064661802,16.031797566858458],[120.340252460674165,16.031616955048062],[120.34006570321543,16.031614637815434],[120.340068099364927,16.031434026029107],[120.340070495483872,16.031253414239494],[120.340072891572092,16.031072802446417],[120.33988613464723,16.031070485133942],[120.33988853087267,16.030889873364934],[120.339701774146235,16.030887555917634],[120.33970417050881,16.030706944172785],[120.339517413980701,16.030704626590659],[120.339330657483146,16.030702308846351],[120.339333054150629,16.030521697153105],[120.3391462978514,16.030519379273972],[120.339148694656032,16.030338767604707],[120.338961938555215,16.030336449590838],[120.338775182484966,16.030334131414786],[120.338777579594407,16.030153519797125],[120.338590823722583,16.030151201486248],[120.338404067881299,16.030148883013101],[120.338406465295563,16.029968271447043],[120.338219709652705,16.029965952839159],[120.338032954040486,16.029963634069006],[120.338035351759572,16.02978302255455],[120.33784859634568,16.02978070364966],[120.337850994202,16.029600092159274],[120.337664238986434,16.029597773119647],[120.337477483801436,16.029595453917839],[120.337479881962565,16.029414842479056],[120.337293126975979,16.029412523142511],[120.337295525274172,16.029231911727798],[120.337108770485997,16.029229592256428],[120.336922015728391,16.029227272622876],[120.336924414331392,16.029046661259855],[120.336737659772112,16.029044341491566],[120.336550905243556,16.029042021561008],[120.33655330415138,16.02886141024959],[120.336366549821165,16.028859090184294],[120.336179795521488,16.028856769956818],[120.335993041252635,16.028854449567071],[120.335995440632885,16.02867383833479],[120.335808686562373,16.028671517810395],[120.335811086079758,16.028490906602183],[120.335624332207473,16.028488585943052],[120.335437578365926,16.02848626512165],[120.335250824555033,16.028483944138067],[120.335064070774763,16.028481622992214],[120.335061670586541,16.028662234090291],[120.334874916669236,16.028659912754723],[120.33468816278257,16.028657591256973],[120.334501408926627,16.028655269596953],[120.334499008204517,16.028835880609055],[120.33431225421154,16.02883355875932],[120.334125500249115,16.028831236747227],[120.333938746317415,16.02882891457304],[120.333751992416353,16.028826592236584],[120.333565238545944,16.028824269737857],[120.33356764010658,16.028643658863334],[120.333380886434597,16.02864133622996],[120.333194132793324,16.028639013434404],[120.333007379182703,16.028636690476489],[120.333004977118918,16.028817301268411],[120.332818223371248,16.028814978120781],[120.332815821109037,16.028995588881795],[120.332646418281996,16.028993481402583],[120.333699055547669,16.029607874426603],[120.335304812092474,16.030463777719238],[120.336944091045567,16.031258042987634],[120.338614363852187,16.03198944462947],[120.340313054035477,16.032656854001054],[120.342037541175685,16.033259241163069],[120.343785164957808,16.033795676473897],[120.345553229281549,16.034265332028056],[120.347339006427049,16.0346674829375],[120.348800815894677,16.034938639828798],[120.348802731645321,16.034793794104591]]],[[[120.328372233259714,16.026050022013333],[120.328374639055369,16.025869411859745],[120.328377044820286,16.025688801702781],[120.328379450554479,16.025508191542443],[120.328192700593021,16.025505864835793],[120.328195106464179,16.025325254699702],[120.328008356701048,16.025322927858404],[120.327821606968755,16.025320600855014],[120.32781920076232,16.02550121093595],[120.327632450893063,16.025498883742756],[120.327539716789545,16.025497728051143],[120.327659930932811,16.025595676388889],[120.328371162074774,16.026130437987565],[120.328372233259714,16.026050022013333]]],[[[120.325784217437359,16.02403072457696],[120.325786625242159,16.023850114772603],[120.325599877220128,16.023847786043838],[120.32557091907816,16.023847424913555],[120.32578415382757,16.024035495896168],[120.325784217437359,16.02403072457696]]],[[[120.322097476796401,16.020371932959016],[120.322099887338211,16.020191323639516],[120.32191314328449,16.020188992220458],[120.321869361615867,16.020188445587074],[120.322032895435896,16.020371126679695],[120.322097476796401,16.020371932959016]]],[[[120.321728810107757,16.020006051371677],[120.321705827719896,16.020005764409618],[120.321728476219675,16.020031064697253],[120.321728810107757,16.020006051371677]]],[[[120.321544477266329,16.019823110412762],[120.321542293748024,16.019823083147372],[120.321544445542415,16.019825486883501],[120.321544477266329,16.019823110412762]]]]}}
]
}
