{
"type": "FeatureCollection",
"name": "SYSTRA ID_425",
"crs": { "type": "name", "properties": { "name": "urn:ogc:def:crs:OGC:1.3:CRS84" } },
"xy_coordinate_resolution": 1e-15,
"features": [
{"type":"Feature","properties":{"fid":136,"HAZ":1.0,"layer":"NorthernSamar_StormSurge_SSA4","path":"/Users/jhannaroseverzo/Downloads/NorthernSamar/NorthernSamar_StormSurge_SSA4.shp","Risk Level":"Low","fid_2":425,"SYSTRA ID":"425","DAR ID":"425","Target Year":"BUFFER B","Bridge Category":"Buffer List","Bridge Name":"MAG-UBAY BRIDGE","Coordinates Y":"12.490564","Coordinates X":"124.35805","Region":"VIII","Province":"NORTHERN SAMAR","ARC 2026":"","LINEAR METER IVF 2026":"","EIRR 2026":"","NEW/REPLACEMENT BRIDGE 2026":"","Visited by SYSTRA":"No","Selected for 2nd Visit of SYSTRA":"No","Final Funder":"Buffer AFD","2023 IVF URL":"https://drive.google.com/open?id=1-3NU4QFIOYer5W7Wmk4qoKXo-9fVVCPn","2026 IVF URL":"https://drive.google.com/open?id=1-3NU4QFIOYer5W7Wmk4qoKXo-9fVVCPn"},"geometry":{"type":"MultiPolygon","coordinates":[[[[124.335646306905048,12.528208709480657],[124.335644910708467,12.527937492463279],[124.335368851546804,12.527938864012642],[124.335370247455174,12.528210081060662],[124.335646306905048,12.528208709480657]]],[[[124.335373039369514,12.528752515139916],[124.335371643396044,12.528481298103086],[124.335095583625005,12.528482669430405],[124.335096979310265,12.528753886497787],[124.335373039369514,12.528752515139916]]],[[[124.338970216189935,12.53036196141519],[124.339246277521767,12.530360585906417],[124.339244877314528,12.530089369332595],[124.338968816270992,12.530090744810726],[124.338970216189935,12.53036196141519]]],[[[124.338970216189935,12.53036196141519],[124.338694154825049,12.530363336640635],[124.338695554488368,12.530634553270234],[124.338971616141549,12.530633178014059],[124.338970216189935,12.53036196141519]]],[[[124.33952794113172,12.531444076230455],[124.339526540504906,12.531172859709836],[124.339250478340304,12.531174235594131],[124.339251878678638,12.531445452145482],[124.33952794113172,12.531444076230455]]],[[[124.33952794113172,12.531444076230455],[124.339529341791305,12.53171529274548],[124.339805404499913,12.531713916516393],[124.339804003551933,12.5314427000321],[124.33952794113172,12.531444076230455]]],[[[124.362174921065758,12.53322878454208],[124.362173496553865,12.532957570600731],[124.361897435078674,12.532958969940752],[124.361898859302087,12.533230183913188],[124.361900283558796,12.533501397880118],[124.362176345610862,12.533499998477657],[124.362174921065758,12.53322878454208]]],[[[124.35389730146639,12.534084286980571],[124.353895885509615,12.533813072121999],[124.353619822172803,12.533814463052481],[124.353621237841011,12.534085677942139],[124.35389730146639,12.534084286980571]]],[[[124.36107636757562,12.534319236534605],[124.361074944084606,12.534048022490937],[124.360798881322268,12.534049420822077],[124.360800304524801,12.53432063489692],[124.36107636757562,12.534319236534605]]],[[[124.350312708573128,12.534915993123194],[124.350036643652331,12.534917380492791],[124.350037426574104,12.535067757870202],[124.35031374386628,12.535114803357361],[124.350312708573128,12.534915993123194]]],[[[124.357494644521481,12.535693465295703],[124.35749322461497,12.535422250874914],[124.357217159977864,12.535423645676877],[124.357218579595894,12.535694860128752],[124.357494644521481,12.535693465295703]]],[[[124.356942514637083,12.535696254678383],[124.356666449645246,12.535697648944508],[124.356666689053583,12.535743404851615],[124.35694278196371,12.535747335952788],[124.356942514637083,12.535696254678383]]]]}},
{"type":"Feature","properties":{"fid":137,"HAZ":2.0,"layer":"NorthernSamar_StormSurge_SSA4","path":"/Users/jhannaroseverzo/Downloads/NorthernSamar/NorthernSamar_StormSurge_SSA4.shp","Risk Level":"Medium","fid_2":425,"SYSTRA ID":"425","DAR ID":"425","Target Year":"BUFFER B","Bridge Category":"Buffer List","Bridge Name":"MAG-UBAY BRIDGE","Coordinates Y":"12.490564","Coordinates X":"124.35805","Region":"VIII","Province":"NORTHERN SAMAR","ARC 2026":"","LINEAR METER IVF 2026":"","EIRR 2026":"","NEW/REPLACEMENT BRIDGE 2026":"","Visited by SYSTRA":"No","Selected for 2nd Visit of SYSTRA":"No","Final Funder":"Buffer AFD","2023 IVF URL":"https://drive.google.com/open?id=1-3NU4QFIOYer5W7Wmk4qoKXo-9fVVCPn","2026 IVF URL":"https://drive.google.com/open?id=1-3NU4QFIOYer5W7Wmk4qoKXo-9fVVCPn"},"geometry":{"type":"MultiPolygon","coordinates":[[[[124.335096979310265,12.528753886497787],[124.334820919218231,12.528755257572419],[124.334822314647695,12.529026474664848],[124.335098375028025,12.529025103559574],[124.335096979310265,12.528753886497787]]],[[[124.33454764940825,12.529299062604091],[124.334546254234581,12.529027845486704],[124.334270193788882,12.529029216025231],[124.334271380838459,12.529260022248625],[124.334341768162247,12.529300084750435],[124.33454764940825,12.529299062604091]]],[[[124.335370247455174,12.528210081060662],[124.335371643396044,12.528481298103086],[124.335647703134313,12.528479926492439],[124.335646306905048,12.528208709480657],[124.335370247455174,12.528210081060662]]],[[[124.335920969837446,12.527936120630587],[124.33591957338507,12.527664903638167],[124.335643514544572,12.527666275440216],[124.335644910708467,12.527937492463279],[124.335646306905048,12.528208709480657],[124.335922366322421,12.528207337617323],[124.335923762840082,12.528478554598552],[124.336199822513066,12.528477182421247],[124.336475882153366,12.528475809960613],[124.336477279280402,12.528747026874873],[124.336753339176596,12.528745654100357],[124.336754736624613,12.52901687097838],[124.336478676440308,12.529018243783538],[124.336480073632714,12.529289460686607],[124.336756134105499,12.529288087850718],[124.337032194545699,12.5292867147315],[124.337030796776418,12.529015497889803],[124.337306856895452,12.529014124517898],[124.33730825495303,12.529285341328952],[124.337584315327774,12.529283967643076],[124.337585713706517,12.529555184417893],[124.337861774336957,12.529553810417957],[124.33786037566982,12.529282593673871],[124.337858977035367,12.529011376924101],[124.337582916981802,12.529012750862664],[124.337581518668514,12.528741534076657],[124.33730545887056,12.528742907701249],[124.337304060878253,12.528471690878915],[124.337028001336094,12.528473064189447],[124.336751941761079,12.528474437216738],[124.336750544378333,12.528203220327436],[124.336474485059014,12.528204593040757],[124.336473087997348,12.527933376115216],[124.336197028933739,12.527934748514566],[124.335920969837446,12.527936120630587]]],[[[124.337861774336957,12.529553810417957],[124.337863173036695,12.529825027156447],[124.338139233922846,12.52982365284254],[124.338137834934628,12.529552436134692],[124.337861774336957,12.529553810417957]]],[[[124.338968816270992,12.530090744810726],[124.338692755194685,12.530092120005351],[124.33841669408551,12.530093494916736],[124.338418093427663,12.530364711582662],[124.338694154825049,12.530363336640635],[124.338970216189935,12.53036196141519],[124.338968816270992,12.530090744810726]]],[[[124.338973016125948,12.530904394607331],[124.338971616141549,12.530633178014059],[124.338695554488368,12.530634553270234],[124.338696954184371,12.530905769894149],[124.33869835391306,12.531176986512557],[124.338974416143117,12.531175611195009],[124.338973016125948,12.530904394607331]]],[[[124.339529341791305,12.53171529274548],[124.33952794113172,12.531444076230455],[124.339251878678638,12.531445452145482],[124.339250478340304,12.531174235594131],[124.338974416143117,12.531175611195009],[124.338975816192971,12.53144682777709],[124.338977119588534,12.531699314648877],[124.339001936411677,12.531710988108332],[124.339530476387381,12.531934984961023],[124.339529341791305,12.53171529274548]]],[[[124.352784558446174,12.532462559145349],[124.352785973083471,12.532733774156155],[124.353062035365753,12.532732384200093],[124.353060620439976,12.532461169220197],[124.352784558446174,12.532462559145349]]],[[[124.353060620439976,12.532461169220197],[124.353336682400553,12.532459779011715],[124.353338097614809,12.532730993960525],[124.353339512862107,12.53300220890374],[124.353340928142629,12.533273423841271],[124.353616990935606,12.53327203325629],[124.353615575366703,12.533000818349757],[124.353614159830926,12.532729603437629],[124.353612744328188,12.532458388519904],[124.353611328858577,12.532187173596496],[124.353335267219521,12.532188564057309],[124.35305920554724,12.532189954234793],[124.353060620439976,12.532461169220197]]],[[[124.352509910768248,12.532735163828887],[124.352511325150189,12.533006378865094],[124.352787387753807,12.533004989161364],[124.352785973083471,12.532733774156155],[124.352509910768248,12.532735163828887]]],[[[124.352236676639762,12.533278983347016],[124.352235262513346,12.533007768285318],[124.351959199843378,12.533009157422212],[124.351960613681314,12.533280372514907],[124.352236676639762,12.533278983347016]]],[[[124.35168455069001,12.533281761399293],[124.35168596427259,12.533552976517301],[124.35196202755256,12.533551587601918],[124.351960613681314,12.533280372514907],[124.35168455069001,12.533281761399293]]],[[[124.351409900959581,12.533554365149355],[124.351411314286722,12.533825580292676],[124.351687377888211,12.533824191629714],[124.35168596427259,12.533552976517301],[124.351409900959581,12.533554365149355]]],[[[124.351135250652106,12.533826968672221],[124.351136663723807,12.534098183841033],[124.351412727646817,12.534096795430491],[124.351411314286722,12.533825580292676],[124.351135250652106,12.533826968672221]]],[[[124.35389730146639,12.534084286980571],[124.353621237841011,12.534085677942139],[124.353622653542345,12.534356892826201],[124.353898717456204,12.534355501833547],[124.35389730146639,12.534084286980571]]],[[[124.350860599767756,12.534099571968069],[124.350862012583931,12.534370787162194],[124.351138076828462,12.534369399004161],[124.351136663723807,12.534098183841033],[124.350860599767756,12.534099571968069]]],[[[124.35058594830636,12.534372175036809],[124.350587360867095,12.534643390256248],[124.350863425433147,12.534642002350724],[124.350862012583931,12.534370787162194],[124.35058594830636,12.534372175036809]]],[[[124.350311296267918,12.534644777878443],[124.350312708573128,12.534915993123194],[124.350588773460871,12.534914605470091],[124.350587360867095,12.534643390256248],[124.350311296267918,12.534644777878443]]],[[[124.354177613993002,12.534896540184556],[124.353901549535223,12.534897931522712],[124.353902965624428,12.535169146358813],[124.354179030370773,12.53516775498966],[124.354177613993002,12.534896540184556]]],[[[124.362450982796119,12.533227384887466],[124.362174921065758,12.53322878454208],[124.362176345610862,12.533499998477657],[124.362452407629704,12.533498598791867],[124.362450982796119,12.533227384887466]]],[[[124.361351006813734,12.53404662387638],[124.361074944084606,12.534048022490937],[124.36107636757562,12.534319236534605],[124.361352430593314,12.534317837888873],[124.361351006813734,12.53404662387638]]],[[[124.359421410564991,12.534598836681996],[124.359419988771734,12.534327622456784],[124.359143925521337,12.534329019118415],[124.359145347026114,12.534600233374801],[124.359421410564991,12.534598836681996]]],[[[124.358869283453942,12.534601629784101],[124.358870704703364,12.534872844065978],[124.359146768564031,12.534871447625504],[124.359145347026114,12.534600233374801],[124.358869283453942,12.534601629784101]]],[[[124.358594640809486,12.534874240223035],[124.358318576882397,12.534875636096585],[124.358319997587898,12.535146850435217],[124.358596061803652,12.535145454530491],[124.358594640809486,12.534874240223035]]],[[[124.363014510374768,12.535394295305766],[124.362738446402901,12.535395695777238],[124.362739114937298,12.535522900210481],[124.363015038627921,12.535494787582978],[124.363014510374768,12.535394295305766]]]]}},
{"type":"Feature","properties":{"fid":138,"HAZ":3.0,"layer":"NorthernSamar_StormSurge_SSA4","path":"/Users/jhannaroseverzo/Downloads/NorthernSamar/NorthernSamar_StormSurge_SSA4.shp","Risk Level":"High","fid_2":425,"SYSTRA ID":"425","DAR ID":"425","Target Year":"BUFFER B","Bridge Category":"Buffer List","Bridge Name":"MAG-UBAY BRIDGE","Coordinates Y":"12.490564","Coordinates X":"124.35805","Region":"VIII","Province":"NORTHERN SAMAR","ARC 2026":"","LINEAR METER IVF 2026":"","EIRR 2026":"","NEW/REPLACEMENT BRIDGE 2026":"","Visited by SYSTRA":"No","Selected for 2nd Visit of SYSTRA":"No","Final Funder":"Buffer AFD","2023 IVF URL":"https://drive.google.com/open?id=1-3NU4QFIOYer5W7Wmk4qoKXo-9fVVCPn","2026 IVF URL":"https://drive.google.com/open?id=1-3NU4QFIOYer5W7Wmk4qoKXo-9fVVCPn"},"geometry":{"type":"MultiPolygon","coordinates":[[[[124.338975816192971,12.53144682777709],[124.338974416143117,12.531175611195009],[124.33869835391306,12.531176986512557],[124.338696954184371,12.530905769894149],[124.338695554488368,12.530634553270234],[124.338694154825049,12.530363336640635],[124.338418093427663,12.530364711582662],[124.33841669408551,12.530093494916736],[124.338415294776226,12.529822278245215],[124.338139233922846,12.52982365284254],[124.337863173036695,12.529825027156447],[124.337861774336957,12.529553810417957],[124.337585713706517,12.529555184417893],[124.337584315327774,12.529283967643076],[124.33730825495303,12.529285341328952],[124.337306856895452,12.529014124517898],[124.337030796776418,12.529015497889803],[124.337032194545699,12.5292867147315],[124.336756134105499,12.529288087850718],[124.336480073632714,12.529289460686607],[124.336478676440308,12.529018243783538],[124.336754736624613,12.52901687097838],[124.336753339176596,12.528745654100357],[124.336477279280402,12.528747026874873],[124.336475882153366,12.528475809960613],[124.336199822513066,12.528477182421247],[124.335923762840082,12.528478554598552],[124.335922366322421,12.528207337617323],[124.335646306905048,12.528208709480657],[124.335647703134313,12.528479926492439],[124.335371643396044,12.528481298103086],[124.335373039369514,12.528752515139916],[124.335096979310265,12.528753886497787],[124.335098375028025,12.529025103559574],[124.334822314647695,12.529026474664848],[124.334546254234581,12.529027845486704],[124.33454764940825,12.529299062604091],[124.334341768162247,12.529300084750435],[124.335774675122124,12.530115655432526],[124.337372357182687,12.530944458607506],[124.338977119588534,12.531699314648877],[124.338975816192971,12.53144682777709]]],[[[124.362738446402901,12.535395695777238],[124.362737021047607,12.535124481943447],[124.362735595725525,12.534853268103971],[124.362734170436838,12.534582054258989],[124.362732745181361,12.534310840408322],[124.36273131995938,12.534039626551971],[124.362729894770609,12.533768412690113],[124.363005957011325,12.533767012406136],[124.363004531567384,12.533495798569858],[124.362728469615149,12.533497198822571],[124.362452407629704,12.533498598791867],[124.362176345610862,12.533499998477657],[124.361900283558796,12.533501397880118],[124.361901707848546,12.533772611841362],[124.361625645474703,12.53377401099158],[124.361627069509453,12.534045224978405],[124.361351006813734,12.53404662387638],[124.361352430593314,12.534317837888873],[124.36107636757562,12.534319236534605],[124.360800304524801,12.53432063489692],[124.360524241440856,12.534322032975817],[124.360248178323332,12.534323430771208],[124.359972115172681,12.534324828283181],[124.359696051988905,12.534326225511736],[124.359419988771734,12.534327622456784],[124.359421410564991,12.534598836681996],[124.359145347026114,12.534600233374801],[124.359146768564031,12.534871447625504],[124.358870704703364,12.534872844065978],[124.358594640809486,12.534874240223035],[124.358596061803652,12.535145454530491],[124.358319997587898,12.535146850435217],[124.358043933339104,12.535148246056435],[124.35804535378935,12.535419460420558],[124.357769289218865,12.535420855789445],[124.35749322461497,12.535422250874914],[124.357494644521481,12.535693465295703],[124.357218579595894,12.535694860128752],[124.356942514637083,12.535696254678383],[124.35694278196371,12.535747335952788],[124.358286332020683,12.535766465858014],[124.360092524665049,12.535722477295572],[124.3618955643025,12.535608845801892],[124.362739114937298,12.535522900210481],[124.362738446402901,12.535395695777238]]],[[[124.354180446781584,12.535438969789078],[124.354179030370773,12.53516775498966],[124.353902965624428,12.535169146358813],[124.353901549535223,12.534897931522712],[124.353900133479058,12.534626716680927],[124.353898717456204,12.534355501833547],[124.353622653542345,12.534356892826201],[124.353621237841011,12.534085677942139],[124.353619822172803,12.533814463052481],[124.353618406537549,12.533543248157228],[124.353616990935606,12.53327203325629],[124.353340928142629,12.533273423841271],[124.353339512862107,12.53300220890374],[124.353338097614809,12.532730993960525],[124.353336682400553,12.532459779011715],[124.353060620439976,12.532461169220197],[124.353062035365753,12.532732384200093],[124.352785973083471,12.532733774156155],[124.352787387753807,12.533004989161364],[124.352511325150189,12.533006378865094],[124.352235262513346,12.533007768285318],[124.352236676639762,12.533278983347016],[124.351960613681314,12.533280372514907],[124.35196202755256,12.533551587601918],[124.35168596427259,12.533552976517301],[124.351687377888211,12.533824191629714],[124.351411314286722,12.533825580292676],[124.351412727646817,12.534096795430491],[124.351136663723807,12.534098183841033],[124.351138076828462,12.534369399004161],[124.350862012583931,12.534370787162194],[124.350863425433147,12.534642002350724],[124.350587360867095,12.534643390256248],[124.350588773460871,12.534914605470091],[124.350312708573128,12.534915993123194],[124.35031374386628,12.535114803357361],[124.351085743559864,12.53524624320098],[124.352876699303337,12.535480431502471],[124.354181287934537,12.535600030267965],[124.354180446781584,12.535438969789078]]]]}},
{"type":"Feature","properties":{"fid":139,"HAZ":1.0,"layer":"NorthernSamar_StormSurge_SSA4","path":"/Users/jhannaroseverzo/Downloads/Samar/NorthernSamar_StormSurge_SSA4.shp","Risk Level":"Low","fid_2":425,"SYSTRA ID":"425","DAR ID":"425","Target Year":"BUFFER B","Bridge Category":"Buffer List","Bridge Name":"MAG-UBAY BRIDGE","Coordinates Y":"12.490564","Coordinates X":"124.35805","Region":"VIII","Province":"NORTHERN SAMAR","ARC 2026":"","LINEAR METER IVF 2026":"","EIRR 2026":"","NEW/REPLACEMENT BRIDGE 2026":"","Visited by SYSTRA":"No","Selected for 2nd Visit of SYSTRA":"No","Final Funder":"Buffer AFD","2023 IVF URL":"https://drive.google.com/open?id=1-3NU4QFIOYer5W7Wmk4qoKXo-9fVVCPn","2026 IVF URL":"https://drive.google.com/open?id=1-3NU4QFIOYer5W7Wmk4qoKXo-9fVVCPn"},"geometry":{"type":"MultiPolygon","coordinates":[[[[124.335646306905048,12.528208709480657],[124.335644910708467,12.527937492463279],[124.335368851546804,12.527938864012642],[124.335370247455174,12.528210081060662],[124.335646306905048,12.528208709480657]]],[[[124.335373039369514,12.528752515139916],[124.335371643396044,12.528481298103086],[124.335095583625005,12.528482669430405],[124.335096979310265,12.528753886497787],[124.335373039369514,12.528752515139916]]],[[[124.338970216189935,12.53036196141519],[124.339246277521767,12.530360585906417],[124.339244877314528,12.530089369332595],[124.338968816270992,12.530090744810726],[124.338970216189935,12.53036196141519]]],[[[124.338970216189935,12.53036196141519],[124.338694154825049,12.530363336640635],[124.338695554488368,12.530634553270234],[124.338971616141549,12.530633178014059],[124.338970216189935,12.53036196141519]]],[[[124.33952794113172,12.531444076230455],[124.339526540504906,12.531172859709836],[124.339250478340304,12.531174235594131],[124.339251878678638,12.531445452145482],[124.33952794113172,12.531444076230455]]],[[[124.33952794113172,12.531444076230455],[124.339529341791305,12.53171529274548],[124.339805404499913,12.531713916516393],[124.339804003551933,12.5314427000321],[124.33952794113172,12.531444076230455]]],[[[124.362174921065758,12.53322878454208],[124.362173496553865,12.532957570600731],[124.361897435078674,12.532958969940752],[124.361898859302087,12.533230183913188],[124.361900283558796,12.533501397880118],[124.362176345610862,12.533499998477657],[124.362174921065758,12.53322878454208]]],[[[124.35389730146639,12.534084286980571],[124.353895885509615,12.533813072121999],[124.353619822172803,12.533814463052481],[124.353621237841011,12.534085677942139],[124.35389730146639,12.534084286980571]]],[[[124.36107636757562,12.534319236534605],[124.361074944084606,12.534048022490937],[124.360798881322268,12.534049420822077],[124.360800304524801,12.53432063489692],[124.36107636757562,12.534319236534605]]],[[[124.350312708573128,12.534915993123194],[124.350036643652331,12.534917380492791],[124.350037426574104,12.535067757870202],[124.35031374386628,12.535114803357361],[124.350312708573128,12.534915993123194]]],[[[124.357494644521481,12.535693465295703],[124.35749322461497,12.535422250874914],[124.357217159977864,12.535423645676877],[124.357218579595894,12.535694860128752],[124.357494644521481,12.535693465295703]]],[[[124.356942514637083,12.535696254678383],[124.356666449645246,12.535697648944508],[124.356666689053583,12.535743404851615],[124.35694278196371,12.535747335952788],[124.356942514637083,12.535696254678383]]]]}},
{"type":"Feature","properties":{"fid":140,"HAZ":2.0,"layer":"NorthernSamar_StormSurge_SSA4","path":"/Users/jhannaroseverzo/Downloads/Samar/NorthernSamar_StormSurge_SSA4.shp","Risk Level":"Medium","fid_2":425,"SYSTRA ID":"425","DAR ID":"425","Target Year":"BUFFER B","Bridge Category":"Buffer List","Bridge Name":"MAG-UBAY BRIDGE","Coordinates Y":"12.490564","Coordinates X":"124.35805","Region":"VIII","Province":"NORTHERN SAMAR","ARC 2026":"","LINEAR METER IVF 2026":"","EIRR 2026":"","NEW/REPLACEMENT BRIDGE 2026":"","Visited by SYSTRA":"No","Selected for 2nd Visit of SYSTRA":"No","Final Funder":"Buffer AFD","2023 IVF URL":"https://drive.google.com/open?id=1-3NU4QFIOYer5W7Wmk4qoKXo-9fVVCPn","2026 IVF URL":"https://drive.google.com/open?id=1-3NU4QFIOYer5W7Wmk4qoKXo-9fVVCPn"},"geometry":{"type":"MultiPolygon","coordinates":[[[[124.335096979310265,12.528753886497787],[124.334820919218231,12.528755257572419],[124.334822314647695,12.529026474664848],[124.335098375028025,12.529025103559574],[124.335096979310265,12.528753886497787]]],[[[124.33454764940825,12.529299062604091],[124.334546254234581,12.529027845486704],[124.334270193788882,12.529029216025231],[124.334271380838459,12.529260022248625],[124.334341768162247,12.529300084750435],[124.33454764940825,12.529299062604091]]],[[[124.335370247455174,12.528210081060662],[124.335371643396044,12.528481298103086],[124.335647703134313,12.528479926492439],[124.335646306905048,12.528208709480657],[124.335370247455174,12.528210081060662]]],[[[124.335920969837446,12.527936120630587],[124.33591957338507,12.527664903638167],[124.335643514544572,12.527666275440216],[124.335644910708467,12.527937492463279],[124.335646306905048,12.528208709480657],[124.335922366322421,12.528207337617323],[124.335923762840082,12.528478554598552],[124.336199822513066,12.528477182421247],[124.336475882153366,12.528475809960613],[124.336477279280402,12.528747026874873],[124.336753339176596,12.528745654100357],[124.336754736624613,12.52901687097838],[124.336478676440308,12.529018243783538],[124.336480073632714,12.529289460686607],[124.336756134105499,12.529288087850718],[124.337032194545699,12.5292867147315],[124.337030796776418,12.529015497889803],[124.337306856895452,12.529014124517898],[124.33730825495303,12.529285341328952],[124.337584315327774,12.529283967643076],[124.337585713706517,12.529555184417893],[124.337861774336957,12.529553810417957],[124.33786037566982,12.529282593673871],[124.337858977035367,12.529011376924101],[124.337582916981802,12.529012750862664],[124.337581518668514,12.528741534076657],[124.33730545887056,12.528742907701249],[124.337304060878253,12.528471690878915],[124.337028001336094,12.528473064189447],[124.336751941761079,12.528474437216738],[124.336750544378333,12.528203220327436],[124.336474485059014,12.528204593040757],[124.336473087997348,12.527933376115216],[124.336197028933739,12.527934748514566],[124.335920969837446,12.527936120630587]]],[[[124.337861774336957,12.529553810417957],[124.337863173036695,12.529825027156447],[124.338139233922846,12.52982365284254],[124.338137834934628,12.529552436134692],[124.337861774336957,12.529553810417957]]],[[[124.338968816270992,12.530090744810726],[124.338692755194685,12.530092120005351],[124.33841669408551,12.530093494916736],[124.338418093427663,12.530364711582662],[124.338694154825049,12.530363336640635],[124.338970216189935,12.53036196141519],[124.338968816270992,12.530090744810726]]],[[[124.338973016125948,12.530904394607331],[124.338971616141549,12.530633178014059],[124.338695554488368,12.530634553270234],[124.338696954184371,12.530905769894149],[124.33869835391306,12.531176986512557],[124.338974416143117,12.531175611195009],[124.338973016125948,12.530904394607331]]],[[[124.339529341791305,12.53171529274548],[124.33952794113172,12.531444076230455],[124.339251878678638,12.531445452145482],[124.339250478340304,12.531174235594131],[124.338974416143117,12.531175611195009],[124.338975816192971,12.53144682777709],[124.338977119588534,12.531699314648877],[124.339001936411677,12.531710988108332],[124.339530476387381,12.531934984961023],[124.339529341791305,12.53171529274548]]],[[[124.352784558446174,12.532462559145349],[124.352785973083471,12.532733774156155],[124.353062035365753,12.532732384200093],[124.353060620439976,12.532461169220197],[124.352784558446174,12.532462559145349]]],[[[124.353060620439976,12.532461169220197],[124.353336682400553,12.532459779011715],[124.353338097614809,12.532730993960525],[124.353339512862107,12.53300220890374],[124.353340928142629,12.533273423841271],[124.353616990935606,12.53327203325629],[124.353615575366703,12.533000818349757],[124.353614159830926,12.532729603437629],[124.353612744328188,12.532458388519904],[124.353611328858577,12.532187173596496],[124.353335267219521,12.532188564057309],[124.35305920554724,12.532189954234793],[124.353060620439976,12.532461169220197]]],[[[124.352509910768248,12.532735163828887],[124.352511325150189,12.533006378865094],[124.352787387753807,12.533004989161364],[124.352785973083471,12.532733774156155],[124.352509910768248,12.532735163828887]]],[[[124.352236676639762,12.533278983347016],[124.352235262513346,12.533007768285318],[124.351959199843378,12.533009157422212],[124.351960613681314,12.533280372514907],[124.352236676639762,12.533278983347016]]],[[[124.35168455069001,12.533281761399293],[124.35168596427259,12.533552976517301],[124.35196202755256,12.533551587601918],[124.351960613681314,12.533280372514907],[124.35168455069001,12.533281761399293]]],[[[124.351409900959581,12.533554365149355],[124.351411314286722,12.533825580292676],[124.351687377888211,12.533824191629714],[124.35168596427259,12.533552976517301],[124.351409900959581,12.533554365149355]]],[[[124.351135250652106,12.533826968672221],[124.351136663723807,12.534098183841033],[124.351412727646817,12.534096795430491],[124.351411314286722,12.533825580292676],[124.351135250652106,12.533826968672221]]],[[[124.35389730146639,12.534084286980571],[124.353621237841011,12.534085677942139],[124.353622653542345,12.534356892826201],[124.353898717456204,12.534355501833547],[124.35389730146639,12.534084286980571]]],[[[124.350860599767756,12.534099571968069],[124.350862012583931,12.534370787162194],[124.351138076828462,12.534369399004161],[124.351136663723807,12.534098183841033],[124.350860599767756,12.534099571968069]]],[[[124.35058594830636,12.534372175036809],[124.350587360867095,12.534643390256248],[124.350863425433147,12.534642002350724],[124.350862012583931,12.534370787162194],[124.35058594830636,12.534372175036809]]],[[[124.350311296267918,12.534644777878443],[124.350312708573128,12.534915993123194],[124.350588773460871,12.534914605470091],[124.350587360867095,12.534643390256248],[124.350311296267918,12.534644777878443]]],[[[124.354177613993002,12.534896540184556],[124.353901549535223,12.534897931522712],[124.353902965624428,12.535169146358813],[124.354179030370773,12.53516775498966],[124.354177613993002,12.534896540184556]]],[[[124.362450982796119,12.533227384887466],[124.362174921065758,12.53322878454208],[124.362176345610862,12.533499998477657],[124.362452407629704,12.533498598791867],[124.362450982796119,12.533227384887466]]],[[[124.361351006813734,12.53404662387638],[124.361074944084606,12.534048022490937],[124.36107636757562,12.534319236534605],[124.361352430593314,12.534317837888873],[124.361351006813734,12.53404662387638]]],[[[124.359421410564991,12.534598836681996],[124.359419988771734,12.534327622456784],[124.359143925521337,12.534329019118415],[124.359145347026114,12.534600233374801],[124.359421410564991,12.534598836681996]]],[[[124.358869283453942,12.534601629784101],[124.358870704703364,12.534872844065978],[124.359146768564031,12.534871447625504],[124.359145347026114,12.534600233374801],[124.358869283453942,12.534601629784101]]],[[[124.358594640809486,12.534874240223035],[124.358318576882397,12.534875636096585],[124.358319997587898,12.535146850435217],[124.358596061803652,12.535145454530491],[124.358594640809486,12.534874240223035]]],[[[124.363014510374768,12.535394295305766],[124.362738446402901,12.535395695777238],[124.362739114937298,12.535522900210481],[124.363015038627921,12.535494787582978],[124.363014510374768,12.535394295305766]]]]}},
{"type":"Feature","properties":{"fid":141,"HAZ":3.0,"layer":"NorthernSamar_StormSurge_SSA4","path":"/Users/jhannaroseverzo/Downloads/Samar/NorthernSamar_StormSurge_SSA4.shp","Risk Level":"High","fid_2":425,"SYSTRA ID":"425","DAR ID":"425","Target Year":"BUFFER B","Bridge Category":"Buffer List","Bridge Name":"MAG-UBAY BRIDGE","Coordinates Y":"12.490564","Coordinates X":"124.35805","Region":"VIII","Province":"NORTHERN SAMAR","ARC 2026":"","LINEAR METER IVF 2026":"","EIRR 2026":"","NEW/REPLACEMENT BRIDGE 2026":"","Visited by SYSTRA":"No","Selected for 2nd Visit of SYSTRA":"No","Final Funder":"Buffer AFD","2023 IVF URL":"https://drive.google.com/open?id=1-3NU4QFIOYer5W7Wmk4qoKXo-9fVVCPn","2026 IVF URL":"https://drive.google.com/open?id=1-3NU4QFIOYer5W7Wmk4qoKXo-9fVVCPn"},"geometry":{"type":"MultiPolygon","coordinates":[[[[124.338975816192971,12.53144682777709],[124.338974416143117,12.531175611195009],[124.33869835391306,12.531176986512557],[124.338696954184371,12.530905769894149],[124.338695554488368,12.530634553270234],[124.338694154825049,12.530363336640635],[124.338418093427663,12.530364711582662],[124.33841669408551,12.530093494916736],[124.338415294776226,12.529822278245215],[124.338139233922846,12.52982365284254],[124.337863173036695,12.529825027156447],[124.337861774336957,12.529553810417957],[124.337585713706517,12.529555184417893],[124.337584315327774,12.529283967643076],[124.33730825495303,12.529285341328952],[124.337306856895452,12.529014124517898],[124.337030796776418,12.529015497889803],[124.337032194545699,12.5292867147315],[124.336756134105499,12.529288087850718],[124.336480073632714,12.529289460686607],[124.336478676440308,12.529018243783538],[124.336754736624613,12.52901687097838],[124.336753339176596,12.528745654100357],[124.336477279280402,12.528747026874873],[124.336475882153366,12.528475809960613],[124.336199822513066,12.528477182421247],[124.335923762840082,12.528478554598552],[124.335922366322421,12.528207337617323],[124.335646306905048,12.528208709480657],[124.335647703134313,12.528479926492439],[124.335371643396044,12.528481298103086],[124.335373039369514,12.528752515139916],[124.335096979310265,12.528753886497787],[124.335098375028025,12.529025103559574],[124.334822314647695,12.529026474664848],[124.334546254234581,12.529027845486704],[124.33454764940825,12.529299062604091],[124.334341768162247,12.529300084750435],[124.335774675122124,12.530115655432526],[124.337372357182687,12.530944458607506],[124.338977119588534,12.531699314648877],[124.338975816192971,12.53144682777709]]],[[[124.362738446402901,12.535395695777238],[124.362737021047607,12.535124481943447],[124.362735595725525,12.534853268103971],[124.362734170436838,12.534582054258989],[124.362732745181361,12.534310840408322],[124.36273131995938,12.534039626551971],[124.362729894770609,12.533768412690113],[124.363005957011325,12.533767012406136],[124.363004531567384,12.533495798569858],[124.362728469615149,12.533497198822571],[124.362452407629704,12.533498598791867],[124.362176345610862,12.533499998477657],[124.361900283558796,12.533501397880118],[124.361901707848546,12.533772611841362],[124.361625645474703,12.53377401099158],[124.361627069509453,12.534045224978405],[124.361351006813734,12.53404662387638],[124.361352430593314,12.534317837888873],[124.36107636757562,12.534319236534605],[124.360800304524801,12.53432063489692],[124.360524241440856,12.534322032975817],[124.360248178323332,12.534323430771208],[124.359972115172681,12.534324828283181],[124.359696051988905,12.534326225511736],[124.359419988771734,12.534327622456784],[124.359421410564991,12.534598836681996],[124.359145347026114,12.534600233374801],[124.359146768564031,12.534871447625504],[124.358870704703364,12.534872844065978],[124.358594640809486,12.534874240223035],[124.358596061803652,12.535145454530491],[124.358319997587898,12.535146850435217],[124.358043933339104,12.535148246056435],[124.35804535378935,12.535419460420558],[124.357769289218865,12.535420855789445],[124.35749322461497,12.535422250874914],[124.357494644521481,12.535693465295703],[124.357218579595894,12.535694860128752],[124.356942514637083,12.535696254678383],[124.35694278196371,12.535747335952788],[124.358286332020683,12.535766465858014],[124.360092524665049,12.535722477295572],[124.3618955643025,12.535608845801892],[124.362739114937298,12.535522900210481],[124.362738446402901,12.535395695777238]]],[[[124.354180446781584,12.535438969789078],[124.354179030370773,12.53516775498966],[124.353902965624428,12.535169146358813],[124.353901549535223,12.534897931522712],[124.353900133479058,12.534626716680927],[124.353898717456204,12.534355501833547],[124.353622653542345,12.534356892826201],[124.353621237841011,12.534085677942139],[124.353619822172803,12.533814463052481],[124.353618406537549,12.533543248157228],[124.353616990935606,12.53327203325629],[124.353340928142629,12.533273423841271],[124.353339512862107,12.53300220890374],[124.353338097614809,12.532730993960525],[124.353336682400553,12.532459779011715],[124.353060620439976,12.532461169220197],[124.353062035365753,12.532732384200093],[124.352785973083471,12.532733774156155],[124.352787387753807,12.533004989161364],[124.352511325150189,12.533006378865094],[124.352235262513346,12.533007768285318],[124.352236676639762,12.533278983347016],[124.351960613681314,12.533280372514907],[124.35196202755256,12.533551587601918],[124.35168596427259,12.533552976517301],[124.351687377888211,12.533824191629714],[124.351411314286722,12.533825580292676],[124.351412727646817,12.534096795430491],[124.351136663723807,12.534098183841033],[124.351138076828462,12.534369399004161],[124.350862012583931,12.534370787162194],[124.350863425433147,12.534642002350724],[124.350587360867095,12.534643390256248],[124.350588773460871,12.534914605470091],[124.350312708573128,12.534915993123194],[124.35031374386628,12.535114803357361],[124.351085743559864,12.53524624320098],[124.352876699303337,12.535480431502471],[124.354181287934537,12.535600030267965],[124.354180446781584,12.535438969789078]]]]}}
]
}
