{
"type": "FeatureCollection",
"name": "SYSTRA ID_440",
"crs": { "type": "name", "properties": { "name": "urn:ogc:def:crs:OGC:1.3:CRS84" } },
"xy_coordinate_resolution": 1e-15,
"features": [
{"type":"Feature","properties":{"fid":211,"HAZ":1.0,"layer":"ZamboangaSibugay_StormSurge_SSA4","path":"/Users/jhannaroseverzo/Downloads/ZamboangaSibugay/ZamboangaSibugay_StormSurge_SSA4.shp","Risk Level":"Low","fid_2":440,"SYSTRA ID":"440","DAR ID":"440","Target Year":"BUFFER A","Bridge Category":"Buffer List","Bridge Name":"DUMPOC BRIDGE","Coordinates Y":"7.60209","Coordinates X":"122.93012","Region":"IX","Province":"ZAMBOANGA SIBUGAY","ARC 2026":"","LINEAR METER IVF 2026":"","EIRR 2026":"","NEW/REPLACEMENT BRIDGE 2026":"","Visited by SYSTRA":"No","Selected for 2nd Visit of SYSTRA":"No","Final Funder":"No Funder","2023 IVF URL":"https://drive.google.com/open?id=1KguF2jB3vfTjLOec62x2yKB0bOiIfp4g","2026 IVF URL":"https://drive.google.com/open?id=1KguF2jB3vfTjLOec62x2yKB0bOiIfp4g"},"geometry":{"type":"MultiPolygon","coordinates":[[[[122.906267232079045,7.564684141352703],[122.906448534257819,7.564684180277655],[122.906448573227891,7.564503265734042],[122.906267271124605,7.564503226810067],[122.906267232079045,7.564684141352703]]],[[[122.906084990704343,7.569026050903711],[122.906266294695357,7.569026089926719],[122.906266333764108,7.568845175420054],[122.906085029848583,7.568845136398024],[122.906084990704343,7.569026050903711]]],[[[122.90644755969322,7.569207043380362],[122.906447520698094,7.569387957884984],[122.906628824842244,7.569387996759043],[122.906628863761682,7.569207082253445],[122.90644755969322,7.569207043380362]]],[[[122.905903333692237,7.570654242281168],[122.906084638362543,7.570654281388019],[122.906084677515395,7.570473366895743],[122.905903372920861,7.570473327789869],[122.905903333692237,7.570654242281168]]],[[[122.905721989718003,7.570835117587722],[122.90572195041193,7.571016032075113],[122.905903255232332,7.571016071259325],[122.905903294462817,7.570835156770957],[122.905721989718003,7.570835117587722]]],[[[122.90608452089792,7.571197024855787],[122.906084560053799,7.571016110368041],[122.905903255232332,7.571016071259325],[122.905903216000965,7.571196985746094],[122.90608452089792,7.571197024855787]]],[[[122.918234097209961,7.559801853997413],[122.918415397409618,7.559801887926183],[122.91841543137258,7.559620973284072],[122.918234131248425,7.5596209393561],[122.918234097209961,7.559801853997413]]],[[[122.917871496813049,7.559801785913741],[122.917690196615979,7.559801751759017],[122.917690162350226,7.559982666396333],[122.917871462622799,7.559982700551944],[122.917871496813049,7.559801785913741]]],[[[122.917508827736413,7.56016354680041],[122.917690128083592,7.560163581032138],[122.917690162350226,7.559982666396333],[122.917508862078364,7.559982632165403],[122.917508827736413,7.56016354680041]]],[[[122.917327458552478,7.560525341757159],[122.917508759049852,7.560525376065892],[122.91750879339358,7.560344461433906],[122.917327492971609,7.560344427125972],[122.917327458552478,7.560525341757159]]],[[[122.917327355289743,7.561068085641661],[122.91750865601351,7.561068119952881],[122.917508690359909,7.560887205325336],[122.917327389711545,7.560887171015003],[122.917327355289743,7.561068085641661]]],[[[122.91986549876718,7.561430388415576],[122.919865532133826,7.561249473780481],[122.919684231323643,7.561249440447678],[122.919502930514341,7.561249407039557],[122.919502896996704,7.561430321673142],[122.919684197881594,7.561430355081973],[122.91986549876718,7.561430388415576]]],[[[122.919321562518874,7.561611202820091],[122.919502863478272,7.561611236305128],[122.919502896996704,7.561430321673142],[122.919321596112709,7.561430288188904],[122.919321562518874,7.561611202820091]]],[[[122.920046766361807,7.561611336308245],[122.920046799653662,7.561430421673861],[122.91986549876718,7.561430388415576],[122.919865465399738,7.56161130304925],[122.920046766361807,7.561611336308245]]],[[[122.919140227890054,7.561792083888615],[122.919321528924144,7.561792117449769],[122.919321562518874,7.561611202820091],[122.919140261560187,7.561611169259737],[122.919140227890054,7.561792083888615]]],[[[122.918052387578527,7.561972795561974],[122.918233688683145,7.56197282957601],[122.918233722731642,7.561791914952638],[122.918052421702527,7.561791880939491],[122.918052387578527,7.561972795561974]]],[[[122.918596290894868,7.56197289737804],[122.918777592002158,7.561972931166035],[122.918777625824163,7.561792016540266],[122.918596324792375,7.56179198275307],[122.918596290894868,7.56197289737804]]],[[[122.920046699775511,7.561973165572662],[122.920228000889281,7.561973198757939],[122.92022803410724,7.561792284125686],[122.920046733069057,7.561792250941209],[122.920046699775511,7.561973165572662]]],[[[122.920227834786772,7.562877771896733],[122.920409136278906,7.562877805010777],[122.92040916942554,7.562696890385186],[122.920227868008908,7.562696857272029],[122.920227834786772,7.562877771896733]]],[[[122.919502461193403,7.563782211772614],[122.919683763059723,7.563782245192015],[122.919683796512516,7.56360133057717],[122.919502494721698,7.563601297158569],[122.919502461193403,7.563782211772614]]],[[[122.919683629240367,7.564505903636561],[122.919864931409649,7.564505936983841],[122.919864964790236,7.564325022374148],[122.919683662696357,7.564324989027667],[122.919683629240367,7.564505903636561]]],[[[122.920227502520376,7.564686918062054],[122.920408804767547,7.564686951184092],[122.920408837922452,7.564506036573511],[122.920227535750684,7.564506003452272],[122.920227502520376,7.564686918062054]]],[[[122.906810090142343,7.569568950062673],[122.906810128987274,7.569388035557696],[122.906628824842244,7.569387996759043],[122.906628785921725,7.569568911263132],[122.906810090142343,7.569568950062673]]],[[[122.906810012449824,7.569930779068186],[122.906810051296617,7.56974986456614],[122.906628747000326,7.569749825765711],[122.906628708078046,7.56993074026678],[122.906810012449824,7.569930779068186]]],[[[122.917325426318982,7.571199302345362],[122.917325460788305,7.571018387802549],[122.917144155910705,7.57101835337027],[122.917144121365894,7.571199267912283],[122.917325426318982,7.571199302345362]]],[[[122.916600171738949,7.571380078698271],[122.916781476765138,7.571380113358546],[122.916781511462005,7.57119919881973],[122.91660020651149,7.571199164160254],[122.916600171738949,7.571380078698271]]],[[[122.917506696878704,7.571380251245226],[122.917688001909156,7.571380285528291],[122.917688036228014,7.5711993709853],[122.91750673127315,7.571199336703034],[122.917506696878704,7.571380251245226]]],[[[122.910435876052432,7.571017026350265],[122.910435838710654,7.571197940860126],[122.910254533791132,7.571197903560718],[122.910254496372886,7.571378818068271],[122.910073191378672,7.57137878069248],[122.910073153884042,7.571559695197634],[122.909891848815036,7.571559657745548],[122.909710543747011,7.571559620217967],[122.90971050610024,7.571740534719747],[122.909529200957607,7.571740497115871],[122.909529163234183,7.571921411615253],[122.909347858016858,7.571921373935083],[122.90934782021705,7.572102288432066],[122.909166514925019,7.572102250675512],[122.908985209633883,7.572102212843553],[122.908803904343728,7.572102174936098],[122.908622599054453,7.572102136953236],[122.908622637156597,7.571921222459895],[122.908441331943976,7.571921184402515],[122.90826002673225,7.571921146269729],[122.908260064984759,7.571740231776743],[122.908078759849587,7.571740193569439],[122.908078798176703,7.571559279075919],[122.908078836502938,7.571378364580801],[122.907897531519822,7.571378326299956],[122.907897569920664,7.571197411804305],[122.907716265014102,7.571197373448853],[122.907716226537687,7.571378287943616],[122.907534921556433,7.57137824951178],[122.907353616576245,7.571378211004627],[122.907353655203835,7.57119729651173],[122.907172350300215,7.571197257930058],[122.90699104539739,7.571197219272892],[122.906809740495632,7.571197180540319],[122.906628435594669,7.57119714173234],[122.906447130694872,7.571197102848955],[122.906265825795955,7.571197063890074],[122.90608452089792,7.571197024855787],[122.906084481741161,7.571377939342113],[122.906265786714769,7.571377978377288],[122.906265747632517,7.571558892862991],[122.906447052682694,7.571558931823737],[122.906447013675049,7.571739846308907],[122.906628318801879,7.571739885195135],[122.906628279868926,7.571920799679684],[122.906809585072224,7.571920838491482],[122.906809546213978,7.572101752975498],[122.906990851493745,7.572101791712778],[122.906990812710191,7.572282706196172],[122.907172118066512,7.572282744858934],[122.907353423423729,7.57228278344629],[122.907534728782011,7.57228282195815],[122.907716034141188,7.572282860394515],[122.907897339501332,7.572282898755474],[122.907897301094806,7.572463813242154],[122.908078606531518,7.572463851528595],[122.908259911969111,7.572463889739629],[122.908259950224377,7.572282975251173],[122.908441255587277,7.572283013385824],[122.908622560951244,7.572283051445068],[122.908803866316191,7.572283089428818],[122.908985171681934,7.572283127337161],[122.909166477048657,7.572283165170098],[122.909347782416262,7.572283202927539],[122.909529087784847,7.572283240609575],[122.909529125509962,7.572102326113213],[122.909710430803756,7.572102363718865],[122.909891736098714,7.57210240124911],[122.910073041394469,7.572102438703861],[122.910254346691019,7.572102476083205],[122.910254384113003,7.571921561581781],[122.910435689334946,7.571921598884741],[122.91061699455787,7.571921636112385],[122.910617031827613,7.571740721607585],[122.91079833697566,7.571740758758756],[122.910979642124957,7.57174079583461],[122.910979679242558,7.571559881326524],[122.911160984316979,7.571559918325995],[122.911160947274965,7.571740832834968],[122.911342252425939,7.57174086975992],[122.911342215458532,7.571921784268361],[122.911523520686075,7.571921821118706],[122.911523557577809,7.571740906609466],[122.911523594468662,7.571559992098716],[122.91134228939228,7.571559955250058],[122.911342326357911,7.571379040738687],[122.911342363322476,7.571198126225805],[122.911342400286244,7.571017211711413],[122.911342437249033,7.5708362971956],[122.911161132475968,7.570836260275089],[122.910979827703883,7.570836223279172],[122.910798522932694,7.570836186207848],[122.910798485743058,7.571017100720996],[122.910617180897347,7.571017063573378],[122.910435876052432,7.571017026350265]]],[[[122.916418797014998,7.571741873032319],[122.916600102191467,7.571741907769687],[122.916600136965698,7.57156099323469],[122.916418831864718,7.57156095849821],[122.916418797014998,7.571741873032319]]],[[[122.920588750064525,7.572104482008142],[122.920407444718407,7.572104448928736],[122.920407411529311,7.572285363476435],[122.920407378339419,7.572466278022623],[122.920226072842937,7.572466244866123],[122.920044767347164,7.572466211634306],[122.920044734005302,7.572647126177297],[122.919863428434653,7.572647092869185],[122.919863461852188,7.572466178326905],[122.919863495269013,7.572285263783203],[122.919682189850519,7.572285230401195],[122.919500884432907,7.57228519694378],[122.919500850864907,7.572466111485972],[122.919319545372602,7.572466077952263],[122.919138239880823,7.572466044343236],[122.918956934390209,7.572466010658714],[122.918775628900207,7.572465976898697],[122.918775595029075,7.572646891436093],[122.91859428946438,7.57264685759987],[122.918412983900396,7.572646823688152],[122.918412949877307,7.572827738222439],[122.918412915853324,7.573008652755216],[122.918594221568384,7.573008686668532],[122.918775527284154,7.573008720506354],[122.91895683300109,7.573008754268769],[122.918956866798226,7.572827839733594],[122.919138172440199,7.572827873419715],[122.919319478083054,7.572827907030429],[122.919319444437079,7.573008821567291],[122.919319410790209,7.573189736102644],[122.919500716585119,7.57318976963955],[122.919500750156317,7.573008855103398],[122.919682055876351,7.573008888564011],[122.91986336159728,7.573008921949216],[122.920044667319004,7.573008955258927],[122.920225973041525,7.573008988493231],[122.920407278764756,7.573009021652129],[122.920407311957234,7.57282810711047],[122.920407345148632,7.572647192567302],[122.920588650721683,7.572647225649106],[122.920588683836698,7.572466311103628],[122.920588716951102,7.57228539655664],[122.920770022373603,7.57228542956135],[122.920951327796985,7.572285462490743],[122.921132633221077,7.57228549534464],[122.921313938646151,7.572285528123042],[122.921313905834268,7.572466442673227],[122.921495211335724,7.572466475377023],[122.921495244071934,7.572285560826038],[122.921676549498429,7.572285593453628],[122.921857854925989,7.572285626005722],[122.922039160354174,7.57228565848241],[122.92203919286284,7.572104743927606],[122.922039225370696,7.571923829371292],[122.922220530648517,7.571923861770975],[122.922220563079904,7.571742947212441],[122.922220595510581,7.571562032652397],[122.922039290383935,7.571562000254224],[122.922039322889404,7.57138108569347],[122.922039355393977,7.571200171131117],[122.921858050419388,7.571200138659136],[122.921858082998838,7.571019224096161],[122.921676778100633,7.571019191549573],[122.921676745445509,7.571200106111749],[122.921676712789676,7.571381020672503],[122.921858017839227,7.57138105322069],[122.921857985258185,7.571561967780734],[122.921857952676334,7.571742882339179],[122.921676647475707,7.571742849789394],[122.921676614817471,7.571923764345619],[122.921495309542053,7.571923731719628],[122.921495276807349,7.572104646273632],[122.921313971457238,7.572104613571347],[122.921132666107837,7.572104580793744],[122.920951360759148,7.572104547940646],[122.920770055411438,7.572104515012142],[122.920588750064525,7.572104482008142]]],[[[122.918050441121579,7.572284926568769],[122.918231746532527,7.572284960629701],[122.918231780628815,7.572104046091773],[122.918050475293441,7.57210401203164],[122.918050441121579,7.572284926568769]]],[[[122.911342067580023,7.572645442286936],[122.911342104551167,7.572464527784535],[122.911342141521231,7.572283613280624],[122.91134217849033,7.572102698775203],[122.911342215458532,7.571921784268361],[122.911160910232056,7.571921747342521],[122.91116087318818,7.572102661848475],[122.910979567886827,7.57210262484634],[122.910979530766568,7.572283539349896],[122.910979493645328,7.572464453852031],[122.910979456523108,7.572645368352656],[122.91116076205121,7.572645405357455],[122.911160725003697,7.572826319857458],[122.911160687955288,7.573007234355951],[122.911160650905984,7.573188148852934],[122.911341956661815,7.573188185785081],[122.911341993635531,7.57300727128712],[122.911342030608267,7.572826356787739],[122.911342067580023,7.572645442286936]]],[[[122.913880309166899,7.572826865890277],[122.913880273252602,7.573007780402004],[122.91406157894626,7.573007816201456],[122.914242884640714,7.573007851925502],[122.914242848876881,7.573188766437407],[122.914424154647904,7.573188802086935],[122.914424118958578,7.573369716598218],[122.914605424806069,7.57336975217305],[122.914605389191721,7.573550666683711],[122.914605353576292,7.573731581192773],[122.914786659575839,7.573731616693975],[122.914786624035386,7.573912531202416],[122.914967930111487,7.573912566629011],[122.915149236188398,7.573912601980111],[122.91533054226619,7.573912637255716],[122.915511848344963,7.573912672455825],[122.915511813105951,7.574093586966309],[122.915693119261107,7.574093622091811],[122.915693154424446,7.573912707580617],[122.915693189586989,7.573731793067824],[122.915693224748551,7.57355087855361],[122.915874530677755,7.573550913601131],[122.916055836607754,7.573550948573245],[122.916237142538733,7.573550983469864],[122.916237177472567,7.573370068951564],[122.916418483328854,7.573370103771977],[122.916418518186305,7.573189189251369],[122.916599823967715,7.573189223995398],[122.916599858748697,7.57300830947248],[122.916599893528783,7.572827394947963],[122.916599928308074,7.572646480422025],[122.916599963086384,7.572465565894578],[122.916599997863898,7.572284651365531],[122.916600032640702,7.572103736835063],[122.916600067416624,7.571922822303175],[122.916418762164383,7.571922787564918],[122.916418727312973,7.572103702096096],[122.916418692460681,7.572284616625676],[122.916418657607494,7.572465531153834],[122.916418622753412,7.572646445680483],[122.916418587898633,7.572827360205532],[122.916237282269279,7.572827325387695],[122.916055976640806,7.572827290494451],[122.916055941633786,7.573008205016392],[122.915874635930535,7.573008170046854],[122.915874600847133,7.573189084566397],[122.915693295069275,7.573189049520564],[122.915511989292128,7.573189014399236],[122.915512024526791,7.573008099881291],[122.915330718826112,7.573008064685445],[122.915149413126414,7.573008029414015],[122.914968107427427,7.573007994067267],[122.914786801729505,7.573007958644935],[122.914786837265794,7.572827044128945],[122.914605531644256,7.572827008632095],[122.914424226023513,7.572826973059839],[122.914242920403751,7.572826937412088],[122.91406161478497,7.57282690168893],[122.914061650622699,7.572645987174893],[122.913880345080301,7.572645951377129],[122.913699039538784,7.572645915503958],[122.913517733998162,7.572645879555291],[122.913517770061844,7.572464965042321],[122.913517806124645,7.57228405052784],[122.91351784218655,7.572103136011939],[122.91351787824766,7.571922221494439],[122.913517914307704,7.571741306975517],[122.913336609146072,7.571741270955797],[122.913336645280893,7.571560356436165],[122.913336681414833,7.571379441915112],[122.913155376405257,7.571379405821673],[122.913155412613975,7.571198491299998],[122.913155448821726,7.571017576776813],[122.912974143964107,7.571017540609655],[122.912792839107468,7.571017504367179],[122.912611534251539,7.571017468049209],[122.912611497817039,7.571198382569729],[122.912611461381474,7.571379297088828],[122.912611424945197,7.571560211606417],[122.91261138850804,7.571741126122496],[122.912430083350657,7.571741089725566],[122.912430046836931,7.571922004239247],[122.912611352069803,7.571922040637065],[122.912611315630684,7.572102955150124],[122.912611279190855,7.572283869661674],[122.912792584575783,7.572283905985773],[122.912792548210561,7.57246482049679],[122.912792511844458,7.572645735006208],[122.91279247547746,7.572826649514204],[122.912792439109481,7.573007564020602],[122.912792402740706,7.573188478525579],[122.912792366370951,7.573369393029046],[122.912611060532342,7.573369356699707],[122.912611024086118,7.573550271200776],[122.912429718172817,7.573550234795053],[122.912429681650124,7.573731149293724],[122.912248375662031,7.573731112811706],[122.912248339062771,7.573912027308068],[122.912429645126451,7.573912063790973],[122.912610951191013,7.573912100198473],[122.912792257256456,7.573912136530477],[122.912973563322794,7.573912172786986],[122.913154869390112,7.573912208968088],[122.913336175458312,7.573912245073784],[122.913336211603806,7.573731330572183],[122.913336247748489,7.573550416069071],[122.913336283892292,7.573369501564538],[122.913336320035114,7.573188587058406],[122.913517625801688,7.573188623085144],[122.913517661868042,7.573007708576614],[122.9135176979335,7.572826794066663],[122.913699003549794,7.572826830016218],[122.913880309166899,7.572826865890277]],[[122.913336536873658,7.572103099990442],[122.913336500736165,7.572284014505544],[122.913336464597691,7.572464929019048],[122.913155159134433,7.572464892920457],[122.91315519534848,7.572283978407753],[122.913155231561561,7.572103063893539],[122.913336536873658,7.572103099990442]],[[122.915149271577775,7.573731687469894],[122.915149306966271,7.573550772958167],[122.915330612892717,7.573550808232084],[122.915330577579994,7.57373172274461],[122.915149271577775,7.573731687469894]]],[[[122.918231712435357,7.572465875166119],[122.918231678337477,7.572646789701028],[122.918412983900396,7.572646823688152],[122.918413017922873,7.572465909152444],[122.918231712435357,7.572465875166119]]],[[[122.910979270898437,7.573549940833131],[122.911160576804548,7.57354997784246],[122.911160613855799,7.573369063348497],[122.910979308025276,7.573369026340056],[122.910979270898437,7.573549940833131]]],[[[122.911160502699559,7.573911806825946],[122.911341808757911,7.573911843761645],[122.911341845735265,7.573730929269725],[122.911160539752586,7.573730892334914],[122.911160502699559,7.573911806825946]]],[[[122.911523077914396,7.574092795113059],[122.911704384050097,7.574092831898745],[122.911704420877086,7.573911917406558],[122.911523114816958,7.573911880621849],[122.911523077914396,7.574092795113059]]],[[[122.911885726938095,7.57391195411586],[122.911885690186693,7.574092868608935],[122.912066996324171,7.574092905243631],[122.912248302462629,7.574092941802919],[122.912248339062771,7.573912027308068],[122.912067032999985,7.573911990749667],[122.911885726938095,7.57391195411586]]],[[[122.91605573157409,7.574093692116597],[122.916055766586169,7.573912777603627],[122.916055801597452,7.573731863089146],[122.91587449559178,7.573731828116233],[122.915874460504909,7.573912742629825],[122.915874425417158,7.574093657141908],[122.915693119261107,7.574093622091811],[122.915693084096887,7.574274536601584],[122.915874390328597,7.574274571652569],[122.916055696561116,7.574274606628058],[122.91605573157409,7.574093692116597]]],[[[122.922223090276759,7.557631607028166],[122.922223057907445,7.557812521703496],[122.922223025537434,7.557993436377404],[122.922222993166613,7.558174351049803],[122.922222960794912,7.558355265720691],[122.922404260408811,7.558355297986348],[122.922404228111802,7.558536212656526],[122.9225855278019,7.558536244847665],[122.922585560023506,7.558355330176776],[122.922766859638912,7.558355362291798],[122.922766891784221,7.5581744476186],[122.922585592244218,7.558174415504289],[122.922585624464134,7.557993500830292],[122.922585656683339,7.557812586154873],[122.922766956072351,7.557812618267586],[122.922766923928734,7.557993532943803],[122.92294822339413,7.557993564982087],[122.922948255462344,7.55781265030507],[122.923129554853048,7.557812682267236],[122.92312958684505,7.557631767587909],[122.923129618836171,7.557450852907162],[122.922948319596372,7.557450820946594],[122.92294832279525,7.557432773082562],[122.922223102753321,7.557561872783678],[122.922223090276759,7.557631607028166]]],[[[122.920591198201862,7.558716801264239],[122.920772497959376,7.558716834209263],[122.920772530936375,7.558535919547611],[122.920591231254264,7.558535886603475],[122.920591198201862,7.558716801264239]]],[[[122.921678996759496,7.558716997804445],[122.921860296521984,7.558717030297653],[122.921860329046098,7.558536115631294],[122.921679029359197,7.558536083138885],[122.921678996759496,7.558716997804445]]],[[[122.922404195814082,7.558717127325195],[122.922404228111802,7.558536212656526],[122.9222229284224,7.55853618039007],[122.922222896049192,7.558717095058028],[122.922404195814082,7.558717127325195]]],[[[122.920953731912377,7.559078696399165],[122.920953764815479,7.558897781739733],[122.920772464981667,7.558897748869316],[122.920772432003162,7.559078663527948],[122.920953731912377,7.559078696399165]]],[[[122.920590603119209,7.561973264902629],[122.920590570051445,7.56215417953497],[122.92077187124319,7.562154212495094],[122.920771904235551,7.561973297861953],[122.920590603119209,7.561973264902629]]],[[[122.920953139517977,7.562335160012331],[122.920953172435645,7.562154245379811],[122.92077187124319,7.562154212495094],[122.920771838249934,7.562335127126725],[122.920953139517977,7.562335160012331]]],[[[122.920952777369891,7.564325220870479],[122.920771475271223,7.564325187976169],[122.92077144226829,7.564506102589859],[122.92077140926456,7.56468701720195],[122.920952711514303,7.564687050097858],[122.920952744442545,7.564506135484968],[122.920952777369891,7.564325220870479]]],[[[122.922765830571947,7.564144631044985],[122.922765798400619,7.564325545668889],[122.922765766228395,7.564506460291194],[122.922947068411446,7.564506492357366],[122.922947036313914,7.564687406978961],[122.923128338573164,7.564687438970437],[122.923309640833395,7.564687470886684],[122.923309608886058,7.564868385508368],[122.923490911222586,7.56486841734992],[122.923490943094151,7.564687502727526],[122.923490974965105,7.564506588103533],[122.923309672779837,7.564506556263491],[122.923309704725398,7.564325641638876],[122.923128402616427,7.564325609724228],[122.922947100508168,7.564325577734173],[122.922947132604008,7.564144663109558],[122.922765830571947,7.564144631044985]]],[[[122.922584431797816,7.564687342769701],[122.922765734055375,7.56468737491199],[122.922765766228395,7.564506460291194],[122.922584464046238,7.564506428149705],[122.922584431797816,7.564687342769701]]],[[[122.921133980911222,7.564867997530718],[122.921134013764757,7.564687082918449],[122.920952711514303,7.564687050097858],[122.920952678585266,7.564867964709417],[122.921133980911222,7.564867997530718]]],[[[122.921315250459301,7.56504894488826],[122.921315283238144,7.564868030276702],[122.921133980911222,7.564867997530718],[122.921133948056962,7.565048912141566],[122.921315250459301,7.56504894488826]]],[[[122.922584335047475,7.565230086620985],[122.922403032563963,7.56523005440098],[122.922403000236756,7.565410969014315],[122.922584302795855,7.56541100123503],[122.922584335047475,7.565230086620985]]],[[[122.921315184899299,7.565410774106936],[122.921315152118055,7.565591688714053],[122.921496454747853,7.565591721387828],[122.92149648745351,7.565410806779911],[122.921315184899299,7.565410774106936]]],[[[122.922221665274947,7.56559185132913],[122.922402967908653,7.565591883626051],[122.922403000236756,7.565410969014315],[122.922221697678538,7.565410936718194],[122.922221665274947,7.56559185132913]]],[[[122.921677724747482,7.565772668593403],[122.921677757378447,7.565591753986197],[122.921496454747853,7.565591721387828],[122.921496422041301,7.565772635994146],[122.921677724747482,7.565772668593403]]],[[[122.921859060009851,7.565591786509247],[122.921859027454374,7.565772701117164],[122.922040330161977,7.565772733565608],[122.922221632870645,7.565772765938646],[122.922221665274947,7.56559185132913],[122.922040362641951,7.565591818956892],[122.921859060009851,7.565591786509247]]],[[[122.923309193500998,7.567220275453741],[122.923490496819312,7.567220307305329],[122.923490528701279,7.567039392702386],[122.923309225458368,7.567039360851509],[122.923309193500998,7.567220275453741]]],[[[122.923309001739909,7.568305763035428],[122.923309033702068,7.568124848442255],[122.923127730006726,7.568124816511353],[122.92312769796898,7.568305731103815],[122.923309001739909,7.568305763035428]]],[[[122.921314627508991,7.56848632222374],[122.92113332367127,7.568486289461858],[122.921133290800668,7.568667204042685],[122.921133257929455,7.568848118622003],[122.920951953941369,7.568848085783205],[122.920951920993673,7.569029000360302],[122.92095188804528,7.5692099149358],[122.920951855095808,7.569390829509877],[122.92095182214581,7.569571744082444],[122.921133126436146,7.569571776924351],[122.921133093560755,7.569752691496208],[122.921133060684653,7.569933606066555],[122.921133027807755,7.570114520635392],[122.921132994929962,7.570295435202719],[122.921314299523345,7.570295467972506],[122.921314266720429,7.570476382539122],[122.921314233916632,7.570657297104229],[122.921495538662072,7.570657329800119],[122.921495505933137,7.570838244364515],[122.921495473203137,7.57101915892749],[122.921676778100633,7.571019191549573],[122.92167681075496,7.570838276985799],[122.921676843408306,7.570657362420603],[122.921676876060943,7.570476447853898],[122.921495571390196,7.570476415234213],[122.921495604117709,7.570295500666798],[122.921495636844327,7.570114586097872],[122.921495669570149,7.569933671527436],[122.921314365127046,7.569933638834654],[122.921314397927475,7.569752724263597],[122.921314430727378,7.569571809690941],[122.921314463526201,7.569390895116775],[122.921314496324499,7.569209980541188],[122.921495800465266,7.569210013230772],[122.921495833187095,7.569029098652876],[122.921495865908028,7.568848184073381],[122.921677169898516,7.568848216686049],[122.92167720254298,7.568667302104333],[122.921858506458776,7.568667334640707],[122.921858539026942,7.568486420056771],[122.922039842868045,7.568486452516939],[122.922221146709759,7.5684864849017],[122.922221179126055,7.568305570314656],[122.922402482893077,7.5683056026233],[122.922583786660894,7.568305634856539],[122.922583818925219,7.568124720266385],[122.922765122618259,7.568124752423507],[122.922946426312095,7.568124784505133],[122.923127730006726,7.568124816511353],[122.923127762043592,7.567943901917469],[122.922946458424533,7.56794386991196],[122.922765154806285,7.567943837831044],[122.922583851188833,7.567943805674811],[122.922402547572176,7.567943773443171],[122.922221243956329,7.567943741136125],[122.92222121154154,7.568124655726101],[122.922039907850902,7.568124623342938],[122.921858604160974,7.56812459088428],[122.921858571594498,7.568305505471236],[122.921677267829779,7.568305472936461],[122.921495964066139,7.568305440326191],[122.921495931347508,7.568486354910127],[122.921314627508991,7.56848632222374]]]]}},
{"type":"Feature","properties":{"fid":212,"HAZ":2.0,"layer":"ZamboangaSibugay_StormSurge_SSA4","path":"/Users/jhannaroseverzo/Downloads/ZamboangaSibugay/ZamboangaSibugay_StormSurge_SSA4.shp","Risk Level":"Medium","fid_2":440,"SYSTRA ID":"440","DAR ID":"440","Target Year":"BUFFER A","Bridge Category":"Buffer List","Bridge Name":"DUMPOC BRIDGE","Coordinates Y":"7.60209","Coordinates X":"122.93012","Region":"IX","Province":"ZAMBOANGA SIBUGAY","ARC 2026":"","LINEAR METER IVF 2026":"","EIRR 2026":"","NEW/REPLACEMENT BRIDGE 2026":"","Visited by SYSTRA":"No","Selected for 2nd Visit of SYSTRA":"No","Final Funder":"No Funder","2023 IVF URL":"https://drive.google.com/open?id=1KguF2jB3vfTjLOec62x2yKB0bOiIfp4g","2026 IVF URL":"https://drive.google.com/open?id=1KguF2jB3vfTjLOec62x2yKB0bOiIfp4g"},"geometry":{"type":"MultiPolygon","coordinates":[[[[122.906267427297635,7.563779568624514],[122.906267458630154,7.563634374022759],[122.906086131850657,7.563750145595566],[122.906086125497396,7.563779529628952],[122.906267427297635,7.563779568624514]]],[[[122.91950350018665,7.558173858040791],[122.919684799712883,7.558173891435145],[122.919684817264795,7.558078897291185],[122.91954620738008,7.55810921822742],[122.919503510099659,7.558120327781601],[122.91950350018665,7.558173858040791]]],[[[122.919503399673545,7.558716602013134],[122.919503433178647,7.558535687357167],[122.919503466683139,7.558354772699778],[122.91950350018665,7.558173858040791],[122.919322200661213,7.55817382457112],[122.919322167082115,7.558354739229308],[122.919322133502405,7.558535653885897],[122.919322099921615,7.558716568541064],[122.919322066340214,7.558897483194722],[122.919322032757918,7.559078397846871],[122.919321999174826,7.559259312497598],[122.919321965590854,7.559440227146726],[122.919321932006071,7.559621141794433],[122.919503232135199,7.559621175270588],[122.919503265644579,7.559440260622082],[122.919503299153064,7.559259345972065],[122.919503332660653,7.559078431320628],[122.919503366167547,7.558897516667591],[122.919503399673545,7.558716602013134]]],[[[122.918052797011015,7.559801819993235],[122.918234097209961,7.559801853997413],[122.918234131248425,7.5596209393561],[122.918052831125067,7.559620905352811],[122.918052797011015,7.559801819993235]]],[[[122.91750879339358,7.560344461433906],[122.917508827736413,7.56016354680041],[122.917327527389943,7.560163512493363],[122.917327492971609,7.560344427125972],[122.91750879339358,7.560344461433906]]],[[[122.917508621666499,7.561249034578917],[122.91768992246665,7.561249068815619],[122.917689956738258,7.561068154188784],[122.91750865601351,7.561068119952881],[122.917508621666499,7.561249034578917]]],[[[122.917689853920862,7.561610898064759],[122.917689819646768,7.561791812687065],[122.917689785371692,7.561972727307949],[122.917871086474619,7.56197276147262],[122.918052387578527,7.561972795561974],[122.918052421702527,7.561791880939491],[122.917871120674107,7.561791846850936],[122.917871154872884,7.561610932227743],[122.917871189070596,7.561430017603128],[122.917871223267596,7.561249102977004],[122.91768992246665,7.561249068815619],[122.917689888194062,7.561429983440944],[122.917689853920862,7.561610898064759]]],[[[122.919865465399738,7.56161130304925],[122.919865432031585,7.561792217681325],[122.919865398662552,7.561973132311979],[122.920046699775511,7.561973165572662],[122.920046733069057,7.561792250941209],[122.920046766361807,7.561611336308245],[122.919865465399738,7.56161130304925]]],[[[122.918958893110144,7.561972964878712],[122.919140194219025,7.561972998515983],[122.919140227890054,7.561792083888615],[122.918958926856661,7.561792050252055],[122.918777625824163,7.561792016540266],[122.918777592002158,7.561972931166035],[122.918958893110144,7.561972964878712]]],[[[122.918414989788658,7.561972863514639],[122.918233688683145,7.56197282957601],[122.918052387578527,7.561972795561974],[122.918052353453646,7.562153710182947],[122.918233654633852,7.562153744197782],[122.918414955814853,7.5621537781373],[122.918596256996651,7.5621538120015],[122.918596290894868,7.56197289737804],[122.918414989788658,7.561972863514639]]],[[[122.920409302003932,7.561973231867987],[122.920228000889281,7.561973198757939],[122.920046699775511,7.561973165572662],[122.92004666648117,7.562154080202606],[122.920227967670428,7.562154113388771],[122.920409268860581,7.562154146499529],[122.920590570051445,7.56215417953497],[122.920590603119209,7.561973264902629],[122.920409302003932,7.561973231867987]]],[[[122.920590503913232,7.562516008795213],[122.920771805255882,7.562516041756935],[122.920771838249934,7.562335127126725],[122.92077187124319,7.562154212495094],[122.920590570051445,7.56215417953497],[122.920590536982786,7.562335094165802],[122.920590503913232,7.562516008795213]]],[[[122.920227868008908,7.562696857272029],[122.92040916942554,7.562696890385186],[122.920590470842981,7.562696923423025],[122.920590503913232,7.562516008795213],[122.920409202571292,7.562515975758173],[122.920227901230248,7.562515942645727],[122.920227868008908,7.562696857272029]]],[[[122.920046466697784,7.563239567950915],[122.920227768340013,7.563239601141787],[122.92022780156384,7.563058686520015],[122.920227834786772,7.562877771896733],[122.920046533295533,7.562877738707459],[122.920046499997014,7.563058653329942],[122.920046466697784,7.563239567950915]]],[[[122.919683829964427,7.563420415960816],[122.919865131680552,7.5634204493033],[122.919865165056166,7.563239534684636],[122.919683863415628,7.563239501342951],[122.919683829964427,7.563420415960816]]],[[[122.919321058511457,7.564324922108663],[122.919502360603559,7.564324955605868],[122.919502394134241,7.564144040996264],[122.919502427664227,7.563963126385238],[122.919502461193403,7.563782211772614],[122.919321159327794,7.563782178277896],[122.919321125723116,7.563963092889632],[122.919321092117642,7.564144007499858],[122.919321058511457,7.564324922108663]]],[[[122.906448651165377,7.564141436642465],[122.906448690132606,7.563960522094322],[122.906267388255799,7.563960483173189],[122.906267349213081,7.564141397720266],[122.906267310169284,7.564322312265921],[122.906267271124605,7.564503226810067],[122.906448573227891,7.564503265734042],[122.906448612197167,7.564322351189008],[122.906448651165377,7.564141436642465]]],[[[122.919683629240367,7.564505903636561],[122.919683662696357,7.564324989027667],[122.919502360603559,7.564324955605868],[122.919502327071982,7.564505870213874],[122.919683629240367,7.564505903636561]]],[[[122.906448417341835,7.565226923899433],[122.906629719748167,7.565226962751821],[122.906629758645678,7.565046048211761],[122.906629797542024,7.56486513367028],[122.906448495286682,7.564865094819758],[122.906448456314749,7.56504600936035],[122.906448417341835,7.565226923899433]]],[[[122.918233007536983,7.565591121727951],[122.918233041602178,7.5654102071346],[122.918051739062804,7.565410173104932],[122.918051704922021,7.565591087697483],[122.918233007536983,7.565591121727951]]],[[[122.906267036836468,7.56558871404341],[122.906266997785039,7.565769628577075],[122.906448300417054,7.565769667507712],[122.906448339392895,7.56558875297307],[122.906448378367855,7.565407838437006],[122.906267075886916,7.565407799508324],[122.906267036836468,7.56558871404341]]],[[[122.918414174185429,7.566314814044868],[122.918414140191459,7.566495728631558],[122.918595443185765,7.566495762515387],[122.918776746181052,7.566495796323898],[122.918776780023848,7.566314881735521],[122.918958082944343,7.566314915467738],[122.919139385865648,7.566314949124638],[122.919139419556558,7.566134034533152],[122.919139453246586,7.565953119940157],[122.919139486935904,7.56577220534574],[122.919139520624341,7.565591290749725],[122.918958218005201,7.565591257096201],[122.918776915386857,7.565591223367181],[122.918595612769408,7.565591189562844],[122.918595578854308,7.565772104156284],[122.918595544938512,7.565953018748302],[122.918595511021636,7.566133933338899],[122.918414208178504,7.566133899456669],[122.918414174185429,7.566314814044868]]],[[[122.90681078920386,7.566312488743228],[122.906810828031468,7.56613157421125],[122.906629525246416,7.566131535429473],[122.90662948634332,7.566312449960562],[122.90681078920386,7.566312488743228]]],[[[122.920227136932823,7.566676978670979],[122.920408440010974,7.566677011801811],[122.92040847317466,7.56649609720766],[122.920227170172183,7.566496064077628],[122.920227136932823,7.566676978670979]]],[[[122.906810672714997,7.56685523233019],[122.90699197580328,7.566855271040292],[122.906992014558227,7.566674356511867],[122.906992053312294,7.566493441981932],[122.906810750375186,7.566493403273696],[122.906810711545631,7.566674317802653],[122.906810672714997,7.56685523233019]]],[[[122.906991820773683,7.567578929138981],[122.906991859532553,7.567398014616507],[122.906810556217792,7.567397975903652],[122.906810517383434,7.567578890425149],[122.906991820773683,7.567578929138981]]],[[[122.920771145205293,7.566134334045656],[122.920952448059268,7.56613436694787],[122.921133750914038,7.566134399774767],[122.921315053769618,7.566134432526346],[122.921496356625894,7.56613446520243],[122.921677659483066,7.566134497803197],[122.921858962341133,7.566134530328557],[122.922040265199897,7.5661345627786],[122.922221568059555,7.566134595153236],[122.922221535652767,7.566315509758222],[122.922221503245268,7.566496424361786],[122.922402806256628,7.566496456662615],[122.922402773924006,7.566677371265381],[122.922584077011749,7.566677403491602],[122.922584044753734,7.566858318093746],[122.92276534791786,7.566858350245272],[122.922765315734623,7.567039264846705],[122.922946618975047,7.567039296923713],[122.922946586866502,7.567220211524346],[122.923127890183395,7.567220243526747],[122.923127858149641,7.56740115812667],[122.92294655475726,7.56740112612347],[122.922765251365576,7.567401094044953],[122.922765283550504,7.567220179446539],[122.922583980235203,7.567220147293415],[122.922583947974786,7.567401061891029],[122.922402644584892,7.567401029661698],[122.922221341195609,7.567400997356962],[122.922040037807221,7.567400964976819],[122.922040005319246,7.567581879570613],[122.921858701856166,7.567581847114353],[122.921677398393783,7.567581814582687],[122.921677431032833,7.567400899990491],[122.921496127646748,7.567400867384218],[122.921314824261643,7.567400834702538],[122.921133520877248,7.567400801945452],[122.921133553741981,7.567219887354145],[122.92095225043397,7.567219854522452],[122.92077094712667,7.567219821615441],[122.920770914110861,7.56740073620515],[122.920589610728868,7.567400703221934],[122.920408307347756,7.567400670163312],[122.920408274179891,7.567581584749912],[122.920226970723903,7.567581551615084],[122.920045667268809,7.567581518404938],[122.920045633949158,7.56776243298843],[122.919864330419273,7.56776239970199],[122.919864297023238,7.567943314283261],[122.919864263626124,7.568124228863023],[122.919864230228399,7.568305143441186],[122.919682926472746,7.56830511007703],[122.919682892998452,7.568486024652883],[122.919682859523547,7.568666939227316],[122.919682826047747,7.568847853800238],[122.919501522066227,7.568847820358189],[122.919501488514044,7.569028734928891],[122.91950145496088,7.569209649497995],[122.919320150828995,7.569209615978941],[122.919320117199632,7.569390530545735],[122.919501421407105,7.569390564065588],[122.919682725615189,7.569390597510036],[122.919682692136192,7.569571512077007],[122.919863996420844,7.569571545446848],[122.919863963016454,7.569752460013109],[122.919863929611267,7.56993337457786],[122.919863896205186,7.570114289141102],[122.920045200717482,7.570114322437933],[122.920045167386192,7.570295237000553],[122.920045134054092,7.570476151561574],[122.919863829390721,7.570476118263143],[122.919682524728245,7.570476084889218],[122.919501220066465,7.570476051439885],[122.919501186506821,7.570656965996998],[122.919501152946381,7.57083788055269],[122.919501119385046,7.571018795106784],[122.919501085822915,7.571199709659456],[122.919319780859695,7.571199676131431],[122.919138475897185,7.571199642528089],[122.919138442183183,7.571380557077563],[122.918957137145881,7.571380523397926],[122.918957103355311,7.571561437945092],[122.918775798243502,7.571561404189249],[122.918594493132403,7.571561370357911],[122.9184131880221,7.571561336451167],[122.918231882912679,7.571561302468928],[122.918231917005585,7.571380387925049],[122.918050611972646,7.571380353868203],[122.917869306940503,7.57138031973595],[122.917869341183774,7.57119940519216],[122.917688036228014,7.5711993709853],[122.917688001909156,7.571380285528291],[122.917687967589416,7.571561200069772],[122.917869272696336,7.571561234278231],[122.917869238451374,7.571742148819001],[122.918050543634692,7.571742182952941],[122.918050509464507,7.571923097493001],[122.918050475293441,7.57210401203164],[122.918231780628815,7.572104046091773],[122.918231746532527,7.572284960629701],[122.918231712435357,7.572465875166119],[122.918413017922873,7.572465909152444],[122.918412983900396,7.572646823688152],[122.91859428946438,7.57264685759987],[122.918775595029075,7.572646891436093],[122.918775628900207,7.572465976898697],[122.918956934390209,7.572466010658714],[122.919138239880823,7.572466044343236],[122.919319545372602,7.572466077952263],[122.919500850864907,7.572466111485972],[122.919500884432907,7.57228519694378],[122.919682189850519,7.572285230401195],[122.919863495269013,7.572285263783203],[122.919863461852188,7.572466178326905],[122.919863428434653,7.572647092869185],[122.920044734005302,7.572647126177297],[122.920044767347164,7.572466211634306],[122.920226072842937,7.572466244866123],[122.920407378339419,7.572466278022623],[122.920407411529311,7.572285363476435],[122.920407444718407,7.572104448928736],[122.920588750064525,7.572104482008142],[122.920770055411438,7.572104515012142],[122.920951360759148,7.572104547940646],[122.921132666107837,7.572104580793744],[122.921313971457238,7.572104613571347],[122.921495276807349,7.572104646273632],[122.921495309542053,7.571923731719628],[122.921676614817471,7.571923764345619],[122.921676647475707,7.571742849789394],[122.921857952676334,7.571742882339179],[122.921857985258185,7.571561967780734],[122.921858017839227,7.57138105322069],[122.921676712789676,7.571381020672503],[122.921676745445509,7.571200106111749],[122.921676778100633,7.571019191549573],[122.921495473203137,7.57101915892749],[122.921495505933137,7.570838244364515],[122.921495538662072,7.570657329800119],[122.921314233916632,7.570657297104229],[122.921314266720429,7.570476382539122],[122.921314299523345,7.570295467972506],[122.921132994929962,7.570295435202719],[122.921133027807755,7.570114520635392],[122.921133060684653,7.569933606066555],[122.921133093560755,7.569752691496208],[122.921133126436146,7.569571776924351],[122.92095182214581,7.569571744082444],[122.920951855095808,7.569390829509877],[122.92095188804528,7.5692099149358],[122.920951920993673,7.569029000360302],[122.920951953941369,7.568848085783205],[122.921133257929455,7.568848118622003],[122.921133290800668,7.568667204042685],[122.92113332367127,7.568486289461858],[122.921314627508991,7.56848632222374],[122.921495931347508,7.568486354910127],[122.921495964066139,7.568305440326191],[122.921677267829779,7.568305472936461],[122.921858571594498,7.568305505471236],[122.921858604160974,7.56812459088428],[122.922039907850902,7.568124623342938],[122.92222121154154,7.568124655726101],[122.922221243956329,7.567943741136125],[122.922402547572176,7.567943773443171],[122.922583851188833,7.567943805674811],[122.922765154806285,7.567943837831044],[122.922946458424533,7.56794386991196],[122.923127762043592,7.567943901917469],[122.923127730006726,7.568124816511353],[122.923309033702068,7.568124848442255],[122.923490337398221,7.568124880297662],[122.923490369283996,7.56794396570218],[122.923490401169076,7.567763051105188],[122.92349043305326,7.567582136506775],[122.923490464936734,7.567401221906763],[122.923490496819312,7.567220307305329],[122.923309193500998,7.567220275453741],[122.923309225458368,7.567039360851509],[122.923309257415028,7.566858446247855],[122.923309289370891,7.566677531642603],[122.92330932132586,7.56649661703593],[122.923309353280303,7.566315702427747],[122.923309385233765,7.566134787818053],[122.923309417186431,7.56595387320685],[122.923309449138287,7.565772958594226],[122.923309481089532,7.565592043980003],[122.923309513039882,7.565411129364359],[122.923309544989436,7.565230214747205],[122.923309576938195,7.565049300128542],[122.923309608886058,7.564868385508368],[122.923309640833395,7.564687470886684],[122.923128338573164,7.564687438970437],[122.922947036313914,7.564687406978961],[122.922947068411446,7.564506492357366],[122.922765766228395,7.564506460291194],[122.922765734055375,7.56468737491199],[122.922584431797816,7.564687342769701],[122.922584399548498,7.564868257388276],[122.922584367298384,7.565049172005341],[122.922584335047475,7.565230086620985],[122.922584302795855,7.56541100123503],[122.922403000236756,7.565410969014315],[122.922402967908653,7.565591883626051],[122.922221665274947,7.56559185132913],[122.922221632870645,7.565772765938646],[122.922040330161977,7.565772733565608],[122.921859027454374,7.565772701117164],[122.921677724747482,7.565772668593403],[122.921496422041301,7.565772635994146],[122.921496454747853,7.565591721387828],[122.921315152118055,7.565591688714053],[122.921315184899299,7.565410774106936],[122.921315217679748,7.565229859498397],[122.921315250459301,7.56504894488826],[122.921133948056962,7.565048912141566],[122.921133980911222,7.564867997530718],[122.920952678585266,7.564867964709417],[122.920952711514303,7.564687050097858],[122.92077140926456,7.56468701720195],[122.92077144226829,7.564506102589859],[122.920771475271223,7.564325187976169],[122.920590173173352,7.564325155006453],[122.920590140095015,7.564506069619344],[122.920408837922452,7.564506036573511],[122.920408804767547,7.564686951184092],[122.920227502520376,7.564686918062054],[122.920046200273916,7.564686884864698],[122.920046233579811,7.564505970255715],[122.919864931409649,7.564505936983841],[122.919683629240367,7.564505903636561],[122.919683595783482,7.564686818243945],[122.919864898028351,7.564686851592024],[122.919864864646073,7.564867766198698],[122.920046166967225,7.56486779947226],[122.920046133659739,7.565048714078222],[122.920227436057274,7.565048747277177],[122.92022740282448,7.565229661882518],[122.92022736959089,7.56541057648626],[122.920227336356405,7.565591491088582],[122.920408638981414,7.565591524214617],[122.920589941607119,7.565591557265246],[122.920589908522828,7.565772471867656],[122.920771211225016,7.565772504843678],[122.920771178215603,7.565953419445377],[122.920771145205293,7.566134334045656]],[[122.92004506738742,7.570837980679175],[122.920045100721111,7.570657066121174],[122.920226405460866,7.570657099344998],[122.920407710201516,7.570657132493415],[122.920407677018986,7.570838047053104],[122.920226372202848,7.570838013903887],[122.92004506738742,7.570837980679175]]],[[[122.90898581673865,7.569207580741362],[122.908804512657838,7.569207542848651],[122.908623208577907,7.569207504880445],[122.908623170489804,7.569388419396257],[122.908441866335266,7.569388381351756],[122.908260562181709,7.56938834323176],[122.908260600421073,7.569207428717813],[122.9080792963439,7.569207390523476],[122.907897992267792,7.569207352253644],[122.90771668819275,7.569207313908406],[122.907716649726723,7.569388228419601],[122.907535345576804,7.569388189997979],[122.907354041428135,7.56938815150104],[122.907354002809868,7.569569066008859],[122.907172698586507,7.569569027435537],[122.907172659891771,7.569749941940958],[122.906991355593703,7.569749903291252],[122.906991394363843,7.569568988786808],[122.906991433133186,7.569388074280854],[122.906991471901648,7.569207159773391],[122.906991510668945,7.569026245264506],[122.906810206674194,7.569026206543124],[122.906810245516098,7.568845292033617],[122.906810284357206,7.568664377522601],[122.906991588200881,7.568664416242117],[122.906991626965336,7.568483501728614],[122.906991665728995,7.568302587213689],[122.90681036203641,7.568302548496127],[122.906810400874491,7.568121633980581],[122.906810439711691,7.567940719463613],[122.906629136171333,7.56794068067251],[122.90662909725846,7.568121595188589],[122.906447793643409,7.568121556321102],[122.906447754654153,7.568302470834783],[122.90626645096431,7.568302431891001],[122.906266411898585,7.568483346402107],[122.90608510813432,7.568483307382031],[122.906085068991942,7.568664221890738],[122.906085029848583,7.568845136398024],[122.906266333764108,7.568845175420054],[122.906266294695357,7.569026089926719],[122.906266255625724,7.569207004431873],[122.90644755969322,7.569207043380362],[122.906628863761682,7.569207082253445],[122.906628824842244,7.569387996759043],[122.906810128987274,7.569388035557696],[122.906810090142343,7.569568950062673],[122.906810051296617,7.56974986456614],[122.906810012449824,7.569930779068186],[122.906628708078046,7.56993074026678],[122.906628669154685,7.570111654766339],[122.906447364708299,7.570111615888549],[122.90644732570847,7.57029253038571],[122.906266021187477,7.570292491431537],[122.906265982111094,7.570473405926299],[122.906084677515395,7.570473366895743],[122.906084638362543,7.570654281388019],[122.905903333692237,7.570654242281168],[122.905722029023011,7.57065420309891],[122.905721989718003,7.570835117587722],[122.905903294462817,7.570835156770957],[122.905903255232332,7.571016071259325],[122.906084560053799,7.571016110368041],[122.90608452089792,7.571197024855787],[122.906265825795955,7.571197063890074],[122.906447130694872,7.571197102848955],[122.906628435594669,7.57119714173234],[122.906809740495632,7.571197180540319],[122.90699104539739,7.571197219272892],[122.907172350300215,7.571197257930058],[122.907353655203835,7.57119729651173],[122.907353616576245,7.571378211004627],[122.907534921556433,7.57137824951178],[122.907716226537687,7.571378287943616],[122.907716265014102,7.571197373448853],[122.907897569920664,7.571197411804305],[122.907897531519822,7.571378326299956],[122.908078836502938,7.571378364580801],[122.908078798176703,7.571559279075919],[122.908078759849587,7.571740193569439],[122.908260064984759,7.571740231776743],[122.90826002673225,7.571921146269729],[122.908441331943976,7.571921184402515],[122.908622637156597,7.571921222459895],[122.908622599054453,7.572102136953236],[122.908803904343728,7.572102174936098],[122.908985209633883,7.572102212843553],[122.909166514925019,7.572102250675512],[122.90934782021705,7.572102288432066],[122.909347858016858,7.571921373935083],[122.909529163234183,7.571921411615253],[122.909529200957607,7.571740497115871],[122.90971050610024,7.571740534719747],[122.909710543747011,7.571559620217967],[122.909891848815036,7.571559657745548],[122.910073153884042,7.571559695197634],[122.910073191378672,7.57137878069248],[122.910254496372886,7.571378818068271],[122.910254533791132,7.571197903560718],[122.910435838710654,7.571197940860126],[122.910435876052432,7.571017026350265],[122.910617180897347,7.571017063573378],[122.910798485743058,7.571017100720996],[122.910798522932694,7.570836186207848],[122.910979827703883,7.570836223279172],[122.911161132475968,7.570836260275089],[122.911342437249033,7.5708362971956],[122.911342400286244,7.571017211711413],[122.911342363322476,7.571198126225805],[122.911342326357911,7.571379040738687],[122.91134228939228,7.571559955250058],[122.911523594468662,7.571559992098716],[122.911523557577809,7.571740906609466],[122.911523520686075,7.571921821118706],[122.911342215458532,7.571921784268361],[122.91134217849033,7.572102698775203],[122.911342141521231,7.572283613280624],[122.911342104551167,7.572464527784535],[122.911342067580023,7.572645442286936],[122.911342030608267,7.572826356787739],[122.911341993635531,7.57300727128712],[122.911341956661815,7.573188185785081],[122.911160650905984,7.573188148852934],[122.911160613855799,7.573369063348497],[122.911160576804548,7.57354997784246],[122.911160539752586,7.573730892334914],[122.911341845735265,7.573730929269725],[122.911341808757911,7.573911843761645],[122.911523114816958,7.573911880621849],[122.911704420877086,7.573911917406558],[122.911885726938095,7.57391195411586],[122.912067032999985,7.573911990749667],[122.912248339062771,7.573912027308068],[122.912248375662031,7.573731112811706],[122.912429681650124,7.573731149293724],[122.912429718172817,7.573550234795053],[122.912611024086118,7.573550271200776],[122.912611060532342,7.573369356699707],[122.912792366370951,7.573369393029046],[122.912792402740706,7.573188478525579],[122.912792439109481,7.573007564020602],[122.91279247547746,7.572826649514204],[122.912792511844458,7.572645735006208],[122.912792548210561,7.57246482049679],[122.912792584575783,7.572283905985773],[122.912611279190855,7.572283869661674],[122.912611315630684,7.572102955150124],[122.912611352069803,7.571922040637065],[122.912430046836931,7.571922004239247],[122.912430083350657,7.571741089725566],[122.91261138850804,7.571741126122496],[122.912611424945197,7.571560211606417],[122.912611461381474,7.571379297088828],[122.912611497817039,7.571198382569729],[122.912611534251539,7.571017468049209],[122.912792839107468,7.571017504367179],[122.912974143964107,7.571017540609655],[122.913155448821726,7.571017576776813],[122.913155412613975,7.571198491299998],[122.913155376405257,7.571379405821673],[122.913336681414833,7.571379441915112],[122.913336645280893,7.571560356436165],[122.913336609146072,7.571741270955797],[122.913517914307704,7.571741306975517],[122.91351787824766,7.571922221494439],[122.91351784218655,7.572103136011939],[122.913517806124645,7.57228405052784],[122.913517770061844,7.572464965042321],[122.913517733998162,7.572645879555291],[122.913699039538784,7.572645915503958],[122.913880345080301,7.572645951377129],[122.914061650622699,7.572645987174893],[122.91406161478497,7.57282690168893],[122.914242920403751,7.572826937412088],[122.914424226023513,7.572826973059839],[122.914605531644256,7.572827008632095],[122.914786837265794,7.572827044128945],[122.914786801729505,7.573007958644935],[122.914968107427427,7.573007994067267],[122.915149413126414,7.573008029414015],[122.915330718826112,7.573008064685445],[122.915512024526791,7.573008099881291],[122.915511989292128,7.573189014399236],[122.915693295069275,7.573189049520564],[122.915874600847133,7.573189084566397],[122.915874635930535,7.573008170046854],[122.916055941633786,7.573008205016392],[122.916055976640806,7.572827290494451],[122.916237282269279,7.572827325387695],[122.916418587898633,7.572827360205532],[122.916418622753412,7.572646445680483],[122.916418657607494,7.572465531153834],[122.916418692460681,7.572284616625676],[122.916418727312973,7.572103702096096],[122.916418762164383,7.571922787564918],[122.916418797014998,7.571741873032319],[122.916418831864718,7.57156095849821],[122.916600136965698,7.57156099323469],[122.916600171738949,7.571380078698271],[122.91660020651149,7.571199164160254],[122.916418901561684,7.571199129425461],[122.91623759661276,7.571199094615173],[122.916056291664546,7.571199059729479],[122.915874986717498,7.571199024768378],[122.915874951642706,7.571379939302932],[122.915874916567034,7.571560853836064],[122.915874881490467,7.571741768367597],[122.915693576317366,7.571741733328515],[122.91569354116433,7.571922647857739],[122.915693506010498,7.572103562385542],[122.915512200687033,7.572103527269276],[122.915330895364363,7.572103492077605],[122.915149590042674,7.572103456810527],[122.91496828472188,7.572103421467953],[122.914786979401782,7.572103386049974],[122.914605674082765,7.572103350556588],[122.914424368764628,7.572103314987706],[122.914424404447544,7.571922400465943],[122.914243099205791,7.571922364822544],[122.914061793965018,7.571922329103649],[122.914061829798314,7.571741414582152],[122.914061865630799,7.571560500059056],[122.914061901462404,7.571379585534539],[122.914061937293212,7.571198671008513],[122.91406197312304,7.571017756480976],[122.914062008951888,7.570836841951929],[122.914062044779939,7.570655927421373],[122.91406208060728,7.570475012889307],[122.914243385243296,7.570475048601273],[122.914243420994168,7.570294134066898],[122.914424725555577,7.57029416970257],[122.914424761229881,7.570113255165796],[122.914424796903219,7.569932340627601],[122.914424832575747,7.569751426087808],[122.914424868247394,7.569570511546593],[122.914424903918231,7.56938959700378],[122.914424939588102,7.569208682459545],[122.914424975257077,7.569027767913801],[122.914243671224668,7.569027732284169],[122.91424370696835,7.568846817737714],[122.914062403012409,7.568846782033563],[122.913881099057363,7.568846746254006],[122.913699795103113,7.568846710398954],[122.913518491149745,7.568846674468584],[122.913337187197456,7.568846638462719],[122.913337223318067,7.568665723919195],[122.913155919441976,7.568665687838812],[122.912974615566952,7.568665651683111],[122.912974651837857,7.568484737139765],[122.912793348039301,7.568484700909546],[122.912612044241456,7.568484664603832],[122.91261208066264,7.568303750060752],[122.912430776941449,7.568303713680609],[122.912249473221053,7.568303677224971],[122.912249509792332,7.568122762682157],[122.912068206148319,7.568122726152089],[122.912068242794476,7.567941811608654],[122.911886939227031,7.567941775004068],[122.911886975947695,7.567760860460012],[122.911705672456634,7.567760823780907],[122.911524368966454,7.567760787026308],[122.911524405837497,7.567579872482606],[122.911343102423885,7.567579835653578],[122.91134313936935,7.567398921109254],[122.91134317631402,7.567218006563421],[122.911161873052279,7.567217969660763],[122.911161910071556,7.567037055114308],[122.910980606886469,7.567037018137131],[122.910980643980352,7.566856103590054],[122.910799340871648,7.566856066538448],[122.910799378040139,7.56667515199075],[122.910618075008003,7.566675114864714],[122.9106181122511,7.566494200316394],[122.910436809295334,7.56649416311584],[122.910255506340462,7.56649412583988],[122.910074203386571,7.566494088488514],[122.910074165916811,7.566675003033992],[122.909892862888128,7.566674965606331],[122.909892825341984,7.566855880149499],[122.909711522238794,7.566855842645544],[122.909711484616082,7.567036757186314],[122.909530181438285,7.567036719606064],[122.909530143739104,7.567217634144437],[122.909530106038858,7.567398548681299],[122.909530068337816,7.567579463216652],[122.909530030635892,7.567760377750406],[122.909529992932889,7.567941292282828],[122.909529955229004,7.56812220681365],[122.909348651598947,7.568122169152576],[122.909348613818494,7.568303083681001],[122.909348576037345,7.568483998207916],[122.909348538255117,7.56866491273341],[122.909348500472007,7.568845827257305],[122.909529804404499,7.568845864922021],[122.909711108337873,7.56884590251133],[122.909892412272143,7.568845940025322],[122.910073716207293,7.568845977463819],[122.910255020143609,7.568846014826909],[122.910436324080621,7.568846052114593],[122.910617628018528,7.568846089326871],[122.910617665272639,7.568665174796581],[122.910798969136124,7.568665211932564],[122.910980273000305,7.56866524899323],[122.91098023589737,7.568846163525296],[122.911161539838119,7.568846200511355],[122.911161502809691,7.569027115042799],[122.911161465780467,7.569208029572823],[122.911161428750262,7.569388944101248],[122.910980124582764,7.569388907112525],[122.910980161688457,7.569207992584899],[122.910980198793354,7.569027078055853],[122.910798894777997,7.569027040993499],[122.910617590763536,7.569027003855651],[122.910436286750041,7.569026966642485],[122.910254982737257,7.569026929353913],[122.910073678725638,7.569026891989846],[122.910073641242903,7.569207806514451],[122.909892337156492,7.569207769074089],[122.909711033071147,7.56920773155841],[122.909529728986513,7.569207693967235],[122.909348424902944,7.569207656300743],[122.909167120820356,7.569207618558756],[122.90898581673865,7.569207580741362]],[[122.911342732918655,7.569388981014654],[122.911342695963057,7.569569895542457],[122.911524000207919,7.569569932381344],[122.911705304453676,7.569569969144736],[122.911886608700314,7.569570005832722],[122.912067912947833,7.569570042445302],[122.912067876293776,7.569750956975237],[122.912067839638652,7.569931871503662],[122.912067802982818,7.570112786030577],[122.912067766325919,7.570293700555982],[122.911886461776064,7.570293663939849],[122.911886498508451,7.570112749415332],[122.911886535239958,7.569931834889306],[122.911886571970669,7.569750920361769],[122.911705267648358,7.569750883672895],[122.911523963327113,7.569750846908526],[122.911342659006664,7.569750810068839],[122.911161354687195,7.569750773153657],[122.911161391719176,7.569569858628252],[122.911161428750262,7.569388944101248],[122.911342732918655,7.569388981014654]],[[122.911886425042781,7.570474578462945],[122.911886388308517,7.570655492984442],[122.911705083608283,7.570655456291127],[122.911705046797735,7.570836370810315],[122.911886351573457,7.570836407504518],[122.911886314837417,7.571017322022995],[122.912067619689623,7.57101735864268],[122.912067583028275,7.571198273160625],[122.912067546366046,7.571379187677059],[122.91188624136268,7.571379151055598],[122.911886278100496,7.571198236540051],[122.911704973173599,7.571198199844072],[122.911705009986107,7.571017285327904],[122.911523705135693,7.571017248557406],[122.911523742022894,7.570836334040616],[122.911523778909213,7.570655419522406],[122.911523815794553,7.570474505002596],[122.911705120418219,7.570474541770518],[122.911705157227175,7.570293627248311],[122.911886461776064,7.570293663939849],[122.911886425042781,7.570474578462945]]],[[[122.918957339871895,7.570295036083226],[122.919138644455515,7.570295069757978],[122.919138678164728,7.570114155199444],[122.91895737365661,7.570114121525491],[122.918776069149374,7.570114087776132],[122.918776035289085,7.570295002332979],[122.918957339871895,7.570295036083226]]],[[[122.916962816413502,7.57119923340371],[122.916962851033986,7.571018318862584],[122.916781546158077,7.571018284279403],[122.916600241283049,7.571018249620816],[122.91660020651149,7.571199164160254],[122.916781511462005,7.57119919881973],[122.916962816413502,7.57119923340371]]],[[[122.917325460788305,7.571018387802549],[122.917325426318982,7.571199302345362],[122.91750673127315,7.571199336703034],[122.917688036228014,7.5711993709853],[122.917688070546077,7.571018456440888],[122.917506765666786,7.571018422159422],[122.917325460788305,7.571018387802549]]],[[[122.915330577579994,7.57373172274461],[122.915330612892717,7.573550808232084],[122.915149306966271,7.573550772958167],[122.915149271577775,7.573731687469894],[122.915330577579994,7.57373172274461]]],[[[122.915874530677755,7.573550913601131],[122.915693224748551,7.57355087855361],[122.915693189586989,7.573731793067824],[122.915693154424446,7.573912707580617],[122.915693119261107,7.574093622091811],[122.915874425417158,7.574093657141908],[122.915874460504909,7.573912742629825],[122.91587449559178,7.573731828116233],[122.916055801597452,7.573731863089146],[122.916055836607754,7.573550948573245],[122.915874530677755,7.573550913601131]]],[[[122.920591330406594,7.557993142612125],[122.92059129735668,7.558174057277419],[122.92059126430587,7.558354971941202],[122.920591231254264,7.558535886603475],[122.920772530936375,7.558535919547611],[122.920772497959376,7.558716834209263],[122.920772464981667,7.558897748869316],[122.920953764815479,7.558897781739733],[122.920953731912377,7.559078696399165],[122.920953699008564,7.559259611057086],[122.921134998994077,7.559259643853784],[122.921316298980571,7.559259676575254],[122.921316331733479,7.559078761915734],[122.921497631645281,7.559078794561088],[122.92149766432189,7.558897879899258],[122.921678964159085,7.558897912468495],[122.921678996759496,7.558716997804445],[122.921679029359197,7.558536083138885],[122.921860329046098,7.558536115631294],[122.921860296521984,7.558717030297653],[122.922041596285183,7.558717062715455],[122.922222896049192,7.558717095058028],[122.9222229284224,7.55853618039007],[122.922404228111802,7.558536212656526],[122.922404260408811,7.558355297986348],[122.922222960794912,7.558355265720691],[122.922222993166613,7.558174351049803],[122.922223025537434,7.557993436377404],[122.922223057907445,7.557812521703496],[122.922223090276759,7.557631607028166],[122.922223102753321,7.557561872783678],[122.921284713809371,7.557728919645584],[122.920591350966944,7.557880592887183],[122.920591330406594,7.557993142612125]]]]}},
{"type":"Feature","properties":{"fid":213,"HAZ":3.0,"layer":"ZamboangaSibugay_StormSurge_SSA4","path":"/Users/jhannaroseverzo/Downloads/ZamboangaSibugay/ZamboangaSibugay_StormSurge_SSA4.shp","Risk Level":"High","fid_2":440,"SYSTRA ID":"440","DAR ID":"440","Target Year":"BUFFER A","Bridge Category":"Buffer List","Bridge Name":"DUMPOC BRIDGE","Coordinates Y":"7.60209","Coordinates X":"122.93012","Region":"IX","Province":"ZAMBOANGA SIBUGAY","ARC 2026":"","LINEAR METER IVF 2026":"","EIRR 2026":"","NEW/REPLACEMENT BRIDGE 2026":"","Visited by SYSTRA":"No","Selected for 2nd Visit of SYSTRA":"No","Final Funder":"No Funder","2023 IVF URL":"https://drive.google.com/open?id=1KguF2jB3vfTjLOec62x2yKB0bOiIfp4g","2026 IVF URL":"https://drive.google.com/open?id=1KguF2jB3vfTjLOec62x2yKB0bOiIfp4g"},"geometry":{"type":"MultiPolygon","coordinates":[[[[122.906267427297635,7.563779568624514],[122.906267388255799,7.563960483173189],[122.906448690132606,7.563960522094322],[122.906448651165377,7.564141436642465],[122.906448612197167,7.564322351189008],[122.906448573227891,7.564503265734042],[122.906448534257819,7.564684180277655],[122.906448495286682,7.564865094819758],[122.906629797542024,7.56486513367028],[122.906629758645678,7.565046048211761],[122.906629719748167,7.565226962751821],[122.906448417341835,7.565226923899433],[122.906448378367855,7.565407838437006],[122.906448339392895,7.56558875297307],[122.906448300417054,7.565769667507712],[122.906448261440232,7.565950582040755],[122.906629564148631,7.565950620896962],[122.906629525246416,7.566131535429473],[122.906810828031468,7.56613157421125],[122.90681078920386,7.566312488743228],[122.906810750375186,7.566493403273696],[122.906992053312294,7.566493441981932],[122.906992014558227,7.566674356511867],[122.90699197580328,7.566855271040292],[122.906991937047252,7.567036185567207],[122.906991898290343,7.567217100092612],[122.906991859532553,7.567398014616507],[122.906991820773683,7.567578929138981],[122.906810517383434,7.567578890425149],[122.906810478548095,7.567759804945136],[122.906810439711691,7.567940719463613],[122.906810400874491,7.568121633980581],[122.90681036203641,7.568302548496127],[122.906991665728995,7.568302587213689],[122.906991626965336,7.568483501728614],[122.906991588200881,7.568664416242117],[122.906810284357206,7.568664377522601],[122.906810245516098,7.568845292033617],[122.906810206674194,7.569026206543124],[122.906991510668945,7.569026245264506],[122.906991471901648,7.569207159773391],[122.906991433133186,7.569388074280854],[122.906991394363843,7.569568988786808],[122.906991355593703,7.569749903291252],[122.907172659891771,7.569749941940958],[122.907172698586507,7.569569027435537],[122.907354002809868,7.569569066008859],[122.907354041428135,7.56938815150104],[122.907535345576804,7.569388189997979],[122.907716649726723,7.569388228419601],[122.90771668819275,7.569207313908406],[122.907897992267792,7.569207352253644],[122.9080792963439,7.569207390523476],[122.908260600421073,7.569207428717813],[122.908260562181709,7.56938834323176],[122.908441866335266,7.569388381351756],[122.908623170489804,7.569388419396257],[122.908623208577907,7.569207504880445],[122.908804512657838,7.569207542848651],[122.90898581673865,7.569207580741362],[122.909167120820356,7.569207618558756],[122.909348424902944,7.569207656300743],[122.909529728986513,7.569207693967235],[122.909711033071147,7.56920773155841],[122.909892337156492,7.569207769074089],[122.910073641242903,7.569207806514451],[122.910073678725638,7.569026891989846],[122.910254982737257,7.569026929353913],[122.910436286750041,7.569026966642485],[122.910617590763536,7.569027003855651],[122.910798894777997,7.569027040993499],[122.910980198793354,7.569027078055853],[122.910980161688457,7.569207992584899],[122.910980124582764,7.569388907112525],[122.911161428750262,7.569388944101248],[122.911161465780467,7.569208029572823],[122.911161502809691,7.569027115042799],[122.911161539838119,7.568846200511355],[122.91098023589737,7.568846163525296],[122.910980273000305,7.56866524899323],[122.910798969136124,7.568665211932564],[122.910617665272639,7.568665174796581],[122.910617628018528,7.568846089326871],[122.910436324080621,7.568846052114593],[122.910255020143609,7.568846014826909],[122.910073716207293,7.568845977463819],[122.909892412272143,7.568845940025322],[122.909711108337873,7.56884590251133],[122.909529804404499,7.568845864922021],[122.909348500472007,7.568845827257305],[122.909348538255117,7.56866491273341],[122.909348576037345,7.568483998207916],[122.909348613818494,7.568303083681001],[122.909348651598947,7.568122169152576],[122.909529955229004,7.56812220681365],[122.909529992932889,7.567941292282828],[122.909530030635892,7.567760377750406],[122.909530068337816,7.567579463216652],[122.909530106038858,7.567398548681299],[122.909530143739104,7.567217634144437],[122.909530181438285,7.567036719606064],[122.909711484616082,7.567036757186314],[122.909711522238794,7.566855842645544],[122.909892825341984,7.566855880149499],[122.909892862888128,7.566674965606331],[122.910074165916811,7.566675003033992],[122.910074203386571,7.566494088488514],[122.910255506340462,7.56649412583988],[122.910436809295334,7.56649416311584],[122.9106181122511,7.566494200316394],[122.910618075008003,7.566675114864714],[122.910799378040139,7.56667515199075],[122.910799340871648,7.566856066538448],[122.910980643980352,7.566856103590054],[122.910980606886469,7.567037018137131],[122.911161910071556,7.567037055114308],[122.911161873052279,7.567217969660763],[122.91134317631402,7.567218006563421],[122.91134313936935,7.567398921109254],[122.911343102423885,7.567579835653578],[122.911524405837497,7.567579872482606],[122.911524368966454,7.567760787026308],[122.911705672456634,7.567760823780907],[122.911886975947695,7.567760860460012],[122.911886939227031,7.567941775004068],[122.912068242794476,7.567941811608654],[122.912068206148319,7.568122726152089],[122.912249509792332,7.568122762682157],[122.912249473221053,7.568303677224971],[122.912430776941449,7.568303713680609],[122.91261208066264,7.568303750060752],[122.912612044241456,7.568484664603832],[122.912793348039301,7.568484700909546],[122.912974651837857,7.568484737139765],[122.912974615566952,7.568665651683111],[122.913155919441976,7.568665687838812],[122.913337223318067,7.568665723919195],[122.913337187197456,7.568846638462719],[122.913518491149745,7.568846674468584],[122.913699795103113,7.568846710398954],[122.913881099057363,7.568846746254006],[122.914062403012409,7.568846782033563],[122.91424370696835,7.568846817737714],[122.914243671224668,7.569027732284169],[122.914424975257077,7.569027767913801],[122.914424939588102,7.569208682459545],[122.914424903918231,7.56938959700378],[122.914424868247394,7.569570511546593],[122.914424832575747,7.569751426087808],[122.914424796903219,7.569932340627601],[122.914424761229881,7.570113255165796],[122.914424725555577,7.57029416970257],[122.914243420994168,7.570294134066898],[122.914243385243296,7.570475048601273],[122.91406208060728,7.570475012889307],[122.914062044779939,7.570655927421373],[122.914062008951888,7.570836841951929],[122.91406197312304,7.571017756480976],[122.914061937293212,7.571198671008513],[122.914061901462404,7.571379585534539],[122.914061865630799,7.571560500059056],[122.914061829798314,7.571741414582152],[122.914061793965018,7.571922329103649],[122.914243099205791,7.571922364822544],[122.914424404447544,7.571922400465943],[122.914424368764628,7.572103314987706],[122.914605674082765,7.572103350556588],[122.914786979401782,7.572103386049974],[122.91496828472188,7.572103421467953],[122.915149590042674,7.572103456810527],[122.915330895364363,7.572103492077605],[122.915512200687033,7.572103527269276],[122.915693506010498,7.572103562385542],[122.91569354116433,7.571922647857739],[122.915693576317366,7.571741733328515],[122.915874881490467,7.571741768367597],[122.915874916567034,7.571560853836064],[122.915874951642706,7.571379939302932],[122.915874986717498,7.571199024768378],[122.916056291664546,7.571199059729479],[122.91623759661276,7.571199094615173],[122.916418901561684,7.571199129425461],[122.91660020651149,7.571199164160254],[122.916600241283049,7.571018249620816],[122.916781546158077,7.571018284279403],[122.916962851033986,7.571018318862584],[122.917144155910705,7.57101835337027],[122.917325460788305,7.571018387802549],[122.917506765666786,7.571018422159422],[122.917688070546077,7.571018456440888],[122.917688036228014,7.5711993709853],[122.917869341183774,7.57119940519216],[122.917869306940503,7.57138031973595],[122.918050611972646,7.571380353868203],[122.918231917005585,7.571380387925049],[122.918231882912679,7.571561302468928],[122.9184131880221,7.571561336451167],[122.918594493132403,7.571561370357911],[122.918775798243502,7.571561404189249],[122.918957103355311,7.571561437945092],[122.918957137145881,7.571380523397926],[122.919138442183183,7.571380557077563],[122.919138475897185,7.571199642528089],[122.919319780859695,7.571199676131431],[122.919501085822915,7.571199709659456],[122.919501119385046,7.571018795106784],[122.919501152946381,7.57083788055269],[122.919501186506821,7.570656965996998],[122.919501220066465,7.570476051439885],[122.919682524728245,7.570476084889218],[122.919863829390721,7.570476118263143],[122.920045134054092,7.570476151561574],[122.920045167386192,7.570295237000553],[122.920045200717482,7.570114322437933],[122.919863896205186,7.570114289141102],[122.919863929611267,7.56993337457786],[122.919863963016454,7.569752460013109],[122.919863996420844,7.569571545446848],[122.919682692136192,7.569571512077007],[122.919682725615189,7.569390597510036],[122.919501421407105,7.569390564065588],[122.919320117199632,7.569390530545735],[122.919320150828995,7.569209615978941],[122.91950145496088,7.569209649497995],[122.919501488514044,7.569028734928891],[122.919501522066227,7.568847820358189],[122.919682826047747,7.568847853800238],[122.919682859523547,7.568666939227316],[122.919682892998452,7.568486024652883],[122.919682926472746,7.56830511007703],[122.919864230228399,7.568305143441186],[122.919864263626124,7.568124228863023],[122.919864297023238,7.567943314283261],[122.919864330419273,7.56776239970199],[122.920045633949158,7.56776243298843],[122.920045667268809,7.567581518404938],[122.920226970723903,7.567581551615084],[122.920408274179891,7.567581584749912],[122.920408307347756,7.567400670163312],[122.920589610728868,7.567400703221934],[122.920770914110861,7.56740073620515],[122.92077094712667,7.567219821615441],[122.92095225043397,7.567219854522452],[122.921133553741981,7.567219887354145],[122.921133520877248,7.567400801945452],[122.921314824261643,7.567400834702538],[122.921496127646748,7.567400867384218],[122.921677431032833,7.567400899990491],[122.921677398393783,7.567581814582687],[122.921858701856166,7.567581847114353],[122.922040005319246,7.567581879570613],[122.922040037807221,7.567400964976819],[122.922221341195609,7.567400997356962],[122.922402644584892,7.567401029661698],[122.922583947974786,7.567401061891029],[122.922583980235203,7.567220147293415],[122.922765283550504,7.567220179446539],[122.922765251365576,7.567401094044953],[122.92294655475726,7.56740112612347],[122.923127858149641,7.56740115812667],[122.923127890183395,7.567220243526747],[122.922946586866502,7.567220211524346],[122.922946618975047,7.567039296923713],[122.922765315734623,7.567039264846705],[122.92276534791786,7.566858350245272],[122.922584044753734,7.566858318093746],[122.922584077011749,7.566677403491602],[122.922402773924006,7.566677371265381],[122.922402806256628,7.566496456662615],[122.922221503245268,7.566496424361786],[122.922221535652767,7.566315509758222],[122.922221568059555,7.566134595153236],[122.922040265199897,7.5661345627786],[122.921858962341133,7.566134530328557],[122.921677659483066,7.566134497803197],[122.921496356625894,7.56613446520243],[122.921315053769618,7.566134432526346],[122.921133750914038,7.566134399774767],[122.920952448059268,7.56613436694787],[122.920771145205293,7.566134334045656],[122.920771178215603,7.565953419445377],[122.920771211225016,7.565772504843678],[122.920589908522828,7.565772471867656],[122.920589941607119,7.565591557265246],[122.920408638981414,7.565591524214617],[122.920227336356405,7.565591491088582],[122.92022736959089,7.56541057648626],[122.92022740282448,7.565229661882518],[122.920227436057274,7.565048747277177],[122.920046133659739,7.565048714078222],[122.920046166967225,7.56486779947226],[122.919864864646073,7.564867766198698],[122.919864898028351,7.564686851592024],[122.919683595783482,7.564686818243945],[122.919683629240367,7.564505903636561],[122.919502327071982,7.564505870213874],[122.919502360603559,7.564324955605868],[122.919321058511457,7.564324922108663],[122.919321092117642,7.564144007499858],[122.919321125723116,7.563963092889632],[122.919321159327794,7.563782178277896],[122.919502461193403,7.563782211772614],[122.919502494721698,7.563601297158569],[122.919683796512516,7.56360133057717],[122.919683829964427,7.563420415960816],[122.919683863415628,7.563239501342951],[122.919865165056166,7.563239534684636],[122.920046466697784,7.563239567950915],[122.920046499997014,7.563058653329942],[122.920046533295533,7.562877738707459],[122.920227834786772,7.562877771896733],[122.920227868008908,7.562696857272029],[122.920227901230248,7.562515942645727],[122.920409202571292,7.562515975758173],[122.920590503913232,7.562516008795213],[122.920590536982786,7.562335094165802],[122.920590570051445,7.56215417953497],[122.920409268860581,7.562154146499529],[122.920227967670428,7.562154113388771],[122.92004666648117,7.562154080202606],[122.920046699775511,7.561973165572662],[122.919865398662552,7.561973132311979],[122.919865432031585,7.561792217681325],[122.919865465399738,7.56161130304925],[122.91986549876718,7.561430388415576],[122.919684197881594,7.561430355081973],[122.919502896996704,7.561430321673142],[122.919502863478272,7.561611236305128],[122.919321562518874,7.561611202820091],[122.919321528924144,7.561792117449769],[122.919140227890054,7.561792083888615],[122.919140194219025,7.561972998515983],[122.918958893110144,7.561972964878712],[122.918777592002158,7.561972931166035],[122.918596290894868,7.56197289737804],[122.918596256996651,7.5621538120015],[122.918414955814853,7.5621537781373],[122.918233654633852,7.562153744197782],[122.918052353453646,7.562153710182947],[122.918052387578527,7.561972795561974],[122.917871086474619,7.56197276147262],[122.917689785371692,7.561972727307949],[122.917689819646768,7.561791812687065],[122.917689853920862,7.561610898064759],[122.917689888194062,7.561429983440944],[122.91768992246665,7.561249068815619],[122.917508621666499,7.561249034578917],[122.91750865601351,7.561068119952881],[122.917327355289743,7.561068085641661],[122.917327389711545,7.560887171015003],[122.917327424132452,7.560706256386836],[122.917327458552478,7.560525341757159],[122.917327492971609,7.560344427125972],[122.917327527389943,7.560163512493363],[122.917508827736413,7.56016354680041],[122.917508862078364,7.559982632165403],[122.917690162350226,7.559982666396333],[122.917690196615979,7.559801751759017],[122.917871496813049,7.559801785913741],[122.918052797011015,7.559801819993235],[122.918052831125067,7.559620905352811],[122.918234131248425,7.5596209393561],[122.91841543137258,7.559620973284072],[122.91859673149763,7.559621007136815],[122.918778031623475,7.559621040914151],[122.918959331750202,7.559621074616259],[122.919140631877738,7.55962110824296],[122.919321932006071,7.559621141794433],[122.919321965590854,7.559440227146726],[122.919321999174826,7.559259312497598],[122.919322032757918,7.559078397846871],[122.919322066340214,7.558897483194722],[122.919322099921615,7.558716568541064],[122.919322133502405,7.558535653885897],[122.919322167082115,7.558354739229308],[122.919322200661213,7.55817382457112],[122.91950350018665,7.558173858040791],[122.919503510099659,7.558120327781601],[122.917824000124455,7.55855732533469],[122.916120746810975,7.559072550213969],[122.914439073016695,7.559654098649183],[122.912781571083215,7.560301074184916],[122.91115079612355,7.561012479507141],[122.909549262086287,7.561787217979381],[122.907979437882801,7.562624095331803],[122.906443743583736,7.563521821500768],[122.906267458630154,7.563634374022759],[122.906267427297635,7.563779568624514]],[[122.918233007536983,7.565591121727951],[122.918051704922021,7.565591087697483],[122.918051739062804,7.565410173104932],[122.918233041602178,7.5654102071346],[122.918233007536983,7.565591121727951]],[[122.918595544938512,7.565953018748302],[122.918595578854308,7.565772104156284],[122.918595612769408,7.565591189562844],[122.918776915386857,7.565591223367181],[122.918958218005201,7.565591257096201],[122.919139520624341,7.565591290749725],[122.919139486935904,7.56577220534574],[122.919139453246586,7.565953119940157],[122.919139419556558,7.566134034533152],[122.919139385865648,7.566314949124638],[122.918958082944343,7.566314915467738],[122.918776780023848,7.566314881735521],[122.918776746181052,7.566495796323898],[122.918595443185765,7.566495762515387],[122.918414140191459,7.566495728631558],[122.918414174185429,7.566314814044868],[122.918414208178504,7.566133899456669],[122.918595511021636,7.566133933338899],[122.918595544938512,7.565953018748302]],[[122.920408440010974,7.566677011801811],[122.920227136932823,7.566676978670979],[122.920227170172183,7.566496064077628],[122.92040847317466,7.56649609720766],[122.920408440010974,7.566677011801811]],[[122.918776035289085,7.570295002332979],[122.918776069149374,7.570114087776132],[122.91895737365661,7.570114121525491],[122.919138678164728,7.570114155199444],[122.919138644455515,7.570295069757978],[122.918957339871895,7.570295036083226],[122.918776035289085,7.570295002332979]]],[[[122.912067839638652,7.569931871503662],[122.912067876293776,7.569750956975237],[122.912067912947833,7.569570042445302],[122.911886608700314,7.569570005832722],[122.911705304453676,7.569569969144736],[122.911524000207919,7.569569932381344],[122.911342695963057,7.569569895542457],[122.911342732918655,7.569388981014654],[122.911161428750262,7.569388944101248],[122.911161391719176,7.569569858628252],[122.911161354687195,7.569750773153657],[122.911342659006664,7.569750810068839],[122.911523963327113,7.569750846908526],[122.911705267648358,7.569750883672895],[122.911886571970669,7.569750920361769],[122.911886535239958,7.569931834889306],[122.911886498508451,7.570112749415332],[122.911886461776064,7.570293663939849],[122.912067766325919,7.570293700555982],[122.912067802982818,7.570112786030577],[122.912067839638652,7.569931871503662]]],[[[122.920226405460866,7.570657099344998],[122.920045100721111,7.570657066121174],[122.92004506738742,7.570837980679175],[122.920226372202848,7.570838013903887],[122.920407677018986,7.570838047053104],[122.920407710201516,7.570657132493415],[122.920226405460866,7.570657099344998]]],[[[122.912067546366046,7.571379187677059],[122.912067583028275,7.571198273160625],[122.912067619689623,7.57101735864268],[122.911886314837417,7.571017322022995],[122.911886351573457,7.570836407504518],[122.911705046797735,7.570836370810315],[122.911705083608283,7.570655456291127],[122.911886388308517,7.570655492984442],[122.911886425042781,7.570474578462945],[122.911886461776064,7.570293663939849],[122.911705157227175,7.570293627248311],[122.911705120418219,7.570474541770518],[122.911523815794553,7.570474505002596],[122.911523778909213,7.570655419522406],[122.911523742022894,7.570836334040616],[122.911523705135693,7.571017248557406],[122.911705009986107,7.571017285327904],[122.911704973173599,7.571198199844072],[122.911886278100496,7.571198236540051],[122.91188624136268,7.571379151055598],[122.912067546366046,7.571379187677059]]]]}}
]
}
