{
"type": "FeatureCollection",
"name": "SYSTRA ID_252",
"crs": { "type": "name", "properties": { "name": "urn:ogc:def:crs:OGC:1.3:CRS84" } },
"xy_coordinate_resolution": 1e-15,
"features": [
{"type":"Feature","properties":{"fid":49,"HAZ":1.0,"layer":"Capiz_StormSurge_SSA4","path":"/Users/jhannaroseverzo/Downloads/Capiz/Capiz_StormSurge_SSA4.shp","Risk Level":"Low","fid_2":252,"SYSTRA ID":"252","DAR ID":"205","Target Year":"2028","Bridge Category":"Original List","Bridge Name":"SITIO KATAMNAN BRIDGE","Coordinates Y":"11.475417","Coordinates X":"122.707972","Region":"VI","Province":"CAPIZ","ARC 2026":"PAMACO ARC","LINEAR METER IVF 2026":"20","EIRR 2026":"0.5","NEW/REPLACEMENT BRIDGE 2026":"new","Visited by SYSTRA":"No","Selected for 2nd Visit of SYSTRA":"No","Final Funder":"Trésor","2023 IVF URL":"","2026 IVF URL":"https://docs.google.com/spreadsheets/u/1/d/1q80_0ln0ICRUwDKwRP41xHg4rM3gKcw8/edit"},"geometry":{"type":"MultiPolygon","coordinates":[[[[122.687851351123626,11.514251991004487],[122.688034750313591,11.514252187644081],[122.688034949641263,11.514071316459384],[122.687851550568539,11.514071119822988],[122.687668151499182,11.51407092307104],[122.687484752433207,11.514070726203451],[122.687484952109031,11.513889855026127],[122.687301553163579,11.513889658046184],[122.687118154221409,11.513889460950688],[122.686934755282621,11.513889263739641],[122.686751356347202,11.51388906641313],[122.686567957415164,11.513888868970978],[122.686568157673548,11.513707997807154],[122.686384758861948,11.513707800252648],[122.686384558486409,11.513888671413275],[122.686384358107404,11.514069542571592],[122.686567757153313,11.514069740132404],[122.68675115620259,11.514069937577753],[122.686934555255164,11.51407013490755],[122.687117954311191,11.514070332121795],[122.687301353370515,11.514070529220399],[122.687301153574069,11.514251400392395],[122.687484552753901,11.514251597378644],[122.687667951937129,11.514251794249342],[122.687851351123626,11.514251991004487]]],[[[122.68895174631308,11.514253169108501],[122.688951945054995,11.514072297907996],[122.688768545965573,11.51407210184936],[122.688585146879433,11.514071905675261],[122.688584947903308,11.51425277686946],[122.688401548703396,11.514252580576523],[122.68840134960665,11.514433451765305],[122.688584748923716,11.514433648061351],[122.688768148244165,11.514433844241845],[122.688768347106503,11.514252973046757],[122.68895174631308,11.514253169108501]]],[[[122.686016556908754,11.514973502829173],[122.686199956533841,11.514973700637166],[122.686200157046869,11.514792829493237],[122.686016757538937,11.514792631688442],[122.686016556908754,11.514973502829173]]],[[[122.686016556908754,11.514973502829173],[122.685833157287135,11.514973304905629],[122.685833119523906,11.515007328585865],[122.686016411927199,11.515104203757588],[122.686016556908754,11.514973502829173]]],[[[122.688400752296545,11.51497606531815],[122.688400951403224,11.514795194136118],[122.688217551855146,11.514794997718214],[122.688034152310351,11.514794801184669],[122.688033952969278,11.514975672360395],[122.688033753624822,11.515156543533811],[122.688033554277084,11.515337414705007],[122.688216954173413,11.515337611248055],[122.688400354073039,11.515337807675463],[122.688400154956312,11.515518678850745],[122.68858355497656,11.515518875165798],[122.688766955000077,11.515519071365299],[122.688950355026975,11.515519267449159],[122.689133755057156,11.515519463417467],[122.68931715509072,11.515519659270224],[122.689317353621519,11.515338788079132],[122.689133953705195,11.515338592229574],[122.689134152349851,11.515157721039371],[122.689134350991125,11.514976849846947],[122.688950951312492,11.514976653888143],[122.688950752553964,11.515157525077369],[122.68876735276146,11.515157328999814],[122.688583952972238,11.515157132806619],[122.688400553186483,11.515156936497961],[122.688217153404011,11.515156740073662],[122.688217352631213,11.514975868897048],[122.688400752296545,11.51497606531815]]],[[[122.69096578059937,11.51733012881464],[122.690965978108579,11.517149257617687],[122.690966175614491,11.516968386418514],[122.69096637311705,11.516787515217031],[122.690966570616311,11.516606644013327],[122.690966768112276,11.516425772807404],[122.690966965604886,11.516244901599171],[122.6909671630942,11.516064030388717],[122.690967360580217,11.515883159176044],[122.69096755806288,11.515702287961149],[122.690784157882234,11.51570209314543],[122.690600757704871,11.515701898214159],[122.690600559987828,11.515882769422836],[122.690417159696608,11.515882574372815],[122.69023375940877,11.515882379207243],[122.690050359124214,11.515882183926118],[122.690050161052255,11.516063055123071],[122.689866760653743,11.516062859723197],[122.689866958842941,11.515881988529353],[122.689683558565036,11.515881793017035],[122.689683756868106,11.515700921824168],[122.689500356710639,11.515700726199407],[122.689500555127566,11.515519855007428],[122.68931715509072,11.515519659270224],[122.689316956556638,11.515700530459094],[122.689316758019189,11.515881401645656],[122.689500158290429,11.515881597389166],[122.689499959866836,11.516062468576616],[122.689499761439961,11.516243339761933],[122.689683161948878,11.516243535396109],[122.68968296363586,11.516424406582315],[122.689866364265399,11.516424602104047],[122.689866166066253,11.516605473291142],[122.690049566816299,11.516605668700519],[122.690049764898205,11.516424797510227],[122.690233165534394,11.516424992800856],[122.690233363495864,11.516244121605235],[122.690416764018096,11.516244316777113],[122.690416961859043,11.516063445576075],[122.690600362267418,11.516063640629204],[122.69078376267916,11.516063835566781],[122.690783565072607,11.516244706774126],[122.690783367462771,11.516425577979161],[122.690783169849638,11.516606449181976],[122.690782972233237,11.516787320382482],[122.690599571352706,11.516787125432382],[122.690599373615683,11.516967996627558],[122.690599175875363,11.517148867820426],[122.690599055997609,11.517258517043807],[122.690965703765187,11.517400489370246],[122.69096578059937,11.51733012881464]]],[[[122.694816036950883,11.518419421363157],[122.694999438962071,11.518419613682651],[122.694999633912261,11.518238742430542],[122.694816232018312,11.518238550114157],[122.694816036950883,11.518419421363157]]],[[[122.694816036950883,11.518419421363157],[122.694632634942991,11.518419228928112],[122.69463243975504,11.518600100171783],[122.694815841880256,11.518600292609937],[122.694816036950883,11.518419421363157]]],[[[122.69463243975504,11.518600100171783],[122.694449037633191,11.518599907617988],[122.694449021954611,11.518614427239006],[122.694632364875346,11.518669486425285],[122.69463243975504,11.518600100171783]]]]}},
{"type":"Feature","properties":{"fid":50,"HAZ":2.0,"layer":"Capiz_StormSurge_SSA4","path":"/Users/jhannaroseverzo/Downloads/Capiz/Capiz_StormSurge_SSA4.shp","Risk Level":"Medium","fid_2":252,"SYSTRA ID":"252","DAR ID":"205","Target Year":"2028","Bridge Category":"Original List","Bridge Name":"SITIO KATAMNAN BRIDGE","Coordinates Y":"11.475417","Coordinates X":"122.707972","Region":"VI","Province":"CAPIZ","ARC 2026":"PAMACO ARC","LINEAR METER IVF 2026":"20","EIRR 2026":"0.5","NEW/REPLACEMENT BRIDGE 2026":"new","Visited by SYSTRA":"No","Selected for 2nd Visit of SYSTRA":"No","Final Funder":"Trésor","2023 IVF URL":"","2026 IVF URL":"https://docs.google.com/spreadsheets/u/1/d/1q80_0ln0ICRUwDKwRP41xHg4rM3gKcw8/edit"},"geometry":{"type":"MultiPolygon","coordinates":[[[[122.690599175875363,11.517148867820426],[122.690599373615683,11.516967996627558],[122.690599571352706,11.516787125432382],[122.690782972233237,11.516787320382482],[122.690783169849638,11.516606449181976],[122.690783367462771,11.516425577979161],[122.690783565072607,11.516244706774126],[122.69078376267916,11.516063835566781],[122.690600362267418,11.516063640629204],[122.690416961859043,11.516063445576075],[122.690416764018096,11.516244316777113],[122.690233363495864,11.516244121605235],[122.690233165534394,11.516424992800856],[122.690049764898205,11.516424797510227],[122.690049566816299,11.516605668700519],[122.689866166066253,11.516605473291142],[122.689866364265399,11.516424602104047],[122.68968296363586,11.516424406582315],[122.689683161948878,11.516243535396109],[122.689499761439961,11.516243339761933],[122.689499959866836,11.516062468576616],[122.689500158290429,11.515881597389166],[122.689316758019189,11.515881401645656],[122.689316956556638,11.515700530459094],[122.68931715509072,11.515519659270224],[122.689133755057156,11.515519463417467],[122.688950355026975,11.515519267449159],[122.688766955000077,11.515519071365299],[122.68858355497656,11.515518875165798],[122.688400154956312,11.515518678850745],[122.688400354073039,11.515337807675463],[122.688216954173413,11.515337611248055],[122.688033554277084,11.515337414705007],[122.688033753624822,11.515156543533811],[122.688033952969278,11.514975672360395],[122.688034152310351,11.514794801184669],[122.688217551855146,11.514794997718214],[122.688400951403224,11.514795194136118],[122.688584350954685,11.514795390438559],[122.688767750509513,11.514795586625359],[122.68876794937853,11.514614715434712],[122.688768148244165,11.514433844241845],[122.688584748923716,11.514433648061351],[122.68840134960665,11.514433451765305],[122.688401548703396,11.514252580576523],[122.688584947903308,11.51425277686946],[122.688585146879433,11.514071905675261],[122.68840174779676,11.51407170938552],[122.688218348717371,11.514071512980228],[122.688034949641263,11.514071316459384],[122.688034750313591,11.514252187644081],[122.687851351123626,11.514251991004487],[122.687667951937129,11.514251794249342],[122.687484552753901,11.514251597378644],[122.687301153574069,11.514251400392395],[122.687301353370515,11.514070529220399],[122.687117954311191,11.514070332121795],[122.686934555255164,11.51407013490755],[122.68675115620259,11.514069937577753],[122.686567757153313,11.514069740132404],[122.686384358107404,11.514069542571592],[122.686384157725115,11.5142504137276],[122.686383957339459,11.514431284881477],[122.68638375695042,11.514612156033044],[122.68620035755643,11.514611958347087],[122.686200157046869,11.514792829493237],[122.686199956533841,11.514973700637166],[122.686016556908754,11.514973502829173],[122.686016411927199,11.515104203757588],[122.686932875856513,11.515588580627224],[122.686932954915036,11.515517104169737],[122.68711635490854,11.515517301409384],[122.687116169087957,11.515685399396274],[122.688734069989337,11.51646145999317],[122.690382810975279,11.517174783249102],[122.690599055997609,11.517258517043807],[122.690599175875363,11.517148867820426]]]]}},
{"type":"Feature","properties":{"fid":51,"HAZ":3.0,"layer":"Capiz_StormSurge_SSA4","path":"/Users/jhannaroseverzo/Downloads/Capiz/Capiz_StormSurge_SSA4.shp","Risk Level":"High","fid_2":252,"SYSTRA ID":"252","DAR ID":"205","Target Year":"2028","Bridge Category":"Original List","Bridge Name":"SITIO KATAMNAN BRIDGE","Coordinates Y":"11.475417","Coordinates X":"122.707972","Region":"VI","Province":"CAPIZ","ARC 2026":"PAMACO ARC","LINEAR METER IVF 2026":"20","EIRR 2026":"0.5","NEW/REPLACEMENT BRIDGE 2026":"new","Visited by SYSTRA":"No","Selected for 2nd Visit of SYSTRA":"No","Final Funder":"Trésor","2023 IVF URL":"","2026 IVF URL":"https://docs.google.com/spreadsheets/u/1/d/1q80_0ln0ICRUwDKwRP41xHg4rM3gKcw8/edit"},"geometry":{"type":"MultiPolygon","coordinates":[[[[122.686932954915036,11.515517104169737],[122.686932875856513,11.515588580627224],[122.687115005678805,11.515684841342313],[122.687116169087957,11.515685399396274],[122.68711635490854,11.515517301409384],[122.686932954915036,11.515517104169737]]]]}}
]
}
