{
"type": "FeatureCollection",
"name": "SYSTRA ID_104",
"crs": { "type": "name", "properties": { "name": "urn:ogc:def:crs:OGC:1.3:CRS84" } },
"xy_coordinate_resolution": 1e-15,
"features": [
{"type":"Feature","properties":{"fid":43,"HAZ":1.0,"layer":"CamarinesSur_StormSurge_SSA4","path":"/Users/jhannaroseverzo/Downloads/CamarinesSur/CamarinesSur_StormSurge_SSA4.shp","Risk Level":"Low","fid_2":104,"SYSTRA ID":"104","DAR ID":"156","Target Year":"2027","Bridge Category":"Original List","Bridge Name":"CAMUNING BRIDGE","Coordinates Y":"13.706556","Coordinates X":"123.290433","Region":"V","Province":"CAMARINES SUR","ARC 2026":"CAMUNING ARC","LINEAR METER IVF 2026":"29","EIRR 2026":"0.18","NEW/REPLACEMENT BRIDGE 2026":"new","Visited by SYSTRA":"Yes","Selected for 2nd Visit of SYSTRA":"No","Final Funder":"Buffer AFD","2023 IVF URL":"https://drive.google.com/open?id=1VHN8XUvMKD17qkB9o5h7M3RYmSHN0ksy","2026 IVF URL":"https://docs.google.com/spreadsheets/u/0/d/17TxGEoE3AthaM8Wz8UPbv4VpYBtT2JOq/edit"},"geometry":{"type":"MultiPolygon","coordinates":[[[[123.250245338273189,13.728914942759381],[123.250285710168171,13.72898212133283],[123.250285638883028,13.72891490192916],[123.250245338273189,13.728914942759381]]],[[[123.258619054120544,13.737225058129136],[123.258619252410895,13.737405900095338],[123.258804243386948,13.737405706181475],[123.258804044954658,13.737224864217938],[123.258619054120544,13.737225058129136]]],[[[123.258249072443604,13.737225445535598],[123.258249270450364,13.73740628750704],[123.2584342614321,13.737406093870467],[123.258434063283488,13.737225251901689],[123.258249072443604,13.737225445535598]]],[[[123.257880079399214,13.738130042244604],[123.257880277136593,13.738310884208142],[123.258065268833221,13.738310690835712],[123.258065070954004,13.73812984887484],[123.257880079399214,13.738130042244604]]],[[[123.259916979450509,13.739936326774464],[123.259917178776931,13.740117168682312],[123.260102171860623,13.740116973757969],[123.260101972392278,13.739936131852785],[123.259916979450509,13.739936326774464]]],[[[123.25991737810628,13.740298010587496],[123.259917577438472,13.740478852490016],[123.259917617883744,13.740515545478241],[123.260083716503772,13.740659519535072],[123.260102770282828,13.740659499457623],[123.260102570805856,13.740478657560343],[123.260102371331726,13.740297815660488],[123.25991737810628,13.740298010587496]]],[[[123.261767711736155,13.740657738825449],[123.2617679124929,13.740838580695995],[123.261952906115098,13.740838384374014],[123.261952705216515,13.740657542506222],[123.261767711736155,13.740657738825449]]],[[[123.260657950698686,13.74083975571501],[123.260842944338293,13.740839560225163],[123.26084274429094,13.740658718341296],[123.260657750793257,13.740658913828389],[123.260657950698686,13.74083975571501]]],[[[123.261583119485422,13.741019618749787],[123.261768113252401,13.741019422563875],[123.2617679124929,13.740838580695995],[123.261582918867674,13.740838776879153],[123.261583119485422,13.741019618749787]]],[[[123.261583320106013,13.741200460617668],[123.261583520729531,13.741381302482884],[123.26158372135589,13.741562144345524],[123.26176871554857,13.741561948151618],[123.261768514780272,13.741381106291643],[123.261768314014915,13.741200264429091],[123.261583320106013,13.741200460617668]]],[[[123.268798905029968,13.741916073512476],[123.268799111198646,13.742096915261252],[123.268984105702273,13.742096713649813],[123.268983899391756,13.741915871903791],[123.268798905029968,13.741916073512476]]],[[[123.262879083891264,13.741922451754943],[123.262694089432216,13.74192264878649],[123.262694290918688,13.742103490625061],[123.262879285519574,13.74210329359085],[123.262879083891264,13.741922451754943]]],[[[123.262694492408002,13.742284332460967],[123.262694290918688,13.742103490625061],[123.262509296314875,13.742103687520538],[123.26250949766235,13.742284529359198],[123.262694492408002,13.742284332460967]]],[[[123.261860468171676,13.742104376974819],[123.261954389639826,13.742173720426527],[123.261954312486111,13.742104277374837],[123.261860468171676,13.742104376974819]]],[[[123.266209392020343,13.742280565041435],[123.266024397330384,13.74228076457498],[123.266024601376586,13.74246160635955],[123.266209596208483,13.742461406823251],[123.266394591037454,13.742461207148219],[123.266394386707475,13.742280365369156],[123.266209392020343,13.742280565041435]]],[[[123.265284418540759,13.742281561322271],[123.265284622019507,13.742462403117676],[123.265469616863214,13.742462204136222],[123.265469413242627,13.742281362343482],[123.265284418540759,13.742281561322271]]],[[[123.266764580686583,13.742460807382043],[123.266764785303351,13.742641649153024],[123.266949780265378,13.742641449059215],[123.266949575506672,13.7424606072909],[123.266764580686583,13.742460807382043]]],[[[123.264914632323297,13.74246280066456],[123.264729637470793,13.742462999229902],[123.264729840526755,13.742643841030814],[123.264914835521196,13.742643642462719],[123.264914632323297,13.74246280066456]]],[[[123.263434673421287,13.742464385303647],[123.263434875484009,13.742645227123477],[123.263619870498871,13.742645029526338],[123.263619668294311,13.742464187709173],[123.263434673421287,13.742464385303647]]],[[[123.262509699012668,13.742465371195104],[123.262509830884994,13.742583809982373],[123.262594230425307,13.742646123269866],[123.262694895395342,13.742646016124874],[123.262694693900244,13.742465174294209],[123.262509699012668,13.742465371195104]]],[[[123.268614734790106,13.742639641972557],[123.268614940828769,13.742820483713428],[123.268799935903047,13.74282028222971],[123.26879972972246,13.742639440491592],[123.268614734790106,13.742639641972557]]],[[[123.264730043585658,13.742824682829061],[123.264729840526755,13.742643841030814],[123.2645448455294,13.742644039460176],[123.264545048446365,13.742824881261177],[123.264730043585658,13.742824682829061]]],[[[123.263804865510892,13.742644831790555],[123.263619870498871,13.742645029526338],[123.26362007270636,13.742825871340839],[123.263805067860233,13.742825673602303],[123.263990063011164,13.742825475725121],[123.263989860519885,13.742644633916038],[123.263804865510892,13.742644831790555]]],[[[123.268430151651287,13.743001526799462],[123.268615146870431,13.743001325451724],[123.268614940828769,13.742820483713428],[123.268429945751549,13.742820685058414],[123.268430151651287,13.743001526799462]]],[[[123.266949985026997,13.742822290824778],[123.266950189791558,13.743003132587676],[123.267135185034419,13.743002932349627],[123.267134980127935,13.742822090589483],[123.266949985026997,13.742822290824778]]],[[[123.264545251366357,13.743005723059424],[123.264545048446365,13.742824881261177],[123.26436005330423,13.74282507955447],[123.264175058159154,13.742825277709118],[123.263990063011164,13.742825475725121],[123.263990265505441,13.74300631753154],[123.264175260795284,13.743006119512872],[123.264360256082284,13.743005921355559],[123.264545251366357,13.743005723059424]]],[[[123.268430357554053,13.743182368537758],[123.268430151651287,13.743001526799462],[123.268245156429217,13.743001728008467],[123.268245362190044,13.743182569749605],[123.268430357554053,13.743182368537758]]],[[[123.267690170745141,13.743002330803259],[123.267505175511261,13.743002531457419],[123.267505380704449,13.74318337320957],[123.267690376080353,13.743183172552568],[123.267875371453243,13.74318297175701],[123.267875165976193,13.743002130010366],[123.267690170745141,13.743002330803259]]],[[[123.267320385325618,13.74318357372775],[123.267320180274254,13.743002731972934],[123.267135185034419,13.743002932349627],[123.267135389943846,13.743183774107196],[123.267320385325618,13.74318357372775]]],[[[123.268985343628216,13.743181764070171],[123.268985549959524,13.74336260579763],[123.269170545453562,13.743362404028185],[123.269170338980231,13.743181562303567],[123.268985343628216,13.743181764070171]]],[[[123.26954094995574,13.743723683503765],[123.269541156721814,13.743904525214971],[123.269726152632586,13.743904323021154],[123.269725945724574,13.743723481312701],[123.269725738819602,13.743542639601584],[123.269540743192692,13.743542841789806],[123.26954094995574,13.743723683503765]]],[[[123.269356780698473,13.744447252396123],[123.269541777037873,13.744447050332779],[123.26954157026293,13.744266208629478],[123.26935657406537,13.744266410690068],[123.269356780698473,13.744447252396123]]],[[[123.268801585454824,13.744267016039617],[123.268801791662142,13.744447857753931],[123.268986788010608,13.744447656106699],[123.268986581661267,13.744266814395138],[123.268801585454824,13.744267016039617]]],[[[123.278414551046112,13.738469414985092],[123.278414764534261,13.738650256638477],[123.278599756184889,13.738650047868765],[123.278599542554886,13.738469206218221],[123.278414551046112,13.738469414985092]]],[[[123.278784747832304,13.738649838960319],[123.278784961607258,13.738830680605355],[123.278969953393599,13.738830471555511],[123.278969739476707,13.738649629913317],[123.278784747832304,13.738649838960319]]],[[[123.279525143079198,13.73901068520467],[123.279525357427744,13.739191526833009],[123.279710349485327,13.739191317222636],[123.279710134994943,13.739010475597228],[123.279525143079198,13.73901068520467]]],[[[123.278785389166401,13.739192363887524],[123.278970381236334,13.739192154831906],[123.278970167313418,13.739011313194952],[123.278785175385323,13.739011522247727],[123.278785389166401,13.739192363887524]]],[[[123.279895770813567,13.739552790710844],[123.280080763148703,13.739552580817497],[123.280080548368332,13.739371739203103],[123.279895556175134,13.739371949093607],[123.279895770813567,13.739552790710844]]],[[[123.280267045078773,13.740637420398953],[123.280267260022569,13.740818261991942],[123.280452253344563,13.740818051801055],[123.280452038258829,13.740637210210997],[123.280267045078773,13.740637420398953]]],[[[123.279897273369343,13.740818681957515],[123.279897488032645,13.740999523553613],[123.280082481502617,13.740999313637262],[123.280082266697548,13.740818472044095],[123.279897273369343,13.740818681957515]]],[[[123.27860402943287,13.74226688032301],[123.278604243127702,13.742447721917864],[123.278789237754438,13.742447512949555],[123.278789023917753,13.742266671357543],[123.27860402943287,13.74226688032301]]],[[[123.271944434525423,13.742455152399339],[123.272129429261923,13.742454948424458],[123.272129220533344,13.742274106730838],[123.271944225938583,13.742274310702966],[123.271944434525423,13.742455152399339]]],[[[123.271389658461757,13.742636605193907],[123.271574653349248,13.742636401632383],[123.271574445043257,13.742455559933079],[123.27138945029769,13.742455763491849],[123.271389658461757,13.742636605193907]]],[[[123.28063939911047,13.742626257198202],[123.280639614372319,13.742807098756286],[123.280824609248796,13.74280688825649],[123.280824393845108,13.742626046701249],[123.28063939911047,13.742626257198202]]],[[[123.278234467279006,13.742628981036335],[123.278234680696201,13.742809822631633],[123.278419675612923,13.742809613935018],[123.27841946205389,13.742628772342561],[123.278234467279006,13.742628981036335]]],[[[123.272684622610825,13.742635177350108],[123.272684831771159,13.74281601903005],[123.272869826779441,13.742815814494728],[123.272869617477184,13.742634972817539],[123.272684622610825,13.742635177350108]]],[[[123.278974660344517,13.742808987012948],[123.278974874332363,13.742989828594125],[123.278975088323321,13.743170670172725],[123.279160083511471,13.74317046091558],[123.279345078696508,13.743170251519702],[123.279345292974341,13.743351093089865],[123.27953028829829,13.743350883552411],[123.279530502721087,13.743531725117156],[123.279715498183762,13.743531515438127],[123.279715283619041,13.743350673876312],[123.279715069057431,13.743169832311834],[123.279530073878519,13.74317004198509],[123.27952985946186,13.742989200415105],[123.279344864421773,13.742989409946786],[123.279344650150151,13.742808568371293],[123.27915965524889,13.742808777761487],[123.279159441122218,13.7426279361804],[123.278974446359769,13.742628145429018],[123.278974232378147,13.742447303842512],[123.278789237754438,13.742447512949555],[123.278789451594221,13.742628354538903],[123.278789665437117,13.742809196125675],[123.278974660344517,13.742808987012948]]],[[[123.277865117129608,13.743171922802725],[123.277865330272178,13.743352764395803],[123.278050325620825,13.743352555968039],[123.278050112336231,13.743171714377892],[123.277865117129608,13.743171922802725]]],[[[123.271205287655931,13.743179333715497],[123.27120549569014,13.743360175409739],[123.27139049114821,13.743359971975758],[123.271390282972064,13.74317913028427],[123.271205287655931,13.743179333715497]]],[[[123.279715498183762,13.743531515438127],[123.279715712751596,13.743712356997277],[123.279900708353011,13.743712147176671],[123.279900493643339,13.743531305620364],[123.279715498183762,13.743531515438127]]],[[[123.272870873336061,13.743720022840614],[123.273055869050808,13.743719818152615],[123.27305565959152,13.743538976491502],[123.272870664018697,13.743539181176748],[123.272870873336061,13.743720022840614]]],[[[123.280271344545952,13.744254251755232],[123.280271129543181,13.744073410212513],[123.280086133664028,13.744073620316358],[123.280085918806208,13.743892778768222],[123.280085703951414,13.743711937217332],[123.279900708353011,13.743712147176671],[123.279900923065881,13.743892988730403],[123.279901137781863,13.744073830281382],[123.279901352500858,13.744254671829784],[123.280086348524961,13.74425446186183],[123.280271344545952,13.744254251755232]]],[[[123.271021123924029,13.743902903780251],[123.271021331828294,13.744083745466677],[123.271021539735671,13.744264587150438],[123.271206535906231,13.744264383841335],[123.271206327857016,13.744083542160327],[123.271206119810813,13.743902700476655],[123.271021123924029,13.743902903780251]]],[[[123.275091243762517,13.74407924068151],[123.275091454791934,13.744260082303809],[123.275091665824277,13.744440923923444],[123.27527666207034,13.74444071755954],[123.275276450895973,13.744259875942747],[123.275276239724718,13.74407903432329],[123.275091243762517,13.74407924068151]]],[[[123.27786639603157,13.744256972321315],[123.277866609192614,13.744437813898406],[123.278051605392662,13.744437605453589],[123.278051392089594,13.74425676387934],[123.27786639603157,13.744256972321315]]],[[[123.270281969711519,13.744627082381603],[123.270466966177935,13.74462687962175],[123.270466758690389,13.744446037934969],[123.270281762365912,13.74444624069198],[123.270281969711519,13.744627082381603]]],[[[123.278052032007849,13.744799288594271],[123.278237028488647,13.744799080005036],[123.278236815037531,13.74461823843887],[123.278051818698742,13.744618447025262],[123.278052032007849,13.744799288594271]]],[[[123.273241912813788,13.744623821577621],[123.273056916392491,13.744624026418299],[123.273057125869911,13.744804868063513],[123.273242122433132,13.744804663219993],[123.273241912813788,13.744623821577621]]],[[[123.275277084428041,13.744802400785131],[123.275277295611559,13.744983242394019],[123.27546229228021,13.744983035882944],[123.275462080954853,13.744802194276899],[123.275277084428041,13.744802400785131]]],[[[123.278052245320154,13.744980130160615],[123.278052458635472,13.745160971724294],[123.278237455400046,13.745160763129375],[123.27823724194279,13.744979921568538],[123.278052245320154,13.744980130160615]]],[[[123.276757481197123,13.74516242800428],[123.276757693522129,13.745343269585279],[123.276942690450127,13.745343061958652],[123.277127687375099,13.745342854193202],[123.277312684296973,13.745342646289108],[123.27749768121582,13.745342438246281],[123.277682678131569,13.74534223006472],[123.277867675044291,13.745342021744426],[123.277867461867785,13.74516118018048],[123.277682465097001,13.745161388498021],[123.27749746832319,13.74516159667674],[123.277312471546267,13.745161804716725],[123.277312258798673,13.744980963141677],[123.277127262160576,13.744981171040086],[123.276942265519452,13.744981378799762],[123.276942477983283,13.745162220380495],[123.276757481197123,13.74516242800428]]],[[[123.272872547983781,13.74516675605633],[123.272872757328315,13.745347597696393],[123.273057754320348,13.745347392983257],[123.273057963809848,13.745528234617813],[123.273242960940706,13.745528029763102],[123.273242751309283,13.7453471881313],[123.273242541680872,13.745166346496832],[123.273242332055489,13.744985504859789],[123.273057335350344,13.744985709706063],[123.273057125869911,13.744804868063513],[123.272872129303664,13.744805072768299],[123.272872338642259,13.744985914413602],[123.272872547983781,13.74516675605633]]],[[[123.276572908777112,13.74552431865426],[123.276757905850147,13.745524111163524],[123.276757693522129,13.745343269585279],[123.276572696590932,13.745343477073172],[123.276572908777112,13.74552431865426]]],[[[123.274722727111808,13.745345544321589],[123.274722937878678,13.745526385930921],[123.274907934982281,13.74552617982752],[123.274907724073472,13.74534533822103],[123.274722727111808,13.745345544321589]]],[[[123.276202914621891,13.745524733219442],[123.276203126527136,13.745705574803639],[123.276388123748234,13.745705367587528],[123.276573120966219,13.745705160232683],[123.276572908777112,13.74552431865426],[123.276387911700965,13.745524526006262],[123.276202914621891,13.745524733219442]]],[[[123.274538151399938,13.745707433505009],[123.274537940771978,13.7455265918955],[123.27435294366235,13.745526797721345],[123.274167946549696,13.745527003408545],[123.273982949433943,13.745527208956924],[123.273797952315164,13.745527414366569],[123.273612955193357,13.74552761963748],[123.273427958068538,13.745527824769658],[123.273428167844912,13.745708666396043],[123.273613165111755,13.745708461261023],[123.2737981623754,13.745708255987269],[123.273983159636103,13.745708050574871],[123.274168156893793,13.745707845023651],[123.274353154148386,13.745707639333697],[123.274538151399938,13.745707433505009]]],[[[123.275833132075789,13.745705988819571],[123.275833343700285,13.745886830406699],[123.276018341069445,13.745886623465301],[123.276203338435494,13.745886416385082],[123.276203126527136,13.745705574803639],[123.276018129303012,13.745705781880927],[123.275833132075789,13.745705988819571]]],[[[123.282680413236704,13.747687495839282],[123.282680630147013,13.747868337291495],[123.282865628963023,13.747868125184718],[123.282865411910777,13.747687283735436],[123.282680413236704,13.747687495839282]]],[[[123.283236061267317,13.748229383433989],[123.283236278612918,13.748410224869504],[123.283421277845392,13.748410012337734],[123.283421060357853,13.74822917090515],[123.283236061267317,13.748229383433989]]]]}},
{"type":"Feature","properties":{"fid":44,"HAZ":2.0,"layer":"CamarinesSur_StormSurge_SSA4","path":"/Users/jhannaroseverzo/Downloads/CamarinesSur/CamarinesSur_StormSurge_SSA4.shp","Risk Level":"Medium","fid_2":104,"SYSTRA ID":"104","DAR ID":"156","Target Year":"2027","Bridge Category":"Original List","Bridge Name":"CAMUNING BRIDGE","Coordinates Y":"13.706556","Coordinates X":"123.290433","Region":"V","Province":"CAMARINES SUR","ARC 2026":"CAMUNING ARC","LINEAR METER IVF 2026":"29","EIRR 2026":"0.18","NEW/REPLACEMENT BRIDGE 2026":"new","Visited by SYSTRA":"Yes","Selected for 2nd Visit of SYSTRA":"No","Final Funder":"Buffer AFD","2023 IVF URL":"https://drive.google.com/open?id=1VHN8XUvMKD17qkB9o5h7M3RYmSHN0ksy","2026 IVF URL":"https://docs.google.com/spreadsheets/u/0/d/17TxGEoE3AthaM8Wz8UPbv4VpYBtT2JOq/edit"},"geometry":{"type":"MultiPolygon","coordinates":[[[[123.249729712478597,13.727995812008407],[123.249738171012197,13.728011244115502],[123.249914712553903,13.728011065530014],[123.249914521073649,13.727830223303842],[123.249729537476853,13.727830410426693],[123.249729712478597,13.727995812008407]]],[[[123.253805789064145,13.733974894081994],[123.253990777419446,13.73397470382263],[123.254175765771905,13.733974513424533],[123.25417557093904,13.733793671345],[123.253990582728335,13.733793861740521],[123.253805594514787,13.733794051997309],[123.253805399968286,13.733613209910049],[123.25362041189382,13.733613400025616],[123.253620606298497,13.733794242115541],[123.253620725503254,13.733905128976215],[123.253805970816714,13.734143838604369],[123.253805789064145,13.733974894081994]]],[[[123.254360754121606,13.73397432288788],[123.254360949099151,13.734155164962084],[123.254545937587864,13.734154974284211],[123.254545742468565,13.733974132212582],[123.254360754121606,13.73397432288788]]],[[[123.258434063283488,13.737225251901689],[123.258619054120544,13.737225058129136],[123.258618855832935,13.737044216160358],[123.258433865137718,13.737044409930247],[123.258434063283488,13.737225251901689]]],[[[123.258250062505937,13.738129655366341],[123.258435054055042,13.738129461719199],[123.258434855894976,13.73794861976099],[123.258249864487723,13.737948813405469],[123.258250062505937,13.738129655366341]]],[[[123.257695285437038,13.738311077441926],[123.25769547568909,13.738485196049409],[123.257702095709504,13.738491912497992],[123.257880474876814,13.738491726168926],[123.257880277136593,13.738310884208142],[123.257695285437038,13.738311077441926]]],[[[123.258065846151894,13.738838287806709],[123.258081745854881,13.738853200086856],[123.258250854607354,13.738853023183276],[123.258250656577673,13.738672181233062],[123.258065664600196,13.738672374749465],[123.258065846151894,13.738838287806709]]],[[[123.258274347708777,13.739033840744318],[123.258436211447616,13.739185652222821],[123.25843604489819,13.739033671470539],[123.258274347708777,13.739033840744318]]],[[[123.26084274429094,13.740658718341296],[123.260842544246515,13.740477876454763],[123.260842344205017,13.740297034565566],[123.260657350991025,13.740297230047331],[123.260657550890684,13.740478071939192],[123.260472557531997,13.740478267284887],[123.260472757292661,13.740659109176837],[123.260657750793257,13.740658913828389],[123.26084274429094,13.740658718341296]]],[[[123.259917577438472,13.740478852490016],[123.25991737810628,13.740298010587496],[123.260102371331726,13.740297815660488],[123.260102171860623,13.740116973757969],[123.259917178776931,13.740117168682312],[123.259732185690481,13.740117363468011],[123.259732384877907,13.74029820537586],[123.259666958442892,13.740298274217498],[123.259875337577981,13.740478896966993],[123.259917577438472,13.740478852490016]]],[[[123.260083716503772,13.740659519535072],[123.260287959448888,13.740836557040767],[123.260287763789208,13.740659304386552],[123.260102770282828,13.740659499457623],[123.260083716503772,13.740659519535072]]],[[[123.261583119485422,13.741019618749787],[123.261583320106013,13.741200460617668],[123.261768314014915,13.741200264429091],[123.261768113252401,13.741019422563875],[123.261583119485422,13.741019618749787]]],[[[123.261398326194268,13.741200656667599],[123.261398526675848,13.74138149853548],[123.261398727160369,13.741562340400785],[123.26158372135589,13.741562144345524],[123.261583520729531,13.741381302482884],[123.261583320106013,13.741200460617668],[123.261398326194268,13.741200656667599]]],[[[123.262509699012668,13.742465371195104],[123.26250949766235,13.742284529359198],[123.262324502913756,13.742284726118607],[123.26213950816225,13.74228492273946],[123.262105055938761,13.742284959330998],[123.262509830884994,13.742583809982373],[123.262509699012668,13.742465371195104]]],[[[123.261769117093763,13.741923631863576],[123.261768916319696,13.74174279000893],[123.26176871554857,13.741561948151618],[123.26158372135589,13.741562144345524],[123.261583921985178,13.7417429862055],[123.26140799454835,13.741743172654278],[123.261769237789494,13.742032343723022],[123.261769117093763,13.741923631863576]]],[[[123.268984105702273,13.742096713649813],[123.268799111198646,13.742096915261252],[123.268799317370267,13.742277757007363],[123.268799523544899,13.742458598750721],[123.26879972972246,13.742639440491592],[123.268799935903047,13.74282028222971],[123.268984930974312,13.742820080607347],[123.268984724651887,13.742639238871893],[123.268984518332388,13.742458397133865],[123.268984312015817,13.742277555393171],[123.268984105702273,13.742096713649813]]],[[[123.263250082389931,13.742826266401801],[123.263435077549659,13.742826068940643],[123.26343527961815,13.743006910755232],[123.263620274916789,13.743006713152676],[123.263805270212586,13.743006515411475],[123.263990265505441,13.74300631753154],[123.263990063011164,13.742825475725121],[123.263805067860233,13.742825673602303],[123.26362007270636,13.742825871340839],[123.263619870498871,13.742645029526338],[123.263434875484009,13.742645227123477],[123.263249880466219,13.742645424581882],[123.263064885445488,13.742645621901554],[123.262879890421928,13.742645819082581],[123.262694895395342,13.742646016124874],[123.262594230425307,13.742646123269866],[123.262838817169978,13.74282670487119],[123.262880092061877,13.742826660907829],[123.263065087227375,13.742826463724137],[123.263250082389931,13.742826266401801]]],[[[123.266949780265378,13.742641449059215],[123.266764785303351,13.742641649153024],[123.266764580686583,13.742460807382043],[123.266579585863482,13.742461007334454],[123.266394591037454,13.742461207148219],[123.266209596208483,13.742461406823251],[123.266024601376586,13.74246160635955],[123.266024397330384,13.74228076457498],[123.265839402637397,13.742280963969881],[123.265654407941483,13.742281163226048],[123.265469413242627,13.742281362343482],[123.265469616863214,13.742462204136222],[123.265284622019507,13.742462403117676],[123.265099627172859,13.742462601960485],[123.264914632323297,13.74246280066456],[123.264914835521196,13.742643642462719],[123.264729840526755,13.742643841030814],[123.264730043585658,13.742824682829061],[123.264545048446365,13.742824881261177],[123.264545251366357,13.743005723059424],[123.264360256082284,13.743005921355559],[123.264175260795284,13.743006119512872],[123.263990265505441,13.74300631753154],[123.263990468002575,13.743187159335294],[123.264175463434356,13.743186961313961],[123.26436045886328,13.743186763153895],[123.264545454289191,13.743186564855096],[123.264730449712175,13.743186366417651],[123.264915445132317,13.743186167841474],[123.264915241925621,13.74300532605122],[123.264915038721938,13.742824484258302],[123.26510003385529,13.742824285548808],[123.265099830512611,13.742643443755979],[123.265284825501098,13.742643244910417],[123.265469820486729,13.742643045926298],[123.265470024113185,13.742823887713621],[123.265655019237741,13.742823688588016],[123.265655223009048,13.743004530370099],[123.265655426783283,13.743185372149428],[123.26565563056046,13.743366213926182],[123.265840626107789,13.743366014653672],[123.265840830029816,13.743546856425008],[123.266025825716056,13.7435466570111],[123.266210821399369,13.743546457458459],[123.266395817079655,13.743546257767084],[123.266395612731912,13.743365416003831],[123.266580608267418,13.743365216176477],[123.26676560380001,13.743365016210388],[123.266950599329562,13.743364816105656],[123.266950804103104,13.743545657860649],[123.267135799771566,13.74354545761434],[123.2673207954372,13.743545257229387],[123.267505791099808,13.743545056705701],[123.267505585900665,13.743364214958968],[123.267690581418421,13.743364014299301],[123.267875576933235,13.743363813500901],[123.267875782416155,13.743544655242216],[123.268060778069881,13.743544454302329],[123.268245773720679,13.743544253223797],[123.268430769368464,13.743544052006532],[123.268615765013223,13.743543850650534],[123.268615558962665,13.743363008920232],[123.268800554462558,13.743362807428253],[123.268800348273089,13.743181965698129],[123.268800142086562,13.743001123965252],[123.268799935903047,13.74282028222971],[123.268614940828769,13.742820483713428],[123.268615146870431,13.743001325451724],[123.268430151651287,13.743001526799462],[123.268430357554053,13.743182368537758],[123.268245362190044,13.743182569749605],[123.268060366823107,13.74318277082263],[123.267875371453243,13.74318297175701],[123.267690376080353,13.743183172552568],[123.267505380704449,13.74318337320957],[123.267320385325618,13.74318357372775],[123.267135389943846,13.743183774107196],[123.267135185034419,13.743002932349627],[123.266950189791558,13.743003132587676],[123.266949985026997,13.742822290824778],[123.266949780265378,13.742641449059215]]],[[[123.268985756293944,13.743543447522425],[123.268985962631291,13.743724289244556],[123.269170958409092,13.743724087469692],[123.269170751929821,13.743543245750315],[123.268985756293944,13.743543447522425]]],[[[123.268801173048985,13.743905332602994],[123.268986168971651,13.74390513096411],[123.268985962631291,13.743724289244556],[123.268800966850549,13.743724490880775],[123.268801173048985,13.743905332602994]]],[[[123.269726359543512,13.744085164726942],[123.269726152632586,13.743904323021154],[123.269541156721814,13.743904525214971],[123.269541363490816,13.744085366923512],[123.26954157026293,13.744266208629478],[123.269541777037873,13.744447050332779],[123.269726773374344,13.744446848130613],[123.269911769707889,13.744446645789802],[123.269911562649071,13.744265804092096],[123.269726566457464,13.744266006430154],[123.269726359543512,13.744085164726942]]],[[[123.268801379250448,13.744086174322637],[123.268801173048985,13.743905332602994],[123.268616177123292,13.743905534103233],[123.268616383182817,13.74408637582563],[123.268616589245283,13.744267217545273],[123.268616795310749,13.744448059262341],[123.268801791662142,13.744447857753931],[123.268801585454824,13.744267016039617],[123.268801379250448,13.744086174322637]]],[[[123.27009697324209,13.744627285002634],[123.270281969711519,13.744627082381603],[123.270281762365912,13.74444624069198],[123.270096766038407,13.744446443310258],[123.27009697324209,13.744627285002634]]],[[[123.269541983815941,13.744627892033416],[123.269541777037873,13.744447050332779],[123.269356780698473,13.744447252396123],[123.269171784355962,13.744447454320822],[123.268986788010608,13.744447656106699],[123.268986994362791,13.744628497815595],[123.269171990850168,13.744628296026965],[123.269356987334518,13.744628094099513],[123.269541983815941,13.744627892033416]]],[[[123.270467173668578,13.744807721305955],[123.270652170273905,13.744807518404704],[123.270837166876291,13.74480731536463],[123.270836959101871,13.74462647368602],[123.270651962641409,13.744626676723252],[123.270466966177935,13.74462687962175],[123.270467173668578,13.744807721305955]]],[[[123.278599969817904,13.738830889516644],[123.278784961607258,13.738830680605355],[123.278784747832304,13.738649838960319],[123.278599756184889,13.738650047868765],[123.278599969817904,13.738830889516644]]],[[[123.27933993695676,13.738830053039623],[123.279154945176728,13.738830262366934],[123.278969953393599,13.738830471555511],[123.278784961607258,13.738830680605355],[123.278785175385323,13.739011522247727],[123.278970167313418,13.739011313194952],[123.278970381236334,13.739192154831906],[123.278970595162463,13.739372996466107],[123.279155587371207,13.739372787268914],[123.279155801442187,13.739553628897609],[123.279156015516278,13.739734470523727],[123.279341008005616,13.739734261182116],[123.279340793789672,13.739553419558929],[123.279340579576768,13.739372577933077],[123.279340365367048,13.739191736304649],[123.279525357427744,13.739191526833009],[123.279525143079198,13.73901068520467],[123.279340151160355,13.739010894673468],[123.27933993695676,13.738830053039623]]],[[[123.280080763148703,13.739552580817497],[123.280080977932101,13.739733422429227],[123.280265970405878,13.739733212394304],[123.280450962876643,13.739733002220648],[123.280450747809567,13.739552160614691],[123.280265755480656,13.739552370785416],[123.280080763148703,13.739552580817497]]],[[[123.279526214852808,13.73991489331963],[123.27971120747776,13.739914683697888],[123.279710992975026,13.73973384208305],[123.279895985455113,13.739733632325505],[123.279895770813567,13.739552790710844],[123.279710778475319,13.739553000465547],[123.279525786134059,13.739553210081604],[123.279526000491828,13.73973405170195],[123.279526214852808,13.73991489331963]]],[[[123.279711421983677,13.740095525310062],[123.279896414747455,13.740095315546744],[123.279896200099685,13.739914473937413],[123.27971120747776,13.739914683697888],[123.279711421983677,13.740095525310062]]],[[[123.280081407508121,13.740095105644782],[123.279896414747455,13.740095315546744],[123.279896629398323,13.740276157153412],[123.280081622300841,13.740275947248607],[123.280081407508121,13.740095105644782]]],[[[123.280082051895505,13.740637630448175],[123.280267045078773,13.740637420398953],[123.280266830137904,13.740456578803299],[123.28008183709666,13.740456788849679],[123.280082051895505,13.740637630448175]]],[[[123.280267260022569,13.740818261991942],[123.280267474969563,13.740999103582267],[123.280452468433396,13.740998893388538],[123.280452253344563,13.740818051801055],[123.280267260022569,13.740818261991942]]],[[[123.28008291112215,13.741360996815692],[123.280267904872872,13.741360786754923],[123.280267689919654,13.741179945169927],[123.28008269631087,13.741180155227854],[123.28008291112215,13.741360996815692]]],[[[123.280268334788531,13.741722469917098],[123.280453328819917,13.741722259711912],[123.280453113718551,13.741541418134998],[123.280268119829103,13.741541628337343],[123.280268334788531,13.741722469917098]]],[[[123.281008741958416,13.742083311392642],[123.28119373626113,13.742083100626926],[123.281193520586015,13.741902259066888],[123.28100852642531,13.741902469829762],[123.281008741958416,13.742083311392642]]],[[[123.281010035222664,13.743168360714678],[123.281195030376708,13.743168149931643],[123.281194814682934,13.742987308387503],[123.281009819670828,13.742987519167608],[123.281010035222664,13.743168360714678]]],[[[123.280455049741889,13.743168992231473],[123.280640044905255,13.743168781864549],[123.280639829637195,13.742987940311794],[123.280454834615753,13.742988150675787],[123.280455049741889,13.743168992231473]]],[[[123.278235107539828,13.743171505814326],[123.278234894116508,13.742990664224267],[123.27804989905475,13.742990872784992],[123.278050112336231,13.743171714377892],[123.278235107539828,13.743171505814326]]],[[[123.272314006257389,13.742093060926623],[123.272129011807678,13.742093265034642],[123.272129220533344,13.742274106730838],[123.272129429261923,13.742454948424458],[123.271944434525423,13.742455152399339],[123.271944643115191,13.742635994093137],[123.271759648233726,13.742636197932127],[123.271759439785811,13.742455356235576],[123.271574445043257,13.742455559933079],[123.271574653349248,13.742636401632383],[123.271389658461757,13.742636605193907],[123.271389866628837,13.742817446893389],[123.271390074798944,13.742998288590117],[123.271390282972064,13.74317913028427],[123.27139049114821,13.743359971975758],[123.27120549569014,13.743360175409739],[123.271205703727375,13.743541017101316],[123.271205911767538,13.743721858790318],[123.271206119810813,13.743902700476655],[123.271206327857016,13.744083542160327],[123.271206535906231,13.744264383841335],[123.271391532073864,13.74426418039341],[123.27139132388271,13.744083338715244],[123.271391115694584,13.743902497034325],[123.27139090750947,13.743721655350742],[123.271575903248277,13.743721451772521],[123.271575694924252,13.743540610089115],[123.271575486603254,13.743359768403044],[123.271575278285269,13.743178926714398],[123.271575069970211,13.742998085022998],[123.271760065138466,13.742997881317146],[123.271759856684582,13.742817039625924],[123.271944851707971,13.742816835784181],[123.272129846728262,13.742816631803704],[123.272129637993629,13.742635790115413],[123.27231463286904,13.742635585999045],[123.272499627741439,13.742635381743854],[123.272499836759934,13.742816223426638],[123.272500045781356,13.742997065106669],[123.272685040934604,13.742996860707327],[123.272685250100977,13.74317770238194],[123.272685459270363,13.743358544053889],[123.272685668442776,13.743539385723262],[123.272685877618301,13.743720227389881],[123.272870873336061,13.743720022840614],[123.272870664018697,13.743539181176748],[123.272870454704361,13.743358339510218],[123.272870245393037,13.743177497841023],[123.272870036084726,13.742996656169163],[123.272869826779441,13.742815814494728],[123.272684831771159,13.74281601903005],[123.272684622610825,13.742635177350108],[123.272684413453504,13.742454335667501],[123.272684204299125,13.742273493982319],[123.272683995147858,13.742092652294383],[123.272683785999604,13.741911810603872],[123.272498791697771,13.741912014986516],[123.272313797392911,13.741912219230516],[123.272314006257389,13.742093060926623]]],[[[123.280825686313904,13.74371109599282],[123.28082590173625,13.743891937532164],[123.28101089746103,13.743891726876315],[123.28101068189676,13.743710885339903],[123.281010466335587,13.743530043800826],[123.280825470894669,13.743530254450812],[123.280825686313904,13.74371109599282]]],[[[123.278974660344517,13.742808987012948],[123.278789665437117,13.742809196125675],[123.278789451594221,13.742628354538903],[123.278789237754438,13.742447512949555],[123.278604243127702,13.742447721917864],[123.278419248497869,13.74244793074744],[123.27841946205389,13.742628772342561],[123.278419675612923,13.742809613935018],[123.278234680696201,13.742809822631633],[123.278234894116508,13.742990664224267],[123.278419889175069,13.74299045552481],[123.278420102740327,13.743171297111937],[123.278420316308683,13.743352138696489],[123.278420529880066,13.743532980278287],[123.278235534395805,13.74353318898636],[123.278235747828361,13.743714030568336],[123.278235961264031,13.743894872147736],[123.278420957032154,13.743894663434068],[123.278421170612873,13.744075505007961],[123.278606166519722,13.744075296152628],[123.278606380245478,13.744256137721104],[123.278791376291252,13.744255928724195],[123.278976372333915,13.744255719588642],[123.278976586346445,13.74443656114868],[123.279161582527934,13.744436351871462],[123.279161796685514,13.744617193425993],[123.279162010846207,13.74479803497786],[123.279347007308445,13.744797825556224],[123.279347221614088,13.744978667102673],[123.279532218215138,13.744978457539462],[123.27971721481309,13.744978247837517],[123.279717000223599,13.744797406296842],[123.2799019966766,13.744797196459006],[123.279901781948183,13.744616354918596],[123.280086778256148,13.744616144944958],[123.280086563388991,13.744435303404726],[123.28027155955192,13.744435093295197],[123.280271344545952,13.744254251755232],[123.280086348524961,13.74425446186183],[123.279901352500858,13.744254671829784],[123.279901137781863,13.744073830281382],[123.279900923065881,13.743892988730403],[123.279900708353011,13.743712147176671],[123.279715712751596,13.743712356997277],[123.279715498183762,13.743531515438127],[123.279530502721087,13.743531725117156],[123.27953028829829,13.743350883552411],[123.279345292974341,13.743351093089865],[123.279345078696508,13.743170251519702],[123.279160083511471,13.74317046091558],[123.278975088323321,13.743170670172725],[123.278974874332363,13.742989828594125],[123.278974660344517,13.742808987012948]]],[[[123.280455910277453,13.743892358427571],[123.280456125419136,13.744073199970023],[123.280641121291978,13.744072989588799],[123.280640906008443,13.743892148049278],[123.28064069072795,13.743711306507004],[123.280640475450639,13.743530464962154],[123.280455480003411,13.743530675334851],[123.280455695138969,13.743711516882543],[123.280455910277453,13.743892358427571]]],[[[123.280456340563831,13.74425404150981],[123.280456125419136,13.744073199970023],[123.280271129543181,13.744073410212513],[123.280271344545952,13.744254251755232],[123.280456340563831,13.74425404150981]]],[[[123.271206743958473,13.744445225519678],[123.271206535906231,13.744264383841335],[123.271021539735671,13.744264587150438],[123.271021747645989,13.744445428831535],[123.271206743958473,13.744445225519678]]],[[[123.278051818698742,13.744618447025262],[123.278236815037531,13.74461823843887],[123.278236601589597,13.744437396870039],[123.278051605392662,13.744437605453589],[123.278051818698742,13.744618447025262]]],[[[123.270836959101871,13.74462647368602],[123.27102195555932,13.744626270510055],[123.271021747645989,13.744445428831535],[123.270836751330478,13.744445632004746],[123.270836959101871,13.74462647368602]]],[[[123.272871291979854,13.744081706160442],[123.27287150130627,13.744262547816403],[123.27268650516281,13.744262752374018],[123.272686714350314,13.744443594030157],[123.272501718061889,13.744443798451881],[123.272501927110497,13.744624640108109],[123.272316930677206,13.744624844393853],[123.272131934240818,13.744625048540952],[123.272132143008662,13.74480589020011],[123.271947146427323,13.74480609421123],[123.271947355056255,13.744986935870566],[123.27194756368813,13.745167777527149],[123.272132560553331,13.745167573510434],[123.272317557415434,13.745167369355075],[123.272502554274595,13.745167165060893],[123.272502763335268,13.745348006706463],[123.272687760333355,13.745347802270794],[123.272687969538978,13.745528643910946],[123.272872966675877,13.745528439333791],[123.273057963809848,13.745528234617813],[123.273057754320348,13.745347392983257],[123.272872757328315,13.745347597696393],[123.272872547983781,13.74516675605633],[123.272872338642259,13.744985914413602],[123.272872129303664,13.744805072768299],[123.273057125869911,13.744804868063513],[123.273056916392491,13.744624026418299],[123.273056706918098,13.744443184770509],[123.273056497446817,13.744262343119965],[123.273056287978463,13.744081501466846],[123.273056078513122,13.743900659811063],[123.273055869050808,13.743719818152615],[123.272870873336061,13.743720022840614],[123.272871082656451,13.743900864501816],[123.272871291979854,13.744081706160442]]],[[[123.27583207399914,13.744801780844144],[123.275832285608359,13.744982622444505],[123.276017282267858,13.74498241551723],[123.276017070516716,13.744801573919622],[123.27583207399914,13.744801780844144]]],[[[123.273242122433132,13.744804663219993],[123.273057125869911,13.744804868063513],[123.273057335350344,13.744985709706063],[123.273242332055489,13.744985504859789],[123.273242122433132,13.744804663219993]]],[[[123.280827625227204,13.745338669751343],[123.280827840677532,13.745519511266794],[123.281012837679512,13.7455193005851],[123.28119783467848,13.745519089764672],[123.28119761894429,13.745338248254994],[123.281197403213127,13.745157406742562],[123.281012406498107,13.745157617557306],[123.281012190912065,13.744976776039367],[123.280827194335785,13.744976986712446],[123.280642197756407,13.744977197246792],[123.28064198245734,13.744796355720505],[123.28064176716137,13.744615514191553],[123.280456770862742,13.744615724581392],[123.280456986016858,13.744796566113186],[123.280457201173988,13.744977407642404],[123.280457416334329,13.745158249168869],[123.280642413058672,13.745158038770414],[123.28064262836395,13.745338880291461],[123.280827625227204,13.745338669751343]]],[[[123.275276450895973,13.744259875942747],[123.27527666207034,13.74444071755954],[123.275276873247634,13.744621559173668],[123.275277084428041,13.744802400785131],[123.275462080954853,13.744802194276899],[123.27546229228021,13.744983035882944],[123.275277295611559,13.744983242394019],[123.275277506798091,13.745164084000242],[123.275092509984404,13.745164290375426],[123.275092721032024,13.745345131981738],[123.274907724073472,13.74534533822103],[123.274907934982281,13.74552617982752],[123.274722937878678,13.745526385930921],[123.274537940771978,13.7455265918955],[123.274538151399938,13.745707433505009],[123.274353154148386,13.745707639333697],[123.274168156893793,13.745707845023651],[123.273983159636103,13.745708050574871],[123.2737981623754,13.745708255987269],[123.273613165111755,13.745708461261023],[123.273428167844912,13.745708666396043],[123.273428377624398,13.745889508019674],[123.273613375033079,13.745889302881901],[123.273798372438748,13.745889097605394],[123.273798582505023,13.746069939220854],[123.273983580049588,13.746069733802772],[123.274168577591055,13.746069528245956],[123.274168367240918,13.745888686636091],[123.274353364637435,13.745888480943384],[123.274538362030924,13.745888275111854],[123.274723359421486,13.74588806914168],[123.274908356808851,13.745887863032683],[123.274908145894003,13.745707021431434],[123.275093143136516,13.745706815186546],[123.275092932082757,13.745525973585474],[123.27527792918022,13.745525767204695],[123.275278140375903,13.745706608802925],[123.275278351574613,13.74588745039849],[123.275278562776336,13.746068291991479],[123.275278773981157,13.746249133581804],[123.275463771643331,13.746248927050923],[123.275648769302393,13.746248720381308],[123.275833766958428,13.746248513573049],[123.27601876461145,13.746248306625967],[123.27620376226136,13.746248099540152],[123.276388759908244,13.746247892315514],[123.276573757552029,13.746247684952232],[123.27657354535377,13.746066843381714],[123.276758542852505,13.746066635882451],[123.276943540348327,13.746066428244545],[123.277128537840937,13.746066220467815],[123.27731353533062,13.746066012552353],[123.277498532817106,13.746065804498157],[123.277683530300564,13.746065596305227],[123.27786852778101,13.746065387973475],[123.277868314592169,13.745884546420188],[123.278053311927579,13.745884337952633],[123.278053098599912,13.745703496399523],[123.278238095790272,13.745703287795989],[123.278237882323793,13.745522446243145],[123.278237668860413,13.745341604687548],[123.278422665763898,13.745341395951053],[123.278422452161607,13.745160554395722],[123.278422238562413,13.744979712837727],[123.278422024966346,13.744798871277068],[123.278237028488647,13.744799080005036],[123.27823724194279,13.744979921568538],[123.278237455400046,13.745160763129375],[123.278052458635472,13.745160971724294],[123.277867461867785,13.74516118018048],[123.277867675044291,13.745342021744426],[123.277682678131569,13.74534223006472],[123.27749768121582,13.745342438246281],[123.277312684296973,13.745342646289108],[123.277127687375099,13.745342854193202],[123.276942690450127,13.745343061958652],[123.276757693522129,13.745343269585279],[123.276757905850147,13.745524111163524],[123.276572908777112,13.74552431865426],[123.276573120966219,13.745705160232683],[123.276388123748234,13.745705367587528],[123.276203126527136,13.745705574803639],[123.276203338435494,13.745886416385082],[123.276018341069445,13.745886623465301],[123.275833343700285,13.745886830406699],[123.275648346328111,13.745887037209362],[123.275463348952911,13.745887243873293],[123.275463137612192,13.74570640228057],[123.27546292627467,13.745525560685094],[123.275462714940161,13.745344719087042],[123.275647711889562,13.745344512431549],[123.275647500416142,13.745163670833675],[123.275832497220605,13.745163464042291],[123.275832285608359,13.744982622444505],[123.275647288945834,13.744982829233047],[123.275647077478467,13.744801987629844],[123.275646866014284,13.744621146023976],[123.275461869632508,13.744621352668188],[123.275461658313191,13.744440511056903],[123.275646654553029,13.744440304415532],[123.275831650789854,13.744440097635428],[123.275831439189787,13.744259256027073],[123.275646443094899,13.744259462804335],[123.275646231639769,13.744078621190562],[123.275461235683792,13.744078827826248],[123.275461024373627,13.743897986206969],[123.275276028556476,13.743898192701169],[123.275276239724718,13.74407903432329],[123.275276450895973,13.744259875942747]]],[[[123.273057963809848,13.745528234617813],[123.27305817330236,13.745709076249705],[123.273243170575142,13.745708871392241],[123.273428167844912,13.745708666396043],[123.273427958068538,13.745527824769658],[123.273242960940706,13.745528029763102],[123.273057963809848,13.745528234617813]]],[[[123.281013484475011,13.746061825107029],[123.281198481899779,13.746061614277897],[123.281198266156167,13.745880772776124],[123.281013268873437,13.745880983602325],[123.281013484475011,13.746061825107029]]],[[[123.278794370761432,13.746787710363554],[123.278794584675296,13.746968551889397],[123.278979582846915,13.746968342710945],[123.279164581015351,13.746968133393759],[123.279164366817625,13.746787291873689],[123.279164152622911,13.746606450350955],[123.279163938431324,13.746425608825556],[123.278978940688688,13.746425818134126],[123.278979154738352,13.746606659662367],[123.27879415685058,13.746606868835135],[123.278794370761432,13.746787710363554]]],[[[123.282309766018813,13.747145395240915],[123.282309982635851,13.747326236706806],[123.282494981032272,13.74732602488629],[123.282679979425495,13.747325812927039],[123.282679762524594,13.747144971466922],[123.282494764273309,13.74714518342333],[123.282309766018813,13.747145395240915]]],[[[123.282681280896782,13.748410861632058],[123.282866280138578,13.748410649516577],[123.282866063076924,13.748229808075289],[123.282681063977051,13.748230020187838],[123.282681280896782,13.748410861632058]]],[[[123.281941283897993,13.748411708706024],[123.282126283152394,13.748411497145655],[123.282126066658549,13.74823065569282],[123.281941067546171,13.748230867250259],[123.281941283897993,13.748411708706024]]],[[[123.281016934524331,13.7489552888209],[123.281201934220164,13.748955077945761],[123.281201718426814,13.748774236486353],[123.28101671887292,13.748774447358651],[123.281016934524331,13.7489552888209]]],[[[123.280092150943148,13.749137182588948],[123.280277150796536,13.749136972404811],[123.280276935709836,13.74895613093368],[123.28009193599847,13.748956341114974],[123.280092150943148,13.749137182588948]]],[[[123.279722151227134,13.749137602540843],[123.279722365890976,13.749318444017925],[123.279907365892512,13.749318234108413],[123.279907151086647,13.749137392634262],[123.279722151227134,13.749137602540843]]],[[[123.279537580411343,13.749499495265786],[123.279722580558015,13.749499285492254],[123.279722365890976,13.749318444017925],[123.279537365886327,13.749318653788526],[123.279537580411343,13.749499495265786]]],[[[123.279353009037067,13.749861387852883],[123.279353223429396,13.750042229324992],[123.279538224004966,13.750042019681667],[123.279538009470613,13.749861178212401],[123.279537794939472,13.749680336740381],[123.279352794647764,13.749680546378022],[123.279353009037067,13.749861387852883]]]]}},
{"type":"Feature","properties":{"fid":45,"HAZ":3.0,"layer":"CamarinesSur_StormSurge_SSA4","path":"/Users/jhannaroseverzo/Downloads/CamarinesSur/CamarinesSur_StormSurge_SSA4.shp","Risk Level":"High","fid_2":104,"SYSTRA ID":"104","DAR ID":"156","Target Year":"2027","Bridge Category":"Original List","Bridge Name":"CAMUNING BRIDGE","Coordinates Y":"13.706556","Coordinates X":"123.290433","Region":"V","Province":"CAMARINES SUR","ARC 2026":"CAMUNING ARC","LINEAR METER IVF 2026":"29","EIRR 2026":"0.18","NEW/REPLACEMENT BRIDGE 2026":"new","Visited by SYSTRA":"Yes","Selected for 2nd Visit of SYSTRA":"No","Final Funder":"Buffer AFD","2023 IVF URL":"https://drive.google.com/open?id=1VHN8XUvMKD17qkB9o5h7M3RYmSHN0ksy","2026 IVF URL":"https://docs.google.com/spreadsheets/u/0/d/17TxGEoE3AthaM8Wz8UPbv4VpYBtT2JOq/edit"},"geometry":{"type":"MultiPolygon","coordinates":[[[[123.264713044000104,13.743860963001579],[123.264813336000145,13.743955030001546],[123.264843930000268,13.74396987900162],[123.266042121000112,13.744321173001554],[123.267393165000257,13.744786710001526],[123.267404211341784,13.744788357901831],[123.267406761000132,13.744788357001662],[123.267415259000131,13.744790006001621],[123.267428468813904,13.744795753568754],[123.267464549000124,13.744811452001619],[123.267473047000209,13.744816402001584],[123.267479846000228,13.744821353001639],[123.267486645000176,13.744826303001515],[123.267493445000198,13.74483125400157],[123.267498544000176,13.744836204001624],[123.267503644000243,13.744841155001678],[123.267512144000335,13.744849407001562],[123.267518944000088,13.744857659001712],[123.267525745000299,13.74486921200169],[123.267530845000095,13.744874163001567],[123.26753339306515,13.74487787418324],[123.267535948096892,13.744880768007087],[123.267539345000273,13.744884065001498],[123.267546145000296,13.744892317001648],[123.267557480477564,13.744906622864365],[123.267558045000129,13.744907171001456],[123.26756314600037,13.744913773001558],[123.26756654600004,13.744920375001483],[123.267571646000107,13.744925326001537],[123.267576746000174,13.744931927001639],[123.267580146000185,13.744935228001646],[123.267585247000071,13.74494183000157],[123.267592047000193,13.74495008200172],[123.267603931088132,13.744959147006822],[123.267607345000215,13.74496163300161],[123.267615844000119,13.744968234001712],[123.267629444000349,13.744983087001698],[123.267641343000093,13.744991337001492],[123.267673343000169,13.745017296001686],[123.267681841000069,13.745020595001693],[123.267683541684107,13.745022245665476],[123.267697139000177,13.745028844001487],[123.267703937000121,13.745032144001671],[123.267710735000236,13.745033793001719],[123.26771923400014,13.745037092001636],[123.267726032000084,13.745038741001773],[123.267734530000169,13.745042040001513],[123.267744727000206,13.745045339001608],[123.267749260409587,13.74504709891187],[123.2677639211051,13.74505193635485],[123.267765122000213,13.745051936001532],[123.267775320000169,13.745055235001717],[123.267778294927766,13.74505667914128],[123.267788917000132,13.745060184001682],[123.267799114566046,13.745065133001647],[123.267800814000324,13.745065133001559],[123.267812712000151,13.745071732001483],[123.267819510000265,13.745073381001797],[123.26782800800018,13.745076680001626],[123.267834807000199,13.745079980001632],[123.267843305000369,13.745083279001461],[123.267851803000184,13.745086578001645],[123.267867099000213,13.745089876001563],[123.267880696000361,13.745094824001528],[123.267881379244926,13.745095155673729],[123.267890893699047,13.745098673345394],[123.267894293000069,13.745099773001582],[123.267902791000239,13.745103072001678],[123.267911288000221,13.745104720001637],[123.26791808600008,13.745106369001595],[123.267933383000184,13.745111317001561],[123.267953778000191,13.745117915001485],[123.267958877000169,13.74511956400171],[123.267969074000206,13.745122863001805],[123.26797417200028,13.745122861001628],[123.267986920936934,13.745126159501146],[123.267989468000295,13.745126159001545],[123.26799966600025,13.745129457001818],[123.268006463000191,13.74512945500164],[123.268020060000083,13.745132753001558],[123.268033656000227,13.745136051001653],[123.268040454000072,13.745137700001701],[123.268056949031646,13.745142647433232],[123.268059149000024,13.745142647001577],[123.26806934700025,13.745145946001584],[123.268071614792419,13.745147046204446],[123.268082000759534,13.745150161316792],[123.268084643000265,13.745150894001727],[123.268085320602779,13.745151157053085],[123.268095440377749,13.745154192325208],[123.268096540000272,13.745154192001644],[123.268101700909938,13.745156070076318],[123.2681152333586,13.745160128927795],[123.268118635000235,13.745160789001568],[123.268120576738923,13.745161731593173],[123.268133931000264,13.745165737001534],[123.268137330000272,13.745165736001711],[123.268149227000279,13.745169034001629],[123.268152625000127,13.745169033001629],[123.268162822000079,13.745170681001676],[123.268166221000442,13.745170680001499],[123.268176418000138,13.745172328001457],[123.26817981700006,13.745172327001635],[123.268190014000112,13.745173975001505],[123.268192338710932,13.745174425827992],[123.268201911000205,13.745175623001463],[123.268212108000242,13.745178921001648],[123.26821720700022,13.745178920001559],[123.268227404000271,13.745180568001517],[123.268231653413977,13.745181392178866],[123.268238164049748,13.745182215335875],[123.268239300000189,13.745182215001654],[123.268251196000108,13.745183863001524],[123.268266492000123,13.745187160001619],[123.268269891000145,13.745187159001619],[123.268281788000152,13.745190457001536],[123.268288586000097,13.745190455001714],[123.268303882000112,13.745195403001768],[123.268308980000086,13.74519540200159],[123.268322577000234,13.745198700001508],[123.268335491406049,13.745202657466441],[123.26833957200013,13.745203647001473],[123.268341030796691,13.745204354946997],[123.268354869000248,13.745208595001616],[123.268371013374534,13.745213542752003],[123.268373564000285,13.745213542001492],[123.268383761000322,13.745216841001499],[123.268387161000248,13.745218491001724],[123.268397358000115,13.745220139001683],[123.268400757000308,13.745221789001642],[123.268407555000167,13.745223438001601],[123.268411108842002,13.745224423171857],[123.268420444426312,13.745226735709663],[123.268422851000182,13.745226735001607],[123.268430736959715,13.745229285295361],[123.268445450779396,13.745232930087473],[123.268448345000081,13.74523333100162],[123.268449674350663,13.74523397631742],[123.268467040000203,13.745238278001585],[123.268477237000241,13.74524157700168],[123.268484036000189,13.745243225001639],[123.268492534000174,13.745246525001468],[123.268499332000204,13.745248173001604],[123.268502731000225,13.745249823001652],[123.268512929000096,13.74525312200157],[123.268528225000111,13.745258070001535],[123.268559452740149,13.745272504069876],[123.268560519000118,13.745272918001609],[123.268563918000225,13.745274568001568],[123.268582613000177,13.745279515001711],[123.268589410353513,13.745282263802276],[123.268596210000226,13.745284463001676],[123.268603009000174,13.745287763001683],[123.268606408000181,13.745287762001594],[123.268613206000396,13.745289411001641],[123.268625103000133,13.745292709001559],[123.268631901000248,13.745294358001518],[123.268641673766581,13.745297244004865],[123.268643798000255,13.745297656001702],[123.268651437573496,13.745300127363928],[123.268670992000196,13.745305902001585],[123.268681530249054,13.74530953109239],[123.268686288000225,13.745310850001728],[123.268688554321841,13.745311949996045],[123.268723679000203,13.745324046001665],[123.26872707800014,13.745324045001576],[123.268738975000232,13.745327343001582],[123.268742375000159,13.745328993001541],[123.268754272000081,13.745332291001725],[123.268765324549349,13.745336416885094],[123.268767869000129,13.745337240001691],[123.268776367000299,13.745340539001697],[123.268782681756491,13.745342896280603],[123.268786564000081,13.745343838001615],[123.268798462000262,13.745348787001669],[123.268801862000288,13.745352087001676],[123.268813759000111,13.745357036001463],[123.268817159000122,13.74536033700147],[123.268829057000403,13.745365286001702],[123.268832457000059,13.745368586001531],[123.268842655000284,13.745373536001585],[123.268847754000177,13.745375185001722],[123.268855402489038,13.745380134994404],[123.268859992721502,13.745382445364433],[123.268863051000366,13.745383435001605],[123.26886687176426,13.745385907745481],[123.268878348000129,13.745391684001577],[123.268890246000311,13.745398284001501],[123.268890767263343,13.745398663450329],[123.268915257183039,13.745412426438945],[123.268917442000159,13.745413133001664],[123.268929098122541,13.745420204851259],[123.268932174471317,13.745421933715777],[123.268934439000418,13.745423033001506],[123.268949737000256,13.745431283001567],[123.268954836000233,13.745434583001574],[123.268970134000085,13.745442832001634],[123.268975233000148,13.745446132001641],[123.268995629000145,13.745454381001613],[123.269002427000089,13.745457680001619],[123.269016025000241,13.745464279001633],[123.269027508518107,13.745470472309099],[123.269038121000293,13.7454758290017],[123.269055119000271,13.745485729001631],[123.269063617000086,13.745490678001508],[123.269080615000078,13.745502229001664],[123.270092667000142,13.746034504001562],[123.270867105000278,13.746533150001609],[123.272345896000061,13.747430735001624],[123.273119803000327,13.747926957001559],[123.274330096000185,13.748809754001593],[123.274566950191257,13.749020620457017],[123.276193867218723,13.749570070550146],[123.277932392509967,13.750083458392728],[123.279690203164691,13.750529718039965],[123.27972381229705,13.750536886240116],[123.2797236539393,13.750403492824463],[123.27953865308281,13.750403702612294],[123.279538438542332,13.750222861148268],[123.279538224004966,13.750042019681667],[123.279353223429396,13.750042229324992],[123.279353009037067,13.749861387852883],[123.279352794647764,13.749680546378022],[123.279537794939472,13.749680336740381],[123.279537580411343,13.749499495265786],[123.279537365886327,13.749318653788526],[123.279722365890976,13.749318444017925],[123.279722151227134,13.749137602540843],[123.279907151086647,13.749137392634262],[123.280092150943148,13.749137182588948],[123.28009193599847,13.748956341114974],[123.280276935709836,13.74895613093368],[123.280461935418103,13.748955920613652],[123.280646935123258,13.748955710154801],[123.280831934825386,13.748955499557217],[123.281016934524331,13.7489552888209],[123.28101671887292,13.748774447358651],[123.281201718426814,13.748774236486353],[123.281386717977611,13.748774025475322],[123.281571717525196,13.748773814325558],[123.281756717069769,13.748773603036971],[123.281756500853575,13.748592761583604],[123.281941500253012,13.748592550159126],[123.281941283897993,13.748411708706024],[123.281941067546171,13.748230867250259],[123.282126066658549,13.74823065569282],[123.282311065767828,13.74823044399656],[123.282496064873996,13.748230232161566],[123.282681063977051,13.748230020187838],[123.282866063076924,13.748229808075289],[123.282866280138578,13.748410649516577],[123.283051279377347,13.748410437262452],[123.283236278612918,13.748410224869504],[123.283236061267317,13.748229383433989],[123.283051062173755,13.748229595824006],[123.283050844973189,13.748048754382983],[123.282865846018453,13.748048966631336],[123.282865628963023,13.747868125184718],[123.282680630147013,13.747868337291495],[123.282680413236704,13.747687495839282],[123.282680196329594,13.747506654384493],[123.282679979425495,13.747325812927039],[123.282494981032272,13.74732602488629],[123.282309982635851,13.747326236706806],[123.282124984236319,13.74732644838859],[123.281939985833674,13.747326659931639],[123.281754987427831,13.747326871335867],[123.281569989018976,13.747327082601361],[123.281384990607009,13.747327293728121],[123.281199992191844,13.747327504716059],[123.281199776426476,13.747146663232849],[123.281199560664234,13.746965821746974],[123.281014562529819,13.746966032590494],[123.281014346912698,13.746785191099024],[123.281014131298591,13.746604349604977],[123.281013915687595,13.746423508108355],[123.281013700079797,13.74624266660898],[123.281013484475011,13.746061825107029],[123.281013268873437,13.745880983602325],[123.281198266156167,13.745880772776124],[123.281198050415767,13.745699931271686],[123.28119783467848,13.745519089764672],[123.281012837679512,13.7455193005851],[123.280827840677532,13.745519511266794],[123.280827625227204,13.745338669751343],[123.28064262836395,13.745338880291461],[123.280642413058672,13.745158038770414],[123.280457416334329,13.745158249168869],[123.280457201173988,13.744977407642404],[123.280456986016858,13.744796566113186],[123.280456770862742,13.744615724581392],[123.28064176716137,13.744615514191553],[123.280641551868442,13.744434672659937],[123.280826548022034,13.744434462134206],[123.280826332590365,13.744253620602857],[123.280826117161794,13.744072779068842],[123.28082590173625,13.743891937532164],[123.280825686313904,13.74371109599282],[123.280825470894669,13.743530254450812],[123.281010466335587,13.743530043800826],[123.281010250777612,13.743349202259084],[123.281010035222664,13.743168360714678],[123.281009819670828,13.742987519167608],[123.281194814682934,13.742987308387503],[123.281194598992357,13.742806466840699],[123.281194383304893,13.742625625291231],[123.281194167620527,13.742444783739098],[123.281193951939272,13.742263942184389],[123.28119373626113,13.742083100626926],[123.281008741958416,13.742083311392642],[123.28100852642531,13.741902469829762],[123.281008310895231,13.741721628264129],[123.280823316873267,13.741721838885427],[123.280823101488124,13.741540997314287],[123.280638107604901,13.741541207794009],[123.280637892364894,13.741360366217362],[123.280452898620396,13.741360576555509],[123.28045268352534,13.741179734973356],[123.280452468433396,13.740998893388538],[123.280267474969563,13.740999103582267],[123.280267260022569,13.740818261991942],[123.280267045078773,13.740637420398953],[123.280082051895505,13.740637630448175],[123.28008183709666,13.740456788849679],[123.280081622300841,13.740275947248607],[123.279896629398323,13.740276157153412],[123.279896414747455,13.740095315546744],[123.279711421983677,13.740095525310062],[123.279711636492621,13.740276366919572],[123.279711851004677,13.740457208526417],[123.279896844052217,13.740456998757415],[123.279897058709224,13.740637840358753],[123.279897273369343,13.740818681957515],[123.280082266697548,13.740818472044095],[123.280082481502617,13.740999313637262],[123.28008269631087,13.741180155227854],[123.280267689919654,13.741179945169927],[123.280267904872872,13.741360786754923],[123.280268119829103,13.741541628337343],[123.280453113718551,13.741541418134998],[123.280453328819917,13.741722259711912],[123.280453543924295,13.741903101286072],[123.280638538094323,13.74190289093931],[123.280638753343737,13.742083732508052],[123.280823747652676,13.742083522019714],[123.280823963046956,13.74226436358286],[123.280824178444433,13.742445205143342],[123.280824393845108,13.742626046701249],[123.280824609248796,13.74280688825649],[123.280639614372319,13.742807098756286],[123.280639829637195,13.742987940311794],[123.280640044905255,13.743168781864549],[123.280455049741889,13.743168992231473],[123.280455264871136,13.743349833784405],[123.280455480003411,13.743530675334851],[123.280640475450639,13.743530464962154],[123.28064069072795,13.743711306507004],[123.280640906008443,13.743892148049278],[123.280641121291978,13.744072989588799],[123.280456125419136,13.744073199970023],[123.280456340563831,13.74425404150981],[123.280271344545952,13.744254251755232],[123.28027155955192,13.744435093295197],[123.280086563388991,13.744435303404726],[123.280086778256148,13.744616144944958],[123.279901781948183,13.744616354918596],[123.2799019966766,13.744797196459006],[123.279717000223599,13.744797406296842],[123.27971721481309,13.744978247837517],[123.279532218215138,13.744978457539462],[123.279347221614088,13.744978667102673],[123.279347007308445,13.744797825556224],[123.279162010846207,13.74479803497786],[123.279161796685514,13.744617193425993],[123.279161582527934,13.744436351871462],[123.278976586346445,13.74443656114868],[123.278976372333915,13.744255719588642],[123.278791376291252,13.744255928724195],[123.278606380245478,13.744256137721104],[123.278606166519722,13.744075296152628],[123.278421170612873,13.744075505007961],[123.278420957032154,13.743894663434068],[123.278235961264031,13.743894872147736],[123.278235747828361,13.743714030568336],[123.278235534395805,13.74353318898636],[123.278420529880066,13.743532980278287],[123.278420316308683,13.743352138696489],[123.278420102740327,13.743171297111937],[123.278419889175069,13.74299045552481],[123.278234894116508,13.742990664224267],[123.278235107539828,13.743171505814326],[123.278050112336231,13.743171714377892],[123.278050325620825,13.743352555968039],[123.277865330272178,13.743352764395803],[123.277865543417946,13.743533605986217],[123.27786575656674,13.743714447573966],[123.277865969718547,13.743895289159051],[123.277866182873552,13.744076130741471],[123.27786639603157,13.744256972321315],[123.278051392089594,13.74425676387934],[123.278051605392662,13.744437605453589],[123.278236601589597,13.744437396870039],[123.278236815037531,13.74461823843887],[123.278237028488647,13.744799080005036],[123.278422024966346,13.744798871277068],[123.278422238562413,13.744979712837727],[123.278422452161607,13.745160554395722],[123.278422665763898,13.745341395951053],[123.278237668860413,13.745341604687548],[123.278237882323793,13.745522446243145],[123.278238095790272,13.745703287795989],[123.278053098599912,13.745703496399523],[123.278053311927579,13.745884337952633],[123.277868314592169,13.745884546420188],[123.27786852778101,13.746065387973475],[123.277683530300564,13.746065596305227],[123.277498532817106,13.746065804498157],[123.27731353533062,13.746066012552353],[123.277128537840937,13.746066220467815],[123.276943540348327,13.746066428244545],[123.276758542852505,13.746066635882451],[123.27657354535377,13.746066843381714],[123.276573757552029,13.746247684952232],[123.276388759908244,13.746247892315514],[123.27620376226136,13.746248099540152],[123.27601876461145,13.746248306625967],[123.275833766958428,13.746248513573049],[123.275648769302393,13.746248720381308],[123.275463771643331,13.746248927050923],[123.275278773981157,13.746249133581804],[123.275278562776336,13.746068291991479],[123.275278351574613,13.74588745039849],[123.275278140375903,13.745706608802925],[123.27527792918022,13.745525767204695],[123.275092932082757,13.745525973585474],[123.275093143136516,13.745706815186546],[123.274908145894003,13.745707021431434],[123.274908356808851,13.745887863032683],[123.274723359421486,13.74588806914168],[123.274538362030924,13.745888275111854],[123.274353364637435,13.745888480943384],[123.274168367240918,13.745888686636091],[123.274168577591055,13.746069528245956],[123.273983580049588,13.746069733802772],[123.273798582505023,13.746069939220854],[123.273798372438748,13.745889097605394],[123.273613375033079,13.745889302881901],[123.273428377624398,13.745889508019674],[123.273428167844912,13.745708666396043],[123.273243170575142,13.745708871392241],[123.27305817330236,13.745709076249705],[123.273057963809848,13.745528234617813],[123.272872966675877,13.745528439333791],[123.272687969538978,13.745528643910946],[123.272687760333355,13.745347802270794],[123.272502763335268,13.745348006706463],[123.272502554274595,13.745167165060893],[123.272317557415434,13.745167369355075],[123.272132560553331,13.745167573510434],[123.27194756368813,13.745167777527149],[123.271947355056255,13.744986935870566],[123.271947146427323,13.74480609421123],[123.272132143008662,13.74480589020011],[123.272131934240818,13.744625048540952],[123.272316930677206,13.744624844393853],[123.272501927110497,13.744624640108109],[123.272501718061889,13.744443798451881],[123.272686714350314,13.744443594030157],[123.27268650516281,13.744262752374018],[123.27287150130627,13.744262547816403],[123.272871291979854,13.744081706160442],[123.272871082656451,13.743900864501816],[123.272870873336061,13.743720022840614],[123.272685877618301,13.743720227389881],[123.272685668442776,13.743539385723262],[123.272685459270363,13.743358544053889],[123.272685250100977,13.74317770238194],[123.272685040934604,13.742996860707327],[123.272500045781356,13.742997065106669],[123.272499836759934,13.742816223426638],[123.272499627741439,13.742635381743854],[123.27231463286904,13.742635585999045],[123.272129637993629,13.742635790115413],[123.272129846728262,13.742816631803704],[123.271944851707971,13.742816835784181],[123.271759856684582,13.742817039625924],[123.271760065138466,13.742997881317146],[123.271575069970211,13.742998085022998],[123.271575278285269,13.743178926714398],[123.271575486603254,13.743359768403044],[123.271575694924252,13.743540610089115],[123.271575903248277,13.743721451772521],[123.27139090750947,13.743721655350742],[123.271391115694584,13.743902497034325],[123.27139132388271,13.744083338715244],[123.271391532073864,13.74426418039341],[123.271206535906231,13.744264383841335],[123.271206743958473,13.744445225519678],[123.271021747645989,13.744445428831535],[123.27102195555932,13.744626270510055],[123.270836959101871,13.74462647368602],[123.270837166876291,13.74480731536463],[123.270652170273905,13.744807518404704],[123.270467173668578,13.744807721305955],[123.270466966177935,13.74462687962175],[123.270281969711519,13.744627082381603],[123.27009697324209,13.744627285002634],[123.270096766038407,13.744446443310258],[123.269911769707889,13.744446645789802],[123.269726773374344,13.744446848130613],[123.269541777037873,13.744447050332779],[123.269541983815941,13.744627892033416],[123.269356987334518,13.744628094099513],[123.269171990850168,13.744628296026965],[123.268986994362791,13.744628497815595],[123.268986788010608,13.744447656106699],[123.268801791662142,13.744447857753931],[123.268616795310749,13.744448059262341],[123.268616589245283,13.744267217545273],[123.268616383182817,13.74408637582563],[123.268616177123292,13.743905534103233],[123.268801173048985,13.743905332602994],[123.268800966850549,13.743724490880775],[123.268985962631291,13.743724289244556],[123.268985756293944,13.743543447522425],[123.269170751929821,13.743543245750315],[123.269170545453562,13.743362404028185],[123.268985549959524,13.74336260579763],[123.268985343628216,13.743181764070171],[123.268985137299751,13.743000922340046],[123.268984930974312,13.742820080607347],[123.268799935903047,13.74282028222971],[123.268800142086562,13.743001123965252],[123.268800348273089,13.743181965698129],[123.268800554462558,13.743362807428253],[123.268615558962665,13.743363008920232],[123.268615765013223,13.743543850650534],[123.268430769368464,13.743544052006532],[123.268245773720679,13.743544253223797],[123.268060778069881,13.743544454302329],[123.267875782416155,13.743544655242216],[123.267875576933235,13.743363813500901],[123.267690581418421,13.743364014299301],[123.267505585900665,13.743364214958968],[123.267505791099808,13.743545056705701],[123.2673207954372,13.743545257229387],[123.267135799771566,13.74354545761434],[123.266950804103104,13.743545657860649],[123.266950599329562,13.743364816105656],[123.26676560380001,13.743365016210388],[123.266580608267418,13.743365216176477],[123.266395612731912,13.743365416003831],[123.266395817079655,13.743546257767084],[123.266210821399369,13.743546457458459],[123.266025825716056,13.7435466570111],[123.265840830029816,13.743546856425008],[123.265840626107789,13.743366014653672],[123.26565563056046,13.743366213926182],[123.265655426783283,13.743185372149428],[123.265655223009048,13.743004530370099],[123.265655019237741,13.742823688588016],[123.265470024113185,13.742823887713621],[123.265469820486729,13.742643045926298],[123.265284825501098,13.742643244910417],[123.265099830512611,13.742643443755979],[123.26510003385529,13.742824285548808],[123.264915038721938,13.742824484258302],[123.264915241925621,13.74300532605122],[123.264915445132317,13.743186167841474],[123.264730449712175,13.743186366417651],[123.264545454289191,13.743186564855096],[123.26436045886328,13.743186763153895],[123.264175463434356,13.743186961313961],[123.263990468002575,13.743187159335294],[123.263990265505441,13.74300631753154],[123.263805270212586,13.743006515411475],[123.263620274916789,13.743006713152676],[123.26343527961815,13.743006910755232],[123.263435077549659,13.742826068940643],[123.263250082389931,13.742826266401801],[123.263065087227375,13.742826463724137],[123.262880092061877,13.742826660907829],[123.262838817169978,13.74282670487119],[123.2632936365723,13.743162504000816],[123.264298672847687,13.743845649487163],[123.264713044000104,13.743860963001579]],[[123.278978940688688,13.746425818134126],[123.279163938431324,13.746425608825556],[123.279164152622911,13.746606450350955],[123.279164366817625,13.746787291873689],[123.279164581015351,13.746968133393759],[123.278979582846915,13.746968342710945],[123.278794584675296,13.746968551889397],[123.278794370761432,13.746787710363554],[123.27879415685058,13.746606868835135],[123.278979154738352,13.746606659662367],[123.278978940688688,13.746425818134126]]],[[[123.260472957056237,13.740839951066034],[123.260657950698686,13.74083975571501],[123.260657750793257,13.740658913828389],[123.260472757292661,13.740659109176837],[123.260287763789208,13.740659304386552],[123.260287959448888,13.740836557040767],[123.260439374828294,13.74096780368469],[123.260473128134848,13.740994822819212],[123.260472957056237,13.740839951066034]]],[[[123.259917577438472,13.740478852490016],[123.259875337577981,13.740478896966993],[123.259917617883744,13.740515545478241],[123.259917577438472,13.740478852490016]]],[[[123.258250854607354,13.738853023183276],[123.258081745854881,13.738853200086856],[123.25825102866321,13.739011969886711],[123.258250854607354,13.738853023183276]]],[[[123.258065664600196,13.738672374749465],[123.258065466715294,13.738491532793832],[123.258250458550918,13.738491339280094],[123.258250260527007,13.73831049732455],[123.25843525221795,13.738310303674831],[123.258435054055042,13.738129461719199],[123.258250062505937,13.738129655366341],[123.258065070954004,13.73812984887484],[123.258065268833221,13.738310690835712],[123.257880277136593,13.738310884208142],[123.257880474876814,13.738491726168926],[123.257702095709504,13.738491912497992],[123.257770114296108,13.738560921853159],[123.258065846151894,13.738838287806709],[123.258065664600196,13.738672374749465]]],[[[123.249729537476853,13.727830410426693],[123.249639103877954,13.727830501838378],[123.249729712478597,13.727995812008407],[123.249729537476853,13.727830410426693]]],[[[123.258620045601305,13.738129267933411],[123.2586198472994,13.737948425977867],[123.258619649000323,13.737767584019659],[123.258619450704188,13.737586742058786],[123.258619252410895,13.737405900095338],[123.258619054120544,13.737225058129136],[123.258434063283488,13.737225251901689],[123.2584342614321,13.737406093870467],[123.258434459583555,13.737586935836669],[123.258434657737837,13.737767777800206],[123.258434855894976,13.73794861976099],[123.258435054055042,13.738129461719199],[123.258620045601305,13.738129267933411]]],[[[123.279526214852808,13.73991489331963],[123.279526000491828,13.73973405170195],[123.279525786134059,13.739553210081604],[123.279710778475319,13.739553000465547],[123.279895770813567,13.739552790710844],[123.279895556175134,13.739371949093607],[123.27971056397881,13.739372158845379],[123.279710349485327,13.739191317222636],[123.279525357427744,13.739191526833009],[123.279340365367048,13.739191736304649],[123.279340579576768,13.739372577933077],[123.279340793789672,13.739553419558929],[123.279341008005616,13.739734261182116],[123.279341222224659,13.739915102802728],[123.279526214852808,13.73991489331963]]],[[[123.280080977932101,13.739733422429227],[123.280080763148703,13.739552580817497],[123.279895770813567,13.739552790710844],[123.279895985455113,13.739733632325505],[123.280080977932101,13.739733422429227]]],[[[123.27971120747776,13.739914683697888],[123.279526214852808,13.73991489331963],[123.279526429216801,13.740095734934647],[123.279711421983677,13.740095525310062],[123.27971120747776,13.739914683697888]]],[[[123.261398727160369,13.741562340400785],[123.261398919583598,13.741735908249138],[123.26140799454835,13.741743172654278],[123.261583921985178,13.7417429862055],[123.26158372135589,13.741562144345524],[123.261398727160369,13.741562340400785]]],[[[123.276016858768671,13.744620732319438],[123.276016647023567,13.74443989071659],[123.275831650789854,13.744440097635428],[123.275646654553029,13.744440304415532],[123.275461658313191,13.744440511056903],[123.275461869632508,13.744621352668188],[123.275646866014284,13.744621146023976],[123.275647077478467,13.744801987629844],[123.275647288945834,13.744982829233047],[123.275832285608359,13.744982622444505],[123.27583207399914,13.744801780844144],[123.276017070516716,13.744801573919622],[123.276016858768671,13.744620732319438]]]]}}
]
}
