{
"type": "FeatureCollection",
"name": "SYSTRA ID_275",
"crs": { "type": "name", "properties": { "name": "urn:ogc:def:crs:OGC:1.3:CRS84" } },
"xy_coordinate_resolution": 1e-15,
"features": [
{"type":"Feature","properties":{"fid":49,"HAZ":1.0,"layer":"Capiz_StormSurge_SSA4","path":"/Users/jhannaroseverzo/Downloads/Capiz/Capiz_StormSurge_SSA4.shp","Risk Level":"Low","fid_2":275,"SYSTRA ID":"275","DAR ID":"216","Target Year":"2028","Bridge Category":"Original List","Bridge Name":"PUROK SOLEDAD BRIDGE","Coordinates Y":"11.453428","Coordinates X":"123.052069","Region":"VI","Province":"CAPIZ","ARC 2026":"5S","LINEAR METER IVF 2026":"20","EIRR 2026":"0.22","NEW/REPLACEMENT BRIDGE 2026":"new","Visited by SYSTRA":"No","Selected for 2nd Visit of SYSTRA":"No","Final Funder":"Trésor","2023 IVF URL":"","2026 IVF URL":"https://docs.google.com/spreadsheets/u/1/d/19xa03K6go0Yy4coZg1C4rPKVJROYUiQA/edit"},"geometry":{"type":"MultiPolygon","coordinates":[[[[123.015954042851561,11.480052868940627],[123.015954032688938,11.479871994641622],[123.015770653007721,11.479872004607783],[123.015770663053559,11.480052878906966],[123.015954042851561,11.480052868940627]]],[[[123.014853745137557,11.479691178407991],[123.015037124702786,11.479691169018169],[123.01522050426783,11.479691159513061],[123.015220494572731,11.479510285208905],[123.015403874020805,11.479510275588778],[123.015587253468695,11.479510265853365],[123.015587243540196,11.479329391547344],[123.015403864209105,11.479329401282579],[123.01522048487783,11.479329410902617],[123.015037105546369,11.479329420407369],[123.014853726214739,11.479329429797014],[123.014853735676056,11.479510304103657],[123.014670356227455,11.479510313378194],[123.014670359130804,11.479566509992793],[123.014853752191172,11.479826020141019],[123.014853745137557,11.479691178407991]]],[[[123.016320864828444,11.481138094407362],[123.016320854431171,11.480957220122123],[123.016137474049359,11.480957230319655],[123.016137484329931,11.481138104605071],[123.016137494610589,11.481318978888266],[123.016320875226,11.481318968690379],[123.016320864828444,11.481138094407362]]],[[[123.0192551245337,11.483670155290815],[123.019255112264318,11.48348928103986],[123.019071730249863,11.483489293083737],[123.019071742402446,11.483670167334958],[123.0192551245337,11.483670155290815]]],[[[123.019438506664784,11.483670143131475],[123.0192551245337,11.483670155290815],[123.019255136803352,11.483851029539638],[123.019438519051235,11.483851017380031],[123.019621901299018,11.483851005105228],[123.019805283546546,11.483850992715228],[123.019988665793889,11.483850980209942],[123.020172048040962,11.483850967589371],[123.020172035187059,11.483670093341614],[123.019988653056785,11.483670105961918],[123.019988640320037,11.483489231711763],[123.019805258306377,11.483489244216605],[123.019621876292618,11.48348925660625],[123.019438494278518,11.483489268880698],[123.019438506664784,11.483670143131475]]],[[[123.021089080226702,11.485478770877533],[123.021089066786516,11.485297896650914],[123.020905683605619,11.485297909849512],[123.020905696928907,11.485478784076308],[123.021089080226702,11.485478770877533]]],[[[123.020538969602711,11.486021432796223],[123.020538956512482,11.485840558575733],[123.020355572980293,11.485840571429096],[123.020172189447933,11.485840584167173],[123.020172193307246,11.485894879692811],[123.020305678526228,11.486021449116473],[123.020355585953652,11.486021445649763],[123.020538969602711,11.486021432796223]]],[[[123.020722366458912,11.4862022940454],[123.020722353251514,11.486021419827397],[123.020538969602711,11.486021432796223],[123.020538982693139,11.486202307014493],[123.020722366458912,11.4862022940454]]],[[[123.020905763548868,11.486383155176716],[123.020905750224415,11.486202280961111],[123.020722366458912,11.4862022940454],[123.020722379666381,11.486383168261272],[123.020905763548868,11.486383155176716]]],[[[123.020905763548868,11.486383155176716],[123.020905776873491,11.486564029390101],[123.021089160872506,11.486564016189993],[123.021089147430985,11.486383141976875],[123.020905763548868,11.486383155176716]]],[[[123.021455942545444,11.486744863654552],[123.021272558429999,11.486744877085409],[123.021272571213615,11.486915409748653],[123.021284371256627,11.486925750429643],[123.021455956221175,11.486925737862785],[123.021455942545444,11.486744863654552]]],[[[123.022189493148289,11.486925682985705],[123.022189479005021,11.48674480877836],[123.022006094890457,11.486744822670358],[123.022006108916841,11.48692569687797],[123.022189493148289,11.486925682985705]]],[[[123.02255629036533,11.487287403262547],[123.022556275987768,11.487106529060176],[123.022372891639975,11.487106543183101],[123.022372905900653,11.487287417385827],[123.02255629036533,11.487287403262547]]],[[[123.022189521435621,11.487287431393733],[123.022189507291813,11.487106557190829],[123.02200612294358,11.487106571083272],[123.022006136970404,11.487287445286354],[123.022189521435621,11.487287431393733]]],[[[123.025123914060387,11.490011284655044],[123.025127778325597,11.49001416925452],[123.025307311547891,11.490137559034915],[123.025307299302611,11.490000290292146],[123.025490685516814,11.490000274320389],[123.025674071730762,11.490000258233257],[123.025674055361904,11.489819384068634],[123.02549066926484,11.48981940015541],[123.025307283167606,11.48981941612699],[123.025123897070003,11.489819431983106],[123.025123881052153,11.489638557815463],[123.024940495071263,11.489638573556116],[123.024940510972144,11.489819447724026],[123.024940515801518,11.489874381390816],[123.025109208731791,11.490000307410778],[123.025123913088123,11.490000306148618],[123.025123914060387,11.490011284655044]]]]}},
{"type":"Feature","properties":{"fid":50,"HAZ":2.0,"layer":"Capiz_StormSurge_SSA4","path":"/Users/jhannaroseverzo/Downloads/Capiz/Capiz_StormSurge_SSA4.shp","Risk Level":"Medium","fid_2":275,"SYSTRA ID":"275","DAR ID":"216","Target Year":"2028","Bridge Category":"Original List","Bridge Name":"PUROK SOLEDAD BRIDGE","Coordinates Y":"11.453428","Coordinates X":"123.052069","Region":"VI","Province":"CAPIZ","ARC 2026":"5S","LINEAR METER IVF 2026":"20","EIRR 2026":"0.22","NEW/REPLACEMENT BRIDGE 2026":"new","Visited by SYSTRA":"No","Selected for 2nd Visit of SYSTRA":"No","Final Funder":"Trésor","2023 IVF URL":"","2026 IVF URL":"https://docs.google.com/spreadsheets/u/1/d/19xa03K6go0Yy4coZg1C4rPKVJROYUiQA/edit"},"geometry":{"type":"MultiPolygon","coordinates":[[[[123.015403923081919,11.480414647086112],[123.015587303113961,11.480414637349901],[123.015587293184581,11.48023376305507],[123.015770673099567,11.480233753203839],[123.015770683145746,11.480414627498492],[123.01577069319211,11.480595501790924],[123.015954073340595,11.48059549182423],[123.015954083503942,11.480776366114265],[123.015954093667446,11.48095724040199],[123.016137474049359,11.480957230319655],[123.016137463769041,11.480776356032107],[123.016137453488824,11.480595481742162],[123.016137443208862,11.480414607450085],[123.015954063177347,11.480414617531887],[123.015954053014369,11.480233743237411],[123.015954042851561,11.480052868940627],[123.015770663053559,11.480052878906966],[123.015770653007721,11.479872004607783],[123.015770642961982,11.47969113030638],[123.015770632916499,11.479510256002756],[123.015587253468695,11.479510265853365],[123.015403874020805,11.479510275588778],[123.015220494572731,11.479510285208905],[123.01522050426783,11.479691159513061],[123.015037124702786,11.479691169018169],[123.014853745137557,11.479691178407991],[123.014853752191172,11.479826020141019],[123.014984536372708,11.480011086153166],[123.015403930831411,11.480557490092792],[123.015403923081919,11.480414647086112]]],[[[123.016320885623728,11.481499842971177],[123.016320875226,11.481318968690379],[123.016137494610589,11.481318978888266],[123.016137504891432,11.481499853169153],[123.016320885623728,11.481499842971177]]],[[[123.01650427687045,11.481680706936226],[123.01632089602154,11.481680717249665],[123.016320898676099,11.481726893609721],[123.016432982467308,11.48186158522261],[123.016504287385331,11.481861581212316],[123.01650427687045,11.481680706936226]]],[[[123.016687678982706,11.482042445057195],[123.01658349013168,11.482042450982476],[123.016687686343303,11.482167664054296],[123.016687678982706,11.482042445057195]]],[[[123.016871070813849,11.482223308784301],[123.016733997732501,11.482223316665962],[123.016871080604162,11.482388049790032],[123.016871070813849,11.482223308784301]]],[[[123.017054473744736,11.482585046660132],[123.017054462878576,11.482404172393545],[123.016884505269743,11.482404182273063],[123.017035012733132,11.482585047791405],[123.017054473744736,11.482585046660132]]],[[[123.017054473744736,11.482585046660132],[123.017054475149862,11.482608435868062],[123.01718552012602,11.482765913225025],[123.017237866160201,11.482765910149206],[123.017237855177086,11.482585035884929],[123.017054473744736,11.482585046660132]]],[[[123.017421258809364,11.482946773520331],[123.017346191006752,11.482946777978528],[123.017421263922785,11.483030094682999],[123.017421258809364,11.482946773520331]]],[[[123.0192551245337,11.483670155290815],[123.019438506664784,11.483670143131475],[123.019438494278518,11.483489268880698],[123.019255112264318,11.48348928103986],[123.0192551245337,11.483670155290815]]],[[[123.018888372306805,11.483851053512906],[123.018888384342958,11.484031927759863],[123.01870500197758,11.484031939573791],[123.018705013897019,11.484212813818706],[123.018521631414487,11.484212825517615],[123.018493351057501,11.484212827303985],[123.018705028205957,11.484429944183994],[123.018705025816644,11.484393688061312],[123.018888408415791,11.48439367624694],[123.018888396379282,11.484212802004512],[123.019071778861289,11.484212790075121],[123.019071766708166,11.48403191583065],[123.019255149073189,11.484031903786152],[123.019255136803352,11.483851029539638],[123.0192551245337,11.483670155290815],[123.019071742402446,11.483670167334958],[123.019071754555213,11.48385104158387],[123.018888372306805,11.483851053512906]]],[[[123.020905683605619,11.485297909849512],[123.020905670282488,11.485117035620407],[123.020905656959641,11.48493616138917],[123.020905643636965,11.484755287155712],[123.020722260806437,11.484755300238314],[123.020722274012229,11.484936174472038],[123.020538891064646,11.484936187439621],[123.020538904153739,11.485117061671302],[123.020722287218291,11.485117048703541],[123.020722300424438,11.485297922932736],[123.020722313630941,11.485478797159798],[123.020905696928907,11.485478784076308],[123.020905683605619,11.485297909849512]]],[[[123.020905710252478,11.485659658300884],[123.02090572357622,11.485840532523151],[123.020905736900133,11.486021406743285],[123.021089120548581,11.486021393543799],[123.021089107107684,11.48584051932402],[123.021089093667058,11.485659645101842],[123.021089080226702,11.485478770877533],[123.020905696928907,11.485478784076308],[123.020905710252478,11.485659658300884]]],[[[123.020538956512482,11.485840558575733],[123.020538943422508,11.485659684353022],[123.020355560007204,11.485659697206119],[123.020172176591643,11.485659709944018],[123.020172189447933,11.485840584167173],[123.020355572980293,11.485840571429096],[123.020538956512482,11.485840558575733]]],[[[123.019621988828121,11.485117124781263],[123.019438605762403,11.485117137057488],[123.019375007991144,11.485117141274905],[123.01965697783163,11.485406357245882],[123.01980540189912,11.485547091544577],[123.019805397137631,11.485478860848142],[123.019988780436762,11.485478848340991],[123.020172163735609,11.485478835718643],[123.020355547034299,11.485478822980921],[123.020355534061565,11.485297948753503],[123.020172150879759,11.485297961490959],[123.019988767697797,11.485297974113218],[123.01980538451555,11.485297986620102],[123.019622001333133,11.48529799901179],[123.019621988828121,11.485117124781263]]],[[[123.020172189447933,11.485840584167173],[123.020114935212362,11.48584058810814],[123.020172193307246,11.485894879692811],[123.020172189447933,11.485840584167173]]],[[[123.019988793175898,11.485659722566632],[123.019924191764389,11.485659726972653],[123.019988797490797,11.485720985512128],[123.019988793175898,11.485659722566632]]],[[[123.020722353251514,11.486021419827397],[123.020722340044486,11.485840545607084],[123.020538956512482,11.485840558575733],[123.020538969602711,11.486021432796223],[123.020722353251514,11.486021419827397]]],[[[123.020905736900133,11.486021406743285],[123.020722353251514,11.486021419827397],[123.020722366458912,11.4862022940454],[123.020905750224415,11.486202280961111],[123.020905736900133,11.486021406743285]]],[[[123.02200612294358,11.487106571083272],[123.022189507291813,11.487106557190829],[123.022189521435621,11.487287431393733],[123.022372905900653,11.487287417385827],[123.022372891639975,11.487106543183101],[123.022372877379468,11.486925668978243],[123.022189493148289,11.486925682985705],[123.022006108916841,11.48692569687797],[123.022006094890457,11.486744822670358],[123.021822710775638,11.486744836447071],[123.021822696866408,11.486563962236973],[123.021639312868288,11.486563975898223],[123.021639299076028,11.486383101685638],[123.021455915194622,11.486383115231336],[123.021455901519516,11.486202241016352],[123.02127251775471,11.486202254446587],[123.021272504196759,11.486021380229117],[123.021089120548581,11.486021393543799],[123.021089133989648,11.486202267761447],[123.020905750224415,11.486202280961111],[123.020905763548868,11.486383155176716],[123.021089147430985,11.486383141976875],[123.021089160872506,11.486564016189993],[123.021089174314284,11.486744890400979],[123.021272558429999,11.486744877085409],[123.021455942545444,11.486744863654552],[123.021455956221175,11.486925737862785],[123.021639340453333,11.486925724316466],[123.021639354246204,11.487106598522212],[123.021822738594977,11.487106584860429],[123.02200612294358,11.487106571083272]]],[[[123.025123913088123,11.490000306148618],[123.025109208731791,11.490000307410778],[123.025123914060387,11.490011284655044],[123.025123913088123,11.490000306148618]]]]}},
{"type":"Feature","properties":{"fid":51,"HAZ":3.0,"layer":"Capiz_StormSurge_SSA4","path":"/Users/jhannaroseverzo/Downloads/Capiz/Capiz_StormSurge_SSA4.shp","Risk Level":"High","fid_2":275,"SYSTRA ID":"275","DAR ID":"216","Target Year":"2028","Bridge Category":"Original List","Bridge Name":"PUROK SOLEDAD BRIDGE","Coordinates Y":"11.453428","Coordinates X":"123.052069","Region":"VI","Province":"CAPIZ","ARC 2026":"5S","LINEAR METER IVF 2026":"20","EIRR 2026":"0.22","NEW/REPLACEMENT BRIDGE 2026":"new","Visited by SYSTRA":"No","Selected for 2nd Visit of SYSTRA":"No","Final Funder":"Trésor","2023 IVF URL":"","2026 IVF URL":"https://docs.google.com/spreadsheets/u/1/d/19xa03K6go0Yy4coZg1C4rPKVJROYUiQA/edit"},"geometry":{"type":"MultiPolygon","coordinates":[[[[123.017237866160201,11.482765910149206],[123.01718552012602,11.482765913225025],[123.017213275252004,11.482799266688932],[123.0172378698432,11.482826562022508],[123.017237866160201,11.482765910149206]]],[[[123.017054473744736,11.482585046660132],[123.017035012733132,11.482585047791405],[123.017054475149862,11.482608435868062],[123.017054473744736,11.482585046660132]]],[[[123.016504287385331,11.481861581212316],[123.016432982467308,11.48186158522261],[123.016504292367316,11.481947278660908],[123.016504287385331,11.481861581212316]]],[[[123.01632089602154,11.481680717249665],[123.016320885623728,11.481499842971177],[123.016137504891432,11.481499853169153],[123.016137494610589,11.481318978888266],[123.016137484329931,11.481138104605071],[123.016137474049359,11.480957230319655],[123.015954093667446,11.48095724040199],[123.015954083503942,11.480776366114265],[123.015954073340595,11.48059549182423],[123.01577069319211,11.480595501790924],[123.015770683145746,11.480414627498492],[123.015770673099567,11.480233753203839],[123.015587293184581,11.48023376305507],[123.015587303113961,11.480414637349901],[123.015403923081919,11.480414647086112],[123.015403930831411,11.480557490092792],[123.016071144562616,11.48142676293064],[123.016320898676099,11.481726893609721],[123.01632089602154,11.481680717249665]]],[[[123.020355547034299,11.485478822980921],[123.020172163735609,11.485478835718643],[123.019988780436762,11.485478848340991],[123.019805397137631,11.485478860848142],[123.01980540189912,11.485547091544577],[123.019924191764389,11.485659726972653],[123.019988793175898,11.485659722566632],[123.019988797490797,11.485720985512128],[123.020114935212362,11.48584058810814],[123.020172189447933,11.485840584167173],[123.020172176591643,11.485659709944018],[123.020355560007204,11.485659697206119],[123.020538943422508,11.485659684353022],[123.020538956512482,11.485840558575733],[123.020722340044486,11.485840545607084],[123.020722353251514,11.486021419827397],[123.020905736900133,11.486021406743285],[123.02090572357622,11.485840532523151],[123.020905710252478,11.485659658300884],[123.020905696928907,11.485478784076308],[123.020722313630941,11.485478797159798],[123.020722300424438,11.485297922932736],[123.020722287218291,11.485117048703541],[123.020538904153739,11.485117061671302],[123.020538917243087,11.485297935900762],[123.020355534061565,11.485297948753503],[123.020355547034299,11.485478822980921]]],[[[123.021089133989648,11.486202267761447],[123.021089120548581,11.486021393543799],[123.020905736900133,11.486021406743285],[123.020905750224415,11.486202280961111],[123.021089133989648,11.486202267761447]]]]}}
]
}
