{
"type": "FeatureCollection",
"name": "SYSTRA ID_232",
"crs": { "type": "name", "properties": { "name": "urn:ogc:def:crs:OGC:1.3:CRS84" } },
"xy_coordinate_resolution": 1e-15,
"features": [
{"type":"Feature","properties":{"fid":157,"HAZ":1.0,"layer":"Quezon_StormSurge_SSA4","path":"/Users/jhannaroseverzo/Downloads/Quezon/Quezon_StormSurge_SSA4.shp","Risk Level":"Low","fid_2":232,"SYSTRA ID":"232","DAR ID":"130","Target Year":"2028","Bridge Category":"Original List","Bridge Name":"AMOGUIS BRIDGE","Coordinates Y":"13.244681","Coordinates X":"122.613464","Region":"IV-A","Province":"QUEZON","ARC 2026":"Brgy. Huyon-Uyon - MASANTUYON ARC\nBrgy.Pagsangahan - PAGNASA ARC","LINEAR METER IVF 2026":"40","EIRR 2026":"0.26","NEW/REPLACEMENT BRIDGE 2026":"new","Visited by SYSTRA":"No","Selected for 2nd Visit of SYSTRA":"No","Final Funder":"No Funder","2023 IVF URL":"","2026 IVF URL":"https://drive.google.com/open?id=1qgd7KZhobw4wM3nF7Xhj-Yp3P1MvAyzH"},"geometry":{"type":"MultiPolygon","coordinates":[[[[122.636287504741588,13.205581846916639],[122.636564376013013,13.205582240162075],[122.6365644240569,13.205549755696518],[122.636287788150639,13.205390368138454],[122.636287504741588,13.205581846916639]]],[[[122.635456488544406,13.205851937044413],[122.635456890981416,13.205580665383634],[122.635180019746059,13.2055802709404],[122.635179617003331,13.205851542592741],[122.635456488544406,13.205851937044413]]],[[[122.636010231653458,13.205852725049274],[122.636010633479231,13.205581453371797],[122.635733762225755,13.205581059527463],[122.635733360094449,13.20585233119659],[122.636010231653458,13.205852725049274]]],[[[122.634901939347699,13.20639369111233],[122.635178811491045,13.206394085880193],[122.635179214251721,13.206122814239309],[122.63490234241408,13.206122419479884],[122.634901939347699,13.20639369111233]]],[[[122.634348195088194,13.206392900678212],[122.63434779140151,13.206664172288098],[122.63462466383244,13.206664567663298],[122.63462506721342,13.206393296044974],[122.634348195088194,13.206392900678212]]],[[[122.634070110967926,13.207206319799161],[122.634346984001141,13.20720671549064],[122.634347387705859,13.206935443892212],[122.63434779140151,13.206664172288098],[122.634070918979717,13.206663776613405],[122.634070514978347,13.20693504820917],[122.634070110967926,13.207206319799161]]]]}},
{"type":"Feature","properties":{"fid":158,"HAZ":2.0,"layer":"Quezon_StormSurge_SSA4","path":"/Users/jhannaroseverzo/Downloads/Quezon/Quezon_StormSurge_SSA4.shp","Risk Level":"Medium","fid_2":232,"SYSTRA ID":"232","DAR ID":"130","Target Year":"2028","Bridge Category":"Original List","Bridge Name":"AMOGUIS BRIDGE","Coordinates Y":"13.244681","Coordinates X":"122.613464","Region":"IV-A","Province":"QUEZON","ARC 2026":"Brgy. Huyon-Uyon - MASANTUYON ARC\nBrgy.Pagsangahan - PAGNASA ARC","LINEAR METER IVF 2026":"40","EIRR 2026":"0.26","NEW/REPLACEMENT BRIDGE 2026":"new","Visited by SYSTRA":"No","Selected for 2nd Visit of SYSTRA":"No","Final Funder":"No Funder","2023 IVF URL":"","2026 IVF URL":"https://drive.google.com/open?id=1qgd7KZhobw4wM3nF7Xhj-Yp3P1MvAyzH"},"geometry":{"type":"MultiPolygon","coordinates":[[[[122.635734164348179,13.205309787852562],[122.635457293409374,13.205309393717171],[122.635456890981416,13.205580665383634],[122.635456488544406,13.205851937044413],[122.635733360094449,13.20585233119659],[122.635733762225755,13.205581059527463],[122.636010633479231,13.205581453371797],[122.636287504741588,13.205581846916639],[122.636287788150639,13.205390368138454],[122.63614895535207,13.205310377724187],[122.636011035295937,13.205310181688548],[122.636011147928272,13.205234140440567],[122.635734492001745,13.205088747864341],[122.635734164348179,13.205309787852562]]],[[[122.63545608609833,13.20612320869933],[122.635456488544406,13.205851937044413],[122.635179617003331,13.205851542592741],[122.635179214251721,13.206122814239309],[122.63545608609833,13.20612320869933]]],[[[122.63462506721342,13.206393296044974],[122.63462466383244,13.206664567663298],[122.634901536272352,13.206664962739092],[122.634901939347699,13.20639369111233],[122.63462506721342,13.206393296044974]]],[[[122.63462466383244,13.206664567663298],[122.63434779140151,13.206664172288098],[122.634347387705859,13.206935443892212],[122.634624260442408,13.206935839275848],[122.63462466383244,13.206664567663298]]]]}},
{"type":"Feature","properties":{"fid":159,"HAZ":3.0,"layer":"Quezon_StormSurge_SSA4","path":"/Users/jhannaroseverzo/Downloads/Quezon/Quezon_StormSurge_SSA4.shp","Risk Level":"High","fid_2":232,"SYSTRA ID":"232","DAR ID":"130","Target Year":"2028","Bridge Category":"Original List","Bridge Name":"AMOGUIS BRIDGE","Coordinates Y":"13.244681","Coordinates X":"122.613464","Region":"IV-A","Province":"QUEZON","ARC 2026":"Brgy. Huyon-Uyon - MASANTUYON ARC\nBrgy.Pagsangahan - PAGNASA ARC","LINEAR METER IVF 2026":"40","EIRR 2026":"0.26","NEW/REPLACEMENT BRIDGE 2026":"new","Visited by SYSTRA":"No","Selected for 2nd Visit of SYSTRA":"No","Final Funder":"No Funder","2023 IVF URL":"","2026 IVF URL":"https://drive.google.com/open?id=1qgd7KZhobw4wM3nF7Xhj-Yp3P1MvAyzH"},"geometry":{"type":"MultiPolygon","coordinates":[[[[122.636011035295937,13.205310181688548],[122.63614895535207,13.205310377724187],[122.636073610426408,13.205266966715556],[122.636011147928272,13.205234140440567],[122.636011035295937,13.205310181688548]]]]}}
]
}
