{
"type": "FeatureCollection",
"name": "SPI_Bridge_143",
"crs": { "type": "name", "properties": { "name": "urn:ogc:def:crs:OGC::CRS84" } },
"xy_coordinate_resolution": 1e-15,
"features": [
{"type":"Feature","properties":{"fid":58,"Var":1.0,"layer":"EasternSamar_Flood_5year","path":"C:/Users/cbposadas/Desktop/New folder/EasternSamar/EasternSamar_Flood_5year.shp","Risk Level":"Low","fid_2":143,"SPI_Bridge":"143","Client_Bri":"275","Target Yea":"2027","REGION 202":"VIII","PROVINCE 2":"Eastern Samar","CD 2026":"Lone","NAME OF BR":"Cadac-an Bridge","MUNICIPALI":"Quinapondan","Barangay 2":"Poblacion, Anislag","LINEAR MET":"39","Point A.1":"11.17675","Point A.2":"125.493444","Point B.1":"11.176889","Point B.2":"125.493167","EIRR 2026":"0.12","NEW/REPLAC":"new","ARC 2026":"Quinapondan ARC","ESTIMATED":"104903253","Approach A":"6","Approach B":"6","Max Approa":"6","VALIDATION":"Green Zone","Road Class":"provincial road","Status 202":"submitted"},"geometry":{"type":"MultiPolygon","coordinates":[[[[125.451028468854446,11.193076912803647,0.0],[125.450936954704673,11.193077663568431,0.0],[125.450845440548335,11.193078414305326,0.0],[125.450846200899846,11.193168769968011,0.0],[125.450937715084521,11.193168019224988,0.0],[125.45102922926263,11.193167268453987,0.0],[125.451028468854446,11.193076912803647,0.0]]],[[[125.450846200899846,11.193168769968011,0.0],[125.450821894882168,11.193168969356709,0.0],[125.450846735345309,11.193232279745533,0.0],[125.450846200899846,11.193168769968011,0.0]]],[[[125.450844680203303,11.19298805864193,0.0],[125.450936194331405,11.192987307911341,0.0],[125.451027708452841,11.192986557152686,0.0],[125.451028468854446,11.193076912803647,0.0],[125.451119982997724,11.193076162010886,0.0],[125.451211497134437,11.193075411190147,0.0],[125.45130301126467,11.193074660341431,0.0],[125.45130225077807,11.192984304709121,0.0],[125.451210736676174,11.19298505555162,0.0],[125.451209976224462,11.192894699912561,0.0],[125.451118462144336,11.192895450720865,0.0],[125.451026948057716,11.192896201501192,0.0],[125.450935433964602,11.19289695225363,0.0],[125.450843919864937,11.192897702978001,0.0],[125.450752405758678,11.192898453674484,0.0],[125.450715872932008,11.192898753344538,0.0],[125.450753208997966,11.192993911024979,0.0],[125.450753166068807,11.19298880934463,0.0],[125.450844680203303,11.19298805864193,0.0]]],[[[125.451342418771475,11.194429764990495,0.0],[125.451381085917333,11.194519809547101,0.0],[125.45140669451564,11.194519599400856,0.0],[125.451405933896154,11.194429243784356,0.0],[125.451342418771475,11.194429764990495,0.0]]],[[[125.451498209085955,11.194518848396886,0.0],[125.451498969740257,11.194609204006547,0.0],[125.451590484332328,11.194608452968382,0.0],[125.451589723649704,11.194518097364849,0.0],[125.451498209085955,11.194518848396886,0.0]]],[[[125.45168275963546,11.194698057498844,0.0],[125.451681998917934,11.19460770190215,0.0],[125.451590484332328,11.194608452968382,0.0],[125.451591245021532,11.194698808571292,0.0],[125.45168275963546,11.194698057498844,0.0]]],[[[125.451775795754003,11.194878017577683,0.0],[125.451684281089982,11.194878768690455,0.0],[125.451685041827062,11.194969124285372,0.0],[125.45177655651942,11.194968373166382,0.0],[125.451775795754003,11.194878017577683,0.0]]],[[[125.45177807806985,11.195149084342006,0.0],[125.451778838854892,11.19523943992893,0.0],[125.451870353625679,11.195238688763311,0.0],[125.4518695928124,11.195148333182605,0.0],[125.45177807806985,11.195149084342006,0.0]]],[[[125.451871114445609,11.195329044343396,0.0],[125.451871875272033,11.195419399922947,0.0],[125.451963390092914,11.195418648716917,0.0],[125.451962629238153,11.195328293143671,0.0],[125.451871114445609,11.195329044343396,0.0]]],[[[125.451779599646414,11.195329795515232,0.0],[125.451740120523368,11.195330119555704,0.0],[125.451780326538298,11.195416124257369,0.0],[125.451779599646414,11.195329795515232,0.0]]],[[[125.45196491182206,11.195599359861721,0.0],[125.45196567269636,11.19568971543319,0.0],[125.452057187595742,11.195688964180619,0.0],[125.452056426693119,11.195598608615278,0.0],[125.45196491182206,11.195599359861721,0.0]]],[[[125.451866364831432,11.19560016880256,0.0],[125.451873526428443,11.19561548817744,0.0],[125.451873396944421,11.195600111080186,0.0],[125.451866364831432,11.19560016880256,0.0]]],[[[125.453063089843283,11.195590343058594,0.0],[125.452971575044089,11.195591094612702,0.0],[125.452972336230047,11.19568145011587,0.0],[125.452880821396022,11.195682201648218,0.0],[125.452789306555516,11.195682953152588,0.0],[125.452790067691382,11.195773308667569,0.0],[125.452698552815875,11.195774060150178,0.0],[125.452699313929983,11.195864415670755,0.0],[125.452790828833727,11.195863664181928,0.0],[125.452882343730906,11.195862912665124,0.0],[125.452881582560224,11.195772557156982,0.0],[125.452973097422571,11.195771805618417,0.0],[125.453064612278439,11.195771054051875,0.0],[125.453063851057578,11.195680698555545,0.0],[125.453155365878459,11.195679946967243,0.0],[125.453154604635827,11.195589591476509,0.0],[125.453063089843283,11.195590343058594,0.0]]],[[[125.452058709420726,11.195869675309346,0.0],[125.452059470342988,11.195960030872911,0.0],[125.452150985320799,11.195959279573621,0.0],[125.452150224370214,11.195868924016363,0.0],[125.452058709420726,11.195869675309346,0.0]]],[[[125.452243261277545,11.196048883796863,0.0],[125.452151746277963,11.196049635130347,0.0],[125.452152507241607,11.196139990686451,0.0],[125.45224402226961,11.196139239346838,0.0],[125.452243261277545,11.196048883796863,0.0]]],[[[125.453609894387327,11.195314766764099,0.0],[125.453518379712378,11.195315518467421,0.0],[125.453519141048716,11.195405873935062,0.0],[125.453610655751987,11.195405122225523,0.0],[125.453609894387327,11.195314766764099,0.0]]],[[[125.453519141048716,11.195405873935062,0.0],[125.45342762633895,11.195406625616535,0.0],[125.453336111622605,11.195407377270119,0.0],[125.45333687290875,11.195497732749573,0.0],[125.453428387653418,11.195496981089772,0.0],[125.453519902391605,11.195496229402082,0.0],[125.453519141048716,11.195405873935062,0.0]]],[[[125.453337634201475,11.195588088228405,0.0],[125.45333687290875,11.195497732749573,0.0],[125.453245358157503,11.195498484381396,0.0],[125.453153843399775,11.195499235985242,0.0],[125.453154604635827,11.195589591476509,0.0],[125.453246119421976,11.195588839866446,0.0],[125.453337634201475,11.195588088228405,0.0]]],[[[125.453072986138977,11.196764964472063,0.0],[125.45313194434334,11.196764480216849,0.0],[125.453164501299852,11.196764212809153,0.0],[125.453256016454247,11.196763461118266,0.0],[125.453347531602063,11.196762709399401,0.0],[125.453439046743384,11.196761957652559,0.0],[125.453530561878154,11.196761205877827,0.0],[125.45362207700633,11.196760454075029,0.0],[125.45371359212804,11.196759702244254,0.0],[125.45380510724317,11.19675895038559,0.0],[125.453804345723782,11.196668594945571,0.0],[125.453895860804096,11.196667843065057,0.0],[125.453987375877759,11.196667091156655,0.0],[125.454078890945013,11.196666339220187,0.0],[125.454170406005602,11.196665587255829,0.0],[125.454169644379462,11.196575231840058,0.0],[125.454168882759816,11.196484876423753,0.0],[125.454077367755787,11.196485628375676,0.0],[125.45407812934711,11.196575983798198,0.0],[125.453986614308278,11.196576735728449,0.0],[125.453895099262866,11.196577487630634,0.0],[125.453803584210888,11.19657823950493,0.0],[125.453712069152431,11.19657899135116,0.0],[125.453620554087394,11.196579743169501,0.0],[125.453529039015862,11.196580494959864,0.0],[125.453529800443761,11.196670850419157,0.0],[125.453438285337256,11.196671602187671,0.0],[125.453346770224343,11.196672353928296,0.0],[125.453255255104864,11.196673105640944,0.0],[125.453255072241447,11.196651403580795,0.0],[125.45325449376196,11.196582750163,0.0],[125.453162978664238,11.196583501841452,0.0],[125.453071463560036,11.196584253491928,0.0],[125.452979948449254,11.196585005114425,0.0],[125.452888433331907,11.196585756708945,0.0],[125.452887672108901,11.19649540120551,0.0],[125.45279615701341,11.196496152765835,0.0],[125.452704641911325,11.196496904298183,0.0],[125.452703880751486,11.196406548781781,0.0],[125.452612365671257,11.196407300279933,0.0],[125.452520850584463,11.196408051750108,0.0],[125.452520089487848,11.196317696220738,0.0],[125.452428574422811,11.196318447656719,0.0],[125.452427813361112,11.196228092120421,0.0],[125.452336298317832,11.196228843522206,0.0],[125.452335537291034,11.196138487979159,0.0],[125.45224402226961,11.196139239346838,0.0],[125.452244783268171,11.196229594896103,0.0],[125.452245544273197,11.196319950444746,0.0],[125.452203016076453,11.196320299607418,0.0],[125.452206595733117,11.196327956852329,0.0],[125.45224831132245,11.19641028952225,0.0],[125.452337820391236,11.196409554606525,0.0],[125.45242933549109,11.196408803192305,0.0],[125.452430096565934,11.196499158727359,0.0],[125.452521611687558,11.196498407278945,0.0],[125.452613126802774,11.196497655802553,0.0],[125.452613887940771,11.196588011324639,0.0],[125.452705403077658,11.196587259814052,0.0],[125.452706164250557,11.196677615329211,0.0],[125.452797679409301,11.196676863784429,0.0],[125.452889194561465,11.196676112211669,0.0],[125.452980709707148,11.196675360610932,0.0],[125.452981470971537,11.196765716106906,0.0],[125.453072986138977,11.196764964472063,0.0]]],[[[125.455549989885185,11.19746750230788,0.0],[125.455549227775165,11.197377146990785,0.0],[125.455640742957797,11.197376394529048,0.0],[125.455639980825936,11.197286039217637,0.0],[125.455731495973751,11.197285286734139,0.0],[125.455730733820118,11.197194931428324,0.0],[125.455822248933032,11.197194178922977,0.0],[125.455821486757642,11.197103823622847,0.0],[125.45591300183564,11.197103071095828,0.0],[125.455912239638408,11.197012715801293,0.0],[125.456003754681504,11.197011963252514,0.0],[125.456002992462587,11.196921607963574,0.0],[125.45609450747078,11.196920855393035,0.0],[125.456093745230021,11.19683050010978,0.0],[125.456185260203398,11.19682974751748,0.0],[125.456184497940882,11.19673939223982,0.0],[125.456276012879357,11.19673863962576,0.0],[125.456275250594985,11.196648284353785,0.0],[125.456366765498643,11.196647531717964,0.0],[125.456366003192514,11.196557176451584,0.0],[125.45636524089295,11.196466821184583,0.0],[125.45636447859988,11.196376465916959,0.0],[125.456363716313376,11.196286110648803,0.0],[125.456362954033452,11.196195755380025,0.0],[125.456362191760093,11.196105400110625,0.0],[125.456270677026438,11.196106152709053,0.0],[125.456271439271546,11.19619650798467,0.0],[125.456272201523149,11.196286863259665,0.0],[125.456272963781231,11.196377218534039,0.0],[125.456181448956087,11.196377971123141,0.0],[125.456182211192498,11.196468326403199,0.0],[125.456182973435389,11.196558681682724,0.0],[125.456091458547007,11.196559434256283,0.0],[125.456092220768141,11.196649789541404,0.0],[125.456000705844858,11.196650542093202,0.0],[125.456001468044221,11.196740897383918,0.0],[125.456002230250078,11.196831252674013,0.0],[125.455910715263641,11.196832005210357,0.0],[125.455911477447742,11.196922360506136,0.0],[125.455819962426403,11.19692311302072,0.0],[125.455820724588733,11.197013468322094,0.0],[125.455729209532493,11.197014220814918,0.0],[125.455729971673065,11.197104576121887,0.0],[125.455638456581909,11.197105328592951,0.0],[125.45563921870064,11.197195683905605,0.0],[125.455547703574751,11.197196436354908,0.0],[125.455548465671626,11.197286791673157,0.0],[125.45545695051085,11.197287544100789,0.0],[125.455457712585968,11.197377899424634,0.0],[125.455366197390276,11.197378651830416,0.0],[125.455366959443623,11.197469007159945,0.0],[125.455275444213029,11.197469759543967,0.0],[125.455276206244633,11.197560114879092,0.0],[125.455276968282789,11.197650470213684,0.0],[125.455185452988957,11.197651222582163,0.0],[125.455186215005284,11.197741577922351,0.0],[125.455094699676636,11.197742330269158,0.0],[125.455095461671192,11.197832685614941,0.0],[125.455096223672228,11.197923040960102,0.0],[125.455004708280342,11.197923793291366,0.0],[125.455005470259621,11.198014148642123,0.0],[125.455006232245466,11.198104503992347,0.0],[125.455006994237806,11.198194859342038,0.0],[125.455007756236711,11.198285214691019,0.0],[125.455008518242195,11.198375570039378,0.0],[125.455100033775835,11.198374817677028,0.0],[125.455100795816136,11.198465173018636,0.0],[125.455101557863003,11.198555528359712,0.0],[125.455193073446736,11.198554775956861,0.0],[125.455193835528519,11.198645131291098,0.0],[125.455194597616867,11.198735486624713,0.0],[125.455195359711695,11.198825841957706,0.0],[125.455286875373858,11.198825089508226,0.0],[125.455286113250594,11.19873473418145,0.0],[125.455285351134009,11.198644378854141,0.0],[125.455284589023904,11.198554023526121,0.0],[125.455376104594492,11.198553271067404,0.0],[125.455375342462617,11.198462915745068,0.0],[125.455283826920365,11.198463668197569,0.0],[125.455283064823305,11.198373312868394,0.0],[125.455282302732826,11.198282957538687,0.0],[125.455190787240667,11.198283709950775,0.0],[125.45519002518509,11.198193354614229,0.0],[125.455189263136091,11.198102999277062,0.0],[125.455188501093573,11.198012643939272,0.0],[125.455280016500652,11.198011891545836,0.0],[125.455279254436377,11.197921536213642,0.0],[125.455278492378582,11.197831180880915,0.0],[125.455370007722593,11.197830428471935,0.0],[125.455369245643041,11.197740073144892,0.0],[125.45546076095205,11.197739320714152,0.0],[125.455459998850742,11.197648965392705,0.0],[125.455459236755914,11.197558610070548,0.0],[125.455550752001784,11.197557857624354,0.0],[125.455549989885185,11.19746750230788,0.0]]],[[[125.4550199491093,11.19973090019424,0.0],[125.45502071121949,11.199821255533095,0.0],[125.454929195225958,11.199822007967033,0.0],[125.454929957314306,11.199912363311483,0.0],[125.454930719409219,11.200002718655401,0.0],[125.454839203352449,11.200003471073796,0.0],[125.454839965425521,11.200093826423309,0.0],[125.45474844933392,11.200094578819943,0.0],[125.454749211385149,11.200184934175141,0.0],[125.454749973443029,11.200275289529717,0.0],[125.45465845728819,11.200276041910808,0.0],[125.454659219324228,11.200366397270891,0.0],[125.454659981366831,11.200456752630529,0.0],[125.454568465148682,11.200457504996077,0.0],[125.454569227169529,11.200547860361223,0.0],[125.454569408496667,11.200569360747723,0.0],[125.454669569042125,11.200727758675491,0.0],[125.454753783830327,11.200727066293538,0.0],[125.454753021739847,11.200636710941893,0.0],[125.454752259655763,11.200546355589715,0.0],[125.454843775889103,11.200545603161995,0.0],[125.454843013783346,11.200455247815501,0.0],[125.45484225168407,11.200364892468297,0.0],[125.454933767854186,11.200364140025034,0.0],[125.454933005733068,11.200273784683603,0.0],[125.4549322436186,11.200183429341461,0.0],[125.455023759725478,11.200182676882655,0.0],[125.455022997589168,11.200092321546109,0.0],[125.455022235459339,11.20000196620903,0.0],[125.455113751503063,11.20000121373468,0.0],[125.455112989351477,11.199910858403197,0.0],[125.455112227206456,11.19982050307118,0.0],[125.455203743186857,11.199819750581288,0.0],[125.455202981020079,11.199729395254867,0.0],[125.455202218859782,11.199639039927824,0.0],[125.455293734776944,11.199638287422388,0.0],[125.45529297259489,11.199547932100941,0.0],[125.45529221041933,11.199457576778961,0.0],[125.455383726273325,11.199456824257982,0.0],[125.455382964076009,11.199366468941687,0.0],[125.455382201885243,11.199276113624681,0.0],[125.455381439700972,11.199185758307053,0.0],[125.45538067752328,11.199095402988892,0.0],[125.455472193257378,11.199094650464893,0.0],[125.455471431057916,11.199004295152328,0.0],[125.455470668864947,11.19891393983923,0.0],[125.455469906678545,11.198823584525421,0.0],[125.455469144498707,11.198733229211168,0.0],[125.455468382325364,11.198642873896205,0.0],[125.455467620158586,11.198552518580708,0.0],[125.455376104594492,11.198553271067404,0.0],[125.455376866732934,11.198643626389117,0.0],[125.45537762887794,11.198733981710298,0.0],[125.455378391029441,11.198824337030857,0.0],[125.455379153187508,11.198914692350794,0.0],[125.455287637503588,11.198915444834469,0.0],[125.455288399639812,11.199005800160002,0.0],[125.455289161782687,11.199096155485002,0.0],[125.455289923931971,11.19918651080938,0.0],[125.455198408156477,11.199187263283729,0.0],[125.455199170284089,11.199277618613703,0.0],[125.455199932418168,11.199367973943144,0.0],[125.45520069455884,11.199458329271962,0.0],[125.455109178691771,11.199459081736986,0.0],[125.455109940810587,11.199549437071401,0.0],[125.455110702936054,11.199639792405282,0.0],[125.455019187005675,11.199640544854763,0.0],[125.4550199491093,11.19973090019424,0.0]]],[[[125.456362191760093,11.196105400110625,0.0],[125.456453706487181,11.196104647484219,0.0],[125.45645294419198,11.196014292220415,0.0],[125.456452181903344,11.195923936956078,0.0],[125.456360667232929,11.195924689570049,0.0],[125.456361429493228,11.196015044840603,0.0],[125.456362191760093,11.196105400110625,0.0]]],[[[125.474995609543157,11.213300760141511,0.0],[125.475087128386406,11.213300000660588,0.0],[125.475086359102306,11.213209646773727,0.0],[125.474994840287565,11.213210406248521,0.0],[125.474903321466059,11.21321116569516,0.0],[125.474904090693414,11.213301519594545,0.0],[125.474904859927236,11.213391873493219,0.0],[125.4749963788055,11.213391114033968,0.0],[125.474995609543157,11.213300760141511,0.0]]],[[[125.474904859927236,11.213391873493219,0.0],[125.474813341042505,11.213392632924492,0.0],[125.47481411025457,11.213482986828851,0.0],[125.474814879473314,11.213573340732676,0.0],[125.474906398414802,11.213572581288879,0.0],[125.474905629167736,11.21348222739136,0.0],[125.474904859927236,11.213391873493219,0.0]]],[[[125.474723360525246,11.213574100148406,0.0],[125.474724129722134,11.213664454057827,0.0],[125.474815648698609,11.213663694635791,0.0],[125.474814879473314,11.213573340732676,0.0],[125.474723360525246,11.213574100148406,0.0]]],[[[125.474544168376042,11.214027388499883,0.0],[125.47445264926624,11.214028147862944,0.0],[125.474453418410988,11.214118501788263,0.0],[125.474544937549211,11.214117742418985,0.0],[125.474544168376042,11.214027388499883,0.0]]],[[[125.474453418410988,11.214118501788263,0.0],[125.47436189926627,11.214119261129653,0.0],[125.474270380114902,11.214120020442888,0.0],[125.474271149209471,11.214210374380109,0.0],[125.474362668389176,11.214209615060568,0.0],[125.474454187562387,11.214208855712961,0.0],[125.474453418410988,11.214118501788263,0.0]]],[[[125.47418193726142,11.214482195498611,0.0],[125.474181168175377,11.214391841556861,0.0],[125.474180399095999,11.214301487614577,0.0],[125.474271918310706,11.214300728316797,0.0],[125.474271149209471,11.214210374380109,0.0],[125.474179630023116,11.214211133671672,0.0],[125.474088110830266,11.214211892935257,0.0],[125.474088879874643,11.21430224688438,0.0],[125.473997360646806,11.214303006126205,0.0],[125.473998129669425,11.214393360081012,0.0],[125.47399889869871,11.214483714035286,0.0],[125.473907379407549,11.214484473261567,0.0],[125.473908148414978,11.214574827221526,0.0],[125.473908917429085,11.214665181180862,0.0],[125.473909686449744,11.214755535139577,0.0],[125.473910455476997,11.214845889097671,0.0],[125.4739112245109,11.214936243055231,0.0],[125.473911993551368,11.215026597012169,0.0],[125.473912762598417,11.215116950968486,0.0],[125.473913531652045,11.215207304924181,0.0],[125.473914300712323,11.215297658879344,0.0],[125.473915069779181,11.215388012833884,0.0],[125.47382355019748,11.215388772094894,0.0],[125.473824319242581,11.215479126055119,0.0],[125.473825088294163,11.215569480014722,0.0],[125.47382585735248,11.215659833973792,0.0],[125.473734337679133,11.215660593225564,0.0],[125.473735106715523,11.21575094719023,0.0],[125.473643587007274,11.215751706420242,0.0],[125.473644356021893,11.215842060390592,0.0],[125.473552836278557,11.215842819598844,0.0],[125.473553605271434,11.215933173574879,0.0],[125.473554374270876,11.216023527550291,0.0],[125.473462854464202,11.216024286743089,0.0],[125.473463623441887,11.216114640724186,0.0],[125.473464392426223,11.21620499470475,0.0],[125.473465161417053,11.216295348684692,0.0],[125.473373641518634,11.216296107868253,0.0],[125.473374410487708,11.216386461853791,0.0],[125.473465930414548,11.216385702663924,0.0],[125.473466699418609,11.216476056642623,0.0],[125.473467468429234,11.216566410620789,0.0],[125.47346823744644,11.216656764598245,0.0],[125.473559757451795,11.216656005361571,0.0],[125.473560526504087,11.216746359332276,0.0],[125.4736520465312,11.216745600061319,0.0],[125.473743566551732,11.216744840762296,0.0],[125.4738350865657,11.216744081435294,0.0],[125.473834317428242,11.216653727483418,0.0],[125.473742797442782,11.216654486804202,0.0],[125.473742028340396,11.216564132845487,0.0],[125.473741259244591,11.216473778886151,0.0],[125.473649739309138,11.216474538166345,0.0],[125.47364897024832,11.216384184200169,0.0],[125.473648201194081,11.216293830233461,0.0],[125.473647432146493,11.216203476266042,0.0],[125.473646663105399,11.21611312229809,0.0],[125.473738182927349,11.216112363043031,0.0],[125.473737413864484,11.216022009080675,0.0],[125.473828933651347,11.216021249803855,0.0],[125.473828164566726,11.215930895847183,0.0],[125.473827395488684,11.215840541889978,0.0],[125.473918915212209,11.215839782597616,0.0],[125.47391814611241,11.215749428646095,0.0],[125.474009665800949,11.215748669331973,0.0],[125.474008896679379,11.215658315386136,0.0],[125.474100416332931,11.215657556050253,0.0],[125.474099647189604,11.215567202110101,0.0],[125.474098878052843,11.215476848169327,0.0],[125.474007358455964,11.215477607492598,0.0],[125.474006589354119,11.215387253544897,0.0],[125.474005820258924,11.215296899596662,0.0],[125.474005051170309,11.215206545647717,0.0],[125.474004282088273,11.215116191698328,0.0],[125.474095801571636,11.215115432400104,0.0],[125.474095032467744,11.215025078456311,0.0],[125.474094263370603,11.214934724511895,0.0],[125.474093494279956,11.214844370566858,0.0],[125.474092725195959,11.214754016621288,0.0],[125.474091956118443,11.214663662675097,0.0],[125.474091187047591,11.214573308728284,0.0],[125.474090417983405,11.214482954780937,0.0],[125.47418193726142,11.214482195498611,0.0]],[[125.473917377019177,11.215659074693953,0.0],[125.473916607932608,11.215568720741189,0.0],[125.474008127564389,11.215567961439678,0.0],[125.474008896679379,11.215658315386136,0.0],[125.473917377019177,11.215659074693953,0.0]]],[[[125.474927940011312,11.216102490176596,0.0],[125.475019459740878,11.216101730529228,0.0],[125.475020229207686,11.216192084403122,0.0],[125.47502099868106,11.216282438276394,0.0],[125.475112518460719,11.216281678588437,0.0],[125.475111748958923,11.216191324721382,0.0],[125.475110979463793,11.216100970853795,0.0],[125.475110209975227,11.216010616985496,0.0],[125.475109440493327,11.215920263116754,0.0],[125.47501792082717,11.215921022779575,0.0],[125.474926401154349,11.215921782414508,0.0],[125.474834881475047,11.215922542021286,0.0],[125.474835650871782,11.216012895908946,0.0],[125.474836420275253,11.216103249795985,0.0],[125.474837189685203,11.216193603682491,0.0],[125.47492870944977,11.216192844056796,0.0],[125.474927940011312,11.216102490176596,0.0]]],[[[125.47493024834634,11.21637355181533,0.0],[125.475021768161,11.216372792149045,0.0],[125.47502099868106,11.216282438276394,0.0],[125.474929478894722,11.216283197936374,0.0],[125.47493024834634,11.21637355181533,0.0]]],[[[125.474017357379608,11.216652208757917,0.0],[125.474018126573739,11.216742562697181,0.0],[125.473926606573002,11.216743322080227,0.0],[125.473927375745376,11.216833676025175,0.0],[125.474018895774535,11.216832916635912,0.0],[125.47401966498181,11.216923270574021,0.0],[125.474020434195751,11.217013624511509,0.0],[125.474111954275088,11.217012865081568,0.0],[125.474111185032726,11.216922511150386,0.0],[125.474202705077161,11.216921751698685,0.0],[125.474201935813042,11.216831397773188,0.0],[125.474293455822391,11.216830638299726,0.0],[125.47438497582516,11.216829878798286,0.0],[125.474384206510862,11.216739524884691,0.0],[125.474475726478644,11.216738765361491,0.0],[125.474567246439847,11.216738005810313,0.0],[125.474566477075371,11.21664765190862,0.0],[125.474657997001586,11.216646892335682,0.0],[125.474749516921221,11.216646132734677,0.0],[125.474748747506652,11.216555778844974,0.0],[125.474840267391215,11.216555019222209,0.0],[125.474839497954875,11.21646466533819,0.0],[125.474931017804522,11.216463905693754,0.0],[125.47493024834634,11.21637355181533,0.0],[125.474838728525015,11.216374311453549,0.0],[125.474837959101833,11.216283957568287,0.0],[125.474837189685203,11.216193603682491,0.0],[125.474745669914157,11.21619436328012,0.0],[125.474746439302351,11.216284717172222,0.0],[125.47474720869721,11.216375071063702,0.0],[125.474655688862754,11.216375830645877,0.0],[125.474564169021704,11.216376590199985,0.0],[125.474564938366299,11.216466944103544,0.0],[125.474473418490263,11.216467703635892,0.0],[125.474474187813186,11.216558057545047,0.0],[125.474382667902148,11.216558817055635,0.0],[125.474291147984559,11.216559576538245,0.0],[125.474291917257204,11.21664993045939,0.0],[125.4742003973046,11.21665068992024,0.0],[125.474108877345444,11.216651449353112,0.0],[125.474017357379608,11.216652208757917,0.0]]],[[[125.47374664305363,11.217106256588718,0.0],[125.473745873918304,11.217015902633023,0.0],[125.473745104789444,11.216925548676706,0.0],[125.473744335667348,11.216835194719767,0.0],[125.473652815618394,11.216835954025097,0.0],[125.473653584712153,11.216926307988253,0.0],[125.473654353812577,11.217016661950787,0.0],[125.473655122919496,11.217107015912788,0.0],[125.473655892033065,11.217197369874167,0.0],[125.473747412195536,11.21719661054388,0.0],[125.47374664305363,11.217106256588718,0.0]]],[[[125.473657430280014,11.21737807779515,0.0],[125.473565910054219,11.217378837110072,0.0],[125.473566403797832,11.217436841798813,0.0],[125.473633564646278,11.217468636143384,0.0],[125.473658199413393,11.217468431754753,0.0],[125.473657430280014,11.21737807779515,0.0]]],[[[125.473842009098732,11.217557266974911,0.0],[125.473821149767247,11.217557440053859,0.0],[125.473842094985827,11.217567355644743,0.0],[125.473842009098732,11.217557266974911,0.0]]],[[[125.478434198618586,11.219416688217756,0.0],[125.478525719147513,11.219415927273115,0.0],[125.478617239669873,11.219415166300408,0.0],[125.478616468858377,11.219324812692879,0.0],[125.478707989345651,11.219324051698411,0.0],[125.478799509826445,11.219323290675966,0.0],[125.47879873896467,11.219232937080339,0.0],[125.478890259410477,11.219232176036133,0.0],[125.478889488527031,11.21914182244619,0.0],[125.478797968109646,11.219142583484178,0.0],[125.478706447685695,11.2191433444941,0.0],[125.478707218512383,11.219233698096566,0.0],[125.478615698053446,11.219234459084728,0.0],[125.478524177587843,11.219235220044823,0.0],[125.478524948364438,11.21932557365928,0.0],[125.478433427863834,11.219326334597703,0.0],[125.478341907356665,11.21932709550806,0.0],[125.478250386842916,11.21932785639035,0.0],[125.478250696802405,11.219364194834203,0.0],[125.47830746050397,11.219384833144845,0.0],[125.478434282534963,11.219426525437495,0.0],[125.478434198618586,11.219416688217756,0.0]]],[[[125.478980238032449,11.219050707796054,0.0],[125.47888871765015,11.219051468855714,0.0],[125.478889488527031,11.21914182244619,0.0],[125.478981008937652,11.219141061380224,0.0],[125.478980238032449,11.219050707796054,0.0]]]]}},
{"type":"Feature","properties":{"fid":59,"Var":2.0,"layer":"EasternSamar_Flood_5year","path":"C:/Users/cbposadas/Desktop/New folder/EasternSamar/EasternSamar_Flood_5year.shp","Risk Level":"Medium","fid_2":143,"SPI_Bridge":"143","Client_Bri":"275","Target Yea":"2027","REGION 202":"VIII","PROVINCE 2":"Eastern Samar","CD 2026":"Lone","NAME OF BR":"Cadac-an Bridge","MUNICIPALI":"Quinapondan","Barangay 2":"Poblacion, Anislag","LINEAR MET":"39","Point A.1":"11.17675","Point A.2":"125.493444","Point B.1":"11.176889","Point B.2":"125.493167","EIRR 2026":"0.12","NEW/REPLAC":"new","ARC 2026":"Quinapondan ARC","ESTIMATED":"104903253","Approach A":"6","Approach B":"6","Max Approa":"6","VALIDATION":"Green Zone","Road Class":"provincial road","Status 202":"submitted"},"geometry":{"type":"MultiPolygon","coordinates":[[[[125.450844680203303,11.19298805864193,0.0],[125.450753166068807,11.19298880934463,0.0],[125.450753208997966,11.192993911024979,0.0],[125.450821894882168,11.193168969356709,0.0],[125.450846200899846,11.193168769968011,0.0],[125.450845440548335,11.193078414305326,0.0],[125.450936954704673,11.193077663568431,0.0],[125.451028468854446,11.193076912803647,0.0],[125.451027708452841,11.192986557152686,0.0],[125.450936194331405,11.192987307911341,0.0],[125.450844680203303,11.19298805864193,0.0]]],[[[125.451500491068472,11.19478991522427,0.0],[125.451500559371752,11.194798028536134,0.0],[125.45157442158046,11.194970032176087,0.0],[125.45159352712821,11.194969875376472,0.0],[125.451592766419481,11.194879519775338,0.0],[125.451684281089982,11.194878768690455,0.0],[125.451683520359481,11.194788413095004,0.0],[125.45168275963546,11.194698057498844,0.0],[125.451591245021532,11.194698808571292,0.0],[125.451590484332328,11.194608452968382,0.0],[125.451498969740257,11.194609204006547,0.0],[125.451498209085955,11.194518848396886,0.0],[125.45140669451564,11.194519599400856,0.0],[125.451381085917333,11.194519809547101,0.0],[125.451497087329315,11.194789943157337,0.0],[125.451500491068472,11.19478991522427,0.0]]],[[[125.451685802570708,11.195059479879756,0.0],[125.451777317291388,11.19505872875455,0.0],[125.45177655651942,11.194968373166382,0.0],[125.451685041827062,11.194969124285372,0.0],[125.45159352712821,11.194969875376472,0.0],[125.451593910543153,11.195015416312032,0.0],[125.451604170694097,11.195039309224784,0.0],[125.451655957625107,11.19515008666837,0.0],[125.451686563320919,11.19514983547343,0.0],[125.451685802570708,11.195059479879756,0.0]]],[[[125.451687126803307,11.195216760669206,0.0],[125.451740120523368,11.195330119555704,0.0],[125.451779599646414,11.195329795515232,0.0],[125.451871114445609,11.195329044343396,0.0],[125.451870353625679,11.195238688763311,0.0],[125.451778838854892,11.19523943992893,0.0],[125.45177807806985,11.195149084342006,0.0],[125.451686563320919,11.19514983547343,0.0],[125.451687126803307,11.195216760669206,0.0]]],[[[125.451871875272033,11.195419399922947,0.0],[125.451782201965926,11.195420135985303,0.0],[125.451866364831432,11.19560016880256,0.0],[125.451873396944421,11.195600111080186,0.0],[125.451872636104952,11.195509755501877,0.0],[125.45196415095424,11.195509004289629,0.0],[125.451963390092914,11.195418648716917,0.0],[125.451871875272033,11.195419399922947,0.0]]],[[[125.452245544273197,11.196319950444746,0.0],[125.452244783268171,11.196229594896103,0.0],[125.45224402226961,11.196139239346838,0.0],[125.452152507241607,11.196139990686451,0.0],[125.452151746277963,11.196049635130347,0.0],[125.452150985320799,11.195959279573621,0.0],[125.452059470342988,11.195960030872911,0.0],[125.452058709420726,11.195869675309346,0.0],[125.452057948504944,11.195779319745249,0.0],[125.452057187595742,11.195688964180619,0.0],[125.45196567269636,11.19568971543319,0.0],[125.451908446255118,11.195690185191802,0.0],[125.452203016076453,11.196320299607418,0.0],[125.452245544273197,11.196319950444746,0.0]]],[[[125.455379153187508,11.198914692350794,0.0],[125.455378391029441,11.198824337030857,0.0],[125.45537762887794,11.198733981710298,0.0],[125.455376866732934,11.198643626389117,0.0],[125.455376104594492,11.198553271067404,0.0],[125.455284589023904,11.198554023526121,0.0],[125.455285351134009,11.198644378854141,0.0],[125.455286113250594,11.19873473418145,0.0],[125.455286875373858,11.198825089508226,0.0],[125.455287637503588,11.198915444834469,0.0],[125.455379153187508,11.198914692350794,0.0]]],[[[125.474008127564389,11.215567961439678,0.0],[125.473916607932608,11.215568720741189,0.0],[125.473917377019177,11.215659074693953,0.0],[125.474008896679379,11.215658315386136,0.0],[125.474008127564389,11.215567961439678,0.0]]],[[[125.47493024834634,11.21637355181533,0.0],[125.474929478894722,11.216283197936374,0.0],[125.47502099868106,11.216282438276394,0.0],[125.475020229207686,11.216192084403122,0.0],[125.475019459740878,11.216101730529228,0.0],[125.474927940011312,11.216102490176596,0.0],[125.47492870944977,11.216192844056796,0.0],[125.474837189685203,11.216193603682491,0.0],[125.474837959101833,11.216283957568287,0.0],[125.474838728525015,11.216374311453549,0.0],[125.47493024834634,11.21637355181533,0.0]]],[[[125.473842009098732,11.217557266974911,0.0],[125.473841239902029,11.217466913028453,0.0],[125.473840470711892,11.217376559081373,0.0],[125.473931990917976,11.217375799682518,0.0],[125.473931221705996,11.217285445741123,0.0],[125.473930452500767,11.217195091799105,0.0],[125.474021972643428,11.217194332384707,0.0],[125.474021203416257,11.217103978448375,0.0],[125.474020434195751,11.217013624511509,0.0],[125.47401966498181,11.216923270574021,0.0],[125.474018895774535,11.216832916635912,0.0],[125.473927375745376,11.216833676025175,0.0],[125.473926606573002,11.216743322080227,0.0],[125.4738350865657,11.216744081435294,0.0],[125.473743566551732,11.216744840762296,0.0],[125.4736520465312,11.216745600061319,0.0],[125.473652815618394,11.216835954025097,0.0],[125.473744335667348,11.216835194719767,0.0],[125.473745104789444,11.216925548676706,0.0],[125.473745873918304,11.217015902633023,0.0],[125.47374664305363,11.217106256588718,0.0],[125.473747412195536,11.21719661054388,0.0],[125.473655892033065,11.217197369874167,0.0],[125.473656661153299,11.217287723835014,0.0],[125.473657430280014,11.21737807779515,0.0],[125.473658199413393,11.217468431754753,0.0],[125.473633564646278,11.217468636143384,0.0],[125.473821149767247,11.217557440053859,0.0],[125.473842009098732,11.217557266974911,0.0]]]]}},
{"type":"Feature","properties":{"fid":60,"Var":3.0,"layer":"EasternSamar_Flood_5year","path":"C:/Users/cbposadas/Desktop/New folder/EasternSamar/EasternSamar_Flood_5year.shp","Risk Level":"High","fid_2":143,"SPI_Bridge":"143","Client_Bri":"275","Target Yea":"2027","REGION 202":"VIII","PROVINCE 2":"Eastern Samar","CD 2026":"Lone","NAME OF BR":"Cadac-an Bridge","MUNICIPALI":"Quinapondan","Barangay 2":"Poblacion, Anislag","LINEAR MET":"39","Point A.1":"11.17675","Point A.2":"125.493444","Point B.1":"11.176889","Point B.2":"125.493167","EIRR 2026":"0.12","NEW/REPLAC":"new","ARC 2026":"Quinapondan ARC","ESTIMATED":"104903253","Approach A":"6","Approach B":"6","Max Approa":"6","VALIDATION":"Green Zone","Road Class":"provincial road","Status 202":"submitted"},"geometry":{"type":"MultiPolygon","coordinates":[[[[125.451592766419481,11.194879519775338,0.0],[125.45159352712821,11.194969875376472,0.0],[125.451685041827062,11.194969124285372,0.0],[125.451684281089982,11.194878768690455,0.0],[125.451592766419481,11.194879519775338,0.0]]],[[[125.451685802570708,11.195059479879756,0.0],[125.451686563320919,11.19514983547343,0.0],[125.45177807806985,11.195149084342006,0.0],[125.451777317291388,11.19505872875455,0.0],[125.451685802570708,11.195059479879756,0.0]]],[[[125.451780326538298,11.195416124257369,0.0],[125.451782201965926,11.195420135985303,0.0],[125.451871875272033,11.195419399922947,0.0],[125.451871114445609,11.195329044343396,0.0],[125.451779599646414,11.195329795515232,0.0],[125.451780326538298,11.195416124257369,0.0]]],[[[125.451873396944421,11.195600111080186,0.0],[125.451873526428443,11.19561548817744,0.0],[125.451908446255118,11.195690185191802,0.0],[125.45196567269636,11.19568971543319,0.0],[125.45196491182206,11.195599359861721,0.0],[125.45196415095424,11.195509004289629,0.0],[125.451872636104952,11.195509755501877,0.0],[125.451873396944421,11.195600111080186,0.0]]]]}},
{"type":"Feature","properties":{"fid":61,"Var":1.0,"layer":"EasternSamar_Flood_5year","path":"C:/Users/cbposadas/Desktop/New folder/Samar/EasternSamar_Flood_5year.shp","Risk Level":"Low","fid_2":143,"SPI_Bridge":"143","Client_Bri":"275","Target Yea":"2027","REGION 202":"VIII","PROVINCE 2":"Eastern Samar","CD 2026":"Lone","NAME OF BR":"Cadac-an Bridge","MUNICIPALI":"Quinapondan","Barangay 2":"Poblacion, Anislag","LINEAR MET":"39","Point A.1":"11.17675","Point A.2":"125.493444","Point B.1":"11.176889","Point B.2":"125.493167","EIRR 2026":"0.12","NEW/REPLAC":"new","ARC 2026":"Quinapondan ARC","ESTIMATED":"104903253","Approach A":"6","Approach B":"6","Max Approa":"6","VALIDATION":"Green Zone","Road Class":"provincial road","Status 202":"submitted"},"geometry":{"type":"MultiPolygon","coordinates":[[[[125.451028468854446,11.193076912803647,0.0],[125.450936954704673,11.193077663568431,0.0],[125.450845440548335,11.193078414305326,0.0],[125.450846200899846,11.193168769968011,0.0],[125.450937715084521,11.193168019224988,0.0],[125.45102922926263,11.193167268453987,0.0],[125.451028468854446,11.193076912803647,0.0]]],[[[125.450846200899846,11.193168769968011,0.0],[125.450821894882168,11.193168969356709,0.0],[125.450846735345309,11.193232279745533,0.0],[125.450846200899846,11.193168769968011,0.0]]],[[[125.450844680203303,11.19298805864193,0.0],[125.450936194331405,11.192987307911341,0.0],[125.451027708452841,11.192986557152686,0.0],[125.451028468854446,11.193076912803647,0.0],[125.451119982997724,11.193076162010886,0.0],[125.451211497134437,11.193075411190147,0.0],[125.45130301126467,11.193074660341431,0.0],[125.45130225077807,11.192984304709121,0.0],[125.451210736676174,11.19298505555162,0.0],[125.451209976224462,11.192894699912561,0.0],[125.451118462144336,11.192895450720865,0.0],[125.451026948057716,11.192896201501192,0.0],[125.450935433964602,11.19289695225363,0.0],[125.450843919864937,11.192897702978001,0.0],[125.450752405758678,11.192898453674484,0.0],[125.450715872932008,11.192898753344538,0.0],[125.450753208997966,11.192993911024979,0.0],[125.450753166068807,11.19298880934463,0.0],[125.450844680203303,11.19298805864193,0.0]]],[[[125.451342418771475,11.194429764990495,0.0],[125.451381085917333,11.194519809547101,0.0],[125.45140669451564,11.194519599400856,0.0],[125.451405933896154,11.194429243784356,0.0],[125.451342418771475,11.194429764990495,0.0]]],[[[125.451498209085955,11.194518848396886,0.0],[125.451498969740257,11.194609204006547,0.0],[125.451590484332328,11.194608452968382,0.0],[125.451589723649704,11.194518097364849,0.0],[125.451498209085955,11.194518848396886,0.0]]],[[[125.45168275963546,11.194698057498844,0.0],[125.451681998917934,11.19460770190215,0.0],[125.451590484332328,11.194608452968382,0.0],[125.451591245021532,11.194698808571292,0.0],[125.45168275963546,11.194698057498844,0.0]]],[[[125.451775795754003,11.194878017577683,0.0],[125.451684281089982,11.194878768690455,0.0],[125.451685041827062,11.194969124285372,0.0],[125.45177655651942,11.194968373166382,0.0],[125.451775795754003,11.194878017577683,0.0]]],[[[125.45177807806985,11.195149084342006,0.0],[125.451778838854892,11.19523943992893,0.0],[125.451870353625679,11.195238688763311,0.0],[125.4518695928124,11.195148333182605,0.0],[125.45177807806985,11.195149084342006,0.0]]],[[[125.451871114445609,11.195329044343396,0.0],[125.451871875272033,11.195419399922947,0.0],[125.451963390092914,11.195418648716917,0.0],[125.451962629238153,11.195328293143671,0.0],[125.451871114445609,11.195329044343396,0.0]]],[[[125.451779599646414,11.195329795515232,0.0],[125.451740120523368,11.195330119555704,0.0],[125.451780326538298,11.195416124257369,0.0],[125.451779599646414,11.195329795515232,0.0]]],[[[125.45196491182206,11.195599359861721,0.0],[125.45196567269636,11.19568971543319,0.0],[125.452057187595742,11.195688964180619,0.0],[125.452056426693119,11.195598608615278,0.0],[125.45196491182206,11.195599359861721,0.0]]],[[[125.451866364831432,11.19560016880256,0.0],[125.451873526428443,11.19561548817744,0.0],[125.451873396944421,11.195600111080186,0.0],[125.451866364831432,11.19560016880256,0.0]]],[[[125.453063089843283,11.195590343058594,0.0],[125.452971575044089,11.195591094612702,0.0],[125.452972336230047,11.19568145011587,0.0],[125.452880821396022,11.195682201648218,0.0],[125.452789306555516,11.195682953152588,0.0],[125.452790067691382,11.195773308667569,0.0],[125.452698552815875,11.195774060150178,0.0],[125.452699313929983,11.195864415670755,0.0],[125.452790828833727,11.195863664181928,0.0],[125.452882343730906,11.195862912665124,0.0],[125.452881582560224,11.195772557156982,0.0],[125.452973097422571,11.195771805618417,0.0],[125.453064612278439,11.195771054051875,0.0],[125.453063851057578,11.195680698555545,0.0],[125.453155365878459,11.195679946967243,0.0],[125.453154604635827,11.195589591476509,0.0],[125.453063089843283,11.195590343058594,0.0]]],[[[125.452058709420726,11.195869675309346,0.0],[125.452059470342988,11.195960030872911,0.0],[125.452150985320799,11.195959279573621,0.0],[125.452150224370214,11.195868924016363,0.0],[125.452058709420726,11.195869675309346,0.0]]],[[[125.452243261277545,11.196048883796863,0.0],[125.452151746277963,11.196049635130347,0.0],[125.452152507241607,11.196139990686451,0.0],[125.45224402226961,11.196139239346838,0.0],[125.452243261277545,11.196048883796863,0.0]]],[[[125.453609894387327,11.195314766764099,0.0],[125.453518379712378,11.195315518467421,0.0],[125.453519141048716,11.195405873935062,0.0],[125.453610655751987,11.195405122225523,0.0],[125.453609894387327,11.195314766764099,0.0]]],[[[125.453519141048716,11.195405873935062,0.0],[125.45342762633895,11.195406625616535,0.0],[125.453336111622605,11.195407377270119,0.0],[125.45333687290875,11.195497732749573,0.0],[125.453428387653418,11.195496981089772,0.0],[125.453519902391605,11.195496229402082,0.0],[125.453519141048716,11.195405873935062,0.0]]],[[[125.453337634201475,11.195588088228405,0.0],[125.45333687290875,11.195497732749573,0.0],[125.453245358157503,11.195498484381396,0.0],[125.453153843399775,11.195499235985242,0.0],[125.453154604635827,11.195589591476509,0.0],[125.453246119421976,11.195588839866446,0.0],[125.453337634201475,11.195588088228405,0.0]]],[[[125.453072986138977,11.196764964472063,0.0],[125.45313194434334,11.196764480216849,0.0],[125.453164501299852,11.196764212809153,0.0],[125.453256016454247,11.196763461118266,0.0],[125.453347531602063,11.196762709399401,0.0],[125.453439046743384,11.196761957652559,0.0],[125.453530561878154,11.196761205877827,0.0],[125.45362207700633,11.196760454075029,0.0],[125.45371359212804,11.196759702244254,0.0],[125.45380510724317,11.19675895038559,0.0],[125.453804345723782,11.196668594945571,0.0],[125.453895860804096,11.196667843065057,0.0],[125.453987375877759,11.196667091156655,0.0],[125.454078890945013,11.196666339220187,0.0],[125.454170406005602,11.196665587255829,0.0],[125.454169644379462,11.196575231840058,0.0],[125.454168882759816,11.196484876423753,0.0],[125.454077367755787,11.196485628375676,0.0],[125.45407812934711,11.196575983798198,0.0],[125.453986614308278,11.196576735728449,0.0],[125.453895099262866,11.196577487630634,0.0],[125.453803584210888,11.19657823950493,0.0],[125.453712069152431,11.19657899135116,0.0],[125.453620554087394,11.196579743169501,0.0],[125.453529039015862,11.196580494959864,0.0],[125.453529800443761,11.196670850419157,0.0],[125.453438285337256,11.196671602187671,0.0],[125.453346770224343,11.196672353928296,0.0],[125.453255255104864,11.196673105640944,0.0],[125.453255072241447,11.196651403580795,0.0],[125.45325449376196,11.196582750163,0.0],[125.453162978664238,11.196583501841452,0.0],[125.453071463560036,11.196584253491928,0.0],[125.452979948449254,11.196585005114425,0.0],[125.452888433331907,11.196585756708945,0.0],[125.452887672108901,11.19649540120551,0.0],[125.45279615701341,11.196496152765835,0.0],[125.452704641911325,11.196496904298183,0.0],[125.452703880751486,11.196406548781781,0.0],[125.452612365671257,11.196407300279933,0.0],[125.452520850584463,11.196408051750108,0.0],[125.452520089487848,11.196317696220738,0.0],[125.452428574422811,11.196318447656719,0.0],[125.452427813361112,11.196228092120421,0.0],[125.452336298317832,11.196228843522206,0.0],[125.452335537291034,11.196138487979159,0.0],[125.45224402226961,11.196139239346838,0.0],[125.452244783268171,11.196229594896103,0.0],[125.452245544273197,11.196319950444746,0.0],[125.452203016076453,11.196320299607418,0.0],[125.452206595733117,11.196327956852329,0.0],[125.45224831132245,11.19641028952225,0.0],[125.452337820391236,11.196409554606525,0.0],[125.45242933549109,11.196408803192305,0.0],[125.452430096565934,11.196499158727359,0.0],[125.452521611687558,11.196498407278945,0.0],[125.452613126802774,11.196497655802553,0.0],[125.452613887940771,11.196588011324639,0.0],[125.452705403077658,11.196587259814052,0.0],[125.452706164250557,11.196677615329211,0.0],[125.452797679409301,11.196676863784429,0.0],[125.452889194561465,11.196676112211669,0.0],[125.452980709707148,11.196675360610932,0.0],[125.452981470971537,11.196765716106906,0.0],[125.453072986138977,11.196764964472063,0.0]]],[[[125.455549989885185,11.19746750230788,0.0],[125.455549227775165,11.197377146990785,0.0],[125.455640742957797,11.197376394529048,0.0],[125.455639980825936,11.197286039217637,0.0],[125.455731495973751,11.197285286734139,0.0],[125.455730733820118,11.197194931428324,0.0],[125.455822248933032,11.197194178922977,0.0],[125.455821486757642,11.197103823622847,0.0],[125.45591300183564,11.197103071095828,0.0],[125.455912239638408,11.197012715801293,0.0],[125.456003754681504,11.197011963252514,0.0],[125.456002992462587,11.196921607963574,0.0],[125.45609450747078,11.196920855393035,0.0],[125.456093745230021,11.19683050010978,0.0],[125.456185260203398,11.19682974751748,0.0],[125.456184497940882,11.19673939223982,0.0],[125.456276012879357,11.19673863962576,0.0],[125.456275250594985,11.196648284353785,0.0],[125.456366765498643,11.196647531717964,0.0],[125.456366003192514,11.196557176451584,0.0],[125.45636524089295,11.196466821184583,0.0],[125.45636447859988,11.196376465916959,0.0],[125.456363716313376,11.196286110648803,0.0],[125.456362954033452,11.196195755380025,0.0],[125.456362191760093,11.196105400110625,0.0],[125.456270677026438,11.196106152709053,0.0],[125.456271439271546,11.19619650798467,0.0],[125.456272201523149,11.196286863259665,0.0],[125.456272963781231,11.196377218534039,0.0],[125.456181448956087,11.196377971123141,0.0],[125.456182211192498,11.196468326403199,0.0],[125.456182973435389,11.196558681682724,0.0],[125.456091458547007,11.196559434256283,0.0],[125.456092220768141,11.196649789541404,0.0],[125.456000705844858,11.196650542093202,0.0],[125.456001468044221,11.196740897383918,0.0],[125.456002230250078,11.196831252674013,0.0],[125.455910715263641,11.196832005210357,0.0],[125.455911477447742,11.196922360506136,0.0],[125.455819962426403,11.19692311302072,0.0],[125.455820724588733,11.197013468322094,0.0],[125.455729209532493,11.197014220814918,0.0],[125.455729971673065,11.197104576121887,0.0],[125.455638456581909,11.197105328592951,0.0],[125.45563921870064,11.197195683905605,0.0],[125.455547703574751,11.197196436354908,0.0],[125.455548465671626,11.197286791673157,0.0],[125.45545695051085,11.197287544100789,0.0],[125.455457712585968,11.197377899424634,0.0],[125.455366197390276,11.197378651830416,0.0],[125.455366959443623,11.197469007159945,0.0],[125.455275444213029,11.197469759543967,0.0],[125.455276206244633,11.197560114879092,0.0],[125.455276968282789,11.197650470213684,0.0],[125.455185452988957,11.197651222582163,0.0],[125.455186215005284,11.197741577922351,0.0],[125.455094699676636,11.197742330269158,0.0],[125.455095461671192,11.197832685614941,0.0],[125.455096223672228,11.197923040960102,0.0],[125.455004708280342,11.197923793291366,0.0],[125.455005470259621,11.198014148642123,0.0],[125.455006232245466,11.198104503992347,0.0],[125.455006994237806,11.198194859342038,0.0],[125.455007756236711,11.198285214691019,0.0],[125.455008518242195,11.198375570039378,0.0],[125.455100033775835,11.198374817677028,0.0],[125.455100795816136,11.198465173018636,0.0],[125.455101557863003,11.198555528359712,0.0],[125.455193073446736,11.198554775956861,0.0],[125.455193835528519,11.198645131291098,0.0],[125.455194597616867,11.198735486624713,0.0],[125.455195359711695,11.198825841957706,0.0],[125.455286875373858,11.198825089508226,0.0],[125.455286113250594,11.19873473418145,0.0],[125.455285351134009,11.198644378854141,0.0],[125.455284589023904,11.198554023526121,0.0],[125.455376104594492,11.198553271067404,0.0],[125.455375342462617,11.198462915745068,0.0],[125.455283826920365,11.198463668197569,0.0],[125.455283064823305,11.198373312868394,0.0],[125.455282302732826,11.198282957538687,0.0],[125.455190787240667,11.198283709950775,0.0],[125.45519002518509,11.198193354614229,0.0],[125.455189263136091,11.198102999277062,0.0],[125.455188501093573,11.198012643939272,0.0],[125.455280016500652,11.198011891545836,0.0],[125.455279254436377,11.197921536213642,0.0],[125.455278492378582,11.197831180880915,0.0],[125.455370007722593,11.197830428471935,0.0],[125.455369245643041,11.197740073144892,0.0],[125.45546076095205,11.197739320714152,0.0],[125.455459998850742,11.197648965392705,0.0],[125.455459236755914,11.197558610070548,0.0],[125.455550752001784,11.197557857624354,0.0],[125.455549989885185,11.19746750230788,0.0]]],[[[125.4550199491093,11.19973090019424,0.0],[125.45502071121949,11.199821255533095,0.0],[125.454929195225958,11.199822007967033,0.0],[125.454929957314306,11.199912363311483,0.0],[125.454930719409219,11.200002718655401,0.0],[125.454839203352449,11.200003471073796,0.0],[125.454839965425521,11.200093826423309,0.0],[125.45474844933392,11.200094578819943,0.0],[125.454749211385149,11.200184934175141,0.0],[125.454749973443029,11.200275289529717,0.0],[125.45465845728819,11.200276041910808,0.0],[125.454659219324228,11.200366397270891,0.0],[125.454659981366831,11.200456752630529,0.0],[125.454568465148682,11.200457504996077,0.0],[125.454569227169529,11.200547860361223,0.0],[125.454569408496667,11.200569360747723,0.0],[125.454669569042125,11.200727758675491,0.0],[125.454753783830327,11.200727066293538,0.0],[125.454753021739847,11.200636710941893,0.0],[125.454752259655763,11.200546355589715,0.0],[125.454843775889103,11.200545603161995,0.0],[125.454843013783346,11.200455247815501,0.0],[125.45484225168407,11.200364892468297,0.0],[125.454933767854186,11.200364140025034,0.0],[125.454933005733068,11.200273784683603,0.0],[125.4549322436186,11.200183429341461,0.0],[125.455023759725478,11.200182676882655,0.0],[125.455022997589168,11.200092321546109,0.0],[125.455022235459339,11.20000196620903,0.0],[125.455113751503063,11.20000121373468,0.0],[125.455112989351477,11.199910858403197,0.0],[125.455112227206456,11.19982050307118,0.0],[125.455203743186857,11.199819750581288,0.0],[125.455202981020079,11.199729395254867,0.0],[125.455202218859782,11.199639039927824,0.0],[125.455293734776944,11.199638287422388,0.0],[125.45529297259489,11.199547932100941,0.0],[125.45529221041933,11.199457576778961,0.0],[125.455383726273325,11.199456824257982,0.0],[125.455382964076009,11.199366468941687,0.0],[125.455382201885243,11.199276113624681,0.0],[125.455381439700972,11.199185758307053,0.0],[125.45538067752328,11.199095402988892,0.0],[125.455472193257378,11.199094650464893,0.0],[125.455471431057916,11.199004295152328,0.0],[125.455470668864947,11.19891393983923,0.0],[125.455469906678545,11.198823584525421,0.0],[125.455469144498707,11.198733229211168,0.0],[125.455468382325364,11.198642873896205,0.0],[125.455467620158586,11.198552518580708,0.0],[125.455376104594492,11.198553271067404,0.0],[125.455376866732934,11.198643626389117,0.0],[125.45537762887794,11.198733981710298,0.0],[125.455378391029441,11.198824337030857,0.0],[125.455379153187508,11.198914692350794,0.0],[125.455287637503588,11.198915444834469,0.0],[125.455288399639812,11.199005800160002,0.0],[125.455289161782687,11.199096155485002,0.0],[125.455289923931971,11.19918651080938,0.0],[125.455198408156477,11.199187263283729,0.0],[125.455199170284089,11.199277618613703,0.0],[125.455199932418168,11.199367973943144,0.0],[125.45520069455884,11.199458329271962,0.0],[125.455109178691771,11.199459081736986,0.0],[125.455109940810587,11.199549437071401,0.0],[125.455110702936054,11.199639792405282,0.0],[125.455019187005675,11.199640544854763,0.0],[125.4550199491093,11.19973090019424,0.0]]],[[[125.456362191760093,11.196105400110625,0.0],[125.456453706487181,11.196104647484219,0.0],[125.45645294419198,11.196014292220415,0.0],[125.456452181903344,11.195923936956078,0.0],[125.456360667232929,11.195924689570049,0.0],[125.456361429493228,11.196015044840603,0.0],[125.456362191760093,11.196105400110625,0.0]]],[[[125.474995609543157,11.213300760141511,0.0],[125.475087128386406,11.213300000660588,0.0],[125.475086359102306,11.213209646773727,0.0],[125.474994840287565,11.213210406248521,0.0],[125.474903321466059,11.21321116569516,0.0],[125.474904090693414,11.213301519594545,0.0],[125.474904859927236,11.213391873493219,0.0],[125.4749963788055,11.213391114033968,0.0],[125.474995609543157,11.213300760141511,0.0]]],[[[125.474904859927236,11.213391873493219,0.0],[125.474813341042505,11.213392632924492,0.0],[125.47481411025457,11.213482986828851,0.0],[125.474814879473314,11.213573340732676,0.0],[125.474906398414802,11.213572581288879,0.0],[125.474905629167736,11.21348222739136,0.0],[125.474904859927236,11.213391873493219,0.0]]],[[[125.474723360525246,11.213574100148406,0.0],[125.474724129722134,11.213664454057827,0.0],[125.474815648698609,11.213663694635791,0.0],[125.474814879473314,11.213573340732676,0.0],[125.474723360525246,11.213574100148406,0.0]]],[[[125.474544168376042,11.214027388499883,0.0],[125.47445264926624,11.214028147862944,0.0],[125.474453418410988,11.214118501788263,0.0],[125.474544937549211,11.214117742418985,0.0],[125.474544168376042,11.214027388499883,0.0]]],[[[125.474453418410988,11.214118501788263,0.0],[125.47436189926627,11.214119261129653,0.0],[125.474270380114902,11.214120020442888,0.0],[125.474271149209471,11.214210374380109,0.0],[125.474362668389176,11.214209615060568,0.0],[125.474454187562387,11.214208855712961,0.0],[125.474453418410988,11.214118501788263,0.0]]],[[[125.47418193726142,11.214482195498611,0.0],[125.474181168175377,11.214391841556861,0.0],[125.474180399095999,11.214301487614577,0.0],[125.474271918310706,11.214300728316797,0.0],[125.474271149209471,11.214210374380109,0.0],[125.474179630023116,11.214211133671672,0.0],[125.474088110830266,11.214211892935257,0.0],[125.474088879874643,11.21430224688438,0.0],[125.473997360646806,11.214303006126205,0.0],[125.473998129669425,11.214393360081012,0.0],[125.47399889869871,11.214483714035286,0.0],[125.473907379407549,11.214484473261567,0.0],[125.473908148414978,11.214574827221526,0.0],[125.473908917429085,11.214665181180862,0.0],[125.473909686449744,11.214755535139577,0.0],[125.473910455476997,11.214845889097671,0.0],[125.4739112245109,11.214936243055231,0.0],[125.473911993551368,11.215026597012169,0.0],[125.473912762598417,11.215116950968486,0.0],[125.473913531652045,11.215207304924181,0.0],[125.473914300712323,11.215297658879344,0.0],[125.473915069779181,11.215388012833884,0.0],[125.47382355019748,11.215388772094894,0.0],[125.473824319242581,11.215479126055119,0.0],[125.473825088294163,11.215569480014722,0.0],[125.47382585735248,11.215659833973792,0.0],[125.473734337679133,11.215660593225564,0.0],[125.473735106715523,11.21575094719023,0.0],[125.473643587007274,11.215751706420242,0.0],[125.473644356021893,11.215842060390592,0.0],[125.473552836278557,11.215842819598844,0.0],[125.473553605271434,11.215933173574879,0.0],[125.473554374270876,11.216023527550291,0.0],[125.473462854464202,11.216024286743089,0.0],[125.473463623441887,11.216114640724186,0.0],[125.473464392426223,11.21620499470475,0.0],[125.473465161417053,11.216295348684692,0.0],[125.473373641518634,11.216296107868253,0.0],[125.473374410487708,11.216386461853791,0.0],[125.473465930414548,11.216385702663924,0.0],[125.473466699418609,11.216476056642623,0.0],[125.473467468429234,11.216566410620789,0.0],[125.47346823744644,11.216656764598245,0.0],[125.473559757451795,11.216656005361571,0.0],[125.473560526504087,11.216746359332276,0.0],[125.4736520465312,11.216745600061319,0.0],[125.473743566551732,11.216744840762296,0.0],[125.4738350865657,11.216744081435294,0.0],[125.473834317428242,11.216653727483418,0.0],[125.473742797442782,11.216654486804202,0.0],[125.473742028340396,11.216564132845487,0.0],[125.473741259244591,11.216473778886151,0.0],[125.473649739309138,11.216474538166345,0.0],[125.47364897024832,11.216384184200169,0.0],[125.473648201194081,11.216293830233461,0.0],[125.473647432146493,11.216203476266042,0.0],[125.473646663105399,11.21611312229809,0.0],[125.473738182927349,11.216112363043031,0.0],[125.473737413864484,11.216022009080675,0.0],[125.473828933651347,11.216021249803855,0.0],[125.473828164566726,11.215930895847183,0.0],[125.473827395488684,11.215840541889978,0.0],[125.473918915212209,11.215839782597616,0.0],[125.47391814611241,11.215749428646095,0.0],[125.474009665800949,11.215748669331973,0.0],[125.474008896679379,11.215658315386136,0.0],[125.474100416332931,11.215657556050253,0.0],[125.474099647189604,11.215567202110101,0.0],[125.474098878052843,11.215476848169327,0.0],[125.474007358455964,11.215477607492598,0.0],[125.474006589354119,11.215387253544897,0.0],[125.474005820258924,11.215296899596662,0.0],[125.474005051170309,11.215206545647717,0.0],[125.474004282088273,11.215116191698328,0.0],[125.474095801571636,11.215115432400104,0.0],[125.474095032467744,11.215025078456311,0.0],[125.474094263370603,11.214934724511895,0.0],[125.474093494279956,11.214844370566858,0.0],[125.474092725195959,11.214754016621288,0.0],[125.474091956118443,11.214663662675097,0.0],[125.474091187047591,11.214573308728284,0.0],[125.474090417983405,11.214482954780937,0.0],[125.47418193726142,11.214482195498611,0.0]],[[125.473917377019177,11.215659074693953,0.0],[125.473916607932608,11.215568720741189,0.0],[125.474008127564389,11.215567961439678,0.0],[125.474008896679379,11.215658315386136,0.0],[125.473917377019177,11.215659074693953,0.0]]],[[[125.474927940011312,11.216102490176596,0.0],[125.475019459740878,11.216101730529228,0.0],[125.475020229207686,11.216192084403122,0.0],[125.47502099868106,11.216282438276394,0.0],[125.475112518460719,11.216281678588437,0.0],[125.475111748958923,11.216191324721382,0.0],[125.475110979463793,11.216100970853795,0.0],[125.475110209975227,11.216010616985496,0.0],[125.475109440493327,11.215920263116754,0.0],[125.47501792082717,11.215921022779575,0.0],[125.474926401154349,11.215921782414508,0.0],[125.474834881475047,11.215922542021286,0.0],[125.474835650871782,11.216012895908946,0.0],[125.474836420275253,11.216103249795985,0.0],[125.474837189685203,11.216193603682491,0.0],[125.47492870944977,11.216192844056796,0.0],[125.474927940011312,11.216102490176596,0.0]]],[[[125.47493024834634,11.21637355181533,0.0],[125.475021768161,11.216372792149045,0.0],[125.47502099868106,11.216282438276394,0.0],[125.474929478894722,11.216283197936374,0.0],[125.47493024834634,11.21637355181533,0.0]]],[[[125.474017357379608,11.216652208757917,0.0],[125.474018126573739,11.216742562697181,0.0],[125.473926606573002,11.216743322080227,0.0],[125.473927375745376,11.216833676025175,0.0],[125.474018895774535,11.216832916635912,0.0],[125.47401966498181,11.216923270574021,0.0],[125.474020434195751,11.217013624511509,0.0],[125.474111954275088,11.217012865081568,0.0],[125.474111185032726,11.216922511150386,0.0],[125.474202705077161,11.216921751698685,0.0],[125.474201935813042,11.216831397773188,0.0],[125.474293455822391,11.216830638299726,0.0],[125.47438497582516,11.216829878798286,0.0],[125.474384206510862,11.216739524884691,0.0],[125.474475726478644,11.216738765361491,0.0],[125.474567246439847,11.216738005810313,0.0],[125.474566477075371,11.21664765190862,0.0],[125.474657997001586,11.216646892335682,0.0],[125.474749516921221,11.216646132734677,0.0],[125.474748747506652,11.216555778844974,0.0],[125.474840267391215,11.216555019222209,0.0],[125.474839497954875,11.21646466533819,0.0],[125.474931017804522,11.216463905693754,0.0],[125.47493024834634,11.21637355181533,0.0],[125.474838728525015,11.216374311453549,0.0],[125.474837959101833,11.216283957568287,0.0],[125.474837189685203,11.216193603682491,0.0],[125.474745669914157,11.21619436328012,0.0],[125.474746439302351,11.216284717172222,0.0],[125.47474720869721,11.216375071063702,0.0],[125.474655688862754,11.216375830645877,0.0],[125.474564169021704,11.216376590199985,0.0],[125.474564938366299,11.216466944103544,0.0],[125.474473418490263,11.216467703635892,0.0],[125.474474187813186,11.216558057545047,0.0],[125.474382667902148,11.216558817055635,0.0],[125.474291147984559,11.216559576538245,0.0],[125.474291917257204,11.21664993045939,0.0],[125.4742003973046,11.21665068992024,0.0],[125.474108877345444,11.216651449353112,0.0],[125.474017357379608,11.216652208757917,0.0]]],[[[125.47374664305363,11.217106256588718,0.0],[125.473745873918304,11.217015902633023,0.0],[125.473745104789444,11.216925548676706,0.0],[125.473744335667348,11.216835194719767,0.0],[125.473652815618394,11.216835954025097,0.0],[125.473653584712153,11.216926307988253,0.0],[125.473654353812577,11.217016661950787,0.0],[125.473655122919496,11.217107015912788,0.0],[125.473655892033065,11.217197369874167,0.0],[125.473747412195536,11.21719661054388,0.0],[125.47374664305363,11.217106256588718,0.0]]],[[[125.473657430280014,11.21737807779515,0.0],[125.473565910054219,11.217378837110072,0.0],[125.473566403797832,11.217436841798813,0.0],[125.473633564646278,11.217468636143384,0.0],[125.473658199413393,11.217468431754753,0.0],[125.473657430280014,11.21737807779515,0.0]]],[[[125.473842009098732,11.217557266974911,0.0],[125.473821149767247,11.217557440053859,0.0],[125.473842094985827,11.217567355644743,0.0],[125.473842009098732,11.217557266974911,0.0]]],[[[125.478434198618586,11.219416688217756,0.0],[125.478525719147513,11.219415927273115,0.0],[125.478617239669873,11.219415166300408,0.0],[125.478616468858377,11.219324812692879,0.0],[125.478707989345651,11.219324051698411,0.0],[125.478799509826445,11.219323290675966,0.0],[125.47879873896467,11.219232937080339,0.0],[125.478890259410477,11.219232176036133,0.0],[125.478889488527031,11.21914182244619,0.0],[125.478797968109646,11.219142583484178,0.0],[125.478706447685695,11.2191433444941,0.0],[125.478707218512383,11.219233698096566,0.0],[125.478615698053446,11.219234459084728,0.0],[125.478524177587843,11.219235220044823,0.0],[125.478524948364438,11.21932557365928,0.0],[125.478433427863834,11.219326334597703,0.0],[125.478341907356665,11.21932709550806,0.0],[125.478250386842916,11.21932785639035,0.0],[125.478250696802405,11.219364194834203,0.0],[125.47830746050397,11.219384833144845,0.0],[125.478434282534963,11.219426525437495,0.0],[125.478434198618586,11.219416688217756,0.0]]],[[[125.478980238032449,11.219050707796054,0.0],[125.47888871765015,11.219051468855714,0.0],[125.478889488527031,11.21914182244619,0.0],[125.478981008937652,11.219141061380224,0.0],[125.478980238032449,11.219050707796054,0.0]]]]}},
{"type":"Feature","properties":{"fid":62,"Var":2.0,"layer":"EasternSamar_Flood_5year","path":"C:/Users/cbposadas/Desktop/New folder/Samar/EasternSamar_Flood_5year.shp","Risk Level":"Medium","fid_2":143,"SPI_Bridge":"143","Client_Bri":"275","Target Yea":"2027","REGION 202":"VIII","PROVINCE 2":"Eastern Samar","CD 2026":"Lone","NAME OF BR":"Cadac-an Bridge","MUNICIPALI":"Quinapondan","Barangay 2":"Poblacion, Anislag","LINEAR MET":"39","Point A.1":"11.17675","Point A.2":"125.493444","Point B.1":"11.176889","Point B.2":"125.493167","EIRR 2026":"0.12","NEW/REPLAC":"new","ARC 2026":"Quinapondan ARC","ESTIMATED":"104903253","Approach A":"6","Approach B":"6","Max Approa":"6","VALIDATION":"Green Zone","Road Class":"provincial road","Status 202":"submitted"},"geometry":{"type":"MultiPolygon","coordinates":[[[[125.450844680203303,11.19298805864193,0.0],[125.450753166068807,11.19298880934463,0.0],[125.450753208997966,11.192993911024979,0.0],[125.450821894882168,11.193168969356709,0.0],[125.450846200899846,11.193168769968011,0.0],[125.450845440548335,11.193078414305326,0.0],[125.450936954704673,11.193077663568431,0.0],[125.451028468854446,11.193076912803647,0.0],[125.451027708452841,11.192986557152686,0.0],[125.450936194331405,11.192987307911341,0.0],[125.450844680203303,11.19298805864193,0.0]]],[[[125.451500491068472,11.19478991522427,0.0],[125.451500559371752,11.194798028536134,0.0],[125.45157442158046,11.194970032176087,0.0],[125.45159352712821,11.194969875376472,0.0],[125.451592766419481,11.194879519775338,0.0],[125.451684281089982,11.194878768690455,0.0],[125.451683520359481,11.194788413095004,0.0],[125.45168275963546,11.194698057498844,0.0],[125.451591245021532,11.194698808571292,0.0],[125.451590484332328,11.194608452968382,0.0],[125.451498969740257,11.194609204006547,0.0],[125.451498209085955,11.194518848396886,0.0],[125.45140669451564,11.194519599400856,0.0],[125.451381085917333,11.194519809547101,0.0],[125.451497087329315,11.194789943157337,0.0],[125.451500491068472,11.19478991522427,0.0]]],[[[125.451685802570708,11.195059479879756,0.0],[125.451777317291388,11.19505872875455,0.0],[125.45177655651942,11.194968373166382,0.0],[125.451685041827062,11.194969124285372,0.0],[125.45159352712821,11.194969875376472,0.0],[125.451593910543153,11.195015416312032,0.0],[125.451604170694097,11.195039309224784,0.0],[125.451655957625107,11.19515008666837,0.0],[125.451686563320919,11.19514983547343,0.0],[125.451685802570708,11.195059479879756,0.0]]],[[[125.451687126803307,11.195216760669206,0.0],[125.451740120523368,11.195330119555704,0.0],[125.451779599646414,11.195329795515232,0.0],[125.451871114445609,11.195329044343396,0.0],[125.451870353625679,11.195238688763311,0.0],[125.451778838854892,11.19523943992893,0.0],[125.45177807806985,11.195149084342006,0.0],[125.451686563320919,11.19514983547343,0.0],[125.451687126803307,11.195216760669206,0.0]]],[[[125.451871875272033,11.195419399922947,0.0],[125.451782201965926,11.195420135985303,0.0],[125.451866364831432,11.19560016880256,0.0],[125.451873396944421,11.195600111080186,0.0],[125.451872636104952,11.195509755501877,0.0],[125.45196415095424,11.195509004289629,0.0],[125.451963390092914,11.195418648716917,0.0],[125.451871875272033,11.195419399922947,0.0]]],[[[125.452245544273197,11.196319950444746,0.0],[125.452244783268171,11.196229594896103,0.0],[125.45224402226961,11.196139239346838,0.0],[125.452152507241607,11.196139990686451,0.0],[125.452151746277963,11.196049635130347,0.0],[125.452150985320799,11.195959279573621,0.0],[125.452059470342988,11.195960030872911,0.0],[125.452058709420726,11.195869675309346,0.0],[125.452057948504944,11.195779319745249,0.0],[125.452057187595742,11.195688964180619,0.0],[125.45196567269636,11.19568971543319,0.0],[125.451908446255118,11.195690185191802,0.0],[125.452203016076453,11.196320299607418,0.0],[125.452245544273197,11.196319950444746,0.0]]],[[[125.455379153187508,11.198914692350794,0.0],[125.455378391029441,11.198824337030857,0.0],[125.45537762887794,11.198733981710298,0.0],[125.455376866732934,11.198643626389117,0.0],[125.455376104594492,11.198553271067404,0.0],[125.455284589023904,11.198554023526121,0.0],[125.455285351134009,11.198644378854141,0.0],[125.455286113250594,11.19873473418145,0.0],[125.455286875373858,11.198825089508226,0.0],[125.455287637503588,11.198915444834469,0.0],[125.455379153187508,11.198914692350794,0.0]]],[[[125.474008127564389,11.215567961439678,0.0],[125.473916607932608,11.215568720741189,0.0],[125.473917377019177,11.215659074693953,0.0],[125.474008896679379,11.215658315386136,0.0],[125.474008127564389,11.215567961439678,0.0]]],[[[125.47493024834634,11.21637355181533,0.0],[125.474929478894722,11.216283197936374,0.0],[125.47502099868106,11.216282438276394,0.0],[125.475020229207686,11.216192084403122,0.0],[125.475019459740878,11.216101730529228,0.0],[125.474927940011312,11.216102490176596,0.0],[125.47492870944977,11.216192844056796,0.0],[125.474837189685203,11.216193603682491,0.0],[125.474837959101833,11.216283957568287,0.0],[125.474838728525015,11.216374311453549,0.0],[125.47493024834634,11.21637355181533,0.0]]],[[[125.473842009098732,11.217557266974911,0.0],[125.473841239902029,11.217466913028453,0.0],[125.473840470711892,11.217376559081373,0.0],[125.473931990917976,11.217375799682518,0.0],[125.473931221705996,11.217285445741123,0.0],[125.473930452500767,11.217195091799105,0.0],[125.474021972643428,11.217194332384707,0.0],[125.474021203416257,11.217103978448375,0.0],[125.474020434195751,11.217013624511509,0.0],[125.47401966498181,11.216923270574021,0.0],[125.474018895774535,11.216832916635912,0.0],[125.473927375745376,11.216833676025175,0.0],[125.473926606573002,11.216743322080227,0.0],[125.4738350865657,11.216744081435294,0.0],[125.473743566551732,11.216744840762296,0.0],[125.4736520465312,11.216745600061319,0.0],[125.473652815618394,11.216835954025097,0.0],[125.473744335667348,11.216835194719767,0.0],[125.473745104789444,11.216925548676706,0.0],[125.473745873918304,11.217015902633023,0.0],[125.47374664305363,11.217106256588718,0.0],[125.473747412195536,11.21719661054388,0.0],[125.473655892033065,11.217197369874167,0.0],[125.473656661153299,11.217287723835014,0.0],[125.473657430280014,11.21737807779515,0.0],[125.473658199413393,11.217468431754753,0.0],[125.473633564646278,11.217468636143384,0.0],[125.473821149767247,11.217557440053859,0.0],[125.473842009098732,11.217557266974911,0.0]]]]}},
{"type":"Feature","properties":{"fid":63,"Var":3.0,"layer":"EasternSamar_Flood_5year","path":"C:/Users/cbposadas/Desktop/New folder/Samar/EasternSamar_Flood_5year.shp","Risk Level":"High","fid_2":143,"SPI_Bridge":"143","Client_Bri":"275","Target Yea":"2027","REGION 202":"VIII","PROVINCE 2":"Eastern Samar","CD 2026":"Lone","NAME OF BR":"Cadac-an Bridge","MUNICIPALI":"Quinapondan","Barangay 2":"Poblacion, Anislag","LINEAR MET":"39","Point A.1":"11.17675","Point A.2":"125.493444","Point B.1":"11.176889","Point B.2":"125.493167","EIRR 2026":"0.12","NEW/REPLAC":"new","ARC 2026":"Quinapondan ARC","ESTIMATED":"104903253","Approach A":"6","Approach B":"6","Max Approa":"6","VALIDATION":"Green Zone","Road Class":"provincial road","Status 202":"submitted"},"geometry":{"type":"MultiPolygon","coordinates":[[[[125.451592766419481,11.194879519775338,0.0],[125.45159352712821,11.194969875376472,0.0],[125.451685041827062,11.194969124285372,0.0],[125.451684281089982,11.194878768690455,0.0],[125.451592766419481,11.194879519775338,0.0]]],[[[125.451685802570708,11.195059479879756,0.0],[125.451686563320919,11.19514983547343,0.0],[125.45177807806985,11.195149084342006,0.0],[125.451777317291388,11.19505872875455,0.0],[125.451685802570708,11.195059479879756,0.0]]],[[[125.451780326538298,11.195416124257369,0.0],[125.451782201965926,11.195420135985303,0.0],[125.451871875272033,11.195419399922947,0.0],[125.451871114445609,11.195329044343396,0.0],[125.451779599646414,11.195329795515232,0.0],[125.451780326538298,11.195416124257369,0.0]]],[[[125.451873396944421,11.195600111080186,0.0],[125.451873526428443,11.19561548817744,0.0],[125.451908446255118,11.195690185191802,0.0],[125.45196567269636,11.19568971543319,0.0],[125.45196491182206,11.195599359861721,0.0],[125.45196415095424,11.195509004289629,0.0],[125.451872636104952,11.195509755501877,0.0],[125.451873396944421,11.195600111080186,0.0]]]]}}
]
}
