{
"type": "FeatureCollection",
"name": "SPI_Bridge_340",
"crs": { "type": "name", "properties": { "name": "urn:ogc:def:crs:OGC::CRS84" } },
"xy_coordinate_resolution": 1e-15,
"features": [
{"type":"Feature","properties":{"fid":13,"Var":1.0,"layer":"Bohol_Flood_5year","path":"C:/Users/cbposadas/Desktop/New folder/Bohol/Bohol_Flood_5year.shp","Risk Level":"Low","fid_2":340,"SPI_Bridge":"340","Client_Bri":"251","Target Yea":"2029","REGION 202":"VII","PROVINCE 2":"Bohol","CD 2026":"2nd","NAME OF BR":"Donghoy Bridge","MUNICIPALI":"Danao","Barangay 2":"Catubo, Remedios","LINEAR MET":"50","Point A.1":"9.969728","Point A.2":"124.226662","Point B.1":"9.970128","Point B.2":"124.226319","EIRR 2026":"0.14","NEW/REPLAC":"new","ARC 2026":"MAGTACACA ARC","ESTIMATED":"134491350","Approach A":"6","Approach B":"10","Max Approa":"10","VALIDATION":"Green Zone","Road Class":"barangay road","Status 202":"submitted"},"geometry":{"type":"MultiPolygon","coordinates":[[[[124.268502240178705,9.983273404997831,0.0],[124.268502590342692,9.983363828526052,0.0],[124.268502940510047,9.983454252053829,0.0],[124.268594158009819,9.983453904920307,0.0],[124.268593807817325,9.983363481395727,0.0],[124.268593457628114,9.983273057870704,0.0],[124.268593107442371,9.983182634345148,0.0],[124.268592757259825,9.983092210819148,0.0],[124.268501539860679,9.98309255793988,0.0],[124.268501890018001,9.983182981469078,0.0],[124.268502240178705,9.983273404997831,0.0]]],[[[124.268327158356954,9.985172993299688,0.0],[124.268327508540565,9.985263416823823,0.0],[124.268327858727645,9.985353840347425,0.0],[124.268328208917922,9.985444263870495,0.0],[124.268419426977957,9.985443916716367,0.0],[124.268419076762541,9.985353493196406,0.0],[124.268418726550337,9.985263069676002,0.0],[124.268418376341486,9.985172646155153,0.0],[124.268327158356954,9.985172993299688,0.0]]],[[[124.267872118567368,9.98544599926721,0.0],[124.267872468635161,9.985536422805822,0.0],[124.267963686737119,9.985536075773197,0.0],[124.267963336644101,9.985445652237782,0.0],[124.267872118567368,9.98544599926721,0.0]]],[[[124.268512046030736,9.985805263599005,0.0],[124.268512396288074,9.985895687113192,0.0],[124.268603614467395,9.985895339893073,0.0],[124.268603264184932,9.985804916382083,0.0],[124.268512046030736,9.985805263599005,0.0]]],[[[124.270238326760222,9.960479728789732,0.0],[124.270237976937111,9.960389305198984,0.0],[124.270199483938285,9.960389451551247,0.0],[124.270146765909757,9.960389651987803,0.0],[124.270146882120443,9.960419692740622,0.0],[124.270147115707729,9.960480075581838,0.0],[124.270238326760222,9.960479728789732,0.0]]],[[[124.270513359524429,9.960840382584028,0.0],[124.270513009612685,9.960749959004826,0.0],[124.270421798494908,9.96075030588122,0.0],[124.270330587373849,9.960750652732656,0.0],[124.270330937235329,9.960841076318342,0.0],[124.270422148381428,9.960840729463619,0.0],[124.270513359524429,9.960840382584028,0.0]]],[[[124.270515808999718,9.961473347624498,0.0],[124.270516158938108,9.961563771199703,0.0],[124.270607370278455,9.961563424269574,0.0],[124.270607020315012,9.961473000697566,0.0],[124.270515808999718,9.961473347624498,0.0]]],[[[124.27152088439054,9.961921647753428,0.0],[124.271521234621758,9.962012071290797,0.0],[124.271594748222313,9.962011791442155,0.0],[124.271578479057027,9.961921428506308,0.0],[124.27152088439054,9.961921647753428,0.0]]],[[[124.272015149933608,9.971776072294517,0.0],[124.272015500654575,9.971866495761276,0.0],[124.272106714805204,9.971866148066336,0.0],[124.272106364059113,9.971775724602864,0.0],[124.272015149933608,9.971776072294517,0.0]]],[[[124.271108265890547,9.973135900270961,0.0],[124.271108616410345,9.973226323762322,0.0],[124.271199830971398,9.973225976268377,0.0],[124.271199480426475,9.973135552780214,0.0],[124.271108265890547,9.973135900270961,0.0]]],[[[124.272111976397966,9.97322249995856,0.0],[124.272112327197533,9.973312923414039,0.0],[124.272112678000482,9.973403346869073,0.0],[124.272114175258281,9.973403341160466,0.0],[124.272127831129794,9.973222439510193,0.0],[124.272111976397966,9.97322249995856,0.0]]],[[[124.271291396102342,9.973316052233908,0.0],[124.271200181519617,9.973316399756008,0.0],[124.271200532071106,9.973406823243106,0.0],[124.271291746679069,9.973406475717809,0.0],[124.271291396102342,9.973316052233908,0.0]]],[[[124.271383311888883,9.973496551647813,0.0],[124.271382961283734,9.973406128167642,0.0],[124.271291746679069,9.973406475717809,0.0],[124.271292097259163,9.973496899201177,0.0],[124.271383311888883,9.973496551647813,0.0]]],[[[124.271474526515306,9.973496204069491,0.0],[124.271474877148961,9.973586627545931,0.0],[124.271566091797155,9.973586279939543,0.0],[124.271565741138275,9.9734958564663,0.0],[124.271474526515306,9.973496204069491,0.0]]],[[[124.271935861338278,9.974850817657458,0.0],[124.271936212147708,9.974941241110361,0.0],[124.271936562960505,9.975031664562731,0.0],[124.271952316874888,9.97503160449658,0.0],[124.27197175567899,9.974850680802845,0.0],[124.271935861338278,9.974850817657458,0.0]]],[[[124.271390324693712,9.975305021146234,0.0],[124.27139067536902,9.975395444615923,0.0],[124.271481890523376,9.9753950969701,0.0],[124.271481539822929,9.975304673503697,0.0],[124.271390324693712,9.975305021146234,0.0]]],[[[124.271754834417976,9.975213206969084,0.0],[124.271663619323832,9.975213554683208,0.0],[124.271663970071359,9.975303978143749,0.0],[124.271664320822069,9.975394401603758,0.0],[124.271664671576161,9.975484825063234,0.0],[124.271665022333536,9.975575248522265,0.0],[124.271756237528223,9.975574900795262,0.0],[124.271847452719456,9.975574553043302,0.0],[124.271847101911803,9.975484129590754,0.0],[124.271895392202097,9.975483945475645,0.0],[124.271931518618558,9.975225181083829,0.0],[124.271932878070828,9.975212528189903,0.0],[124.271846049508753,9.975212859230002,0.0],[124.271754834417976,9.975213206969084,0.0]]],[[[124.27056973882938,9.975398572306474,0.0],[124.270570089281762,9.975488995804586,0.0],[124.270661304491369,9.97548864837983,0.0],[124.270660954013763,9.975398224885005,0.0],[124.27056973882938,9.975398572306474,0.0]]],[[[124.27184815434488,9.975755399946976,0.0],[124.271847803530477,9.975664976495406,0.0],[124.271756588314119,9.975665324250564,0.0],[124.271756939103383,9.975755747705332,0.0],[124.27175728989593,9.975846171159656,0.0],[124.271844868042265,9.975845837264758,0.0],[124.271857499082202,9.975755364317591,0.0],[124.27184815434488,9.975755399946976,0.0]]],[[[124.271577665411044,9.976570254275789,0.0],[124.271486449933121,9.976570601988225,0.0],[124.271486800680378,9.976661025447701,0.0],[124.27157801618344,9.976660677731978,0.0],[124.27166923168312,9.976660329991297,0.0],[124.271668880885599,9.976569906538305,0.0],[124.271743819724264,9.976569620831215,0.0],[124.271759656501047,9.976456186001098,0.0],[124.271759394721585,9.976388711874943,0.0],[124.271668179300676,9.976389059630812,0.0],[124.271576963876399,9.976389407361811,0.0],[124.27157731464203,9.976479830819066,0.0],[124.271577665411044,9.976570254275789,0.0]]],[[[124.271487852942116,9.97693229582293,0.0],[124.271487502184826,9.976841872365053,0.0],[124.271396286628203,9.976842220062213,0.0],[124.271396637360183,9.976932643523376,0.0],[124.271396988095717,9.977023066984007,0.0],[124.271488203702603,9.977022719280363,0.0],[124.271487852942116,9.97693229582293,0.0]]],[[[124.271398040322026,9.977294337362967,0.0],[124.271397689576546,9.977203913903757,0.0],[124.271397338834447,9.977113490444193,0.0],[124.271306123199039,9.977113838126076,0.0],[124.271306473916013,9.977204261588927,0.0],[124.27130682463617,9.977294685051245,0.0],[124.271398040322026,9.977294337362967,0.0]]],[[[124.271307175359894,9.977385108513118,0.0],[124.271215959645701,9.977385456179725,0.0],[124.271216310347484,9.977475879644352,0.0],[124.271307526086801,9.977475531974459,0.0],[124.271307175359894,9.977385108513118,0.0]]],[[[124.270213287422322,9.977570125866645,0.0],[124.270212936993843,9.97747970236729,0.0],[124.27012172121438,9.977480049737956,0.0],[124.27012207161782,9.977570473240508,0.0],[124.270213287422322,9.977570125866645,0.0]]],[[[124.271216310347484,9.977475879644352,0.0],[124.271125094604798,9.977476227289198,0.0],[124.27112544528481,9.97756665075649,0.0],[124.271125795968203,9.977657074223249,0.0],[124.271217011761166,9.977656726571919,0.0],[124.271216661052733,9.977566303108357,0.0],[124.271216310347484,9.977475879644352,0.0]]],[[[124.270031206191433,9.977661244094808,0.0],[124.270122422024542,9.977660896742616,0.0],[124.27012207161782,9.977570473240508,0.0],[124.270030855809836,9.977570820589502,0.0],[124.270031206191433,9.977661244094808,0.0]]],[[[124.271035281498243,9.977838268788112,0.0],[124.270944065648251,9.97783861639601,0.0],[124.270944416291329,9.977929039867742,0.0],[124.271035632166445,9.977928692256558,0.0],[124.271035281498243,9.977838268788112,0.0]]],[[[124.270853551034051,9.978019810928277,0.0],[124.270944766937774,9.978019463338853,0.0],[124.270944416291329,9.977929039867742,0.0],[124.27085320041283,9.97792938745388,0.0],[124.270853551034051,9.978019810928277,0.0]]],[[[124.270762685726595,9.978110581969894,0.0],[124.270853901658739,9.97811023440223,0.0],[124.270853551034051,9.978019810928277,0.0],[124.270762335127131,9.978020158492743,0.0],[124.270762685726595,9.978110581969894,0.0]]],[[[124.270762685726595,9.978110581969894,0.0],[124.270671469791083,9.978110929512599,0.0],[124.270580253852273,9.978111277030436,0.0],[124.270580604404842,9.978201700513448,0.0],[124.27067182036869,9.978201352992414,0.0],[124.270763036329342,9.978201005446511,0.0],[124.270762685726595,9.978110581969894,0.0]]],[[[124.269669845819053,9.978566868407949,0.0],[124.269670196136786,9.978657291920626,0.0],[124.269761412259797,9.978656944632828,0.0],[124.269761061916924,9.978566521123437,0.0],[124.269669845819053,9.978566868407949,0.0]]],[[[124.270036111883911,9.978927173116329,0.0],[124.270036462315588,9.979017596614085,0.0],[124.27012767852591,9.979017249213754,0.0],[124.270127328069094,9.978926825719196,0.0],[124.270036111883911,9.978927173116329,0.0]]],[[[124.270226255624394,9.980915794991233,0.0],[124.270226606179804,9.981006218471581,0.0],[124.270317822936875,9.981005870950725,0.0],[124.270317472356339,9.980915447473574,0.0],[124.270226255624394,9.980915794991233,0.0]]],[[[124.270319575889417,9.981457988328838,0.0],[124.270319225292269,9.981367564854175,0.0],[124.270228008434557,9.981367912387821,0.0],[124.270228359006481,9.981458335865682,0.0],[124.270319575889417,9.981457988328838,0.0]]],[[[124.270228359006481,9.981458335865682,0.0],[124.270137142120348,9.981458683377568,0.0],[124.270137492670514,9.981549106858093,0.0],[124.270137843224148,9.981639530338175,0.0],[124.27022906016073,9.981639182819805,0.0],[124.270228709581872,9.98154875934301,0.0],[124.270228359006481,9.981458335865682,0.0]]],[[[124.270138894904846,9.981910800775221,0.0],[124.270139245471711,9.98200122425326,0.0],[124.27023046250892,9.982000876722012,0.0],[124.270230111916831,9.981910453247259,0.0],[124.270138894904846,9.981910800775221,0.0]]],[[[124.270232566131355,9.9825434175604,0.0],[124.270232215519286,9.982452994088579,0.0],[124.2702318649105,9.982362570616313,0.0],[124.270231514305081,9.982272147143426,0.0],[124.270231163703045,9.982181723670184,0.0],[124.270230813104291,9.98209130019632,0.0],[124.270139596041858,9.982091647730766,0.0],[124.270139946615558,9.982182071207827,0.0],[124.270140297192469,9.982272494684267,0.0],[124.270140647772649,9.982362918160351,0.0],[124.270140998356212,9.982453341635814,0.0],[124.270141348943241,9.982543765110833,0.0],[124.27005013175166,9.982544112636397,0.0],[124.270050482316833,9.98263453611408,0.0],[124.270050832885303,9.982724959591319,0.0],[124.269959615640076,9.982725307098232,0.0],[124.269959966186775,9.982815730578224,0.0],[124.270051183457056,9.982815383068026,0.0],[124.27014240072404,9.98281503553287,0.0],[124.270142050127063,9.982724612059361,0.0],[124.270141699533468,9.982634188585319,0.0],[124.270232916746806,9.982633841031689,0.0],[124.270232566131355,9.9825434175604,0.0]]],[[[124.268955525194002,9.982548280996987,0.0],[124.268955174934177,9.982457857480313,0.0],[124.268863957724577,9.982458204678316,0.0],[124.268864307959262,9.982548628198277,0.0],[124.268955525194002,9.982548280996987,0.0]]],[[[124.268773440933884,9.982639398897234,0.0],[124.268864658197231,9.982639051717705,0.0],[124.268864307959262,9.982548628198277,0.0],[124.268773090721055,9.982548975374609,0.0],[124.268773440933884,9.982639398897234,0.0]]],[[[124.268682573858243,9.982730169577096,0.0],[124.268682924052612,9.982820593101941,0.0],[124.26877414136959,9.982820245940975,0.0],[124.268773791150011,9.982729822419326,0.0],[124.268682573858243,9.982730169577096,0.0]]],[[[124.270051534032177,9.982905806544199,0.0],[124.269960316736771,9.982906154057595,0.0],[124.26996066729005,9.982996577536522,0.0],[124.270051884610581,9.982996230019928,0.0],[124.270051534032177,9.982905806544199,0.0]]],[[[124.268592757259825,9.983092210819148,0.0],[124.268683974655588,9.983091863673458,0.0],[124.268683624451285,9.983001440150122,0.0],[124.268683274250165,9.982911016626254,0.0],[124.268592056904666,9.982911363765549,0.0],[124.268592407080646,9.983001787292615,0.0],[124.268592757259825,9.983092210819148,0.0]]],[[[124.269869449966038,9.982996925028246,0.0],[124.269869800497375,9.983087348509837,0.0],[124.269961017846612,9.983087001015004,0.0],[124.26996066729005,9.982996577536522,0.0],[124.269869449966038,9.982996925028246,0.0]]],[[[124.269595797974219,9.982997967353583,0.0],[124.269596148430153,9.983088390844856,0.0],[124.269687365789238,9.983088043424807,0.0],[124.269687015308165,9.982997619936732,0.0],[124.269595797974219,9.982997967353583,0.0]]],[[[124.270052585777535,9.983177076969877,0.0],[124.270052936365985,9.983267500444096,0.0],[124.270144153758736,9.983267152892864,0.0],[124.270143803145146,9.983176729421842,0.0],[124.270052585777535,9.983177076969877,0.0]]],[[[124.270144153758736,9.983267152892864,0.0],[124.270144504375693,9.983357576363353,0.0],[124.270146058723256,9.983357570440591,0.0],[124.270173770176086,9.983267040042026,0.0],[124.270144153758736,9.983267152892864,0.0]]],[[[124.268686075951621,9.983634404802991,0.0],[124.268685725727323,9.983543981282587,0.0],[124.268685375506223,9.983453557761827,0.0],[124.268594158009819,9.983453904920307,0.0],[124.268594508205695,9.983544328444353,0.0],[124.268594858404853,9.983634751967866,0.0],[124.268686075951621,9.983634404802991,0.0]]],[[[124.268686426179286,9.983724828322774,0.0],[124.268777643747896,9.983724481129745,0.0],[124.268777293495091,9.98363405761307,0.0],[124.268686075951621,9.983634404802991,0.0],[124.268686426179286,9.983724828322774,0.0]]],[[[124.268777994004068,9.983814904645797,0.0],[124.268686776410334,9.983815251842113,0.0],[124.268687126644664,9.983905675360919,0.0],[124.268778344263538,9.983905328161406,0.0],[124.268777994004068,9.983814904645797,0.0]]],[[[124.268595909022409,9.983906022535386,0.0],[124.268596259234883,9.983996446056945,0.0],[124.268687476882278,9.983996098879192,0.0],[124.268687126644664,9.983905675360919,0.0],[124.268595909022409,9.983906022535386,0.0]]],[[[124.268779044792595,9.984086175191202,0.0],[124.268778694526475,9.98399575167657,0.0],[124.268687476882278,9.983996098879192,0.0],[124.268687827123358,9.984086522397021,0.0],[124.268779044792595,9.984086175191202,0.0]]],[[[124.268688527615197,9.984267369431169,0.0],[124.268688177367636,9.984176945914406,0.0],[124.268596959669878,9.984177293098465,0.0],[124.268597309892399,9.984267716618515,0.0],[124.268597660118203,9.984358140138031,0.0],[124.26868887786631,9.984357792947488,0.0],[124.268688527615197,9.984267369431169,0.0]]],[[[124.268689928639205,9.984629063493426,0.0],[124.268689578378314,9.984538639978616,0.0],[124.268598360579759,9.984538987175554,0.0],[124.268598710815695,9.984629410693561,0.0],[124.268599061054815,9.984719834211123,0.0],[124.268690278903648,9.984719487007702,0.0],[124.268781496749099,9.984719139779411,0.0],[124.268781146459617,9.984628716268332,0.0],[124.268689928639205,9.984629063493426,0.0]]],[[[124.268599411297402,9.984810257728064,0.0],[124.268599761543285,9.98490068124465,0.0],[124.268690979442297,9.984900334034833,0.0],[124.268690629171374,9.984809910521534,0.0],[124.268599411297402,9.984810257728064,0.0]]],[[[124.269331256928609,9.985350020314424,0.0],[124.269331607395827,9.985440443802233,0.0],[124.269422156208037,9.985440098922531,0.0],[124.269422818614387,9.98543834078446,0.0],[124.269422474926927,9.985349672888958,0.0],[124.269331256928609,9.985350020314424,0.0]]],[[[124.269150923473163,9.985893256048421,0.0],[124.269059705313907,9.985893603418287,0.0],[124.269060055725518,9.985984026912668,0.0],[124.269151273910083,9.985983679539693,0.0],[124.269150923473163,9.985893256048421,0.0]]],[[[124.268968487151284,9.985893950763106,0.0],[124.268877268985293,9.985894298083057,0.0],[124.268786050816004,9.98589464537805,0.0],[124.268786401152212,9.985985068882112,0.0],[124.268877619346625,9.985984721583922,0.0],[124.26887796971134,9.986075145084254,0.0],[124.26896918792761,9.986074797757908,0.0],[124.268968837537756,9.985984374260774,0.0],[124.268968487151284,9.985893950763106,0.0]]],[[[124.269183330614794,9.986073982278278,0.0],[124.269217448554784,9.985983427518217,0.0],[124.269151273910083,9.985983679539693,0.0],[124.269151624350201,9.986074103030433,0.0],[124.269183330614794,9.986073982278278,0.0]]],[[[124.268969888717351,9.986255644750756,0.0],[124.269061106980601,9.986255297393058,0.0],[124.269113554741537,9.986255097658459,0.0],[124.269130941511307,9.986213031784146,0.0],[124.269149212674407,9.986164537039407,0.0],[124.269060756558957,9.986164873900098,0.0],[124.268969538320746,9.986165221254598,0.0],[124.268969888717351,9.986255644750756,0.0]]]]}},
{"type":"Feature","properties":{"fid":14,"Var":2.0,"layer":"Bohol_Flood_5year","path":"C:/Users/cbposadas/Desktop/New folder/Bohol/Bohol_Flood_5year.shp","Risk Level":"Medium","fid_2":340,"SPI_Bridge":"340","Client_Bri":"251","Target Yea":"2029","REGION 202":"VII","PROVINCE 2":"Bohol","CD 2026":"2nd","NAME OF BR":"Donghoy Bridge","MUNICIPALI":"Danao","Barangay 2":"Catubo, Remedios","LINEAR MET":"50","Point A.1":"9.969728","Point A.2":"124.226662","Point B.1":"9.970128","Point B.2":"124.226319","EIRR 2026":"0.14","NEW/REPLAC":"new","ARC 2026":"MAGTACACA ARC","ESTIMATED":"134491350","Approach A":"6","Approach B":"10","Max Approa":"10","VALIDATION":"Green Zone","Road Class":"barangay road","Status 202":"submitted"},"geometry":{"type":"MultiPolygon","coordinates":[[[[124.268682924052612,9.982820593101941,0.0],[124.268591706732153,9.982820940238039,0.0],[124.268592056904666,9.982911363765549,0.0],[124.268683274250165,9.982911016626254,0.0],[124.268682924052612,9.982820593101941,0.0]]],[[[124.268777643747896,9.983724481129745,0.0],[124.268686426179286,9.983724828322774,0.0],[124.268686776410334,9.983815251842113,0.0],[124.268777994004068,9.983814904645797,0.0],[124.268777643747896,9.983724481129745,0.0]]],[[[124.268687827123358,9.984086522397021,0.0],[124.268596609450654,9.984086869577972,0.0],[124.268596959669878,9.984177293098465,0.0],[124.268688177367636,9.984176945914406,0.0],[124.268687827123358,9.984086522397021,0.0]]],[[[124.268598360579759,9.984538987175554,0.0],[124.268689578378314,9.984538639978616,0.0],[124.268689228120635,9.984448216463274,0.0],[124.26868887786631,9.984357792947488,0.0],[124.268597660118203,9.984358140138031,0.0],[124.26859801034739,9.984448563657104,0.0],[124.268598360579759,9.984538987175554,0.0]]],[[[124.268689928639205,9.984629063493426,0.0],[124.268781146459617,9.984628716268332,0.0],[124.268780796173417,9.984538292756721,0.0],[124.268689578378314,9.984538639978616,0.0],[124.268689928639205,9.984629063493426,0.0]]],[[[124.268690278903648,9.984719487007702,0.0],[124.268599061054815,9.984719834211123,0.0],[124.268599411297402,9.984810257728064,0.0],[124.268690629171374,9.984809910521534,0.0],[124.268690278903648,9.984719487007702,0.0]]],[[[124.268508893864748,9.98499145194867,0.0],[124.268600111792452,9.984991104760613,0.0],[124.268599761543285,9.98490068124465,0.0],[124.268508543640806,9.98490102842942,0.0],[124.268508893864748,9.98499145194867,0.0]]],[[[124.268509244092144,9.985081875467387,0.0],[124.268508893864748,9.98499145194867,0.0],[124.268417675933847,9.984991799111768,0.0],[124.268418026136032,9.985082222633682,0.0],[124.268418376341486,9.985172646155153,0.0],[124.268509594322836,9.985172298985571,0.0],[124.268509244092144,9.985081875467387,0.0]]],[[[124.269422124437867,9.985259249403903,0.0],[124.269330906464774,9.985259596826083,0.0],[124.269331256928609,9.985350020314424,0.0],[124.269422474926927,9.985349672888958,0.0],[124.269422124437867,9.985259249403903,0.0]]],[[[124.268419426977957,9.985443916716367,0.0],[124.268328208917922,9.985444263870495,0.0],[124.268328559111481,9.98553468739312,0.0],[124.26841977719684,9.985534340235795,0.0],[124.268419426977957,9.985443916716367,0.0]]],[[[124.26924144071512,9.985712061676114,0.0],[124.269241090263108,9.985621638186529,0.0],[124.269240739814364,9.985531214696501,0.0],[124.269149521759118,9.985531562078446,0.0],[124.269149872182638,9.985621985571672,0.0],[124.269150222609525,9.985712409064455,0.0],[124.26924144071512,9.985712061676114,0.0]]],[[[124.26842047764444,9.985715187273051,0.0],[124.26851169577678,9.985714840084285,0.0],[124.268511345526107,9.98562441656912,0.0],[124.268510995278817,9.985533993053423,0.0],[124.26841977719684,9.985534340235795,0.0],[124.268420127418906,9.985624763754689,0.0],[124.26842047764444,9.985715187273051,0.0]]],[[[124.268512046030736,9.985805263599005,0.0],[124.268603264184932,9.985804916382083,0.0],[124.268602913905738,9.985714492870649,0.0],[124.26851169577678,9.985714840084285,0.0],[124.268512046030736,9.985805263599005,0.0]]],[[[124.268695182954232,9.985985416155344,0.0],[124.268786401152212,9.985985068882112,0.0],[124.268786050816004,9.98589464537805,0.0],[124.268694832643348,9.985894992647996,0.0],[124.268603614467395,9.985895339893073,0.0],[124.26860396475324,9.985985763403619,0.0],[124.268695182954232,9.985985416155344,0.0]]],[[[124.26896918792761,9.986074797757908,0.0],[124.26887796971134,9.986075145084254,0.0],[124.268878320079253,9.986165568584141,0.0],[124.268969538320746,9.986165221254598,0.0],[124.26896918792761,9.986074797757908,0.0]]],[[[124.270239026416277,9.960660575969985,0.0],[124.270238676586516,9.960570152380125,0.0],[124.270238326760222,9.960479728789732,0.0],[124.270147115707729,9.960480075581838,0.0],[124.270147465508984,9.960570499175429,0.0],[124.270147815313607,9.960660922768486,0.0],[124.270239026416277,9.960660575969985,0.0]]],[[[124.270513359524429,9.960840382584028,0.0],[124.270422148381428,9.960840729463619,0.0],[124.270330937235329,9.960841076318342,0.0],[124.270331287100177,9.960931499903495,0.0],[124.270331636968223,9.961021923488115,0.0],[124.270422848164685,9.961021576626997,0.0],[124.270422498271415,9.960931153045575,0.0],[124.270513709439456,9.960930806162786,0.0],[124.270513359524429,9.960840382584028,0.0]]],[[[124.271291045529082,9.973225628749564,0.0],[124.271199830971398,9.973225976268377,0.0],[124.271200181519617,9.973316399756008,0.0],[124.271291396102342,9.973316052233908,0.0],[124.271291045529082,9.973225628749564,0.0]]],[[[124.271566442459317,9.973676703412252,0.0],[124.271657657129367,9.973676355777709,0.0],[124.271658007819951,9.973766779246688,0.0],[124.271749222511744,9.973766431583989,0.0],[124.271748871795936,9.973676008118208,0.0],[124.271748521083595,9.973585584651804,0.0],[124.271657306442066,9.973585932308108,0.0],[124.271656955758132,9.973495508838063,0.0],[124.271565741138275,9.9734958564663,0.0],[124.271566091797155,9.973586279939543,0.0],[124.271566442459317,9.973676703412252,0.0]]],[[[124.27202286656717,9.973765388446324,0.0],[124.271931651885311,9.973765736183807,0.0],[124.27193200265468,9.973856159642661,0.0],[124.272023217361664,9.973855811901981,0.0],[124.27202286656717,9.973765388446324,0.0]]],[[[124.272023568159554,9.973946235357193,0.0],[124.272068949699531,9.973946062333761,0.0],[124.272078669101631,9.973855600486397,0.0],[124.272023217361664,9.973855811901981,0.0],[124.272023568159554,9.973946235357193,0.0]]],[[[124.271844997135716,9.97494158886472,0.0],[124.271845347923374,9.975032012320288,0.0],[124.27184569871433,9.975122435775411,0.0],[124.271754483648792,9.975122783511207,0.0],[124.271754834417976,9.975213206969084,0.0],[124.271846049508753,9.975212859230002,0.0],[124.271932878070828,9.975212528189903,0.0],[124.271937111781341,9.975173123577317,0.0],[124.271936913776585,9.975122088014569,0.0],[124.271942597472801,9.975122066343713,0.0],[124.271952316874888,9.97503160449658,0.0],[124.271936562960505,9.975031664562731,0.0],[124.271936212147708,9.974941241110361,0.0],[124.271844997135716,9.97494158886472,0.0]]],[[[124.271481539822929,9.975304673503697,0.0],[124.27148118912578,9.975214250036672,0.0],[124.271480838431984,9.975123826569291,0.0],[124.271389623353116,9.975124174205433,0.0],[124.271389974021687,9.9752145976761,0.0],[124.271390324693712,9.975305021146234,0.0],[124.271481539822929,9.975304673503697,0.0]]],[[[124.271847452719456,9.975574553043302,0.0],[124.271756237528223,9.975574900795262,0.0],[124.271756588314119,9.975665324250564,0.0],[124.271847803530477,9.975664976495406,0.0],[124.271847452719456,9.975574553043302,0.0]]],[[[124.27184815434488,9.975755399946976,0.0],[124.271857499082202,9.975755364317591,0.0],[124.271870130122224,9.975664891369883,0.0],[124.271847803530477,9.975664976495406,0.0],[124.27184815434488,9.975755399946976,0.0]]],[[[124.27175728989593,9.975846171159656,0.0],[124.27175764069186,9.975936594613447,0.0],[124.271757991491071,9.976027018066706,0.0],[124.271758342293751,9.97611744151952,0.0],[124.271806974923209,9.976117256100826,0.0],[124.271844868042265,9.975845837264758,0.0],[124.27175728989593,9.975846171159656,0.0]]],[[[124.271667126948245,9.976117789265796,0.0],[124.271667477728982,9.976208212721364,0.0],[124.271758693099528,9.976207864971801,0.0],[124.271758342293751,9.97611744151952,0.0],[124.271667126948245,9.976117789265796,0.0]]],[[[124.271576262355069,9.97620856044588,0.0],[124.271576613114036,9.976298983904112,0.0],[124.271576963876399,9.976389407361811,0.0],[124.271668179300676,9.976389059630812,0.0],[124.271759394721585,9.976388711874943,0.0],[124.271759043908958,9.976298288423639,0.0],[124.271667828513188,9.97629863617631,0.0],[124.271667477728982,9.976208212721364,0.0],[124.271576262355069,9.97620856044588,0.0]]],[[[124.270391513495781,9.976484349095486,0.0],[124.270300297999555,9.976484696480718,0.0],[124.270300648416494,9.976575119982382,0.0],[124.270391863937945,9.976574772593864,0.0],[124.270391513495781,9.976484349095486,0.0]]],[[[124.271578717738166,9.976841524642936,0.0],[124.271578366959019,9.976751101187723,0.0],[124.27157801618344,9.976660677731978,0.0],[124.271486800680378,9.976661025447701,0.0],[124.271487151430918,9.976751448906644,0.0],[124.271487502184826,9.976841872365053,0.0],[124.271578717738166,9.976841524642936,0.0]]],[[[124.271396988095717,9.977023066984007,0.0],[124.271305772485363,9.977023414662781,0.0],[124.271306123199039,9.977113838126076,0.0],[124.271397338834447,9.977113490444193,0.0],[124.271396988095717,9.977023066984007,0.0]]],[[[124.27130682463617,9.977294685051245,0.0],[124.271215608947216,9.977295032714743,0.0],[124.271215959645701,9.977385456179725,0.0],[124.271307175359894,9.977385108513118,0.0],[124.27130682463617,9.977294685051245,0.0]]],[[[124.271126146654794,9.977747497689474,0.0],[124.271125795968203,9.977657074223249,0.0],[124.271034580171772,9.977657421849621,0.0],[124.271034930833324,9.977747845319133,0.0],[124.271126146654794,9.977747497689474,0.0]]],[[[124.270943715008471,9.977748192923833,0.0],[124.270944065648251,9.97783861639601,0.0],[124.271035281498243,9.977838268788112,0.0],[124.271034930833324,9.977747845319133,0.0],[124.270943715008471,9.977748192923833,0.0]]],[[[124.270317822936875,9.981005870950725,0.0],[124.270226606179804,9.981006218471581,0.0],[124.270226956738497,9.981096641951396,0.0],[124.270318173520707,9.981096294427342,0.0],[124.270317822936875,9.981005870950725,0.0]]],[[[124.270318874698404,9.981277141379067,0.0],[124.270227657865831,9.981277488909516,0.0],[124.270228008434557,9.981367912387821,0.0],[124.270319225292269,9.981367564854175,0.0],[124.270318874698404,9.981277141379067,0.0]]],[[[124.270138544341265,9.981820377296739,0.0],[124.270138193781065,9.981729953817634,0.0],[124.270137843224148,9.981639530338175,0.0],[124.270046626284284,9.981639877831586,0.0],[124.270046976816062,9.981730301314332,0.0],[124.270047327351037,9.981820724796545,0.0],[124.270138544341265,9.981820377296739,0.0]]],[[[124.27023046250892,9.982000876722012,0.0],[124.270139245471711,9.98200122425326,0.0],[124.270139596041858,9.982091647730766,0.0],[124.270230813104291,9.98209130019632,0.0],[124.27023046250892,9.982000876722012,0.0]]],[[[124.270051183457056,9.982815383068026,0.0],[124.269959966186775,9.982815730578224,0.0],[124.269960316736771,9.982906154057595,0.0],[124.270051534032177,9.982905806544199,0.0],[124.270051183457056,9.982815383068026,0.0]]],[[[124.269961368406541,9.983177424492865,0.0],[124.270052585777535,9.983177076969877,0.0],[124.270052235192367,9.983086653495125,0.0],[124.269961017846612,9.983087001015004,0.0],[124.269869800497375,9.983087348509837,0.0],[124.269870151032265,9.983177771990984,0.0],[124.269961368406541,9.983177424492865,0.0]]]]}},
{"type":"Feature","properties":{"fid":15,"Var":3.0,"layer":"Bohol_Flood_5year","path":"C:/Users/cbposadas/Desktop/New folder/Bohol/Bohol_Flood_5year.shp","Risk Level":"High","fid_2":340,"SPI_Bridge":"340","Client_Bri":"251","Target Yea":"2029","REGION 202":"VII","PROVINCE 2":"Bohol","CD 2026":"2nd","NAME OF BR":"Donghoy Bridge","MUNICIPALI":"Danao","Barangay 2":"Catubo, Remedios","LINEAR MET":"50","Point A.1":"9.969728","Point A.2":"124.226662","Point B.1":"9.970128","Point B.2":"124.226319","EIRR 2026":"0.14","NEW/REPLAC":"new","ARC 2026":"MAGTACACA ARC","ESTIMATED":"134491350","Approach A":"6","Approach B":"10","Max Approa":"10","VALIDATION":"Green Zone","Road Class":"barangay road","Status 202":"submitted"},"geometry":{"type":"MultiPolygon","coordinates":[[[[124.27005625442807,9.960570845945863,0.0],[124.270147465508984,9.960570499175429,0.0],[124.270147115707729,9.960480075581838,0.0],[124.270055904651869,9.960480422349075,0.0],[124.27005625442807,9.960570845945863,0.0]]],[[[124.271748871795936,9.973676008118208,0.0],[124.271749222511744,9.973766431583989,0.0],[124.271840437200268,9.973766083896333,0.0],[124.271931651885311,9.973765736183807,0.0],[124.271931301119409,9.973675312724421,0.0],[124.271840086459321,9.973675660433749,0.0],[124.271748871795936,9.973676008118208,0.0]]]]}}
]
}
