{
"type": "FeatureCollection",
"name": "SPI_Bridge_128",
"crs": { "type": "name", "properties": { "name": "urn:ogc:def:crs:OGC::CRS84" } },
"xy_coordinate_resolution": 1e-15,
"features": [
{"type":"Feature","properties":{"fid":74,"Var":2.0,"layer":"Iloilo_Flood_5year","path":"C:/Users/cbposadas/Desktop/New folder/Iloilo/Iloilo_Flood_5year.shp","Risk Level":"Medium","fid_2":128,"SPI_Bridge":"128","Client_Bri":"202","Target Yea":"2027","REGION 202":"VI","PROVINCE 2":"Iloilo","CD 2026":"4th","NAME OF BR":"Brgy. Bagacay-Brgy. Tuburan Bridge","MUNICIPALI":"Passi City","Barangay 2":"Bagacay, Tuburan","LINEAR MET":"50","Point A.1":"11.1537297","Point A.2":"122.6212424","Point B.1":"11.1541195","Point B.2":"122.6243696","EIRR 2026":"0.1","NEW/REPLAC":"new","ARC 2026":"Passi City-San Enrique ARC Cluster","ESTIMATED":"134491350","Approach A":"0.04","Approach B":"0.04","Max Approa":"0.04","VALIDATION":"Green Zone","Road Class":"barangay road","Status 202":"submitted"},"geometry":{"type":"MultiPolygon","coordinates":[[[[122.637602355254302,11.111525266832707,0.0],[122.637602243631136,11.111615704409068,0.0],[122.637602132007103,11.111706141984808,0.0],[122.637602020381991,11.111796579560103,0.0],[122.637693591560364,11.111796689789884,0.0],[122.637693703157225,11.1117062522137,0.0],[122.637785274308428,11.111706362414704,0.0],[122.637876845460411,11.111706472587819,0.0],[122.63796841661356,11.111706582733046,0.0],[122.637968500373404,11.111638652035834,0.0],[122.637665995640717,11.111525343438657,0.0],[122.637602355254302,11.111525266832707,0.0]]]]}},
{"type":"Feature","properties":{"fid":75,"Var":3.0,"layer":"Iloilo_Flood_5year","path":"C:/Users/cbposadas/Desktop/New folder/Iloilo/Iloilo_Flood_5year.shp","Risk Level":"High","fid_2":128,"SPI_Bridge":"128","Client_Bri":"202","Target Yea":"2027","REGION 202":"VI","PROVINCE 2":"Iloilo","CD 2026":"4th","NAME OF BR":"Brgy. Bagacay-Brgy. Tuburan Bridge","MUNICIPALI":"Passi City","Barangay 2":"Bagacay, Tuburan","LINEAR MET":"50","Point A.1":"11.1537297","Point A.2":"122.6212424","Point B.1":"11.1541195","Point B.2":"122.6243696","EIRR 2026":"0.1","NEW/REPLAC":"new","ARC 2026":"Passi City-San Enrique ARC Cluster","ESTIMATED":"134491350","Approach A":"0.04","Approach B":"0.04","Max Approa":"0.04","VALIDATION":"Green Zone","Road Class":"barangay road","Status 202":"submitted"},"geometry":{"type":"MultiPolygon","coordinates":[[[[122.637419324748251,11.111434608720046,0.0],[122.637423771639959,11.111434614075574,0.0],[122.637419326797541,11.111432949179774,0.0],[122.637419324748251,11.111434608720046,0.0]]],[[[122.637510784161549,11.111525156577791,0.0],[122.637510672510146,11.111615594153264,0.0],[122.637602243631136,11.111615704409068,0.0],[122.637602355254302,11.111525266832707,0.0],[122.637665995640717,11.111525343438657,0.0],[122.637510855671536,11.111467232968394,0.0],[122.637510784161549,11.111525156577791,0.0]]]]}}
]
}
