{
"type": "FeatureCollection",
"name": "SYSTRA ID_295",
"crs": { "type": "name", "properties": { "name": "urn:ogc:def:crs:OGC::CRS84" } },
"xy_coordinate_resolution": 1e-15,
"features": [
{"type":"Feature","properties":{"fid":193,"Var":1.0,"layer":"ZamboangaDelNorte_Flood_5year","path":"C:/Users/cbposadas/Desktop/New folder/ZamboangaDelNorte/ZamboangaDelNorte_Flood_5year.shp","Risk Level":"Low","SYSTRA ID":"295","DAR ID":"297","Target Year":"2028","Bridge Category":"Original List","Bridge Name":"PALOMOC BRIDGES","Coordinates Y":"7.915836","Coordinates X":"122.586828","Region":"IX","Province":"ZAMBOANGA SIBUGAY","ARC 2026":"Titay Valley ARC","LINEAR METER IVF 2026":"35","EIRR 2026":"0.51","NEW/REPLACEMENT BRIDGE 2026":"replacement","Visited by SYSTRA":"No","Selected for 2nd Visit of SYSTRA":"No","Final Funder":"No Funder","2023 IVF URL":"","2026 IVF URL":"https://drive.google.com/open?id=17AzoC09U-HM7ouITcD1KBjeajMsgl1wx"},"geometry":{"type":"MultiPolygon","coordinates":[[[[122.616843529630728,7.939870890692732,0.0],[122.616934259115538,7.939870974240567,0.0],[122.616934342907626,7.939780520472536,0.0],[122.616843613442697,7.939780436925678,0.0],[122.616843529630728,7.939870890692732,0.0]]],[[[122.61684336200392,7.940051798225775,0.0],[122.616843445817764,7.939961344459431,0.0],[122.616752716314124,7.939961260890901,0.0],[122.616752632480384,7.940051714656179,0.0],[122.61684336200392,7.940051798225775,0.0]]],[[[122.616660812771215,7.941227529967962,0.0],[122.61666089663764,7.941137076208723,0.0],[122.616660980503084,7.941046622449041,0.0],[122.616661064367463,7.940956168689003,0.0],[122.616661148230961,7.94086571492861,0.0],[122.616661232093477,7.940775261167773,0.0],[122.616661315954929,7.940684807406492,0.0],[122.616661399815499,7.940594353644856,0.0],[122.616661483674989,7.940503899882864,0.0],[122.616752213296763,7.940503983476973,0.0],[122.616752297135477,7.940413529713649,0.0],[122.616752380973125,7.940323075949881,0.0],[122.616752464809878,7.940232622185669,0.0],[122.616752548645664,7.940142168421102,0.0],[122.6166618191033,7.940142084830812,0.0],[122.616661735247618,7.940232538594402,0.0],[122.616661651391055,7.940322992357637,0.0],[122.616661567533598,7.940413446120428,0.0],[122.616570837932613,7.9404133625074,0.0],[122.61657075405428,7.940503816268859,0.0],[122.616570670174895,7.940594270029963,0.0],[122.616570586294529,7.940684723790622,0.0],[122.616570502413182,7.940775177550838,0.0],[122.616570418530856,7.940865631310786,0.0],[122.616570334647463,7.940956085070202,0.0],[122.616570250763274,7.941046538829352,0.0],[122.616570166877935,7.941136992587968,0.0],[122.616570082991615,7.941227446346319,0.0],[122.616569999104399,7.941317900104225,0.0],[122.61647926930597,7.941317816461798,0.0],[122.616479185397893,7.941408270218372,0.0],[122.616479101488835,7.941498723974502,0.0],[122.616479017578712,7.941589177730276,0.0],[122.616478933667707,7.941679631485695,0.0],[122.616569663545448,7.941679715131941,0.0],[122.616569579653259,7.941770168887893,0.0],[122.616569495760103,7.941860622643401,0.0],[122.616569411865967,7.941951076398554,0.0],[122.616660141804289,7.941951160028013,0.0],[122.616660057928982,7.942041613783698,0.0],[122.616659974052695,7.942132067539029,0.0],[122.616750704031688,7.942132151150546,0.0],[122.616750620174329,7.94222260490641,0.0],[122.616841350174198,7.942222688499098,0.0],[122.616841266335655,7.942313142255583,0.0],[122.616931996356314,7.942313225829531,0.0],[122.6169319125367,7.942403679586548,0.0],[122.61702264257822,7.942403763141578,0.0],[122.617022558777336,7.942494216899218,0.0],[122.617113288839732,7.942494300435418,0.0],[122.617113372620722,7.942403846676801,0.0],[122.61711345640073,7.942313392917829,0.0],[122.617022726378025,7.942313309383583,0.0],[122.617022810176863,7.942222855625144,0.0],[122.616932080175047,7.942222772072069,0.0],[122.6169321639928,7.942132318314251,0.0],[122.616841434011761,7.942132234742258,0.0],[122.616841517848343,7.942041780985062,0.0],[122.616841601683944,7.941951327227334,0.0],[122.616750871743676,7.941951243637576,0.0],[122.616750955598107,7.94186078988047,0.0],[122.616660225678615,7.941860706271883,0.0],[122.616660309551975,7.941770252515309,0.0],[122.616660393424254,7.941679798758469,0.0],[122.616660477295653,7.941589345001096,0.0],[122.616660561165986,7.941498891243456,0.0],[122.616660645035438,7.941408437485372,0.0],[122.61666072890381,7.941317983726845,0.0],[122.616660812771215,7.941227529967962,0.0]]],[[[122.616635437755519,7.944122029137998,0.0],[122.61665812852506,7.94412205005682,0.0],[122.616658212423005,7.944031596310194,0.0],[122.616630826360435,7.944031571062834,0.0],[122.616635437755519,7.944122029137998,0.0]]],[[[122.616838331365443,7.945479023484311,0.0],[122.616747600650768,7.945478939856984,0.0],[122.616747516756888,7.945569393598281,0.0],[122.616747432861956,7.945659847339223,0.0],[122.616838163616421,7.945659930968593,0.0],[122.616838247491373,7.945569477226674,0.0],[122.616838331365443,7.945479023484311,0.0]]],[[[122.616655778981468,7.946654754803991,0.0],[122.616565048010557,7.946654671124528,0.0],[122.616564964064111,7.946745124858809,0.0],[122.616655695054916,7.946745208539249,0.0],[122.616746426046618,7.946745292199972,0.0],[122.616837157039384,7.946745375840888,0.0],[122.61683724092623,7.946654922103677,0.0],[122.616746509953359,7.946654838463737,0.0],[122.616655778981468,7.946654754803991,0.0]]],[[[122.616473141422887,7.947920939656069,0.0],[122.616382410175831,7.947920855923404,0.0],[122.616291678929855,7.947920772170932,0.0],[122.616291594910038,7.948011225896864,0.0],[122.616382326175923,7.948011309650224,0.0],[122.616473057442775,7.948011393383866,0.0],[122.616563788710607,7.948011477097702,0.0],[122.616563872670824,7.947921023368839,0.0],[122.616473141422887,7.947920939656069,0.0]]],[[[122.616745251249284,7.948011644465866,0.0],[122.616654519979505,7.948011560791643,0.0],[122.616563788710607,7.948011477097702,0.0],[122.61656370474941,7.948101930826032,0.0],[122.616654436038118,7.948102014521038,0.0],[122.616745167327792,7.948102098196149,0.0],[122.616835898618547,7.948102181851543,0.0],[122.616926629910182,7.948102265487042,0.0],[122.616926713791969,7.948011811754804,0.0],[122.616835982520143,7.948011728120194,0.0],[122.616745251249284,7.948011644465866,0.0]]],[[[122.617016354783402,7.949187793870668,0.0],[122.616925623252314,7.949187710243341,0.0],[122.616925539357737,7.949278163970516,0.0],[122.61692545546218,7.949368617697247,0.0],[122.616834723892367,7.949368534048159,0.0],[122.616834639975934,7.949458987773558,0.0],[122.616834556058521,7.949549441498601,0.0],[122.616743824449983,7.949549357827842,0.0],[122.616743740511708,7.949639811551465,0.0],[122.616743656572453,7.949730265274643,0.0],[122.616834388220781,7.949730348947356,0.0],[122.616834472140141,7.949639895223201,0.0],[122.61692520376964,7.949639978875131,0.0],[122.616925287668124,7.949549525149554,0.0],[122.616925371565642,7.949459071423623,0.0],[122.617016103156331,7.949459155053792,0.0],[122.617016187032959,7.949368701326439,0.0],[122.617016270908621,7.949278247598731,0.0],[122.617016354783402,7.949187793870668,0.0]]],[[[122.616743656572453,7.949730265274643,0.0],[122.616652924925191,7.949730181582123,0.0],[122.61665284096506,7.949820635304058,0.0],[122.616652763173661,7.949904442228716,0.0],[122.616743569451387,7.949824146613146,0.0],[122.616743572632217,7.949820718997555,0.0],[122.616743656572453,7.949730265274643,0.0]]],[[[122.61656202531789,7.949911005311269,0.0],[122.616561956860778,7.94998473787537,0.0],[122.616645254142668,7.949911082102977,0.0],[122.61656202531789,7.949911005311269,0.0]]],[[[122.621016092082627,7.9409601591201,0.0],[122.621106821850688,7.940960241769276,0.0],[122.621106904741623,7.940869787961899,0.0],[122.621016174993372,7.94086970531361,0.0],[122.621016092082627,7.9409601591201,0.0]]],[[[122.621015926258124,7.941141066731835,0.0],[122.621106656065876,7.941141149382966,0.0],[122.621106738958773,7.941050695576299,0.0],[122.621016009170816,7.941050612926145,0.0],[122.621015926258124,7.941141066731835,0.0]]],[[[122.619563916536237,7.941501556780847,0.0],[122.619563999770463,7.941411102992032,0.0],[122.619654729622098,7.94141118596264,0.0],[122.619654812835435,7.941320732172493,0.0],[122.61956408300361,7.941320649202862,0.0],[122.619564166235875,7.941230195413248,0.0],[122.619473436424926,7.941230112424788,0.0],[122.61947335317285,7.941320566213425,0.0],[122.619473269919808,7.941411020001707,0.0],[122.619473186665687,7.941501473789544,0.0],[122.619563916536237,7.941501556780847,0.0]]],[[[122.61956375006487,7.941682464357322,0.0],[122.619563666827716,7.941772918144982,0.0],[122.619563583589596,7.941863371932286,0.0],[122.619654313540522,7.941863454907602,0.0],[122.619654396758762,7.941773001119409,0.0],[122.619654479976106,7.941682547330772,0.0],[122.619745209888222,7.941682630284416,0.0],[122.619745293084691,7.941592176494535,0.0],[122.619745376280179,7.941501722704122,0.0],[122.6197454594747,7.941411268913442,0.0],[122.619654729622098,7.94141118596264,0.0],[122.619654646407767,7.941501639752432,0.0],[122.619654563192384,7.94159209354178,0.0],[122.619563833301044,7.941592010569306,0.0],[122.61956375006487,7.941682464357322,0.0]]],[[[122.618202634443591,7.941862124927121,0.0],[122.618293364379866,7.941862208199354,0.0],[122.618293447895823,7.94177175442555,0.0],[122.618202717979528,7.941771671154293,0.0],[122.618202634443591,7.941862124927121,0.0]]],[[[122.618293280862858,7.941952661972803,0.0],[122.618384010819909,7.941952745226208,0.0],[122.618474740777856,7.941952828459717,0.0],[122.618474824255173,7.941862374684402,0.0],[122.618384094317037,7.941862291451781,0.0],[122.618293364379866,7.941862208199354,0.0],[122.618293280862858,7.941952661972803,0.0]]],[[[122.618474740777856,7.941952828459717,0.0],[122.618474657299572,7.942043282234764,0.0],[122.61856538727838,7.942043365449444,0.0],[122.618656117258269,7.942043448644406,0.0],[122.618656200696861,7.941952994867582,0.0],[122.618565470736868,7.941952911673508,0.0],[122.618474740777856,7.941952828459717,0.0]]],[[[122.618656117258269,7.942043448644406,0.0],[122.618656033818709,7.942133902420875,0.0],[122.618746763819374,7.942133985597008,0.0],[122.618837493821019,7.942134068753423,0.0],[122.618837577220887,7.942043614975,0.0],[122.618746847239038,7.942043531819651,0.0],[122.618656117258269,7.942043448644406,0.0]]],[[[122.618837493821019,7.942134068753423,0.0],[122.618837410420085,7.942224522531402,0.0],[122.618928140442605,7.942224605668899,0.0],[122.619018870466093,7.942224688786589,0.0],[122.619018953827236,7.942134235006656,0.0],[122.618928223823644,7.942134151889943,0.0],[122.618837493821019,7.942134068753423,0.0]]],[[[122.619018870466093,7.942224688786589,0.0],[122.619018787103983,7.942315142566167,0.0],[122.61910951714826,7.942315225665028,0.0],[122.619200247193518,7.942315308744171,0.0],[122.619200330515923,7.94222485496264,0.0],[122.619109600490475,7.942224771884562,0.0],[122.619018870466093,7.942224688786589,0.0]]],[[[122.61956300089534,7.942496548431962,0.0],[122.619472270806483,7.942496465430179,0.0],[122.619472354071348,7.942406011646605,0.0],[122.619381624003267,7.942405928625903,0.0],[122.619381707286948,7.942315474842951,0.0],[122.619290977239743,7.94231539180342,0.0],[122.619290893936153,7.942405845585484,0.0],[122.619290810631682,7.942496299367105,0.0],[122.619381540718592,7.942496382408501,0.0],[122.619381457432951,7.942586836190743,0.0],[122.619472187540737,7.942586919213309,0.0],[122.61947210427391,7.942677372996084,0.0],[122.619562834402487,7.942677455999822,0.0],[122.619562917649404,7.94258700221607,0.0],[122.619653647759137,7.942587085199112,0.0],[122.619653730985277,7.942496631414028,0.0],[122.61956300089534,7.942496548431962,0.0]]],[[[122.617475874283002,7.942856449428167,0.0],[122.617475957988489,7.942765995667242,0.0],[122.617385227862684,7.942765912207336,0.0],[122.617385311587,7.942675458447032,0.0],[122.617294581481971,7.942675374968297,0.0],[122.617294665225202,7.942584921208614,0.0],[122.617203935141049,7.942584837710961,0.0],[122.617204018903109,7.942494383951812,0.0],[122.617113288839732,7.942494300435418,0.0],[122.617113205057777,7.94258475419359,0.0],[122.617113121274841,7.942675207951408,0.0],[122.617203851377923,7.942675291469755,0.0],[122.617203767613901,7.942765745228106,0.0],[122.61729449773776,7.942765828727624,0.0],[122.617294413992568,7.942856282486507,0.0],[122.617385144137302,7.942856365967196,0.0],[122.617385060410939,7.942946819726701,0.0],[122.617475790576549,7.94294690318856,0.0],[122.617475706869101,7.943037356948687,0.0],[122.617475623160601,7.943127810708281,0.0],[122.617566353366882,7.943127894152288,0.0],[122.61765708357413,7.943127977576489,0.0],[122.617657167242854,7.943037523814941,0.0],[122.617566437055487,7.943037440391717,0.0],[122.617566520743125,7.942946986630703,0.0],[122.617566604429697,7.942856532869244,0.0],[122.617475874283002,7.942856449428167,0.0]]],[[[122.620197529775538,7.943130305418053,0.0],[122.620106799540835,7.943130222548075,0.0],[122.620106882673539,7.943039768760593,0.0],[122.620016152459712,7.943039685871786,0.0],[122.620016235611232,7.942949232084836,0.0],[122.619925505418195,7.9429491491772,0.0],[122.619925588588643,7.942858695390783,0.0],[122.619925671758111,7.9427682416041,0.0],[122.619834941605745,7.942768158678523,0.0],[122.619835024794128,7.942677704892284,0.0],[122.619744294662638,7.942677621947966,0.0],[122.61974437786985,7.942587168162349,0.0],[122.619653647759137,7.942587085199112,0.0],[122.61965356453203,7.942677538983753,0.0],[122.619653481304027,7.942767992768037,0.0],[122.619744211454432,7.942768075733139,0.0],[122.619744128245173,7.942858529518046,0.0],[122.619834858416468,7.942858612464318,0.0],[122.619834775226124,7.942949066249757,0.0],[122.619834692034885,7.943039520034753,0.0],[122.619925422246766,7.943039602963172,0.0],[122.619925339074356,7.943130056748701,0.0],[122.620016069307113,7.943130139658291,0.0],[122.620015986153632,7.943220593444352,0.0],[122.620106716407165,7.943220676335113,0.0],[122.620106633272499,7.943311130121796,0.0],[122.620197363546907,7.943311212993728,0.0],[122.620288093822296,7.943311295845853,0.0],[122.620288176917242,7.943220842057216,0.0],[122.620197446661763,7.943220759206068,0.0],[122.620197529775538,7.943130305418053,0.0]]],[[[122.617747730132479,7.943218514743053,0.0],[122.617747813782373,7.943128060980883,0.0],[122.61765708357413,7.943127977576489,0.0],[122.61765699990444,7.943218431337681,0.0],[122.617747730132479,7.943218514743053,0.0]]],[[[122.62037874102262,7.943401832467342,0.0],[122.620378824098651,7.943311378678172,0.0],[122.620288093822296,7.943311295845853,0.0],[122.620288010726355,7.943401749634046,0.0],[122.62037874102262,7.943401832467342,0.0]]],[[[122.617928939755259,7.943490042784348,0.0],[122.617929023368376,7.943399589021468,0.0],[122.617838293098586,7.943399505653756,0.0],[122.617747562829777,7.943399422266237,0.0],[122.617747479176955,7.943489876027251,0.0],[122.61783820946566,7.943489959415658,0.0],[122.617838125831682,7.943580413177206,0.0],[122.617928856141162,7.943580496546873,0.0],[122.618019586451624,7.943580579896733,0.0],[122.618019670045825,7.943490126133232,0.0],[122.617928939755259,7.943490042784348,0.0]]],[[[122.620378657945508,7.943492286256068,0.0],[122.62037857486753,7.943582740044438,0.0],[122.620378491788557,7.943673193832454,0.0],[122.620469222145303,7.943673276648785,0.0],[122.620469139085159,7.943763730437333,0.0],[122.620559869462767,7.943763813234836,0.0],[122.620650599841269,7.943763896012531,0.0],[122.620650682861708,7.943673442222118,0.0],[122.620559952503015,7.94367335944531,0.0],[122.620560035542283,7.94358290565543,0.0],[122.620469305204452,7.943582822859882,0.0],[122.620469388262549,7.943492369070534,0.0],[122.620378657945508,7.943492286256068,0.0]]],[[[122.617928772526099,7.943670950308953,0.0],[122.617928688909956,7.943761404070679,0.0],[122.618019419260122,7.943761487422493,0.0],[122.61801950285637,7.943671033659791,0.0],[122.617928772526099,7.943670950308953,0.0]]],[[[122.620741247219314,7.943854432561456,0.0],[122.620741330220838,7.943763978770421,0.0],[122.620650599841269,7.943763896012531,0.0],[122.62065051681995,7.94385434980259,0.0],[122.620741247219314,7.943854432561456,0.0]]],[[[122.618200879963481,7.943761654066614,0.0],[122.618110149611354,7.943761570754412,0.0],[122.618019419260122,7.943761487422493,0.0],[122.618019335662993,7.943851941184751,0.0],[122.618110066034035,7.943852024517647,0.0],[122.618109982455735,7.943942478280527,0.0],[122.618200712847553,7.943942561594594,0.0],[122.618291443240352,7.943942644888943,0.0],[122.618291526778947,7.943852191124109,0.0],[122.618200796405958,7.943852107830826,0.0],[122.618200879963481,7.943761654066614,0.0]]],[[[122.620559703379271,7.943944720812643,0.0],[122.620650433797564,7.943944803592292,0.0],[122.62065051681995,7.94385434980259,0.0],[122.620559786421552,7.943854267023917,0.0],[122.620559703379271,7.943944720812643,0.0]]],[[[122.618382173634132,7.943942728163397,0.0],[122.618291443240352,7.943942644888943,0.0],[122.618291359700777,7.944033098653333,0.0],[122.618382090114451,7.944033181928764,0.0],[122.618382173634132,7.943942728163397,0.0]]],[[[122.620650350774199,7.944035257381551,0.0],[122.620650267749937,7.944125711170455,0.0],[122.620740998208902,7.944125793932163,0.0],[122.620831728668762,7.944125876674065,0.0],[122.620831811653403,7.944035422883297,0.0],[122.620741081213353,7.944035340142372,0.0],[122.620650350774199,7.944035257381551,0.0]]],[[[122.618563300498749,7.944304709719682,0.0],[122.618563383981652,7.944214255953605,0.0],[122.618472653526325,7.944214172715832,0.0],[122.618381923071979,7.944214089458254,0.0],[122.618381839549372,7.944304543222466,0.0],[122.618472570023528,7.944304626480933,0.0],[122.618563300498749,7.944304709719682,0.0]]],[[[122.618653947510865,7.944395246705324,0.0],[122.618654030974852,7.944304792938625,0.0],[122.618563300498749,7.944304709719682,0.0],[122.618563217014767,7.944395163485404,0.0],[122.618653947510865,7.944395246705324,0.0]]],[[[122.621285049432089,7.944488105265099,0.0],[122.621194318887859,7.94448802261832,0.0],[122.621194401796913,7.944397568825331,0.0],[122.621103671273559,7.944397486159724,0.0],[122.621012940751086,7.944397403474309,0.0],[122.62101302369895,7.944306949682741,0.0],[122.620922293197353,7.944306866978498,0.0],[122.620922376163961,7.944216413187552,0.0],[122.620831645683239,7.944216330464479,0.0],[122.620740915203484,7.9442162477216,0.0],[122.620740832197086,7.944306701510681,0.0],[122.620831562696722,7.944306784254448,0.0],[122.620831479709153,7.944397238044062,0.0],[122.620831396720689,7.944487691833321,0.0],[122.620922127261025,7.944487774559236,0.0],[122.621012857802327,7.944487857265433,0.0],[122.621103588344596,7.944487939951736,0.0],[122.621103505414666,7.944578393743481,0.0],[122.621194235977825,7.944578476410954,0.0],[122.62128496654195,7.944578559058709,0.0],[122.621285049432089,7.944488105265099,0.0]]],[[[122.618835158226815,7.944666774389128,0.0],[122.618835241654125,7.944576320621718,0.0],[122.618744511116461,7.944576237439457,0.0],[122.618653780579692,7.944576154237478,0.0],[122.618653697112677,7.944666608002934,0.0],[122.618744427669256,7.94466669120589,0.0],[122.618835158226815,7.944666774389128,0.0]]],[[[122.620921961320775,7.944668682138464,0.0],[122.621012691901782,7.944668764846527,0.0],[122.621012774852588,7.944578311056113,0.0],[122.62092204429139,7.944578228349028,0.0],[122.620921961320775,7.944668682138464,0.0]]],[[[122.618925805376946,7.944757311320413,0.0],[122.618925888785341,7.944666857552471,0.0],[122.618835158226815,7.944666774389128,0.0],[122.618835074798525,7.944757228156093,0.0],[122.618925805376946,7.944757311320413,0.0]]],[[[122.618834991369255,7.944847681922703,0.0],[122.618834907939018,7.94493813568887,0.0],[122.618925638557144,7.944938218855143,0.0],[122.6189257219675,7.944847765088,0.0],[122.618834991369255,7.944847681922703,0.0]]],[[[122.618925638557144,7.944938218855143,0.0],[122.618925555145736,7.945028672621931,0.0],[122.619016285784738,7.945028755769376,0.0],[122.619107016424636,7.945028838897014,0.0],[122.619107099796338,7.944938385128272,0.0],[122.619016369176251,7.944938302001611,0.0],[122.618925638557144,7.944938218855143,0.0]]],[[[122.619197663712796,7.94511937577412,0.0],[122.619197747065584,7.945028922004846,0.0],[122.619107016424636,7.945028838897014,0.0],[122.619106933052038,7.945119292665312,0.0],[122.619197663712796,7.94511937577412,0.0]]],[[[122.619106849678374,7.945209746433165,0.0],[122.619106766303815,7.945300200200752,0.0],[122.619197497004279,7.945300283311426,0.0],[122.619197580359028,7.945209829542951,0.0],[122.619106849678374,7.945209746433165,0.0]]],[[[122.619288144369889,7.945390820171391,0.0],[122.619288227705724,7.945300366402294,0.0],[122.619197497004279,7.945300283311426,0.0],[122.619197413648564,7.945390737079458,0.0],[122.619288144369889,7.945390820171391,0.0]]],[[[122.619378791775205,7.945481357013059,0.0],[122.619469522518401,7.945481440066268,0.0],[122.619469605815496,7.945390986295661,0.0],[122.61937887509221,7.945390903243429,0.0],[122.619378791775205,7.945481357013059,0.0]]],[[[122.619378625138367,7.945662264551076,0.0],[122.619469355921169,7.94566234760615,0.0],[122.619469439220225,7.945571893836431,0.0],[122.619378708457234,7.945571810782245,0.0],[122.619378625138367,7.945662264551076,0.0]]],[[[122.619650650968239,7.945843421199247,0.0],[122.619741381793759,7.945843504196945,0.0],[122.619741465035162,7.945753050425005,0.0],[122.619650734229538,7.945752967428374,0.0],[122.619650650968239,7.945843421199247,0.0]]],[[[122.619650484442687,7.946024328739839,0.0],[122.619741215307911,7.946024411739402,0.0],[122.619741298551276,7.945933957968351,0.0],[122.619650567705946,7.945933874969765,0.0],[122.619650484442687,7.946024328739839,0.0]]],[[[122.619922593836634,7.946115031451758,0.0],[122.619922510631014,7.946205485223875,0.0],[122.620013241538956,7.946205568165973,0.0],[122.620013324724681,7.946115114392879,0.0],[122.619922593836634,7.946115031451758,0.0]]],[[[122.618198539982913,7.946294359315872,0.0],[122.618289270892092,7.946294442635179,0.0],[122.61828935445628,7.946203988880559,0.0],[122.618198623566983,7.946203905562318,0.0],[122.618107892678665,7.946203822224182,0.0],[122.618107809074786,7.946294275976848,0.0],[122.618198539982913,7.946294359315872,0.0]]],[[[122.619831696497556,7.946295856032845,0.0],[122.619922427424413,7.946295938995726,0.0],[122.619922510631014,7.946205485223875,0.0],[122.619831779724137,7.94620540226206,0.0],[122.619831696497556,7.946295856032845,0.0]]],[[[122.617654070844509,7.946384312731966,0.0],[122.617744801767643,7.946384396170999,0.0],[122.617835532691757,7.946384479590226,0.0],[122.617926263616837,7.946384562989647,0.0],[122.618016994542899,7.946384646369261,0.0],[122.61810772546994,7.946384729729069,0.0],[122.618107809074786,7.946294275976848,0.0],[122.618017078167554,7.946294192618017,0.0],[122.617926347261388,7.94629410923929,0.0],[122.617835616356203,7.946294025840847,0.0],[122.617744885451899,7.946293942422597,0.0],[122.617654154548674,7.94629385898454,0.0],[122.617654070844509,7.946384312731966,0.0]]],[[[122.617563256197428,7.946474683019219,0.0],[122.617653987139477,7.946474766479036,0.0],[122.617654070844509,7.946384312731966,0.0],[122.617563339922455,7.946384229273126,0.0],[122.617472609001268,7.946384145794569,0.0],[122.617381878081162,7.946384062296116,0.0],[122.617291147161936,7.946383978777857,0.0],[122.617291063377408,7.946474432521108,0.0],[122.617381794316429,7.946474516040255,0.0],[122.617472525256446,7.946474599539685,0.0],[122.617563256197428,7.946474683019219,0.0]]],[[[122.618652027566213,7.946475683229711,0.0],[122.618652111052853,7.946385229472161,0.0],[122.618561380119957,7.946385146231102,0.0],[122.618470649187941,7.946385062970326,0.0],[122.61847056566161,7.946475516726012,0.0],[122.618561296613422,7.946475599987765,0.0],[122.618652027566213,7.946475683229711,0.0]]],[[[122.617109601502193,7.946474265423306,0.0],[122.617018870566184,7.946474181844651,0.0],[122.61701878672099,7.946564635584616,0.0],[122.61710951767698,7.946564719164159,0.0],[122.617200248633864,7.946564802723896,0.0],[122.6172909795918,7.946564886263826,0.0],[122.617291063377408,7.946474432521108,0.0],[122.617200332439353,7.946474348982066,0.0],[122.617109601502193,7.946474265423306,0.0]]],[[[122.618742675052175,7.946566220210113,0.0],[122.618742758519986,7.946475766451941,0.0],[122.618652027566213,7.946475683229711,0.0],[122.618651944078607,7.946566136986996,0.0],[122.618742675052175,7.946566220210113,0.0]]],[[[122.61701878672099,7.946564635584616,0.0],[122.616928055766053,7.946564551985266,0.0],[122.616837324812025,7.94656446836611,0.0],[122.61683724092623,7.946654922103677,0.0],[122.616927971900083,7.94665500572381,0.0],[122.617018702874901,7.946655089324136,0.0],[122.61701878672099,7.946564635584616,0.0]]],[[[122.618742675052175,7.946566220210113,0.0],[122.618742591583484,7.946656673967841,0.0],[122.618742508113712,7.946747127725215,0.0],[122.618833239128151,7.94674721093048,0.0],[122.618833322577927,7.946656757172129,0.0],[122.618833406026823,7.946566303413424,0.0],[122.618742675052175,7.946566220210113,0.0]]],[[[122.61901470115977,7.94674737728159,0.0],[122.618923970143385,7.946747294115938,0.0],[122.618923886712437,7.946837747874821,0.0],[122.619014617748633,7.94683783104145,0.0],[122.619105348785808,7.946837914188184,0.0],[122.619105432177051,7.946747460427436,0.0],[122.61901470115977,7.94674737728159,0.0]]],[[[122.619468356256021,7.946747792812666,0.0],[122.619559087278091,7.946747875859569,0.0],[122.619649818301326,7.946747958886577,0.0],[122.619740549325442,7.946748041893778,0.0],[122.619740466073281,7.946838495661276,0.0],[122.61964973502927,7.946838412653098,0.0],[122.619649651756149,7.946928866419264,0.0],[122.619740382820055,7.946928949428419,0.0],[122.619740362995969,7.946950487834849,0.0],[122.619831180633355,7.946856493538293,0.0],[122.619831197118174,7.946838578649648,0.0],[122.619831280350525,7.946748124881172,0.0],[122.619922011376687,7.946748207848761,0.0],[122.619922094588176,7.946657754078953,0.0],[122.619831363581909,7.946657671112342,0.0],[122.619740632576708,7.946657588125835,0.0],[122.619649901572402,7.946657505119611,0.0],[122.619559170569062,7.946657422093492,0.0],[122.619468439566802,7.946657339047655,0.0],[122.619377708565423,7.946657255982012,0.0],[122.61928697756511,7.946657172896562,0.0],[122.619196246565679,7.946657089791217,0.0],[122.619196163195312,7.946747543553387,0.0],[122.61928689421454,7.94674762665962,0.0],[122.619377625234748,7.946747709746046,0.0],[122.619468356256021,7.946747792812666,0.0]]],[[[122.618470064482779,7.947018239251865,0.0],[122.618469980949598,7.947108693004798,0.0],[122.618560712040406,7.947108776273301,0.0],[122.61856079555379,7.947018322519392,0.0],[122.618470064482779,7.947018239251865,0.0]]],[[[122.618379166305616,7.947199063468088,0.0],[122.618469897415352,7.947199146757286,0.0],[122.618469980949598,7.947108693004798,0.0],[122.618379249859657,7.947108609716488,0.0],[122.618379166305616,7.947199063468088,0.0]]],[[[122.618197369704021,7.947560711824861,0.0],[122.618288100891291,7.947560795157579,0.0],[122.618288184469151,7.947470341408466,0.0],[122.618197453301761,7.947470258076724,0.0],[122.618197369704021,7.947560711824861,0.0]]],[[[122.618015823694051,7.947650998845831,0.0],[122.618106554899185,7.947651082219051,0.0],[122.618106638517801,7.947560628472336,0.0],[122.618015907332492,7.947560545100004,0.0],[122.618015823694051,7.947650998845831,0.0]]],[[[122.617108092496466,7.948102432698708,0.0],[122.617017361202883,7.948102349102823,0.0],[122.617017277340011,7.948192802835593,0.0],[122.617108008653489,7.948192886432545,0.0],[122.617198739968046,7.948192970009601,0.0],[122.617198823791128,7.948102516274877,0.0],[122.617108092496466,7.948102432698708,0.0]]],[[[122.617833942881063,7.948103100753209,0.0],[122.61774321157958,7.948103017315685,0.0],[122.617743127875684,7.948193471056183,0.0],[122.617833859196992,7.948193554494684,0.0],[122.617833942881063,7.948103100753209,0.0]]],[[[122.61765231283043,7.948283841337131,0.0],[122.617743044170737,7.948283924796326,0.0],[122.617743127875684,7.948193471056183,0.0],[122.617652396555272,7.948193387597965,0.0],[122.61765231283043,7.948283841337131,0.0]]],[[[122.617561330251263,7.948555119070385,0.0],[122.617561413998857,7.948464665333351,0.0],[122.61747068262089,7.94846458183259,0.0],[122.617379951243805,7.948464498312021,0.0],[122.617379867456435,7.948554952047101,0.0],[122.61737978366817,7.948645405781826,0.0],[122.617470515084946,7.948645489304259,0.0],[122.617470598853401,7.948555035568647,0.0],[122.617561330251263,7.948555119070385,0.0]]],[[[122.617288968443134,7.94873577597289,0.0],[122.617379699878839,7.948735859516106,0.0],[122.61737978366817,7.948645405781826,0.0],[122.61728905225236,7.948645322239497,0.0],[122.617288968443134,7.94873577597289,0.0]]],[[[122.617198153178407,7.948826146141838,0.0],[122.617288884633027,7.948826229705838,0.0],[122.617288968443134,7.94873577597289,0.0],[122.617198237008509,7.948735692409778,0.0],[122.617198153178407,7.948826146141838,0.0]]],[[[122.617198153178407,7.948826146141838,0.0],[122.617107421724853,7.948826062557942,0.0],[122.617107337873975,7.948916516288581,0.0],[122.617107254022116,7.949006970018865,0.0],[122.61719798551546,7.949007053604626,0.0],[122.617198069347424,7.948916599873454,0.0],[122.617198153178407,7.948826146141838,0.0]]],[[[122.617107254022116,7.949006970018865,0.0],[122.617016522529752,7.949006886413298,0.0],[122.617016438657018,7.949097340142161,0.0],[122.617016354783402,7.949187793870668,0.0],[122.617107086315372,7.949187877478189,0.0],[122.617107170169277,7.949097423748705,0.0],[122.617107254022116,7.949006970018865,0.0]]],[[[122.622287878782672,7.939242691764744,0.0],[122.62228796139712,7.939152237937471,0.0],[122.622197232013292,7.939152155564519,0.0],[122.62210650263053,7.939152073171848,0.0],[122.622106419976376,7.939242526997167,0.0],[122.622106337321341,7.93933298082213,0.0],[122.622197066743809,7.939333063216755,0.0],[122.622287796167242,7.939333145591662,0.0],[122.622378525591671,7.939333227946674,0.0],[122.622378608187191,7.939242774118868,0.0],[122.622287878782672,7.939242691764744,0.0]]],[[[122.62310378393714,7.939967062911809,0.0],[122.623103866380703,7.939876609079119,0.0],[122.623013136829442,7.939876526876696,0.0],[122.622922407279177,7.939876444654378,0.0],[122.622922324795908,7.939966898485204,0.0],[122.622922242311574,7.940057352315496,0.0],[122.622922159826359,7.940147806145522,0.0],[122.622922077340164,7.940238259975104,0.0],[122.62301280696984,7.940238342201153,0.0],[122.623012724502559,7.940328796031268,0.0],[122.623012642034226,7.940419249861027,0.0],[122.623103371704573,7.940419332069134,0.0],[122.623103289255155,7.940509785899427,0.0],[122.623194018946293,7.940509868088793,0.0],[122.623194101375816,7.940419414257524,0.0],[122.623194183804458,7.940328960425899,0.0],[122.623103454153025,7.940328878238486,0.0],[122.623103536600496,7.940238424407394,0.0],[122.623103619046987,7.940147970575947,0.0],[122.623103701492511,7.940057516744056,0.0],[122.62310378393714,7.939967062911809,0.0]]],[[[122.623920021050949,7.940329617213057,0.0],[122.623919938781114,7.940420071052231,0.0],[122.623919856510298,7.94051052489105,0.0],[122.623919774238502,7.940600978729514,0.0],[122.624010503958246,7.940601060741689,0.0],[122.624010586210133,7.940510606902337,0.0],[122.624010668461139,7.940420153062541,0.0],[122.624010750711079,7.94032969922239,0.0],[122.624010832960138,7.940239245381883,0.0],[122.623920103319804,7.940239163373438,0.0],[122.623920185587679,7.940148709533465,0.0],[122.623920267854672,7.940058255693047,0.0],[122.623920350120599,7.939967801852274,0.0],[122.623829620540846,7.939967719826954,0.0],[122.623829702825688,7.939877265986714,0.0],[122.623738973266626,7.939877183942476,0.0],[122.623738890961974,7.939967637781828,0.0],[122.623738808656256,7.940058091620647,0.0],[122.623829538255023,7.94005817366675,0.0],[122.62382945596822,7.940148627506191,0.0],[122.623829373680451,7.940239081345276,0.0],[122.623829291391687,7.940329535183918,0.0],[122.623920021050949,7.940329617213057,0.0]]],[[[122.624101151445899,7.940691596574031,0.0],[122.624101233678957,7.940601142734146,0.0],[122.624010503958246,7.940601060741689,0.0],[122.624010421705378,7.940691514580686,0.0],[122.62401033945153,7.940781968419238,0.0],[122.624010257196701,7.940872422257436,0.0],[122.624010174940892,7.940962876095278,0.0],[122.624100904741013,7.940962958091466,0.0],[122.624100986976927,7.940872504252735,0.0],[122.624101069211846,7.940782050413561,0.0],[122.624101151445899,7.940691596574031,0.0]]],[[[122.621106904741623,7.940869787961899,0.0],[122.621197634490755,7.940869870590292,0.0],[122.621288364240868,7.940869953198967,0.0],[122.621288447091132,7.94077949938928,0.0],[122.621197717360829,7.940779416781582,0.0],[122.621106987631492,7.940779334154077,0.0],[122.621106904741623,7.940869787961899,0.0]]],[[[122.621379011160627,7.940960489598145,0.0],[122.621379093991962,7.940870035787836,0.0],[122.621288364240868,7.940869953198967,0.0],[122.621288281389639,7.940960407008299,0.0],[122.621379011160627,7.940960489598145,0.0]]],[[[122.623375148762236,7.940871847736738,0.0],[122.623375231155975,7.940781393905113,0.0],[122.623284501403376,7.940781311752517,0.0],[122.623193771651742,7.940781229580204,0.0],[122.623193689218311,7.940871683409875,0.0],[122.6231936067839,7.940962137239102,0.0],[122.623193524348508,7.941052591067973,0.0],[122.623284254159628,7.941052673243218,0.0],[122.623374983971829,7.941052755398656,0.0],[122.623374901575161,7.941143209229037,0.0],[122.623465631408138,7.941143291365646,0.0],[122.623556361242095,7.941143373482448,0.0],[122.623647091077032,7.941143455579444,0.0],[122.62373782091295,7.941143537656722,0.0],[122.623737903230207,7.941053083822522,0.0],[122.623737985546498,7.940962629987966,0.0],[122.623647255750285,7.940962547912641,0.0],[122.623556525955053,7.940962465817511,0.0],[122.623465796160886,7.940962383702574,0.0],[122.623465878535711,7.940871929870505,0.0],[122.623375148762236,7.940871847736738,0.0]]],[[[122.621469740932497,7.940960572168184,0.0],[122.621379011160627,7.940960489598145,0.0],[122.621378928328213,7.941050943408009,0.0],[122.621378845494917,7.941141397217518,0.0],[122.621469575306577,7.941141479789423,0.0],[122.62146949249211,7.941231933599465,0.0],[122.621560222324561,7.941232016152541,0.0],[122.621560305119132,7.941141562341522,0.0],[122.621560387912723,7.941051108530147,0.0],[122.621469658120077,7.941051025979026,0.0],[122.621469740932497,7.940960572168184,0.0]]],[[[122.623919362865166,7.941053247915794,0.0],[122.623919280587614,7.941143701751771,0.0],[122.623919198309068,7.941234155587481,0.0],[122.624009928167723,7.941234237606317,0.0],[122.624010010426446,7.941143783769719,0.0],[122.624010092684117,7.941053329932676,0.0],[122.623919362865166,7.941053247915794,0.0]]],[[[122.624191387887947,7.941234401584571,0.0],[122.624282117749431,7.941234483543988,0.0],[122.624282199948567,7.941144029704547,0.0],[122.624191470106894,7.941143947746018,0.0],[122.624191387887947,7.941234401584571,0.0]]],[[[122.624100411304966,7.941505681115676,0.0],[122.624167014432203,7.941505741297168,0.0],[122.624191172596085,7.941471251358867,0.0],[122.624191223447042,7.941415309260432,0.0],[122.624100493546734,7.941415227279255,0.0],[122.624100411304966,7.941505681115676,0.0]]],[[[122.623918951467672,7.941505517092126,0.0],[122.623918869185232,7.941595970926238,0.0],[122.623918786901896,7.941686424759905,0.0],[122.624009516859758,7.941686506783538,0.0],[122.624009599123283,7.941596052948804,0.0],[122.624009681385829,7.941505599113804,0.0],[122.624009763647408,7.94141514527836,0.0],[122.623919033749146,7.941415063257659,0.0],[122.623918951467672,7.941505517092126,0.0]]],[[[122.623737080013953,7.941957622146586,0.0],[122.623736997687018,7.94204807597679,0.0],[122.623787109285075,7.942048121303646,0.0],[122.623827780591441,7.941990056011361,0.0],[122.623827810029454,7.941957704212496,0.0],[122.623737080013953,7.941957622146586,0.0]]],[[[122.622648154772165,7.94213754344871,0.0],[122.622738884815732,7.942137625754072,0.0],[122.622738967362054,7.942047171934616,0.0],[122.622648237338296,7.94204708963023,0.0],[122.622648154772165,7.94213754344871,0.0]]],[[[122.623555290513437,7.942319273266304,0.0],[122.623464560421468,7.942319191137156,0.0],[122.62346447803111,7.942409644963008,0.0],[122.623533839344532,7.942409707749739,0.0],[122.623555235978117,7.942379160371392,0.0],[122.623555290513437,7.942319273266304,0.0]]],[[[122.623282770514251,7.9426808421129,0.0],[122.623330244377158,7.942680885109024,0.0],[122.623373552588617,7.942623955271644,0.0],[122.623373583096864,7.94259047046176,0.0],[122.623399007961353,7.942590493482729,0.0],[122.623464391589906,7.942504544901262,0.0],[122.623464395639772,7.942500098788416,0.0],[122.62346447803111,7.942409644963008,0.0],[122.623373747920212,7.942409562813165,0.0],[122.623373665508979,7.942500016637596,0.0],[122.623282935379265,7.942499934467059,0.0],[122.623282852947241,7.942590388290157,0.0],[122.623192122798599,7.942590306098837,0.0],[122.623192040345714,7.942680759920692,0.0],[122.623101310178157,7.942680677708588,0.0],[122.623101227704581,7.942771131529022,0.0],[122.623010497518095,7.942771049296224,0.0],[122.623010415023643,7.942861503115325,0.0],[122.622919684818342,7.942861420861743,0.0],[122.622919602303014,7.942951874679602,0.0],[122.62301033252821,7.942951956934071,0.0],[122.623101062754301,7.942952039168824,0.0],[122.623101145229924,7.9428615853491,0.0],[122.623191875437186,7.942861667563069,0.0],[122.623191957891933,7.942771213742103,0.0],[122.623261480802,7.942771276723449,0.0],[122.623282713534138,7.942743365711944,0.0],[122.623282770514251,7.9426808421129,0.0]]],[[[122.62282878954268,7.943042246221673,0.0],[122.622919519786791,7.943042328496927,0.0],[122.622919602303014,7.942951874679602,0.0],[122.622828872078884,7.942951792405236,0.0],[122.62282878954268,7.943042246221673,0.0]]],[[[122.622986426603617,7.943132843046697,0.0],[122.62301019605124,7.943101597452801,0.0],[122.623010250031797,7.943042410752374,0.0],[122.622919519786791,7.943042328496927,0.0],[122.622919437269516,7.943132782313897,0.0],[122.622986426603617,7.943132843046697,0.0]]],[[[122.622737894184766,7.943223071556468,0.0],[122.622737811625925,7.943313525370773,0.0],[122.62282854192857,7.943313607668675,0.0],[122.622828624467616,7.943223153853393,0.0],[122.622737894184766,7.943223071556468,0.0]]],[[[122.62282854192857,7.943313607668675,0.0],[122.622828517462992,7.943340418963438,0.0],[122.622848899564133,7.943313626129845,0.0],[122.62282854192857,7.943313607668675,0.0]]],[[[122.622374324886408,7.943932191830931,0.0],[122.622426049262572,7.943869474503434,0.0],[122.622436318686368,7.943855975062869,0.0],[122.622374394574891,7.943855918836115,0.0],[122.622374324886408,7.943932191830931,0.0]]],[[[122.621829763792377,7.944126785528835,0.0],[122.621920494263961,7.944126868033238,0.0],[122.6219205770103,7.944036414231012,0.0],[122.621829846558526,7.944036331727585,0.0],[122.621829763792377,7.944126785528835,0.0]]],[[[122.621648302852051,7.944126620460698,0.0],[122.621648220045145,7.944217074259638,0.0],[122.621738950534663,7.944217156804542,0.0],[122.621739033321688,7.944126703004625,0.0],[122.621648302852051,7.944126620460698,0.0]]],[[[122.62137594571503,7.944307280301829,0.0],[122.621466676221516,7.944307362907041,0.0],[122.621466759069023,7.94421690911041,0.0],[122.621376028582432,7.944216826506087,0.0],[122.62137594571503,7.944307280301829,0.0]]],[[[122.621829598257051,7.944307693130178,0.0],[122.621829681025247,7.94421723932964,0.0],[122.621738950534663,7.944217156804542,0.0],[122.621738867746757,7.944307610604104,0.0],[122.621829598257051,7.944307693130178,0.0]]],[[[122.621285215209525,7.944307197676722,0.0],[122.621194484705001,7.944307115031898,0.0],[122.621194401796913,7.944397568825331,0.0],[122.621285132321347,7.944397651471133,0.0],[122.621285215209525,7.944307197676722,0.0]]],[[[122.621557323900305,7.944397899289787,0.0],[122.621648054428547,7.944397981856363,0.0],[122.621648137237329,7.944307528058222,0.0],[122.621557406728897,7.944307445492535,0.0],[122.621557323900305,7.944397899289787,0.0]]],[[[122.621375779977299,7.944488187892071,0.0],[122.62146651052349,7.944488270499236,0.0],[122.621466593372944,7.944397816703316,0.0],[122.621375862846662,7.944397734097127,0.0],[122.621375779977299,7.944488187892071,0.0]]],[[[122.621193987241853,7.944849837786546,0.0],[122.621284717865493,7.944849920437055,0.0],[122.621284800758559,7.944759466644688,0.0],[122.621194070154829,7.944759383995067,0.0],[122.621193987241853,7.944849837786546,0.0]]],[[[122.621375199864545,7.94512136444557,0.0],[122.621393573960631,7.945121381175901,0.0],[122.621466011064911,7.945033549056318,0.0],[122.621466013406035,7.945030993266319,0.0],[122.621375282740743,7.94503091065338,0.0],[122.621375199864545,7.94512136444557,0.0]]]]}},
{"type":"Feature","properties":{"fid":194,"Var":2.0,"layer":"ZamboangaDelNorte_Flood_5year","path":"C:/Users/cbposadas/Desktop/New folder/ZamboangaDelNorte/ZamboangaDelNorte_Flood_5year.shp","Risk Level":"Medium","SYSTRA ID":"295","DAR ID":"297","Target Year":"2028","Bridge Category":"Original List","Bridge Name":"PALOMOC BRIDGES","Coordinates Y":"7.915836","Coordinates X":"122.586828","Region":"IX","Province":"ZAMBOANGA SIBUGAY","ARC 2026":"Titay Valley ARC","LINEAR METER IVF 2026":"35","EIRR 2026":"0.51","NEW/REPLACEMENT BRIDGE 2026":"replacement","Visited by SYSTRA":"No","Selected for 2nd Visit of SYSTRA":"No","Final Funder":"No Funder","2023 IVF URL":"","2026 IVF URL":"https://drive.google.com/open?id=17AzoC09U-HM7ouITcD1KBjeajMsgl1wx"},"geometry":{"type":"MultiPolygon","coordinates":[[[[122.619654646407767,7.941501639752432,0.0],[122.619654729622098,7.94141118596264,0.0],[122.619563999770463,7.941411102992032,0.0],[122.619563916536237,7.941501556780847,0.0],[122.619563833301044,7.941592010569306,0.0],[122.619654563192384,7.94159209354178,0.0],[122.619654646407767,7.941501639752432,0.0]]],[[[122.619200247193518,7.942315308744171,0.0],[122.61910951714826,7.942315225665028,0.0],[122.619109433804965,7.942405679445138,0.0],[122.619200163870119,7.94240576252517,0.0],[122.619290893936153,7.942405845585484,0.0],[122.619290977239743,7.94231539180342,0.0],[122.619200247193518,7.942315308744171,0.0]]],[[[122.619562834402487,7.942677455999822,0.0],[122.61965356453203,7.942677538983753,0.0],[122.619653647759137,7.942587085199112,0.0],[122.619562917649404,7.94258700221607,0.0],[122.619562834402487,7.942677455999822,0.0]]],[[[122.61765708357413,7.943127977576489,0.0],[122.617566353366882,7.943127894152288,0.0],[122.617566269677283,7.943218347912592,0.0],[122.61765699990444,7.943218431337681,0.0],[122.61765708357413,7.943127977576489,0.0]]],[[[122.617656916233685,7.943308885098518,0.0],[122.617747646481618,7.943308968504867,0.0],[122.617747730132479,7.943218514743053,0.0],[122.61765699990444,7.943218431337681,0.0],[122.617656916233685,7.943308885098518,0.0]]],[[[122.617747562829777,7.943399422266237,0.0],[122.617838293098586,7.943399505653756,0.0],[122.617838376730532,7.943309051891409,0.0],[122.617747646481618,7.943308968504867,0.0],[122.617747562829777,7.943399422266237,0.0]]],[[[122.620197363546907,7.943311212993728,0.0],[122.620197280431171,7.943401666780944,0.0],[122.620288010726355,7.943401749634046,0.0],[122.620288093822296,7.943311295845853,0.0],[122.620197363546907,7.943311212993728,0.0]]],[[[122.620378657945508,7.943492286256068,0.0],[122.62037874102262,7.943401832467342,0.0],[122.620288010726355,7.943401749634046,0.0],[122.620287927629448,7.943492203421884,0.0],[122.620378657945508,7.943492286256068,0.0]]],[[[122.618019586451624,7.943580579896733,0.0],[122.617928856141162,7.943580496546873,0.0],[122.617928772526099,7.943670950308953,0.0],[122.61801950285637,7.943671033659791,0.0],[122.618019586451624,7.943580579896733,0.0]]],[[[122.618019419260122,7.943761487422493,0.0],[122.618110149611354,7.943761570754412,0.0],[122.618110233187707,7.943671116990733,0.0],[122.61801950285637,7.943671033659791,0.0],[122.618019419260122,7.943761487422493,0.0]]],[[[122.620650599841269,7.943763896012531,0.0],[122.620559869462767,7.943763813234836,0.0],[122.620559786421552,7.943854267023917,0.0],[122.62065051681995,7.94385434980259,0.0],[122.620650599841269,7.943763896012531,0.0]]],[[[122.62065051681995,7.94385434980259,0.0],[122.620650433797564,7.943944803592292,0.0],[122.620650350774199,7.944035257381551,0.0],[122.620741081213353,7.944035340142372,0.0],[122.620741164216824,7.943944886352136,0.0],[122.620741247219314,7.943854432561456,0.0],[122.62065051681995,7.94385434980259,0.0]]],[[[122.618200712847553,7.943942561594594,0.0],[122.618200629288083,7.944033015358095,0.0],[122.618291359700777,7.944033098653333,0.0],[122.618291443240352,7.943942644888943,0.0],[122.618200712847553,7.943942561594594,0.0]]],[[[122.618291276160221,7.944123552417278,0.0],[122.618382006593706,7.944123635693686,0.0],[122.618382090114451,7.944033181928764,0.0],[122.618291359700777,7.944033098653333,0.0],[122.618291276160221,7.944123552417278,0.0]]],[[[122.618381923071979,7.944214089458254,0.0],[122.618472653526325,7.944214172715832,0.0],[122.618472737028156,7.944123718950288,0.0],[122.618382006593706,7.944123635693686,0.0],[122.618381923071979,7.944214089458254,0.0]]],[[[122.620740998208902,7.944125793932163,0.0],[122.620740915203484,7.9442162477216,0.0],[122.620831645683239,7.944216330464479,0.0],[122.620831728668762,7.944125876674065,0.0],[122.620740998208902,7.944125793932163,0.0]]],[[[122.618472570023528,7.944304626480933,0.0],[122.61847248651975,7.944395080245678,0.0],[122.618563217014767,7.944395163485404,0.0],[122.618563300498749,7.944304709719682,0.0],[122.618472570023528,7.944304626480933,0.0]]],[[[122.618653864045726,7.944485700471579,0.0],[122.618653947510865,7.944395246705324,0.0],[122.618563217014767,7.944395163485404,0.0],[122.618563133529818,7.944485617250682,0.0],[122.618653864045726,7.944485700471579,0.0]]],[[[122.618653780579692,7.944576154237478,0.0],[122.618744511116461,7.944576237439457,0.0],[122.6187445945626,7.944485783672669,0.0],[122.618653864045726,7.944485700471579,0.0],[122.618653780579692,7.944576154237478,0.0]]],[[[122.618835158226815,7.944666774389128,0.0],[122.618744427669256,7.94466669120589,0.0],[122.618744344221071,7.944757144971967,0.0],[122.618835074798525,7.944757228156093,0.0],[122.618835158226815,7.944666774389128,0.0]]],[[[122.618834991369255,7.944847681922703,0.0],[122.6189257219675,7.944847765088,0.0],[122.618925805376946,7.944757311320413,0.0],[122.618835074798525,7.944757228156093,0.0],[122.618834991369255,7.944847681922703,0.0]]],[[[122.619016369176251,7.944938302001611,0.0],[122.619016452566797,7.944847848233491,0.0],[122.6189257219675,7.944847765088,0.0],[122.618925638557144,7.944938218855143,0.0],[122.619016369176251,7.944938302001611,0.0]]],[[[122.619016285784738,7.945028755769376,0.0],[122.619016202392245,7.945119209536696,0.0],[122.619106933052038,7.945119292665312,0.0],[122.619107016424636,7.945028838897014,0.0],[122.619016285784738,7.945028755769376,0.0]]],[[[122.619106849678374,7.945209746433165,0.0],[122.619197580359028,7.945209829542951,0.0],[122.619197663712796,7.94511937577412,0.0],[122.619106933052038,7.945119292665312,0.0],[122.619106849678374,7.945209746433165,0.0]]],[[[122.619197497004279,7.945300283311426,0.0],[122.619288227705724,7.945300366402294,0.0],[122.619288311040663,7.94520991263293,0.0],[122.619197580359028,7.945209829542951,0.0],[122.619197497004279,7.945300283311426,0.0]]],[[[122.619378958408234,7.945300449473444,0.0],[122.619288227705724,7.945300366402294,0.0],[122.619288144369889,7.945390820171391,0.0],[122.619288061033089,7.945481273940044,0.0],[122.619378791775205,7.945481357013059,0.0],[122.61937887509221,7.945390903243429,0.0],[122.619378958408234,7.945300449473444,0.0]]],[[[122.619469439220225,7.945571893836431,0.0],[122.619469522518401,7.945481440066268,0.0],[122.619378791775205,7.945481357013059,0.0],[122.619378708457234,7.945571810782245,0.0],[122.619469439220225,7.945571893836431,0.0]]],[[[122.619560086705036,7.945662430641506,0.0],[122.619560169984197,7.94557197687081,0.0],[122.619469439220225,7.945571893836431,0.0],[122.619469355921169,7.94566234760615,0.0],[122.619469272621131,7.945752801375602,0.0],[122.619560003424809,7.945752884411847,0.0],[122.619559920143686,7.945843338181832,0.0],[122.619650650968239,7.945843421199247,0.0],[122.619650734229538,7.945752967428374,0.0],[122.61965081748987,7.945662513657056,0.0],[122.619560086705036,7.945662430641506,0.0]]],[[[122.619650567705946,7.945933874969765,0.0],[122.619741298551276,7.945933957968351,0.0],[122.619741381793759,7.945843504196945,0.0],[122.619650650968239,7.945843421199247,0.0],[122.619650567705946,7.945933874969765,0.0]]],[[[122.619922677041274,7.946024577679197,0.0],[122.619831946174102,7.946024494719159,0.0],[122.619832029397671,7.94593404094713,0.0],[122.619741298551276,7.945933957968351,0.0],[122.619741215307911,7.946024411739402,0.0],[122.619741132063567,7.946114865510098,0.0],[122.619831862949567,7.946114948490831,0.0],[122.619831779724137,7.94620540226206,0.0],[122.619922510631014,7.946205485223875,0.0],[122.619922593836634,7.946115031451758,0.0],[122.619922677041274,7.946024577679197,0.0]]],[[[122.618017161791329,7.946203738866328,0.0],[122.618017078167554,7.946294192618017,0.0],[122.618107809074786,7.946294275976848,0.0],[122.618107892678665,7.946203822224182,0.0],[122.618017161791329,7.946203738866328,0.0]]],[[[122.618198456397948,7.946384813069071,0.0],[122.618289187327036,7.946384896389266,0.0],[122.618379918257006,7.946384979689744,0.0],[122.618470649187941,7.946385062970326,0.0],[122.618470732713305,7.946294609214285,0.0],[122.618380001802265,7.946294525934591,0.0],[122.618289270892092,7.946294442635179,0.0],[122.618198539982913,7.946294359315872,0.0],[122.618198456397948,7.946384813069071,0.0]]],[[[122.620194537062616,7.94638664153969,0.0],[122.620103806113022,7.946386558635251,0.0],[122.620103889280898,7.94629610486198,0.0],[122.620013158352165,7.946296021938712,0.0],[122.620013241538956,7.946205568165973,0.0],[122.619922510631014,7.946205485223875,0.0],[122.619922427424413,7.946295938995726,0.0],[122.619922344216846,7.946386392767132,0.0],[122.619922261008199,7.946476846538094,0.0],[122.619922177798671,7.94656730030879,0.0],[122.619922094588176,7.946657754078953,0.0],[122.619922011376687,7.946748207848761,0.0],[122.619831280350525,7.946748124881172,0.0],[122.619831197118174,7.946838578649648,0.0],[122.619831180633355,7.946856493538293,0.0],[122.620110194479551,7.94656772022333,0.0],[122.620194457347637,7.946473359662013,0.0],[122.620194537062616,7.94638664153969,0.0]]],[[[122.61964973502927,7.946838412653098,0.0],[122.619740466073281,7.946838495661276,0.0],[122.619740549325442,7.946748041893778,0.0],[122.619649818301326,7.946747958886577,0.0],[122.619559087278091,7.946747875859569,0.0],[122.619468356256021,7.946747792812666,0.0],[122.619377625234748,7.946747709746046,0.0],[122.61928689421454,7.94674762665962,0.0],[122.619196163195312,7.946747543553387,0.0],[122.619196246565679,7.946657089791217,0.0],[122.619105515567327,7.946657006666155,0.0],[122.619014784569856,7.946656923521286,0.0],[122.618924053573451,7.946656840356611,0.0],[122.618833322577927,7.946656757172129,0.0],[122.618833239128151,7.94674721093048,0.0],[122.618742508113712,7.946747127725215,0.0],[122.61874242464306,7.946837581482233,0.0],[122.618651693609806,7.946837498256273,0.0],[122.618651610118278,7.94692795201187,0.0],[122.61856087906618,7.946927868765127,0.0],[122.61856079555379,7.947018322519392,0.0],[122.618560712040406,7.947108776273301,0.0],[122.618651443132208,7.947108859521998,0.0],[122.618651526625769,7.947018405767111,0.0],[122.618742257698742,7.947018488995025,0.0],[122.618742341171341,7.946928035238806,0.0],[122.618833072225485,7.946928118446025,0.0],[122.618833155677223,7.946837664688474,0.0],[122.618923886712437,7.946837747874821,0.0],[122.618923970143385,7.946747294115938,0.0],[122.61901470115977,7.94674737728159,0.0],[122.619105432177051,7.946747460427436,0.0],[122.619105348785808,7.946837914188184,0.0],[122.619196079823951,7.946837997315201,0.0],[122.619286810862988,7.946838080422411,0.0],[122.619377541903091,7.946838163509814,0.0],[122.619468272944175,7.946838246577323,0.0],[122.619559003986225,7.946838329625113,0.0],[122.61964973502927,7.946838412653098,0.0]]],[[[122.618469980949598,7.947108693004798,0.0],[122.618469897415352,7.947199146757286,0.0],[122.618560628526055,7.947199230026766,0.0],[122.618560712040406,7.947108776273301,0.0],[122.618469980949598,7.947108693004798,0.0]]],[[[122.618379166305616,7.947199063468088,0.0],[122.618379082750579,7.947289517219244,0.0],[122.618469813880125,7.947289600509419,0.0],[122.618469897415352,7.947199146757286,0.0],[122.618379166305616,7.947199063468088,0.0]]],[[[122.618288351621928,7.947289433909263,0.0],[122.61828826804603,7.947379887659086,0.0],[122.618378999194491,7.947379970970045,0.0],[122.618379082750579,7.947289517219244,0.0],[122.618288351621928,7.947289433909263,0.0]]],[[[122.618197536898535,7.947379804328322,0.0],[122.618197453301761,7.947470258076724,0.0],[122.618288184469151,7.947470341408466,0.0],[122.61828826804603,7.947379887659086,0.0],[122.618197536898535,7.947379804328322,0.0]]],[[[122.618197369704021,7.947560711824861,0.0],[122.618197453301761,7.947470258076724,0.0],[122.618106722135366,7.947470174725177,0.0],[122.618106638517801,7.947560628472336,0.0],[122.618106554899185,7.947651082219051,0.0],[122.618197286105286,7.947651165572553,0.0],[122.618197369704021,7.947560711824861,0.0]]],[[[122.618106554899185,7.947651082219051,0.0],[122.618015823694051,7.947650998845831,0.0],[122.61801574005456,7.947741452591214,0.0],[122.618015656414173,7.947831906336153,0.0],[122.618106387659097,7.947831989711326,0.0],[122.618106471279674,7.94774153596541,0.0],[122.618106554899185,7.947651082219051,0.0]]],[[[122.618015572772819,7.947922360080736,0.0],[122.618015656414173,7.947831906336153,0.0],[122.617924925170328,7.947831822941173,0.0],[122.617924841509065,7.947922276684779,0.0],[122.617924757846836,7.94801273042803,0.0],[122.618015489130386,7.948012813824964,0.0],[122.618015572772819,7.947922360080736,0.0]]],[[[122.617924674183627,7.948103184170837,0.0],[122.617924757846836,7.94801273042803,0.0],[122.617834026564168,7.94801264701129,0.0],[122.617833942881063,7.948103100753209,0.0],[122.617833859196992,7.948193554494684,0.0],[122.617924590519351,7.948193637913289,0.0],[122.617924674183627,7.948103184170837,0.0]]],[[[122.617743044170737,7.948283924796326,0.0],[122.617833775511926,7.948284008235714,0.0],[122.617833859196992,7.948193554494684,0.0],[122.617743127875684,7.948193471056183,0.0],[122.617743044170737,7.948283924796326,0.0]]],[[[122.617652145377889,7.948464748814307,0.0],[122.617652229104692,7.948374295075852,0.0],[122.617742960464795,7.948374378536024,0.0],[122.617743044170737,7.948283924796326,0.0],[122.61765231283043,7.948283841337131,0.0],[122.617561581491188,7.948283757858129,0.0],[122.617561497745555,7.948374211595874,0.0],[122.617470766387299,7.948374128096089,0.0],[122.61747068262089,7.94846458183259,0.0],[122.617561413998857,7.948464665333351,0.0],[122.617652145377889,7.948464748814307,0.0]]],[[[122.621106904741623,7.940869787961899,0.0],[122.621106821850688,7.940960241769276,0.0],[122.621016092082627,7.9409601591201,0.0],[122.621016009170816,7.941050612926145,0.0],[122.621106738958773,7.941050695576299,0.0],[122.621106656065876,7.941141149382966,0.0],[122.621197385874609,7.941141232014201,0.0],[122.621288115684237,7.941141314625718,0.0],[122.621378845494917,7.941141397217518,0.0],[122.621378928328213,7.941050943408009,0.0],[122.621379011160627,7.940960489598145,0.0],[122.621288281389639,7.940960407008299,0.0],[122.621288364240868,7.940869953198967,0.0],[122.621197634490755,7.940869870590292,0.0],[122.621106904741623,7.940869787961899,0.0]]],[[[122.624100904741013,7.940962958091466,0.0],[122.624010174940892,7.940962876095278,0.0],[122.624010092684117,7.941053329932676,0.0],[122.624010010426446,7.941143783769719,0.0],[122.624009928167723,7.941234237606317,0.0],[122.624009845908091,7.941324691442561,0.0],[122.624009763647408,7.94141514527836,0.0],[122.624009681385829,7.941505599113804,0.0],[122.624009599123283,7.941596052948804,0.0],[122.624009516859758,7.941686506783538,0.0],[122.623918786901896,7.941686424759905,0.0],[122.62391870461758,7.941776878593306,0.0],[122.623918628679775,7.941860354723782,0.0],[122.624100324682132,7.941600952397493,0.0],[122.624100329062315,7.941596134951653,0.0],[122.624100411304966,7.941505681115676,0.0],[122.624100493546734,7.941415227279255,0.0],[122.624191223447042,7.941415309260432,0.0],[122.624191305667935,7.941324855422679,0.0],[122.624191387887947,7.941234401584571,0.0],[122.624191470106894,7.941143947746018,0.0],[122.624282199948567,7.941144029704547,0.0],[122.624282282146822,7.941053575864751,0.0],[122.624282364343998,7.94096312202451,0.0],[122.624191634542015,7.940963040067847,0.0],[122.624191716758119,7.94087258622814,0.0],[122.624100986976927,7.940872504252735,0.0],[122.624100904741013,7.940962958091466,0.0]]],[[[122.623827892335626,7.94186725038096,0.0],[122.623827810029454,7.941957704212496,0.0],[122.623827780591441,7.941990056011361,0.0],[122.623913744301262,7.941867328015075,0.0],[122.623827892335626,7.94186725038096,0.0]]],[[[122.623646185304864,7.942138447718968,0.0],[122.623646102956158,7.942228901547485,0.0],[122.623555372883018,7.94222881943912,0.0],[122.623555290513437,7.942319273266304,0.0],[122.623555235978117,7.942379160371392,0.0],[122.623723791787356,7.942138517933137,0.0],[122.623646185304864,7.942138447718968,0.0]]],[[[122.623736997687018,7.94204807597679,0.0],[122.623736932445098,7.942119757381762,0.0],[122.623787109285075,7.942048121303646,0.0],[122.623736997687018,7.94204807597679,0.0]]],[[[122.62346447803111,7.942409644963008,0.0],[122.623464395639772,7.942500098788416,0.0],[122.623467771554729,7.942500101844372,0.0],[122.623502497469886,7.942454453671975,0.0],[122.623533839344532,7.942409707749739,0.0],[122.62346447803111,7.942409644963008,0.0]]],[[[122.623010250031797,7.943042410752374,0.0],[122.62301033252821,7.942951956934071,0.0],[122.622919602303014,7.942951874679602,0.0],[122.622919519786791,7.943042328496927,0.0],[122.623010250031797,7.943042410752374,0.0]]],[[[122.62282878954268,7.943042246221673,0.0],[122.622828707005681,7.943132700037755,0.0],[122.622828624467616,7.943223153853393,0.0],[122.62282854192857,7.943313607668675,0.0],[122.622848899564133,7.943313626129845,0.0],[122.622919356783839,7.943221008172988,0.0],[122.622919437269516,7.943132782313897,0.0],[122.622919519786791,7.943042328496927,0.0],[122.62282878954268,7.943042246221673,0.0]]],[[[122.62282854192857,7.943313607668675,0.0],[122.622737811625925,7.943313525370773,0.0],[122.622737729066003,7.943403979184635,0.0],[122.622737678088896,7.943459829823888,0.0],[122.622828517462992,7.943340418963438,0.0],[122.62282854192857,7.943313607668675,0.0]]],[[[122.622646916163831,7.943494350678656,0.0],[122.62264683866168,7.943579240754164,0.0],[122.622711372565021,7.943494409159903,0.0],[122.622646916163831,7.943494350678656,0.0]]],[[[122.622556103221953,7.943584722150473,0.0],[122.622556020619413,7.943675175961315,0.0],[122.622465290240285,7.943675093600263,0.0],[122.62246520761704,7.943765547409773,0.0],[122.622374477219012,7.943765465027938,0.0],[122.622374394574891,7.943855918836115,0.0],[122.622436318686368,7.943855975062869,0.0],[122.622642609079136,7.943584800656975,0.0],[122.622556103221953,7.943584722150473,0.0]]],[[[122.622283664157933,7.943855836433497,0.0],[122.622192933742042,7.943855754011161,0.0],[122.62219285105725,7.943946207817029,0.0],[122.622102120622358,7.94394612537391,0.0],[122.622011390188518,7.943946042911073,0.0],[122.622011307463055,7.944036496714632,0.0],[122.6219205770103,7.944036414231012,0.0],[122.621920494263961,7.944126868033238,0.0],[122.622011224736511,7.944126950517746,0.0],[122.622101955210141,7.944127032982625,0.0],[122.622102037916775,7.944036579178445,0.0],[122.622192768371391,7.944036661622541,0.0],[122.622283498827073,7.944036744046742,0.0],[122.622283581493036,7.943946290240341,0.0],[122.622362638398158,7.943946362041673,0.0],[122.622374324886408,7.943932191830931,0.0],[122.622374394574891,7.943855918836115,0.0],[122.622283664157933,7.943855836433497,0.0]]],[[[122.621920494263961,7.944126868033238,0.0],[122.621829763792377,7.944126785528835,0.0],[122.621739033321688,7.944126703004625,0.0],[122.621738950534663,7.944217156804542,0.0],[122.621829681025247,7.94421723932964,0.0],[122.621920411516726,7.94421732183502,0.0],[122.621920494263961,7.944126868033238,0.0]]],[[[122.621738950534663,7.944217156804542,0.0],[122.621648220045145,7.944217074259638,0.0],[122.621557489556594,7.944216991694927,0.0],[122.621466759069023,7.94421690911041,0.0],[122.621466676221516,7.944307362907041,0.0],[122.62137594571503,7.944307280301829,0.0],[122.621285215209525,7.944307197676722,0.0],[122.621285132321347,7.944397651471133,0.0],[122.621194401796913,7.944397568825331,0.0],[122.621194318887859,7.94448802261832,0.0],[122.621285049432089,7.944488105265099,0.0],[122.621375779977299,7.944488187892071,0.0],[122.621375862846662,7.944397734097127,0.0],[122.621466593372944,7.944397816703316,0.0],[122.621557323900305,7.944397899289787,0.0],[122.621557406728897,7.944307445492535,0.0],[122.621648137237329,7.944307528058222,0.0],[122.621738867746757,7.944307610604104,0.0],[122.621738950534663,7.944217156804542,0.0]]],[[[122.621375199864545,7.94512136444557,0.0],[122.621375282740743,7.94503091065338,0.0],[122.621375365615961,7.944940456860835,0.0],[122.621284634971445,7.944940374229067,0.0],[122.621284717865493,7.944849920437055,0.0],[122.621193987241853,7.944849837786546,0.0],[122.621194070154829,7.944759383995067,0.0],[122.62119415306681,7.944668930203233,0.0],[122.621194235977825,7.944578476410954,0.0],[122.621103505414666,7.944578393743481,0.0],[122.621103588344596,7.944487939951736,0.0],[122.621012857802327,7.944487857265433,0.0],[122.620922127261025,7.944487774559236,0.0],[122.62092204429139,7.944578228349028,0.0],[122.621012774852588,7.944578311056113,0.0],[122.621012691901782,7.944668764846527,0.0],[122.621012608950096,7.944759218636407,0.0],[122.621103339551965,7.94475930132564,0.0],[122.621103256619108,7.944849755116143,0.0],[122.621103173685356,7.944940208906289,0.0],[122.62119390432791,7.944940291577582,0.0],[122.621193821413002,7.945030745368261,0.0],[122.621284552076332,7.945030828020724,0.0],[122.621284469180338,7.945121281811937,0.0],[122.621284386283349,7.945211735602794,0.0],[122.621319030630957,7.945211767155719,0.0],[122.621393573960631,7.945121381175901,0.0],[122.621375199864545,7.94512136444557,0.0]]]]}},
{"type":"Feature","properties":{"fid":199,"Var":1.0,"layer":"ZamboangaSibugay_Flood_5year","path":"C:/Users/cbposadas/Desktop/New folder/ZamboangaSibugay/ZamboangaSibugay_Flood_5year.shp","Risk Level":"Low","SYSTRA ID":"295","DAR ID":"297","Target Year":"2028","Bridge Category":"Original List","Bridge Name":"PALOMOC BRIDGES","Coordinates Y":"7.915836","Coordinates X":"122.586828","Region":"IX","Province":"ZAMBOANGA SIBUGAY","ARC 2026":"Titay Valley ARC","LINEAR METER IVF 2026":"35","EIRR 2026":"0.51","NEW/REPLACEMENT BRIDGE 2026":"replacement","Visited by SYSTRA":"No","Selected for 2nd Visit of SYSTRA":"No","Final Funder":"No Funder","2023 IVF URL":"","2026 IVF URL":"https://drive.google.com/open?id=17AzoC09U-HM7ouITcD1KBjeajMsgl1wx"},"geometry":{"type":"MultiPolygon","coordinates":[[[[122.625826653635201,7.938884073456555,0.0],[122.625826735471961,7.938793619590913,0.0],[122.625736006129785,7.938793537993251,0.0],[122.625736087985459,7.938703084128053,0.0],[122.625736169839982,7.9386126302625,0.0],[122.625736251693709,7.938522176396591,0.0],[122.625736333546371,7.938431722530239,0.0],[122.625736415398137,7.938341268663531,0.0],[122.625736497248838,7.938250814796379,0.0],[122.625736579098657,7.938160360928872,0.0],[122.625645849896458,7.938160279317976,0.0],[122.625645931765106,7.938069825451001,0.0],[122.62564601363286,7.937979371583672,0.0],[122.625646095499562,7.937888917715898,0.0],[122.625646177365354,7.937798463847769,0.0],[122.62555544824346,7.937798382220975,0.0],[122.625555366357844,7.937888836088127,0.0],[122.625555284471261,7.937979289955012,0.0],[122.625555202583698,7.938069743821365,0.0],[122.625555120695154,7.938160197687451,0.0],[122.625555038805643,7.938250651553093,0.0],[122.625645768026757,7.938250733184595,0.0],[122.625645686156147,7.93834118705077,0.0],[122.625645604284571,7.93843164091659,0.0],[122.625645522412114,7.938522094781965,0.0],[122.625645440538577,7.938612548646986,0.0],[122.625645358664073,7.938703002511651,0.0],[122.625645276788674,7.938793456375872,0.0],[122.625645194912309,7.938883910239649,0.0],[122.625735924273314,7.938883991858005,0.0],[122.625735842415764,7.938974445722404,0.0],[122.625735760557333,7.939064899586358,0.0],[122.625735750128996,7.939076422802178,0.0],[122.625826619162993,7.938922175037146,0.0],[122.625826653635201,7.938884073456555,0.0]]]]}}
]
}
