{
"type": "FeatureCollection",
"name": "SYSTRA ID_246",
"crs": { "type": "name", "properties": { "name": "urn:ogc:def:crs:OGC::CRS84" } },
"xy_coordinate_resolution": 1e-15,
"features": [
{"type":"Feature","properties":{"fid":34,"Var":1.0,"layer":"Catanduanes_Flood_5year","path":"C:/Users/cbposadas/Desktop/New folder/Catanduanes/Catanduanes_Flood_5year.shp","Risk Level":"Low","SYSTRA ID":"246","DAR ID":"162","Target Year":"2028","Bridge Category":"Original List","Bridge Name":"RIZAL BRIDGE","Coordinates Y":"13.852167","Coordinates X":"124.30325","Region":"V","Province":"CATANDUANES","ARC 2026":"non-ARC","LINEAR METER IVF 2026":"23","EIRR 2026":"0.47","NEW/REPLACEMENT BRIDGE 2026":"new","Visited by SYSTRA":"No","Selected for 2nd Visit of SYSTRA":"No","Final Funder":"Trésor","2023 IVF URL":"","2026 IVF URL":"https://drive.google.com/open?id=1RwAiXENbmH-DnToQHpdONIyfK-wRfzBg"},"geometry":{"type":"MultiPolygon","coordinates":[[[[124.25928483692951,13.864869291391507,0.0],[124.25937736111986,13.864868815181591,0.0],[124.259376873698642,13.864778416181039,0.0],[124.259284349543904,13.864778892387669,0.0],[124.25928483692951,13.864869291391507,0.0]]],[[[124.260677578833977,13.865766134088325,0.0],[124.260677090876655,13.865675735139732,0.0],[124.260584566413101,13.865676211868166,0.0],[124.260585054334626,13.865766610819957,0.0],[124.260677578833977,13.865766134088325,0.0]]],[[[124.260772055336773,13.866127253096177,0.0],[124.260771567329897,13.866036854153624,0.0],[124.260679042726622,13.866037330929931,0.0],[124.2606795306978,13.866127729875771,0.0],[124.260772055336773,13.866127253096177,0.0]]],[[[124.25938516033473,13.866315199097873,0.0],[124.259384672857649,13.866224800108245,0.0],[124.259292148130399,13.866225276366478,0.0],[124.259286082536534,13.866225307585994,0.0],[124.259314636832428,13.866315562110207,0.0],[124.25938516033473,13.866315199097873,0.0]]],[[[124.260963449944228,13.867301485539901,0.0],[124.261055975038119,13.867301008613492,0.0],[124.261055486878305,13.867210609689412,0.0],[124.260962961820198,13.867211086612624,0.0],[124.260963449944228,13.867301485539901,0.0]]],[[[124.260871412938656,13.867392361361258,0.0],[124.260963938071811,13.867391884466556,0.0],[124.260963449944228,13.867301485539901,0.0],[124.26087092484687,13.867301962431405,0.0],[124.260778399746044,13.867302439287915,0.0],[124.260778887801948,13.867392838220965,0.0],[124.260871412938656,13.867392361361258,0.0]]],[[[124.2617046274285,13.867478466949873,0.0],[124.261797152565919,13.867477989737203,0.0],[124.261796664112737,13.867387590840391,0.0],[124.261704139011101,13.867388068049863,0.0],[124.2617046274285,13.867478466949873,0.0]]],[[[124.262078636567892,13.868199748961679,0.0],[124.262078147979352,13.868109350080054,0.0],[124.26198562260177,13.868109827420266,0.0],[124.261986111154613,13.868200226305177,0.0],[124.261893585737766,13.868200703613681,0.0],[124.261894074258194,13.868291102501079,0.0],[124.261986599710823,13.868290625189378,0.0],[124.26207912516,13.868290147842682,0.0],[124.262078636567892,13.868199748961679,0.0]]],[[[124.261895051309693,13.868471900273921,0.0],[124.261987576833917,13.868471422955736,0.0],[124.261987088270601,13.868381024072956,0.0],[124.261894562782174,13.868381501387855,0.0],[124.261895051309693,13.868471900273921,0.0]]],[[[124.261802525782016,13.8684723775572,0.0],[124.261802037290281,13.868381978667848,0.0],[124.261709511794834,13.868382455912847,0.0],[124.261710000250687,13.868472854805397,0.0],[124.261802525782016,13.8684723775572,0.0]]],[[[124.261895539840694,13.868562299159365,0.0],[124.261895051309693,13.868471900273921,0.0],[124.261802525782016,13.8684723775572,0.0],[124.26180301427712,13.868562776445753,0.0],[124.261895539840694,13.868562299159365,0.0]]],[[[124.261710488710179,13.868563253697236,0.0],[124.261710000250687,13.868472854805397,0.0],[124.261617474716076,13.868473332018688,0.0],[124.261617963139599,13.868563730913724,0.0],[124.261710488710179,13.868563253697236,0.0]]],[[[124.26180301427712,13.868562776445753,0.0],[124.261710488710179,13.868563253697236,0.0],[124.261710977173053,13.868653652588453,0.0],[124.261803502775876,13.868653175333773,0.0],[124.26180301427712,13.868562776445753,0.0]]],[[[124.261526414351763,13.868745005889821,0.0],[124.261618939997305,13.868744528701843,0.0],[124.261618451566761,13.868654129808139,0.0],[124.261525925956931,13.868654606992919,0.0],[124.261526414351763,13.868745005889821,0.0]]],[[[124.261526414351763,13.868745005889821,0.0],[124.261433888702484,13.868745483042893,0.0],[124.261434377065086,13.86883588194237,0.0],[124.261526902750063,13.8688354047861,0.0],[124.261526414351763,13.868745005889821,0.0]]],[[[124.261434377065086,13.86883588194237,0.0],[124.261341851376727,13.868836359063557,0.0],[124.2613423397069,13.86892675796561,0.0],[124.261434865431056,13.868926280841137,0.0],[124.261434377065086,13.86883588194237,0.0]]],[[[124.260512048124127,13.869383045157285,0.0],[124.26060457405886,13.869382568331506,0.0],[124.26069709999004,13.869382091470644,0.0],[124.260696611892925,13.869291692549407,0.0],[124.260789137784855,13.869291215656837,0.0],[124.26078864965541,13.869200816738175,0.0],[124.260696123799363,13.869201293627547,0.0],[124.260603597939763,13.869201770481837,0.0],[124.260604085997542,13.869292169406982,0.0],[124.260511560098678,13.869292646229653,0.0],[124.260444770362255,13.869292990398328,0.0],[124.260481472134828,13.869383202716916,0.0],[124.260512048124127,13.869383045157285,0.0]]],[[[124.26396878940632,13.875512496651915,0.0],[124.263968299817861,13.875422097890372,0.0],[124.263875771610003,13.875422576192214,0.0],[124.263876261162679,13.875512974957044,0.0],[124.26396878940632,13.875512496651915,0.0]]],[[[124.26471244445213,13.876141460081787,0.0],[124.264711954552538,13.876051061350886,0.0],[124.26461942612211,13.876051539955419,0.0],[124.264619915985904,13.876141938689518,0.0],[124.26471244445213,13.876141460081787,0.0]]],[[[124.268161052368072,13.880734055242044,0.0],[124.268253582527876,13.880733575138887,0.0],[124.268346112684213,13.880733095000735,0.0],[124.268345621208198,13.880642696431217,0.0],[124.268253091087743,13.880643176566171,0.0],[124.268160560963736,13.880643656666042,0.0],[124.268161052368072,13.880734055242044,0.0]]],[[[124.269832007480744,13.881719791675945,0.0],[124.269831515392781,13.881629393165934,0.0],[124.269738984934463,13.881629873896767,0.0],[124.269739476986643,13.881720272409975,0.0],[124.269832007480744,13.881719791675945,0.0]]],[[[124.270392113595577,13.882620891403135,0.0],[124.270391621257318,13.882530492919592,0.0],[124.270299090461748,13.882530973892987,0.0],[124.270299582764224,13.882621372379816,0.0],[124.270392113595577,13.882620891403135,0.0]]],[[[124.271048696523152,13.884244695764064,0.0],[124.271048203870663,13.884154297315515,0.0],[124.270955672454704,13.884154778592578,0.0],[124.270956165071411,13.884245177044413,0.0],[124.271048696523152,13.884244695764064,0.0]]],[[[124.272069993686699,13.884872188238933,0.0],[124.27206950061526,13.884781789830974,0.0],[124.271976968987204,13.884782271516066,0.0],[124.271977462022861,13.884872669927223,0.0],[124.272069993686699,13.884872188238933,0.0]]],[[[124.273461423584493,13.885497747205783,0.0],[124.273460929950559,13.885407348851558,0.0],[124.273368398124632,13.885407831084745,0.0],[124.273368891722683,13.885498229442256,0.0],[124.273461423584493,13.885497747205783,0.0]]],[[[124.283449135489931,13.892813137678811,0.0],[124.283448637712553,13.892722739732438,0.0],[124.28335610334581,13.892723225997955,0.0],[124.283356601087306,13.892813623947614,0.0],[124.283449135489931,13.892813137678811,0.0]]],[[[124.283171532271211,13.892814596380148,0.0],[124.283264066681028,13.892814110181423,0.0],[124.283263568975329,13.892723712228388,0.0],[124.28317103460148,13.892724198423917,0.0],[124.283171532271211,13.892814596380148,0.0]]],[[[124.285017236080023,13.89190088681223,0.0],[124.285016737728526,13.891810488914796,0.0],[124.284924203780818,13.891810975743063,0.0],[124.284924702096518,13.891901373643783,0.0],[124.285017236080023,13.89190088681223,0.0]]],[[[124.285203300893173,13.892080708823467,0.0],[124.285202802462905,13.891990310934027,0.0],[124.285110268450623,13.891990797838943,0.0],[124.285110766845193,13.89208119573167,0.0],[124.285203300893173,13.892080708823467,0.0]]],[[[124.285296831880757,13.892261017650359,0.0],[124.285296333407487,13.892170619765626,0.0],[124.285203799327093,13.892171106712198,0.0],[124.285204297764565,13.892261504600217,0.0],[124.285296831880757,13.892261017650359,0.0]]],[[[124.284560544470509,13.892988095531905,0.0],[124.284560046255621,13.892897697626299,0.0],[124.284559548044285,13.892807299719983,0.0],[124.284467013684377,13.89280778640925,0.0],[124.284374479320917,13.892808273063523,0.0],[124.284374977460487,13.892898670976322,0.0],[124.28446751185983,13.892898184318852,0.0],[124.284468010038836,13.892988582227744,0.0],[124.284560544470509,13.892988095531905,0.0]]],[[[124.284376970054581,13.893260262620949,0.0],[124.284377468212,13.893350660530373,0.0],[124.28447000279067,13.893350173856383,0.0],[124.284470500987439,13.893440571761811,0.0],[124.284563035598524,13.893440085049541,0.0],[124.284562537365787,13.89334968714731,0.0],[124.284562039136588,13.893259289244547,0.0],[124.284561540911042,13.893168891340984,0.0],[124.284469006407605,13.893169378043396,0.0],[124.284469504597354,13.893259775950245,0.0],[124.284376970054581,13.893260262620949,0.0]]],[[[124.28697043174958,13.893698611676314,0.0],[124.286970930929115,13.893789009490082,0.0],[124.287063465587281,13.893788521818578,0.0],[124.287062966371849,13.893698124008097,0.0],[124.287062467159984,13.893607726196905,0.0],[124.287061967951658,13.893517328385002,0.0],[124.287061468747069,13.893426930572389,0.0],[124.287060969545948,13.893336532759154,0.0],[124.286968435067109,13.893337020414226,0.0],[124.286968934232448,13.893427418230836,0.0],[124.286969433401239,13.893517816046646,0.0],[124.286876898847083,13.893518303673297,0.0],[124.286877397983645,13.893608701491772,0.0],[124.286969932573584,13.893608213861835,0.0],[124.28697043174958,13.893698611676314,0.0]]],[[[124.286877397983645,13.893608701491772,0.0],[124.286784863390139,13.893609189086625,0.0],[124.286785362494371,13.893699586907676,0.0],[124.286877897123745,13.893699099309536,0.0],[124.286877397983645,13.893608701491772,0.0]]],[[[124.286230154642936,13.893702511760925,0.0],[124.286229655753914,13.893612113920067,0.0],[124.286137121135368,13.893612601269695,0.0],[124.286137619988509,13.893702999113838,0.0],[124.286230154642936,13.893702511760925,0.0]]],[[[124.287157498017024,13.894059227529493,0.0],[124.287156998755066,13.89396882972434,0.0],[124.287064464028788,13.893969317437499,0.0],[124.287064963254863,13.894059715245938,0.0],[124.287157498017024,13.894059227529493,0.0]]],[[[124.28632468502903,13.894063615716284,0.0],[124.286324186089743,13.893973217881555,0.0],[124.286231651331491,13.893973705279322,0.0],[124.286232150234724,13.894064103117426,0.0],[124.28632468502903,13.894063615716284,0.0]]],[[[124.287252030002733,13.894420330978502,0.0],[124.287251530690583,13.894329933179389,0.0],[124.287158995824328,13.894330420940864,0.0],[124.287159495100681,13.894420818743264,0.0],[124.287252030002733,13.894420330978502,0.0]]],[[[124.288906659383713,13.892422794789066,0.0],[124.288906159504549,13.892332397034274,0.0],[124.288813625491827,13.892332885353792,0.0],[124.288814125335108,13.89242328311196,0.0],[124.288906659383713,13.892422794789066,0.0]]],[[[124.289833000159973,13.892598705075137,0.0],[124.289832499915065,13.892508307354717,0.0],[124.289739965866289,13.892508796031194,0.0],[124.289740466075315,13.89259919375499,0.0],[124.289833000159973,13.892598705075137,0.0]]],[[[124.288538522145956,13.892786338935409,0.0],[124.288631056348834,13.892785850704531,0.0],[124.288723590548159,13.89278536243857,0.0],[124.288723090726464,13.892694964679869,0.0],[124.288630556563021,13.892695452942544,0.0],[124.288538022396025,13.892695941170224,0.0],[124.288538522145956,13.892786338935409,0.0]]],[[[124.288723590548159,13.89278536243857,0.0],[124.288724090373407,13.89287576019656,0.0],[124.288816624604877,13.89287527189223,0.0],[124.288816124743747,13.892784874137526,0.0],[124.288723590548159,13.89278536243857,0.0]]],[[[124.288817624337796,13.893056067399506,0.0],[124.288910158637663,13.893055579053609,0.0],[124.288909658733459,13.892965181303612,0.0],[124.28881712446956,13.892965669646223,0.0],[124.288817624337796,13.893056067399506,0.0]]],[[[124.288910158637663,13.893055579053609,0.0],[124.288910658545333,13.893145976802895,0.0],[124.28900319287736,13.893145488418629,0.0],[124.289002692933806,13.893055090672629,0.0],[124.288910158637663,13.893055579053609,0.0]]],[[[124.288633055527868,13.893147441745551,0.0],[124.288632555727759,13.893057043986317,0.0],[124.288540021417234,13.893057532227143,0.0],[124.288540521181559,13.893147929989663,0.0],[124.288633055527868,13.893147441745551,0.0]]],[[[124.288178378179211,13.894596246934348,0.0],[124.288177878501315,13.894505849169608,0.0],[124.288085343599079,13.894506337288043,0.0],[124.288085843241191,13.894596735056069,0.0],[124.288178378179211,13.894596246934348,0.0]]],[[[124.289662938846149,13.895311613891931,0.0],[124.289662438565614,13.895221216185455,0.0],[124.289569903433701,13.895221704890975,0.0],[124.289570403678354,13.895312102600737,0.0],[124.289662938846149,13.895311613891931,0.0]]],[[[124.289833000159973,13.892598705075137,0.0],[124.289833500408434,13.892689102794847,0.0],[124.289926034525337,13.892688614076715,0.0],[124.289925534240993,13.892598216360291,0.0],[124.289833000159973,13.892598705075137,0.0]]],[[[124.290019068962479,13.892778523035926,0.0],[124.290111603107974,13.892778034244429,0.0],[124.290111102748398,13.892687636535289,0.0],[124.290018568638686,13.892688125323499,0.0],[124.290019068962479,13.892778523035926,0.0]]],[[[124.290111603107974,13.892778034244429,0.0],[124.290112103471287,13.892868431952859,0.0],[124.290204637649197,13.892867943122994,0.0],[124.2902041372501,13.89277754541785,0.0],[124.290111603107974,13.892778034244429,0.0]]],[[[124.29066931083446,13.893227089195697,0.0],[124.290668810241655,13.893136691509827,0.0],[124.290576275974118,13.893137180524789,0.0],[124.290576776530955,13.893227578214034,0.0],[124.29066931083446,13.893227089195697,0.0]]],[[[124.290024572760245,13.893772897827677,0.0],[124.29011710730046,13.893772408999766,0.0],[124.290116606901449,13.893682011298175,0.0],[124.290024072397117,13.8936825001228,0.0],[124.290024572760245,13.893772897827677,0.0]]],[[[124.291968799594528,13.893943420352667,0.0],[124.292061334131191,13.893942930782327,0.0],[124.292060832971799,13.893852533151524,0.0],[124.291968298471033,13.893853022718577,0.0],[124.291968799594528,13.893943420352667,0.0]]],[[[124.291968799594528,13.893943420352667,0.0],[124.291876265054327,13.893943909888012,0.0],[124.291876766145577,13.894034307524677,0.0],[124.291969300721675,13.894033817986134,0.0],[124.291968799594528,13.893943420352667,0.0]]],[[[124.29187726724048,13.894124705160721,0.0],[124.291876766145577,13.894034307524677,0.0],[124.291784231565941,13.894034797028226,0.0],[124.291784732624862,13.894125194667645,0.0],[124.29187726724048,13.894124705160721,0.0]]],[[[124.290119108932288,13.894133999799291,0.0],[124.290118608518981,13.894043602100453,0.0],[124.290026073871218,13.894044090938223,0.0],[124.290026574248643,13.894134488640436,0.0],[124.290119108932288,13.894133999799291,0.0]]],[[[124.291692699032467,13.894216081781391,0.0],[124.291692198005791,13.894125684139485,0.0],[124.291599663383067,13.894126173576243,0.0],[124.291600164373875,13.894216571221524,0.0],[124.291692699032467,13.894216081781391,0.0]]],[[[124.291416096894835,13.894398345298381,0.0],[124.291415595968601,13.894307947647771,0.0],[124.29132306126337,13.894308436986119,0.0],[124.291323562153806,13.894398834639926,0.0],[124.291416096894835,13.894398345298381,0.0]]],[[[124.292158880814185,13.894846417414147,0.0],[124.292158379583043,13.894756019793469,0.0],[124.292065844727176,13.894756509428646,0.0],[124.292066345922436,13.89484690705261,0.0],[124.292158880814185,13.894846417414147,0.0]]],[[[124.291973811027134,13.89484739665599,0.0],[124.291973309867757,13.89475699902874,0.0],[124.2918807750046,13.894757488593839,0.0],[124.291881276128194,13.894847886224376,0.0],[124.291973811027134,13.89484739665599,0.0]]],[[[124.291696206319642,13.894848865255987,0.0],[124.291695705267827,13.894758467618878,0.0],[124.291603170394012,13.894758957078817,0.0],[124.291603671409959,13.894849354719302,0.0],[124.291696206319642,13.894848865255987,0.0]]],[[[124.290955926941933,13.894852779980887,0.0],[124.29104846187667,13.894852290762888,0.0],[124.291047961075847,13.894761893102597,0.0],[124.290955426177078,13.894762382317221,0.0],[124.290955926941933,13.894852779980887,0.0]]],[[[124.290864894211865,13.895124462160485,0.0],[124.290864393472063,13.895034064495576,0.0],[124.290771858458456,13.895034553650071,0.0],[124.29077235916229,13.895124951318266,0.0],[124.290864894211865,13.895124462160485,0.0]]],[[[124.291420605392318,13.895211924122158,0.0],[124.291420104433755,13.895121526477855,0.0],[124.291327569405851,13.895122015845867,0.0],[124.291328070328447,13.895212413493546,0.0],[124.291420605392318,13.895211924122158,0.0]]],[[[124.290496756412864,13.895488009286932,0.0],[124.290496255802381,13.895397611611543,0.0],[124.290403720630948,13.895398100639117,0.0],[124.290404221205549,13.895488498317704,0.0],[124.290496756412864,13.895488009286932,0.0]]],[[[124.291238039748478,13.89566489107446,0.0],[124.291330574995314,13.895664401721547,0.0],[124.291330074054784,13.895574004077332,0.0],[124.291329573117807,13.895483606432407,0.0],[124.291237037942722,13.895484095778659,0.0],[124.291237538843731,13.895574493426871,0.0],[124.291238039748478,13.89566489107446,0.0]]],[[[124.293354810643038,13.893574482776444,0.0],[124.293354308995788,13.89348408518925,0.0],[124.293261774688716,13.893484575233611,0.0],[124.293262276300013,13.89357497282418,0.0],[124.293354810643038,13.893574482776444,0.0]]],[[[124.292245400735098,13.893761156287493,0.0],[124.292244899511061,13.89367075866193,0.0],[124.292152365089251,13.893671248292488,0.0],[124.29215286627732,13.893761645921337,0.0],[124.292245400735098,13.893761156287493,0.0]]],[[[124.293356817267593,13.893936073118379,0.0],[124.293449351750425,13.893935583022415,0.0],[124.293448850053082,13.893845185441261,0.0],[124.293356315606133,13.893845675533939,0.0],[124.293356817267593,13.893936073118379,0.0]]],[[[124.292248909403213,13.894393939647159,0.0],[124.292248408154123,13.894303542026393,0.0],[124.292155873481221,13.894304031680043,0.0],[124.292156374694429,13.894394429304096,0.0],[124.292248909403213,13.894393939647159,0.0]]],[[[124.293549914450466,13.89538145404337,0.0],[124.293549412659758,13.895291056476516,0.0],[124.293456877642427,13.895291546657212,0.0],[124.293457379397324,13.895381944227353,0.0],[124.293549914450466,13.89538145404337,0.0]]],[[[124.293737493912118,13.895832461361085,0.0],[124.293736992031711,13.895742063804267,0.0],[124.293736490154942,13.895651666246827,0.0],[124.293643955001272,13.895652156510835,0.0],[124.293644456842244,13.89574255407156,0.0],[124.29364495868677,13.895832951631753,0.0],[124.293645460534933,13.895923349191147,0.0],[124.293737995796164,13.895922858917192,0.0],[124.293737493912118,13.895832461361085,0.0]]],[[[124.293182784175031,13.895925800035208,0.0],[124.293182282506194,13.895835402459205,0.0],[124.293089747259359,13.895835892519642,0.0],[124.293090248892227,13.895926290098931,0.0],[124.293182784175031,13.895925800035208,0.0]]],[[[124.292257932499609,13.896021096703365,0.0],[124.292165397145126,13.896021586419899,0.0],[124.29216551260302,13.896042407298436,0.0],[124.292258178783698,13.896065506693381,0.0],[124.292257932499609,13.896021096703365,0.0]]],[[[124.292814147619794,13.896198952843225,0.0],[124.292812754848569,13.896198960217323,0.0],[124.292814149276026,13.896199251361859,0.0],[124.292814147619794,13.896198952843225,0.0]]],[[[124.293184289202784,13.896196992759041,0.0],[124.293091753812405,13.896197482832712,0.0],[124.29309208565914,13.896257282103358,0.0],[124.293184731144862,13.896276625689008,0.0],[124.293184289202784,13.896196992759041,0.0]]],[[[124.294481290857931,13.896461320627079,0.0],[124.294480788665325,13.896370923101614,0.0],[124.294388253253544,13.896371413672487,0.0],[124.294388755410267,13.896461811201327,0.0],[124.294481290857931,13.896461320627079,0.0]]]]}},
{"type":"Feature","properties":{"fid":35,"Var":2.0,"layer":"Catanduanes_Flood_5year","path":"C:/Users/cbposadas/Desktop/New folder/Catanduanes/Catanduanes_Flood_5year.shp","Risk Level":"Medium","SYSTRA ID":"246","DAR ID":"162","Target Year":"2028","Bridge Category":"Original List","Bridge Name":"RIZAL BRIDGE","Coordinates Y":"13.852167","Coordinates X":"124.30325","Region":"V","Province":"CATANDUANES","ARC 2026":"non-ARC","LINEAR METER IVF 2026":"23","EIRR 2026":"0.47","NEW/REPLACEMENT BRIDGE 2026":"new","Visited by SYSTRA":"No","Selected for 2nd Visit of SYSTRA":"No","Final Funder":"Trésor","2023 IVF URL":"","2026 IVF URL":"https://drive.google.com/open?id=1RwAiXENbmH-DnToQHpdONIyfK-wRfzBg"},"geometry":{"type":"MultiPolygon","coordinates":[[[[124.259470372767311,13.864958737933414,0.0],[124.259469885306842,13.86486833893677,0.0],[124.25937736111986,13.864868815181591,0.0],[124.259377848544631,13.864959214181521,0.0],[124.259470372767311,13.864958737933414,0.0]]],[[[124.261802525782016,13.8684723775572,0.0],[124.261895051309693,13.868471900273921,0.0],[124.261894562782174,13.868381501387855,0.0],[124.261987088270601,13.868381024072956,0.0],[124.261986599710823,13.868290625189378,0.0],[124.261894074258194,13.868291102501079,0.0],[124.261801548802097,13.868291579777875,0.0],[124.261802037290281,13.868381978667848,0.0],[124.261802525782016,13.8684723775572,0.0]]],[[[124.261802525782016,13.8684723775572,0.0],[124.261710000250687,13.868472854805397,0.0],[124.261710488710179,13.868563253697236,0.0],[124.26180301427712,13.868562776445753,0.0],[124.261802525782016,13.8684723775572,0.0]]],[[[124.261710977173053,13.868653652588453,0.0],[124.261710488710179,13.868563253697236,0.0],[124.261617963139599,13.868563730913724,0.0],[124.261618451566761,13.868654129808139,0.0],[124.261710977173053,13.868653652588453,0.0]]],[[[124.263316687713768,13.874702254970167,0.0],[124.263409215656054,13.874701776904136,0.0],[124.263408726314054,13.874611378117013,0.0],[124.263316198407566,13.874611856179758,0.0],[124.263316687713768,13.874702254970167,0.0]]],[[[124.263689246761913,13.87515233637307,0.0],[124.263688757294858,13.875061937599003,0.0],[124.263596229219885,13.875062415782985,0.0],[124.263596718651044,13.875152814560249,0.0],[124.263689246761913,13.87515233637307,0.0]]],[[[124.26396878940632,13.875512496651915,0.0],[124.264061317646409,13.875512018311792,0.0],[124.264060828022068,13.875421619553446,0.0],[124.263968299817861,13.875422097890372,0.0],[124.26396878940632,13.875512496651915,0.0]]],[[[124.266484712996316,13.878753920998005,0.0],[124.266484222314247,13.87866352234855,0.0],[124.266391692911697,13.878664001712032,0.0],[124.266392183557898,13.878754400364773,0.0],[124.266484712996316,13.878753920998005,0.0]]],[[[124.266485203681853,13.878844319646838,0.0],[124.266577733152516,13.878843840241878,0.0],[124.266577242431183,13.878753441596331,0.0],[124.266484712996316,13.878753920998005,0.0],[124.266485203681853,13.878844319646838,0.0]]],[[[124.266670262619712,13.878843360801923,0.0],[124.266577733152516,13.878843840241878,0.0],[124.266578223877403,13.878934238886714,0.0],[124.266670753380481,13.878933759443562,0.0],[124.266670262619712,13.878843360801923,0.0]]],[[[124.278157320313383,13.889676864004713,0.0],[124.278249853659972,13.88967637981256,0.0],[124.278249358015202,13.889585981658442,0.0],[124.278156824704411,13.889586465847309,0.0],[124.278157320313383,13.889676864004713,0.0]]],[[[124.282654069982556,13.892636513429681,0.0],[124.282800781150229,13.892705080667829,0.0],[124.282800399547185,13.892635744885201,0.0],[124.282707865191455,13.892636230902205,0.0],[124.282654069982556,13.892636513429681,0.0]]],[[[124.283264066681028,13.892814110181423,0.0],[124.283356601087306,13.892813623947614,0.0],[124.28335610334581,13.892723225997955,0.0],[124.283263568975329,13.892723712228388,0.0],[124.283264066681028,13.892814110181423,0.0]]],[[[124.284470500987439,13.893440571761811,0.0],[124.28447000279067,13.893350173856383,0.0],[124.284377468212,13.893350660530373,0.0],[124.284377903870734,13.893429716578288,0.0],[124.284470656396053,13.893468770475588,0.0],[124.284470500987439,13.893440571761811,0.0]]],[[[124.284831669829742,13.891811462536335,0.0],[124.284924203780818,13.891810975743063,0.0],[124.284923705468941,13.891720577841721,0.0],[124.284831171553563,13.891721064631707,0.0],[124.284831669829742,13.891811462536335,0.0]]],[[[124.285203799327093,13.892171106712198,0.0],[124.285296333407487,13.892170619765626,0.0],[124.2852958349376,13.892080221880182,0.0],[124.285203300893173,13.892080708823467,0.0],[124.285203799327093,13.892171106712198,0.0]]],[[[124.285296831880757,13.892261017650359,0.0],[124.285297330357565,13.892351415534471,0.0],[124.285389864506087,13.892350928546332,0.0],[124.285482398651055,13.89235044152311,0.0],[124.285481900102482,13.89226004364566,0.0],[124.285389365993396,13.892260530665506,0.0],[124.285296831880757,13.892261017650359,0.0]]],[[[124.286778874417806,13.892524415180191,0.0],[124.286871408580978,13.892523927624861,0.0],[124.28687090948732,13.892433529798215,0.0],[124.286778375360029,13.892434017350258,0.0],[124.286778874417806,13.892524415180191,0.0]]],[[[124.288538522145956,13.892786338935409,0.0],[124.288539021899524,13.89287673670006,0.0],[124.288631556138199,13.892876248465807,0.0],[124.288724090373407,13.89287576019656,0.0],[124.288723590548159,13.89278536243857,0.0],[124.288631056348834,13.892785850704531,0.0],[124.288538522145956,13.892786338935409,0.0]]],[[[124.288724090373407,13.89287576019656,0.0],[124.288724590202207,13.89296615795384,0.0],[124.288725090034646,13.893056555710498,0.0],[124.288817624337796,13.893056067399506,0.0],[124.28881712446956,13.892965669646223,0.0],[124.288816624604877,13.89287527189223,0.0],[124.288724090373407,13.89287576019656,0.0]]],[[[124.288632555727759,13.893057043986317,0.0],[124.288632055931203,13.892966646226373,0.0],[124.28853952165656,13.892967134463913,0.0],[124.288540021417234,13.893057532227143,0.0],[124.288632555727759,13.893057043986317,0.0]]],[[[124.284469006407605,13.893169378043396,0.0],[124.284561540911042,13.893168891340984,0.0],[124.284561042689049,13.8930784934368,0.0],[124.284560544470509,13.892988095531905,0.0],[124.284468010038836,13.892988582227744,0.0],[124.284468508221494,13.893078980135925,0.0],[124.284469006407605,13.893169378043396,0.0]]],[[[124.288818124209769,13.893146465152167,0.0],[124.288910658545333,13.893145976802895,0.0],[124.288910158637663,13.893055579053609,0.0],[124.288817624337796,13.893056067399506,0.0],[124.288818124209769,13.893146465152167,0.0]]],[[[124.288727589250328,13.893508544483307,0.0],[124.288727089400027,13.893418146730113,0.0],[124.288726589553292,13.893327748976208,0.0],[124.288726089710096,13.893237351221682,0.0],[124.288725589870552,13.893146953466356,0.0],[124.288725090034646,13.893056555710498,0.0],[124.288632555727759,13.893057043986317,0.0],[124.288633055527868,13.893147441745551,0.0],[124.288633555331543,13.893237839504163,0.0],[124.288634055138843,13.893328237261976,0.0],[124.288634554949525,13.893418635019167,0.0],[124.288635054764029,13.893509032775647,0.0],[124.288635554582086,13.893599430531506,0.0],[124.288636054403597,13.893689828286565,0.0],[124.288636554228759,13.893780226041002,0.0],[124.28863705405756,13.893870623794729,0.0],[124.288729588687204,13.893870135489156,0.0],[124.288729088822606,13.893779737738715,0.0],[124.288728588961575,13.893689339987652,0.0],[124.288728089104168,13.893598942235791,0.0],[124.288727589250328,13.893508544483307,0.0]]],[[[124.287063465587281,13.893788521818578,0.0],[124.286970930929115,13.893789009490082,0.0],[124.28697043174958,13.893698611676314,0.0],[124.286969932573584,13.893608213861835,0.0],[124.286877397983645,13.893608701491772,0.0],[124.286877897123745,13.893699099309536,0.0],[124.286785362494371,13.893699586907676,0.0],[124.286692827861344,13.893700074470821,0.0],[124.286693326933332,13.893790472294537,0.0],[124.28660079226087,13.893790959825886,0.0],[124.286508257584856,13.89379144732224,0.0],[124.286415722905204,13.8937919347836,0.0],[124.286415223941049,13.893701536950026,0.0],[124.286322689293726,13.893702024373017,0.0],[124.286322190368907,13.893611626535446,0.0],[124.286229655753914,13.893612113920067,0.0],[124.286230154642936,13.893702511760925,0.0],[124.286137619988509,13.893702999113838,0.0],[124.286138118845287,13.893793396957271,0.0],[124.286138617705618,13.893883794799994,0.0],[124.286139116569416,13.893974192642094,0.0],[124.286231651331491,13.893973705279322,0.0],[124.286324186089743,13.893973217881555,0.0],[124.28632468502903,13.894063615716284,0.0],[124.286325183971698,13.89415401355048,0.0],[124.286417718798347,13.894153526110969,0.0],[124.286417219819796,13.894063128280148,0.0],[124.286416720844713,13.893972730448617,0.0],[124.286509255596044,13.893972242980773,0.0],[124.286508756588631,13.893881845151817,0.0],[124.286601291300528,13.893881357652177,0.0],[124.286693826008772,13.893880870117542,0.0],[124.286786360713478,13.893880382547824,0.0],[124.286785861602141,13.893789984728105,0.0],[124.286878396267412,13.893789497126591,0.0],[124.286878895414617,13.893879894943023,0.0],[124.286971430112217,13.893879407303228,0.0],[124.286971929298858,13.893969805115663,0.0],[124.287064464028788,13.893969317437499,0.0],[124.287063964806165,13.893878919628349,0.0],[124.287063465587281,13.893788521818578,0.0]]],[[[124.288545519020673,13.894051907577381,0.0],[124.288638053725734,13.894051419300229,0.0],[124.288637553889828,13.893961021547835,0.0],[124.288545019220649,13.8939615098217,0.0],[124.288545519020673,13.894051907577381,0.0]]],[[[124.288453484079852,13.894142793577707,0.0],[124.288546018824249,13.894142305332352,0.0],[124.288545519020673,13.894051907577381,0.0],[124.288452984312158,13.89405239581945,0.0],[124.288360449599992,13.894052884026525,0.0],[124.288360949331903,13.894143281788068,0.0],[124.288453484079852,13.894142793577707,0.0]]],[[[124.287158496551712,13.894240023137755,0.0],[124.287157997282549,13.894149625333934,0.0],[124.287157498017024,13.894059227529493,0.0],[124.287064963254863,13.894059715245938,0.0],[124.287065462484591,13.894150113053755,0.0],[124.287065961717687,13.894240510860772,0.0],[124.287066460954691,13.894330908667168,0.0],[124.287158995824328,13.894330420940864,0.0],[124.287158496551712,13.894240023137755,0.0]]],[[[124.288177378826973,13.894415451404157,0.0],[124.288269913689675,13.894414963254015,0.0],[124.288269413983002,13.894324565491139,0.0],[124.288268914279783,13.894234167727642,0.0],[124.288361449067267,13.894233679548989,0.0],[124.288360949331903,13.894143281788068,0.0],[124.288268414580301,13.894143769963435,0.0],[124.288175879825161,13.894144258103719,0.0],[124.288176379488846,13.894234655871212,0.0],[124.288176879156083,13.894325053637996,0.0],[124.288177378826973,13.894415451404157,0.0]]],[[[124.28651075263933,13.894243436463377,0.0],[124.286510253621344,13.894153038636553,0.0],[124.286417718798347,13.894153526110969,0.0],[124.286418217780536,13.894243923941168,0.0],[124.286418307353813,13.894260151318235,0.0],[124.286511037531938,13.894295044785309,0.0],[124.28651075263933,13.894243436463377,0.0]]],[[[124.287252529318522,13.894510728776993,0.0],[124.287252030002733,13.894420330978502,0.0],[124.287159495100681,13.894420818743264,0.0],[124.287159994380588,13.894511216544952,0.0],[124.287252529318522,13.894510728776993,0.0]]],[[[124.287252879867339,13.894574192864452,0.0],[124.287323469973074,13.894600755236919,0.0],[124.287345563607957,13.894600638768356,0.0],[124.287345064252818,13.89451024097395,0.0],[124.287252529318522,13.894510728776993,0.0],[124.287252879867339,13.894574192864452,0.0]]],[[[124.287438098574668,13.894600150926944,0.0],[124.287345563607957,13.894600638768356,0.0],[124.287345610272894,13.894609086417104,0.0],[124.287438340704327,13.894643979979495,0.0],[124.287438098574668,13.894600150926944,0.0]]],[[[124.287994307522808,13.894778018683379,0.0],[124.288086842536146,13.894777530590169,0.0],[124.28817937754603,13.894777042461786,0.0],[124.288178877860844,13.894686644698467,0.0],[124.288178378179211,13.894596246934348,0.0],[124.288085843241191,13.894596735056069,0.0],[124.288086342886942,13.894687132823474,0.0],[124.287993807909388,13.894687620913487,0.0],[124.287901272928295,13.894688108968417,0.0],[124.287808737943635,13.894688596988264,0.0],[124.287716202955437,13.894689084973116,0.0],[124.287623667963587,13.894689572922974,0.0],[124.287571632821397,13.894689847291763,0.0],[124.287838983442228,13.894778837886751,0.0],[124.287901772505819,13.894778506741684,0.0],[124.287994307522808,13.894778018683379,0.0]]],[[[124.28899919342885,13.892422306431179,0.0],[124.288998693513889,13.892331908679672,0.0],[124.288906159504549,13.892332397034274,0.0],[124.288906659383713,13.892422794789066,0.0],[124.28899919342885,13.892422306431179,0.0]]],[[[124.289833000159973,13.892598705075137,0.0],[124.289925534240993,13.892598216360291,0.0],[124.289925033960202,13.892507818643157,0.0],[124.289832499915065,13.892508307354717,0.0],[124.289833000159973,13.892598705075137,0.0]]],[[[124.29001806831846,13.892597727610362,0.0],[124.289925534240993,13.892598216360291,0.0],[124.289926034525337,13.892688614076715,0.0],[124.290018568638686,13.892688125323499,0.0],[124.29001806831846,13.892597727610362,0.0]]],[[[124.288910658545333,13.893145976802895,0.0],[124.288911158456642,13.893236374551559,0.0],[124.289003692824551,13.893235886164007,0.0],[124.289096227188807,13.893235397741371,0.0],[124.289095727205819,13.893144999999279,0.0],[124.28900319287736,13.893145488418629,0.0],[124.288910658545333,13.893145976802895,0.0]]],[[[124.290947915134723,13.893406417280524,0.0],[124.290947414427151,13.893316019605933,0.0],[124.290854880098692,13.893316508732628,0.0],[124.290855380770282,13.893406906410505,0.0],[124.290947915134723,13.893406417280524,0.0]]],[[[124.289560399465159,13.89350414827511,0.0],[124.289559899292101,13.893413750551669,0.0],[124.289559399122595,13.893323352827519,0.0],[124.289466864740305,13.89332384142859,0.0],[124.289466364610234,13.893233443700442,0.0],[124.289373830260274,13.893233932263232,0.0],[124.289281295906676,13.89323442079094,0.0],[124.289188761549426,13.893234909283652,0.0],[124.289096227188807,13.893235397741371,0.0],[124.289096727175433,13.893325795482752,0.0],[124.289189261572034,13.893325307021748,0.0],[124.289281795965067,13.893324818525748,0.0],[124.289374330354462,13.893324329994666,0.0],[124.289374830452203,13.893414727725478,0.0],[124.289467364873929,13.893414239156115,0.0],[124.28946786501119,13.893504636882842,0.0],[124.289560399465159,13.89350414827511,0.0]]],[[[124.289560899641856,13.893594545997928,0.0],[124.289653434128155,13.893594057351827,0.0],[124.289652933915576,13.893503659632383,0.0],[124.289560399465159,13.89350414827511,0.0],[124.289560899641856,13.893594545997928,0.0]]],[[[124.289653934344202,13.893684455070648,0.0],[124.28974646886283,13.893683966386266,0.0],[124.289745968610902,13.893593568670731,0.0],[124.289653434128155,13.893594057351827,0.0],[124.289653934344202,13.893684455070648,0.0]]],[[[124.289932038216577,13.893773386620506,0.0],[124.290024572760245,13.893772897827677,0.0],[124.290024072397117,13.8936825001228,0.0],[124.289931537889245,13.893682988912254,0.0],[124.289839003377807,13.893683477666801,0.0],[124.28974646886283,13.893683966386266,0.0],[124.289746969118397,13.893774364101002,0.0],[124.289839503669171,13.893773875378251,0.0],[124.289932038216577,13.893773386620506,0.0]]],[[[124.290024572760245,13.893772897827677,0.0],[124.290025073126927,13.893863295531844,0.0],[124.290025573497346,13.893953693235389,0.0],[124.290026073871218,13.894044090938223,0.0],[124.290118608518981,13.894043602100453,0.0],[124.290118108109226,13.893953204400905,0.0],[124.290117607703024,13.893862806700646,0.0],[124.29011710730046,13.893772408999766,0.0],[124.290024572760245,13.893772897827677,0.0]]],[[[124.29002757501442,13.89431528404273,0.0],[124.29002707462972,13.894224886341938,0.0],[124.289934539906724,13.894225375151287,0.0],[124.289935040255457,13.894315772855364,0.0],[124.29002757501442,13.89431528404273,0.0]]],[[[124.289750471007395,13.894407148085591,0.0],[124.289843005809445,13.894406659339658,0.0],[124.289842505492942,13.894316261633005,0.0],[124.289749970726874,13.894316750375562,0.0],[124.289750471007395,13.894407148085591,0.0]]],[[[124.289565401392835,13.894408125472207,0.0],[124.289565901605144,13.894498523188187,0.0],[124.289658436450267,13.894498034509045,0.0],[124.289657936201976,13.894407636796441,0.0],[124.289565401392835,13.894408125472207,0.0]]],[[[124.289566401821276,13.894588920903367,0.0],[124.289565901605144,13.894498523188187,0.0],[124.289473366756738,13.894499011832245,0.0],[124.289473866936902,13.8945894095508,0.0],[124.289566401821276,13.894588920903367,0.0]]],[[[124.289473866936902,13.8945894095508,0.0],[124.28938133204889,13.894589898163062,0.0],[124.289381832196725,13.894680295884282,0.0],[124.289474367120619,13.894679807268645,0.0],[124.289473866936902,13.8945894095508,0.0]]],[[[124.289382332348197,13.894770693604702,0.0],[124.289381832196725,13.894680295884282,0.0],[124.289289297269264,13.894680784464835,0.0],[124.289289797384768,13.894771182188631,0.0],[124.289382332348197,13.894770693604702,0.0]]],[[[124.291140996807769,13.894851801509894,0.0],[124.291140495971234,13.89476140385289,0.0],[124.291047961075847,13.894761893102597,0.0],[124.29104846187667,13.894852290762888,0.0],[124.291140996807769,13.894851801509894,0.0]]],[[[124.289474867307888,13.894770204985779,0.0],[124.289382332348197,13.894770693604702,0.0],[124.289382832503222,13.894861091324501,0.0],[124.289475367498795,13.894860602702291,0.0],[124.289474867307888,13.894770204985779,0.0]]],[[[124.291048962680961,13.894942688422557,0.0],[124.29104846187667,13.894852290762888,0.0],[124.290955926941933,13.894852779980887,0.0],[124.290956427710256,13.894943177643842,0.0],[124.291048962680961,13.894942688422557,0.0]]],[[[124.290956427710256,13.894943177643842,0.0],[124.290863892736084,13.894943666830045,0.0],[124.290864393472063,13.895034064495576,0.0],[124.290956928482302,13.895033575306087,0.0],[124.290956427710256,13.894943177643842,0.0]]],[[[124.291420104433755,13.895121526477855,0.0],[124.291419603478928,13.895031128832841,0.0],[124.291419102527556,13.894940731187116,0.0],[124.291326567571232,13.894941220548468,0.0],[124.291327068486808,13.895031618197567,0.0],[124.291327569405851,13.895122015845867,0.0],[124.291420104433755,13.895121526477855,0.0]]],[[[124.289476367891368,13.895041398133273,0.0],[124.289476868092848,13.895131795847654,0.0],[124.289569403192615,13.895131307180502,0.0],[124.289568902955068,13.895040909469408,0.0],[124.289568402721173,13.894950511757514,0.0],[124.28947586769327,13.894951000418093,0.0],[124.289476367891368,13.895041398133273,0.0]]],[[[124.29077235916229,13.895124951318266,0.0],[124.290772859869676,13.895215348985751,0.0],[124.290865394955048,13.895214859824684,0.0],[124.290864894211865,13.895124462160485,0.0],[124.29077235916229,13.895124951318266,0.0]]],[[[124.290773360580616,13.895305746652614,0.0],[124.290772859869676,13.895215348985751,0.0],[124.290680324780752,13.895215838111824,0.0],[124.290680825455894,13.895306235781973,0.0],[124.290773360580616,13.895305746652614,0.0]]],[[[124.291328571254681,13.895302811140514,0.0],[124.291328070328447,13.895212413493546,0.0],[124.291235535260924,13.895212902829851,0.0],[124.291236036151275,13.895303300480105,0.0],[124.291236537045179,13.895393698129737,0.0],[124.291237037942722,13.895484095778659,0.0],[124.291329573117807,13.895483606432407,0.0],[124.291329072184467,13.89539320878686,0.0],[124.291328571254681,13.895302811140514,0.0]]],[[[124.290680825455894,13.895306235781973,0.0],[124.290588290327449,13.895306724876249,0.0],[124.290588790970176,13.895397122548975,0.0],[124.290681326134603,13.895396633451323,0.0],[124.290680825455894,13.895306235781973,0.0]]],[[[124.289570553798853,13.895339230233645,0.0],[124.289663240735791,13.895366163163109,0.0],[124.289662938846149,13.895311613891931,0.0],[124.289570403678354,13.895312102600737,0.0],[124.289570553798853,13.895339230233645,0.0]]],[[[124.290589291616641,13.895487520221078,0.0],[124.290588790970176,13.895397122548975,0.0],[124.290496255802381,13.895397611611543,0.0],[124.290496756412864,13.895488009286932,0.0],[124.290589291616641,13.895487520221078,0.0]]],[[[124.290404721783801,13.895578895995758,0.0],[124.290404221205549,13.895488498317704,0.0],[124.290311685994681,13.89548898731357,0.0],[124.29021915078016,13.895489476274264,0.0],[124.290126615562102,13.895489965199964,0.0],[124.290089959331993,13.89549015886554,0.0],[124.290395506723229,13.895578944692403,0.0],[124.290404721783801,13.895578895995758,0.0]]],[[[124.291238540656764,13.895755288721251,0.0],[124.291331075939496,13.89575479936514,0.0],[124.291330574995314,13.895664401721547,0.0],[124.291238039748478,13.89566489107446,0.0],[124.291238540656764,13.895755288721251,0.0]]],[[[124.291331517680177,13.895834512919251,0.0],[124.291373489043863,13.895844975345769,0.0],[124.291424112202179,13.895844707613453,0.0],[124.291423611218576,13.895754309973945,0.0],[124.291331075939496,13.89575479936514,0.0],[124.291331517680177,13.895834512919251,0.0]]],[[[124.292703059098301,13.892854731472021,0.0],[124.292703560469334,13.892945129087192,0.0],[124.292704061843921,13.893035526701741,0.0],[124.292796595993252,13.893035036884132,0.0],[124.292796094582783,13.892944639272958,0.0],[124.292795593175867,13.892854241661162,0.0],[124.292703059098301,13.892854731472021,0.0]]],[[[124.292889130138931,13.89303454703153,0.0],[124.292796595993252,13.893035036884132,0.0],[124.292797097407359,13.893125434494685,0.0],[124.29288963158892,13.893124944638707,0.0],[124.292889130138931,13.89303454703153,0.0]]],[[[124.293357318932792,13.894026470702109,0.0],[124.293449853451506,13.894025980602859,0.0],[124.293449351750425,13.893935583022415,0.0],[124.293356817267593,13.893936073118379,0.0],[124.293357318932792,13.894026470702109,0.0]]],[[[124.291970302986698,13.894214613250849,0.0],[124.291970804124588,13.894305010882274,0.0],[124.291971305265932,13.894395408512899,0.0],[124.291971806411013,13.894485806142903,0.0],[124.29206434116297,13.894485316552757,0.0],[124.292064842347486,13.894575714178764,0.0],[124.292065343535555,13.89466611180406,0.0],[124.291972808711833,13.894666601400868,0.0],[124.291880273884743,13.894667090962592,0.0],[124.291787739054016,13.894667580489322,0.0],[124.29169520421955,13.894668069981059,0.0],[124.291602669381717,13.894668559437623,0.0],[124.291510134540147,13.894669048859281,0.0],[124.291510635516659,13.894759446503674,0.0],[124.291418100635653,13.894759935893536,0.0],[124.291418601579736,13.894850333540681,0.0],[124.291419102527556,13.894940731187116,0.0],[124.291511637480326,13.894940241790593,0.0],[124.291511136496624,13.894849844147533,0.0],[124.291603671409959,13.894849354719302,0.0],[124.291603170394012,13.894758957078817,0.0],[124.291695705267827,13.894758467618878,0.0],[124.291788240138075,13.894757978123856,0.0],[124.2918807750046,13.894757488593839,0.0],[124.291973309867757,13.89475699902874,0.0],[124.291973811027134,13.89484739665599,0.0],[124.292066345922436,13.89484690705261,0.0],[124.292065844727176,13.894756509428646,0.0],[124.292158379583043,13.894756019793469,0.0],[124.292157878355539,13.89466562217217,0.0],[124.292157377131588,13.894575224550159,0.0],[124.292156875911189,13.894484826927528,0.0],[124.292156374694429,13.894394429304096,0.0],[124.292155873481221,13.894304031680043,0.0],[124.292248408154123,13.894303542026393,0.0],[124.292247906908685,13.894213144405004,0.0],[124.292340441542237,13.894212654719556,0.0],[124.29233994026437,13.894122257100744,0.0],[124.292432474858487,13.894121767383677,0.0],[124.292431973548389,13.89403136976744,0.0],[124.29243147224193,13.893940972150581,0.0],[124.292338937719663,13.893941461861075,0.0],[124.292338436452539,13.89385106424022,0.0],[124.292245901962602,13.893851553912345,0.0],[124.292245400735098,13.893761156287493,0.0],[124.29215286627732,13.893761645921337,0.0],[124.292060331815975,13.893762135520099,0.0],[124.292060832971799,13.893852533151524,0.0],[124.292061334131191,13.893942930782327,0.0],[124.291968799594528,13.893943420352667,0.0],[124.291969300721675,13.894033817986134,0.0],[124.291876766145577,13.894034307524677,0.0],[124.29187726724048,13.894124705160721,0.0],[124.291784732624862,13.894125194667645,0.0],[124.291692198005791,13.894125684139485,0.0],[124.291692699032467,13.894216081781391,0.0],[124.291600164373875,13.894216571221524,0.0],[124.291507629711717,13.894217060626573,0.0],[124.29141509504592,13.894217549996629,0.0],[124.291415595968601,13.894307947647771,0.0],[124.291416096894835,13.894398345298381,0.0],[124.291323562153806,13.894398834639926,0.0],[124.291324063047711,13.894489232293111,0.0],[124.291324563945167,13.894579629945497,0.0],[124.291232029128921,13.894580119258709,0.0],[124.291232529994133,13.894670516913759,0.0],[124.291139995138266,13.894671006195175,0.0],[124.291140495971234,13.89476140385289,0.0],[124.291233030862898,13.894760914568188,0.0],[124.291325565751094,13.894760425248403,0.0],[124.291325064846447,13.89467002759735,0.0],[124.291417599695123,13.894669538245768,0.0],[124.291417098758131,13.894579140597379,0.0],[124.291416597824707,13.894488742948191,0.0],[124.291509132598065,13.894488253568277,0.0],[124.291508631632311,13.894397855921664,0.0],[124.291601166366135,13.894397366510042,0.0],[124.291600665368136,13.894306968866093,0.0],[124.29169320006271,13.894306479422674,0.0],[124.29178573475356,13.894305989944261,0.0],[124.291878269440843,13.894305500430765,0.0],[124.29187776833875,13.894215102796142,0.0],[124.291970302986698,13.894214613250849,0.0]]],[[[124.293643955001272,13.895652156510835,0.0],[124.293736490154942,13.895651666246827,0.0],[124.293735988281739,13.895561268688677,0.0],[124.293643453163952,13.895561758949309,0.0],[124.293643955001272,13.895652156510835,0.0]]],[[[124.291979825219386,13.895932168129526,0.0],[124.292072360545191,13.895931678486356,0.0],[124.292071859306944,13.895841280870652,0.0],[124.291979324017021,13.895841770510447,0.0],[124.29188678872346,13.895842260115248,0.0],[124.291794253426346,13.895842749684967,0.0],[124.29170171812568,13.89584323921969,0.0],[124.29160918282146,13.895843728719331,0.0],[124.291516647513603,13.895844218183889,0.0],[124.291424112202179,13.895844707613453,0.0],[124.291424183720324,13.895857612279164,0.0],[124.29172860601804,13.895933497255033,0.0],[124.291794754557031,13.895933147310618,0.0],[124.291887289889942,13.895932657737614,0.0],[124.291979825219386,13.895932168129526,0.0]]],[[[124.292072360545191,13.895931678486356,0.0],[124.292072846437748,13.896019307907334,0.0],[124.292083720876761,13.896022018636963,0.0],[124.292165397145126,13.896021586419899,0.0],[124.292164895867444,13.895931188808191,0.0],[124.292072360545191,13.895931678486356,0.0]]],[[[124.293738999574913,13.896103654027364,0.0],[124.293831534904257,13.896103163711754,0.0],[124.293831032977138,13.896012766160265,0.0],[124.293830531053743,13.895922368608154,0.0],[124.293737995796164,13.895922858917192,0.0],[124.293738497683762,13.896013256472589,0.0],[124.293738999574913,13.896103654027364,0.0]]],[[[124.293925074166552,13.896283468455245,0.0],[124.294017609560655,13.896282978062896,0.0],[124.294017107554666,13.896192580519489,0.0],[124.293924572196531,13.896193070908463,0.0],[124.293925074166552,13.896283468455245,0.0]]],[[[124.293090248892227,13.895926290098931,0.0],[124.292997713605857,13.895926780127571,0.0],[124.292998215206481,13.896017177709435,0.0],[124.292905679880676,13.896017667706367,0.0],[124.292906181449069,13.896108065290896,0.0],[124.292906683020917,13.896198462874803,0.0],[124.292814147619794,13.896198952843225,0.0],[124.292814149276026,13.896199251361859,0.0],[124.29309208565914,13.896257282103358,0.0],[124.293091753812405,13.896197482832712,0.0],[124.293184289202784,13.896196992759041,0.0],[124.29318378752329,13.89610659518517,0.0],[124.293183285847334,13.8960161976105,0.0],[124.293182784175031,13.895925800035208,0.0],[124.293090248892227,13.895926290098931,0.0]]],[[[124.294110144951034,13.896282487635464,0.0],[124.294017609560655,13.896282978062896,0.0],[124.294018111570111,13.896373375605592,0.0],[124.294110646996458,13.896372885174873,0.0],[124.294203182419068,13.896372394709161,0.0],[124.29429571783804,13.896371904208365,0.0],[124.294295215720936,13.896281506675528,0.0],[124.294202680337762,13.896281997173038,0.0],[124.294110144951034,13.896282487635464,0.0]]],[[[124.294666864010509,13.896550736891694,0.0],[124.294574328534068,13.896551227539305,0.0],[124.294574392086162,13.896562666296701,0.0],[124.294667017259741,13.89657831829231,0.0],[124.294666864010509,13.896550736891694,0.0]]]]}},
{"type":"Feature","properties":{"fid":36,"Var":3.0,"layer":"Catanduanes_Flood_5year","path":"C:/Users/cbposadas/Desktop/New folder/Catanduanes/Catanduanes_Flood_5year.shp","Risk Level":"High","SYSTRA ID":"246","DAR ID":"162","Target Year":"2028","Bridge Category":"Original List","Bridge Name":"RIZAL BRIDGE","Coordinates Y":"13.852167","Coordinates X":"124.30325","Region":"V","Province":"CATANDUANES","ARC 2026":"non-ARC","LINEAR METER IVF 2026":"23","EIRR 2026":"0.47","NEW/REPLACEMENT BRIDGE 2026":"new","Visited by SYSTRA":"No","Selected for 2nd Visit of SYSTRA":"No","Final Funder":"Trésor","2023 IVF URL":"","2026 IVF URL":"https://drive.google.com/open?id=1RwAiXENbmH-DnToQHpdONIyfK-wRfzBg"},"geometry":{"type":"MultiPolygon","coordinates":[[[[124.292165397145126,13.896021586419899,0.0],[124.292083720876761,13.896022018636963,0.0],[124.29216551260302,13.896042407298436,0.0],[124.292165397145126,13.896021586419899,0.0]]],[[[124.292072360545191,13.895931678486356,0.0],[124.291979825219386,13.895932168129526,0.0],[124.291887289889942,13.895932657737614,0.0],[124.291794754557031,13.895933147310618,0.0],[124.29172860601804,13.895933497255033,0.0],[124.292072846437748,13.896019307907334,0.0],[124.292072360545191,13.895931678486356,0.0]]],[[[124.291424112202179,13.895844707613453,0.0],[124.291373489043863,13.895844975345769,0.0],[124.291424183720324,13.895857612279164,0.0],[124.291424112202179,13.895844707613453,0.0]]],[[[124.291331075939496,13.89575479936514,0.0],[124.291238540656764,13.895755288721251,0.0],[124.291238039748478,13.89566489107446,0.0],[124.291237538843731,13.895574493426871,0.0],[124.291237037942722,13.895484095778659,0.0],[124.291236537045179,13.895393698129737,0.0],[124.291236036151275,13.895303300480105,0.0],[124.291235535260924,13.895212902829851,0.0],[124.291328070328447,13.895212413493546,0.0],[124.291327569405851,13.895122015845867,0.0],[124.291327068486808,13.895031618197567,0.0],[124.291326567571232,13.894941220548468,0.0],[124.291419102527556,13.894940731187116,0.0],[124.291418601579736,13.894850333540681,0.0],[124.291418100635653,13.894759935893536,0.0],[124.291510635516659,13.894759446503674,0.0],[124.291510134540147,13.894669048859281,0.0],[124.291602669381717,13.894668559437623,0.0],[124.29169520421955,13.894668069981059,0.0],[124.291787739054016,13.894667580489322,0.0],[124.291880273884743,13.894667090962592,0.0],[124.291972808711833,13.894666601400868,0.0],[124.292065343535555,13.89466611180406,0.0],[124.292064842347486,13.894575714178764,0.0],[124.29206434116297,13.894485316552757,0.0],[124.291971806411013,13.894485806142903,0.0],[124.291971305265932,13.894395408512899,0.0],[124.291970804124588,13.894305010882274,0.0],[124.291970302986698,13.894214613250849,0.0],[124.29187776833875,13.894215102796142,0.0],[124.291878269440843,13.894305500430765,0.0],[124.29178573475356,13.894305989944261,0.0],[124.29169320006271,13.894306479422674,0.0],[124.291600665368136,13.894306968866093,0.0],[124.291601166366135,13.894397366510042,0.0],[124.291508631632311,13.894397855921664,0.0],[124.291509132598065,13.894488253568277,0.0],[124.291416597824707,13.894488742948191,0.0],[124.291417098758131,13.894579140597379,0.0],[124.291417599695123,13.894669538245768,0.0],[124.291325064846447,13.89467002759735,0.0],[124.291325565751094,13.894760425248403,0.0],[124.291233030862898,13.894760914568188,0.0],[124.291140495971234,13.89476140385289,0.0],[124.291140996807769,13.894851801509894,0.0],[124.29104846187667,13.894852290762888,0.0],[124.291048962680961,13.894942688422557,0.0],[124.290956427710256,13.894943177643842,0.0],[124.290956928482302,13.895033575306087,0.0],[124.290864393472063,13.895034064495576,0.0],[124.290864894211865,13.895124462160485,0.0],[124.290865394955048,13.895214859824684,0.0],[124.290772859869676,13.895215348985751,0.0],[124.290773360580616,13.895305746652614,0.0],[124.290680825455894,13.895306235781973,0.0],[124.290681326134603,13.895396633451323,0.0],[124.290588790970176,13.895397122548975,0.0],[124.290589291616641,13.895487520221078,0.0],[124.290496756412864,13.895488009286932,0.0],[124.290404221205549,13.895488498317704,0.0],[124.290404721783801,13.895578895995758,0.0],[124.290395506723229,13.895578944692403,0.0],[124.290934041800767,13.895735431978913,0.0],[124.291331517680177,13.895834512919251,0.0],[124.291331075939496,13.89575479936514,0.0]]],[[[124.289570403678354,13.895312102600737,0.0],[124.289569903433701,13.895221704890975,0.0],[124.289569403192615,13.895131307180502,0.0],[124.289476868092848,13.895131795847654,0.0],[124.289476367891368,13.895041398133273,0.0],[124.28947586769327,13.894951000418093,0.0],[124.289475367498795,13.894860602702291,0.0],[124.289382832503222,13.894861091324501,0.0],[124.289382332348197,13.894770693604702,0.0],[124.289289797384768,13.894771182188631,0.0],[124.289289297269264,13.894680784464835,0.0],[124.289381832196725,13.894680295884282,0.0],[124.28938133204889,13.894589898163062,0.0],[124.289473866936902,13.8945894095508,0.0],[124.289473366756738,13.894499011832245,0.0],[124.289565901605144,13.894498523188187,0.0],[124.289565401392835,13.894408125472207,0.0],[124.289657936201976,13.894407636796441,0.0],[124.289750471007395,13.894407148085591,0.0],[124.289749970726874,13.894316750375562,0.0],[124.289842505492942,13.894316261633005,0.0],[124.289935040255457,13.894315772855364,0.0],[124.289934539906724,13.894225375151287,0.0],[124.29002707462972,13.894224886341938,0.0],[124.290026574248643,13.894134488640436,0.0],[124.290026073871218,13.894044090938223,0.0],[124.290025573497346,13.893953693235389,0.0],[124.290025073126927,13.893863295531844,0.0],[124.290024572760245,13.893772897827677,0.0],[124.289932038216577,13.893773386620506,0.0],[124.289839503669171,13.893773875378251,0.0],[124.289746969118397,13.893774364101002,0.0],[124.28974646886283,13.893683966386266,0.0],[124.289653934344202,13.893684455070648,0.0],[124.289653434128155,13.893594057351827,0.0],[124.289560899641856,13.893594545997928,0.0],[124.289560399465159,13.89350414827511,0.0],[124.28946786501119,13.893504636882842,0.0],[124.289467364873929,13.893414239156115,0.0],[124.289374830452203,13.893414727725478,0.0],[124.289374330354462,13.893324329994666,0.0],[124.289281795965067,13.893324818525748,0.0],[124.289189261572034,13.893325307021748,0.0],[124.289096727175433,13.893325795482752,0.0],[124.289096227188807,13.893235397741371,0.0],[124.289003692824551,13.893235886164007,0.0],[124.288911158456642,13.893236374551559,0.0],[124.288910658545333,13.893145976802895,0.0],[124.288818124209769,13.893146465152167,0.0],[124.288817624337796,13.893056067399506,0.0],[124.288725090034646,13.893056555710498,0.0],[124.288725589870552,13.893146953466356,0.0],[124.288726089710096,13.893237351221682,0.0],[124.288726589553292,13.893327748976208,0.0],[124.288727089400027,13.893418146730113,0.0],[124.288727589250328,13.893508544483307,0.0],[124.288728089104168,13.893598942235791,0.0],[124.288728588961575,13.893689339987652,0.0],[124.288729088822606,13.893779737738715,0.0],[124.288729588687204,13.893870135489156,0.0],[124.28863705405756,13.893870623794729,0.0],[124.288637553889828,13.893961021547835,0.0],[124.288638053725734,13.894051419300229,0.0],[124.288545519020673,13.894051907577381,0.0],[124.288546018824249,13.894142305332352,0.0],[124.288453484079852,13.894142793577707,0.0],[124.288360949331903,13.894143281788068,0.0],[124.288361449067267,13.894233679548989,0.0],[124.288268914279783,13.894234167727642,0.0],[124.288269413983002,13.894324565491139,0.0],[124.288269913689675,13.894414963254015,0.0],[124.288177378826973,13.894415451404157,0.0],[124.288177878501315,13.894505849169608,0.0],[124.288178378179211,13.894596246934348,0.0],[124.288178877860844,13.894686644698467,0.0],[124.28817937754603,13.894777042461786,0.0],[124.288086842536146,13.894777530590169,0.0],[124.287994307522808,13.894778018683379,0.0],[124.287901772505819,13.894778506741684,0.0],[124.287838983442228,13.894778837886751,0.0],[124.289192612698841,13.895229408274652,0.0],[124.289570553798853,13.895339230233645,0.0],[124.289570403678354,13.895312102600737,0.0]]],[[[124.287345563607957,13.894600638768356,0.0],[124.287323469973074,13.894600755236919,0.0],[124.287345610272894,13.894609086417104,0.0],[124.287345563607957,13.894600638768356,0.0]]],[[[124.287252529318522,13.894510728776993,0.0],[124.287159994380588,13.894511216544952,0.0],[124.287159495100681,13.894420818743264,0.0],[124.287158995824328,13.894330420940864,0.0],[124.287066460954691,13.894330908667168,0.0],[124.287065961717687,13.894240510860772,0.0],[124.287065462484591,13.894150113053755,0.0],[124.287064963254863,13.894059715245938,0.0],[124.287064464028788,13.893969317437499,0.0],[124.286971929298858,13.893969805115663,0.0],[124.286971430112217,13.893879407303228,0.0],[124.286878895414617,13.893879894943023,0.0],[124.286878396267412,13.893789497126591,0.0],[124.286785861602141,13.893789984728105,0.0],[124.286786360713478,13.893880382547824,0.0],[124.286693826008772,13.893880870117542,0.0],[124.286601291300528,13.893881357652177,0.0],[124.286508756588631,13.893881845151817,0.0],[124.286509255596044,13.893972242980773,0.0],[124.286416720844713,13.893972730448617,0.0],[124.286417219819796,13.894063128280148,0.0],[124.286417718798347,13.894153526110969,0.0],[124.286510253621344,13.894153038636553,0.0],[124.28651075263933,13.894243436463377,0.0],[124.286511037531938,13.894295044785309,0.0],[124.287252879867339,13.894574192864452,0.0],[124.287252529318522,13.894510728776993,0.0]]],[[[124.285388867484244,13.892170132784059,0.0],[124.285296333407487,13.892170619765626,0.0],[124.285296831880757,13.892261017650359,0.0],[124.285389365993396,13.892260530665506,0.0],[124.285388867484244,13.892170132784059,0.0]]],[[[124.28853952165656,13.892967134463913,0.0],[124.288632055931203,13.892966646226373,0.0],[124.288632555727759,13.893057043986317,0.0],[124.288725090034646,13.893056555710498,0.0],[124.288724590202207,13.89296615795384,0.0],[124.288724090373407,13.89287576019656,0.0],[124.288631556138199,13.892876248465807,0.0],[124.288539021899524,13.89287673670006,0.0],[124.28853952165656,13.892967134463913,0.0]]],[[[124.293830029133915,13.895831971055422,0.0],[124.293737493912118,13.895832461361085,0.0],[124.293737995796164,13.895922858917192,0.0],[124.293830531053743,13.895922368608154,0.0],[124.293830029133915,13.895831971055422,0.0]]]]}}
]
}
