{
"type": "FeatureCollection",
"name": "SYSTRA ID_363",
"crs": { "type": "name", "properties": { "name": "urn:ogc:def:crs:OGC::CRS84" } },
"xy_coordinate_resolution": 1e-15,
"features": [
{"type":"Feature","properties":{"fid":88,"Var":1.0,"layer":"LaUnion_Flood_5year","path":"C:/Users/cbposadas/Desktop/New folder/LaUnion/LaUnion_Flood_5year.shp","Risk Level":"Low","SYSTRA ID":"363","DAR ID":"363","Target Year":"BUFFER B","Bridge Category":"Buffer List","Bridge Name":"LUNA BRIDGE II","Coordinates Y":"16.816498","Coordinates X":"120.365917","Region":"I","Province":"LA UNION","ARC 2026":"","LINEAR METER IVF 2026":"","EIRR 2026":"","NEW/REPLACEMENT BRIDGE 2026":"","Visited by SYSTRA":"No","Selected for 2nd Visit of SYSTRA":"No","Final Funder":"No Funder","2023 IVF URL":"https://drive.google.com/open?id=130EVSt-X_05cFPFAfczkpLoDlu-Tciub","2026 IVF URL":"https://drive.google.com/open?id=130EVSt-X_05cFPFAfczkpLoDlu-Tciub"},"geometry":{"type":"MultiPolygon","coordinates":[[[[120.398816890130732,16.848228846476555,0.0],[120.398818124908971,16.848138543315784,0.0],[120.398724350668417,16.848137354225624,0.0],[120.398630576435508,16.848136165092654,0.0],[120.398629341568537,16.848226468239925,0.0],[120.398535567298765,16.848225279057484,0.0],[120.398534332379839,16.848315582197028,0.0],[120.398533097453281,16.848405885335772,0.0],[120.398439323102338,16.848404696097109,0.0],[120.398438088123811,16.848494999228215,0.0],[120.398531862519178,16.848496188473629,0.0],[120.398530627577429,16.848586491610597,0.0],[120.398436853137653,16.848585302358433,0.0],[120.398435618143949,16.848675605487763,0.0],[120.3984343831426,16.848765908616205,0.0],[120.39843314813362,16.848856211743847,0.0],[120.398526922706523,16.848857401016261,0.0],[120.39852578579459,16.848940533832806,0.0],[120.398629165665312,16.848847308063299,0.0],[120.398810856956416,16.848670063210104,0.0],[120.398811950942118,16.848590059110581,0.0],[120.398891829780908,16.848591071992068,0.0],[120.398983226415211,16.848501912060787,0.0],[120.398906960176376,16.848500945027801,0.0],[120.398908194932943,16.848410641863033,0.0],[120.398909429681865,16.848320338697288,0.0],[120.398815655344947,16.84831914963635,0.0],[120.398721881015661,16.84831796053269,0.0],[120.398723115845854,16.848227657379557,0.0],[120.398816890130732,16.848228846476555,0.0]]],[[[120.398431913117079,16.848946514870512,0.0],[120.398430823738749,16.849026168595813,0.0],[120.398517943404286,16.848947605933649,0.0],[120.398431913117079,16.848946514870512,0.0]]],[[[120.400738026310293,16.844911396915631,0.0],[120.400644253515878,16.844910208923171,0.0],[120.400643019854428,16.845000512243637,0.0],[120.400641786185446,16.845090815563214,0.0],[120.400735559068679,16.845092003569263,0.0],[120.400736792693351,16.845001700242936,0.0],[120.400738026310293,16.844911396915631,0.0]]],[[[120.400910769082017,16.845997412802806,0.0],[120.401004542431906,16.845998600747837,0.0],[120.401005775999195,16.845908297410141,0.0],[120.40091200269373,16.845907109471771,0.0],[120.400910769082017,16.845997412802806,0.0]]],[[[120.400239548183691,16.847072735327341,0.0],[120.400333322013012,16.847073923652601,0.0],[120.400334555982212,16.846983620372637,0.0],[120.400240782197301,16.846982432054126,0.0],[120.400239548183691,16.847072735327341,0.0]]],[[[120.399768210656902,16.847247399536482,0.0],[120.39976697639861,16.84733770277337,0.0],[120.399765742132672,16.847428006009459,0.0],[120.399859516101628,16.847429194575415,0.0],[120.399953290078201,16.847430383098562,0.0],[120.399954524255321,16.847340079849062,0.0],[120.399955758424895,16.847249776598673,0.0],[120.399956992586823,16.847159473347308,0.0],[120.399863218743462,16.847158284844323,0.0],[120.399864452942154,16.847067981598908,0.0],[120.399770679150762,16.847066793059952,0.0],[120.399676905366917,16.847065604478185,0.0],[120.399675671079393,16.8471559077101,0.0],[120.399674436784323,16.847246210941215,0.0],[120.399768210656902,16.847247399536482,0.0]]],[[[120.399191091410643,16.848299134038921,0.0],[120.39925741663501,16.848234431957788,0.0],[120.399191987346413,16.848233602436714,0.0],[120.399191091410643,16.848299134038921,0.0]]],[[[120.40310083534068,16.843586530296285,0.0],[120.403194607666677,16.843587717076471,0.0],[120.403195840008365,16.843497413560073,0.0],[120.403102067726692,16.843496226786637,0.0],[120.40310083534068,16.843586530296285,0.0]]],[[[120.40271835057122,16.844123603626361,0.0],[120.402812123133288,16.844124790617844,0.0],[120.402813355698015,16.844034487133687,0.0],[120.402719583180343,16.844033300148954,0.0],[120.40271835057122,16.844123603626361,0.0]]],[[[120.401310529769148,16.844196097000243,0.0],[120.401216757284175,16.844194909318112,0.0],[120.401215523949858,16.844285212686007,0.0],[120.401309296479241,16.844286400374887,0.0],[120.401310529769148,16.844196097000243,0.0]]],[[[120.40140183576294,16.844377891401642,0.0],[120.401403069016169,16.844287588021047,0.0],[120.401309296479241,16.844286400374887,0.0],[120.401308063181602,16.844376703748733,0.0],[120.40140183576294,16.844377891401642,0.0]]],[[[120.40130559656366,16.844557310493759,0.0],[120.401399369233744,16.84455849816008,0.0],[120.401398135957763,16.84464880153801,0.0],[120.401491908679802,16.84464998916836,0.0],[120.401493141911445,16.844559685783679,0.0],[120.401494375135456,16.84446938239811,0.0],[120.401400602502164,16.84446819478126,0.0],[120.401306829876404,16.84446700712169,0.0],[120.40130559656366,16.844557310493759,0.0]]],[[[120.401303129915362,16.844737917235232,0.0],[120.401301896579795,16.844828220604636,0.0],[120.401395669383007,16.844829408291119,0.0],[120.401396902674165,16.844739104915053,0.0],[120.401303129915362,16.844737917235232,0.0]]],[[[120.40233216497785,16.844931586248148,0.0],[120.402332037344834,16.844940934980038,0.0],[120.402340132141376,16.844931687117342,0.0],[120.40233216497785,16.844931586248148,0.0]]],[[[120.402236762127316,16.84504978170953,0.0],[120.402261941034325,16.845021016184241,0.0],[120.402237159147447,16.845020702417347,0.0],[120.402236762127316,16.84504978170953,0.0]]],[[[120.401477109308644,16.845733629715344,0.0],[120.401570882570866,16.845734817383708,0.0],[120.401572115849149,16.845644514002934,0.0],[120.401478342631336,16.845643326341232,0.0],[120.401477109308644,16.845733629715344,0.0]]],[[[120.401288329387882,16.845821557609998,0.0],[120.401382102679335,16.845822745370644,0.0],[120.401383336053982,16.84573244200417,0.0],[120.401289562806852,16.845731254250275,0.0],[120.401288329387882,16.845821557609998,0.0]]],[[[120.403208163008415,16.842594378347599,0.0],[120.4033019348539,16.8425955650109,0.0],[120.40330316706779,16.84250526147807,0.0],[120.4032093952667,16.84250407482152,0.0],[120.403208163008415,16.842594378347599,0.0]]]]}},
{"type":"Feature","properties":{"fid":89,"Var":2.0,"layer":"LaUnion_Flood_5year","path":"C:/Users/cbposadas/Desktop/New folder/LaUnion/LaUnion_Flood_5year.shp","Risk Level":"Medium","SYSTRA ID":"363","DAR ID":"363","Target Year":"BUFFER B","Bridge Category":"Buffer List","Bridge Name":"LUNA BRIDGE II","Coordinates Y":"16.816498","Coordinates X":"120.365917","Region":"I","Province":"LA UNION","ARC 2026":"","LINEAR METER IVF 2026":"","EIRR 2026":"","NEW/REPLACEMENT BRIDGE 2026":"","Visited by SYSTRA":"No","Selected for 2nd Visit of SYSTRA":"No","Final Funder":"No Funder","2023 IVF URL":"https://drive.google.com/open?id=130EVSt-X_05cFPFAfczkpLoDlu-Tciub","2026 IVF URL":"https://drive.google.com/open?id=130EVSt-X_05cFPFAfczkpLoDlu-Tciub"},"geometry":{"type":"MultiPolygon","coordinates":[[[[120.39843314813362,16.848856211743847,0.0],[120.398431913117079,16.848946514870512,0.0],[120.398517943404286,16.848947605933649,0.0],[120.39852578579459,16.848940533832806,0.0],[120.398526922706523,16.848857401016261,0.0],[120.39843314813362,16.848856211743847,0.0]]]]}}
]
}
