{
"type": "FeatureCollection",
"name": "SYSTRA ID_43",
"crs": { "type": "name", "properties": { "name": "urn:ogc:def:crs:OGC::CRS84" } },
"xy_coordinate_resolution": 1e-15,
"features": [
{"type":"Feature","properties":{"fid":79,"Var":1.0,"layer":"Kalinga_Flood_5year","path":"C:/Users/cbposadas/Desktop/New folder/Kalinga/Kalinga_Flood_5year.shp","Risk Level":"Low","SYSTRA ID":"43","DAR ID":"11","Target Year":"2027","Bridge Category":"Original List","Bridge Name":"NAMBUCAYAN BRIDGE","Coordinates Y":"17.4525214","Coordinates X":"121.3756607","Region":"CAR","Province":"KALINGA","ARC 2026":"Kalinga Cluster 1","LINEAR METER IVF 2026":"40","EIRR 2026":"0.28","NEW/REPLACEMENT BRIDGE 2026":"new","Visited by SYSTRA":"Yes","Selected for 2nd Visit of SYSTRA":"No","Final Funder":"No Funder","2023 IVF URL":"https://drive.google.com/open?id=1sijsplxxaWTfvzgX0spojFc3PGkcIc0J","2026 IVF URL":"https://drive.google.com/open?id=1E0PZKoXpz_xOWe9xkOM43ZCbbm0MI4Pb"},"geometry":{"type":"MultiPolygon","coordinates":[[[[121.422673521422197,17.450452440154262,0.0],[121.42265919857735,17.4501812371231,0.0],[121.422473356889256,17.450179764184679,0.0],[121.422471024500396,17.450450835186235,0.0],[121.422673521422197,17.450452440154262,0.0]]],[[[121.421581763006714,17.455323391855579,0.0],[121.421584097518675,17.455052321215511,0.0],[121.421301674518489,17.455050080698495,0.0],[121.421299339474245,17.45532115118926,0.0],[121.421581763006714,17.455323391855579,0.0]]]]}},
{"type":"Feature","properties":{"fid":80,"Var":2.0,"layer":"Kalinga_Flood_5year","path":"C:/Users/cbposadas/Desktop/New folder/Kalinga/Kalinga_Flood_5year.shp","Risk Level":"Medium","SYSTRA ID":"43","DAR ID":"11","Target Year":"2027","Bridge Category":"Original List","Bridge Name":"NAMBUCAYAN BRIDGE","Coordinates Y":"17.4525214","Coordinates X":"121.3756607","Region":"CAR","Province":"KALINGA","ARC 2026":"Kalinga Cluster 1","LINEAR METER IVF 2026":"40","EIRR 2026":"0.28","NEW/REPLACEMENT BRIDGE 2026":"new","Visited by SYSTRA":"Yes","Selected for 2nd Visit of SYSTRA":"No","Final Funder":"No Funder","2023 IVF URL":"https://drive.google.com/open?id=1sijsplxxaWTfvzgX0spojFc3PGkcIc0J","2026 IVF URL":"https://drive.google.com/open?id=1E0PZKoXpz_xOWe9xkOM43ZCbbm0MI4Pb"},"geometry":{"type":"MultiPolygon","coordinates":[[[[121.422471024500396,17.450450835186235,0.0],[121.422473356889256,17.450179764184679,0.0],[121.422190940927266,17.450177525197194,0.0],[121.422188608121132,17.450448596161802,0.0],[121.422471024500396,17.450450835186235,0.0]]],[[[121.421299339474245,17.45532115118926,0.0],[121.421301674518489,17.455050080698495,0.0],[121.421019251330094,17.45504783955629,0.0],[121.421016915753384,17.455318909897663,0.0],[121.421299339474245,17.45532115118926,0.0]]],[[[121.422118604404361,17.45858072152939,0.0],[121.422116270411095,17.458851792368321,0.0],[121.422113936260615,17.459122863087259,0.0],[121.422218089526851,17.459123689139208,0.0],[121.422300887031838,17.458582167263103,0.0],[121.422118604404361,17.45858072152939,0.0]]]]}},
{"type":"Feature","properties":{"fid":81,"Var":3.0,"layer":"Kalinga_Flood_5year","path":"C:/Users/cbposadas/Desktop/New folder/Kalinga/Kalinga_Flood_5year.shp","Risk Level":"High","SYSTRA ID":"43","DAR ID":"11","Target Year":"2027","Bridge Category":"Original List","Bridge Name":"NAMBUCAYAN BRIDGE","Coordinates Y":"17.4525214","Coordinates X":"121.3756607","Region":"CAR","Province":"KALINGA","ARC 2026":"Kalinga Cluster 1","LINEAR METER IVF 2026":"40","EIRR 2026":"0.28","NEW/REPLACEMENT BRIDGE 2026":"new","Visited by SYSTRA":"Yes","Selected for 2nd Visit of SYSTRA":"No","Final Funder":"No Funder","2023 IVF URL":"https://drive.google.com/open?id=1sijsplxxaWTfvzgX0spojFc3PGkcIc0J","2026 IVF URL":"https://drive.google.com/open?id=1E0PZKoXpz_xOWe9xkOM43ZCbbm0MI4Pb"},"geometry":{"type":"MultiPolygon","coordinates":[[[[121.421021586173964,17.454776768532973,0.0],[121.421019251330094,17.45504783955629,0.0],[121.421301674518489,17.455050080698495,0.0],[121.421584097518675,17.455052321215511,0.0],[121.421586431758229,17.454781250342918,0.0],[121.4213040089451,17.45477900963823,0.0],[121.421021586173964,17.454776768532973,0.0]]],[[[121.422116270411095,17.458851792368321,0.0],[121.421833841138948,17.458849551797925,0.0],[121.421831506571209,17.459120622479826,0.0],[121.422113936260615,17.459122863087259,0.0],[121.422116270411095,17.458851792368321,0.0]]]]}}
]
}
