{
"type": "FeatureCollection",
"name": "SYSTRA ID_432",
"crs": { "type": "name", "properties": { "name": "urn:ogc:def:crs:OGC::CRS84" } },
"xy_coordinate_resolution": 1e-15,
"features": [
{"type":"Feature","properties":{"fid":160,"Var":1.0,"layer":"Samar_Flood_5year","path":"C:/Users/cbposadas/Desktop/New folder/Samar/Samar_Flood_5year.shp","Risk Level":"Low","SYSTRA ID":"432","DAR ID":"432","Target Year":"BUFFER B","Bridge Category":"Buffer List","Bridge Name":"SINALANGTAN BRIDGE","Coordinates Y":"11.575269","Coordinates X":"125.078497","Region":"VIII","Province":"SAMAR","ARC 2026":"","LINEAR METER IVF 2026":"","EIRR 2026":"","NEW/REPLACEMENT BRIDGE 2026":"","Visited by SYSTRA":"No","Selected for 2nd Visit of SYSTRA":"No","Final Funder":"No Funder","2023 IVF URL":"https://docs.google.com/spreadsheets/u/1/d/1NZgCk87kQhx6qZsyJ9FcJWEzv6S34R7o/edit","2026 IVF URL":"https://docs.google.com/spreadsheets/u/1/d/1NZgCk87kQhx6qZsyJ9FcJWEzv6S34R7o/edit"},"geometry":{"type":"MultiPolygon","coordinates":[[[[125.061166802436631,11.533603528663196,0.0],[125.061167461928463,11.533693906607347,0.0],[125.061259109489569,11.533693256234525,0.0],[125.061258449968506,11.533602878295614,0.0],[125.061166802436631,11.533603528663196,0.0]]],[[[125.068118765940341,11.531746467407935,0.0],[125.06802711940864,11.531747119835735,0.0],[125.068027780985119,11.531837497398769,0.0],[125.068119427546137,11.531836844965728,0.0],[125.068118765940341,11.531746467407935,0.0]]]]}},
{"type":"Feature","properties":{"fid":161,"Var":2.0,"layer":"Samar_Flood_5year","path":"C:/Users/cbposadas/Desktop/New folder/Samar/Samar_Flood_5year.shp","Risk Level":"Medium","SYSTRA ID":"432","DAR ID":"432","Target Year":"BUFFER B","Bridge Category":"Buffer List","Bridge Name":"SINALANGTAN BRIDGE","Coordinates Y":"11.575269","Coordinates X":"125.078497","Region":"VIII","Province":"SAMAR","ARC 2026":"","LINEAR METER IVF 2026":"","EIRR 2026":"","NEW/REPLACEMENT BRIDGE 2026":"","Visited by SYSTRA":"No","Selected for 2nd Visit of SYSTRA":"No","Final Funder":"No Funder","2023 IVF URL":"https://docs.google.com/spreadsheets/u/1/d/1NZgCk87kQhx6qZsyJ9FcJWEzv6S34R7o/edit","2026 IVF URL":"https://docs.google.com/spreadsheets/u/1/d/1NZgCk87kQhx6qZsyJ9FcJWEzv6S34R7o/edit"},"geometry":{"type":"MultiPolygon","coordinates":[[[[125.055959989198456,11.535990385990093,0.0],[125.055868340585675,11.535991034818995,0.0],[125.05586899852284,11.53608141305056,0.0],[125.055960647164852,11.536080764216507,0.0],[125.055959989198456,11.535990385990093,0.0]]]]}}
]
}
