{
"type": "FeatureCollection",
"name": "SYSTRA ID_18",
"crs": { "type": "name", "properties": { "name": "urn:ogc:def:crs:OGC::CRS84" } },
"xy_coordinate_resolution": 1e-15,
"features": [
{"type":"Feature","properties":{"fid":139,"Var":1.0,"layer":"Aklan_Flood_5yr","path":"C:/Users/cbposadas/Desktop/New folder/Aklan/Aklan/PH060400000_FH_5yr.shp","Risk Level":"Low","SYSTRA ID":"18","DAR ID":"167","Target Year":"2026","Bridge Category":"Original List","Bridge Name":"BUBOG-ALBASAN BRIDGE","Coordinates Y":"11.723083","Coordinates X":"122.338722","Region":"VI","Province":"AKLAN","ARC 2026":"Ilang-Ilang Agrarian Reform Community/ RICC ARC Cluster","LINEAR METER IVF 2026":"28","EIRR 2026":"0.2","NEW/REPLACEMENT BRIDGE 2026":"replacement","Visited by SYSTRA":"No","Selected for 2nd Visit of SYSTRA":"No","Final Funder":"Trésor","2023 IVF URL":"https://drive.google.com/open?id=1zS21AYEU9gxGJWVxIhS2b98nGnE0yKJL","2026 IVF URL":"https://drive.google.com/open?id=1PWYBjOFRQTa4p0mjY3zd7ZLL-vSy4b9m"},"geometry":{"type":"MultiPolygon","coordinates":[[[[122.365877390453164,11.686723617076714,0.0],[122.365877184751014,11.686814047366786,0.0],[122.365876979047115,11.686904477656338,0.0],[122.365968730734707,11.686904680383808,0.0],[122.365968525058875,11.686995110674415,0.0],[122.365968319381466,11.687085540964432,0.0],[122.365968113702337,11.687175971253914,0.0],[122.365967908021474,11.687266401542788,0.0],[122.366059659829645,11.687266604247371,0.0],[122.366059454176877,11.687357034537333,0.0],[122.366059248522376,11.687447464826624,0.0],[122.366151000391767,11.687447667505099,0.0],[122.366150794765318,11.687538097795493,0.0],[122.366242546666328,11.687538300446249,0.0],[122.366334298568944,11.687538503067671,0.0],[122.366334093000319,11.687628933360697,0.0],[122.36642584493444,11.687629135954349,0.0],[122.366517596870182,11.687629338518718,0.0],[122.366609348807685,11.687629541053806,0.0],[122.366701100746894,11.68762974355951,0.0],[122.366792852687894,11.687629946035882,0.0],[122.366884604630457,11.687630148482924,0.0],[122.366884810020579,11.687539718180188,0.0],[122.366976561935076,11.687539920596338,0.0],[122.366976730164311,11.687465840322155,0.0],[122.365877576191124,11.686641962677065,0.0],[122.365877390453164,11.686723617076714,0.0]]],[[[122.371004055638764,11.691799024865226,0.0],[122.370912302250588,11.69179882366455,0.0],[122.370820548864103,11.691798622434584,0.0],[122.370820344674371,11.691889052779349,0.0],[122.370728591259848,11.69188885151844,0.0],[122.370636837846945,11.691888650228186,0.0],[122.37063663359595,11.691979080569165,0.0],[122.370636429343222,11.692069510909569,0.0],[122.370544675872537,11.692069309586774,0.0],[122.370544471588403,11.692159739925009,0.0],[122.370544267302478,11.692250170262703,0.0],[122.370544063014961,11.692340600599792,0.0],[122.370543858725654,11.692431030936273,0.0],[122.370543654434783,11.692521461272184,0.0],[122.370543450142108,11.692611891607587,0.0],[122.370543245847728,11.692702321942351,0.0],[122.37054304155177,11.692792752276626,0.0],[122.370634795260656,11.692792953612168,0.0],[122.370634590992694,11.692883383947501,0.0],[122.37063438672314,11.692973814282182,0.0],[122.370726140493204,11.692974015591544,0.0],[122.370817894265073,11.69297421687169,0.0],[122.370817690053315,11.693064647208962,0.0],[122.370909443856533,11.693064848461312,0.0],[122.371001197661528,11.693065049684348,0.0],[122.3710014018137,11.692974619343795,0.0],[122.371001605964281,11.69288418900272,0.0],[122.371093359711367,11.692884390193232,0.0],[122.371093563830485,11.692793959849935,0.0],[122.371093767947826,11.692703529506199,0.0],[122.371093972063477,11.692613099161724,0.0],[122.371185725722881,11.692613300318079,0.0],[122.371185929807226,11.692522869971482,0.0],[122.371186133889623,11.692432439624346,0.0],[122.371186337970471,11.692342009276709,0.0],[122.371186542049642,11.692251578928429,0.0],[122.371186746127137,11.692161148579542,0.0],[122.371186950202883,11.692070718230118,0.0],[122.37118715427701,11.691980287880121,0.0],[122.371095400825922,11.691980086734988,0.0],[122.371095604928058,11.691889656386016,0.0],[122.371003851508448,11.691889455213136,0.0],[122.371004055638764,11.691799024865226,0.0]]],[[[122.37356888160916,11.693703684694029,0.0],[122.373593475087873,11.693703738404103,0.0],[122.373568942940452,11.693676407838828,0.0],[122.37356888160916,11.693703684694029,0.0]]],[[[122.373660432369277,11.693794315459312,0.0],[122.373674805994341,11.693794346845726,0.0],[122.373660468209323,11.693778373528652,0.0],[122.373660432369277,11.693794315459312,0.0]]],[[[122.373929597488356,11.696507827779687,0.0],[122.374021352480582,11.696508028094632,0.0],[122.374021555714094,11.696417597723265,0.0],[122.374021758945915,11.696327167351361,0.0],[122.374021962176045,11.696236736978799,0.0],[122.374022165404511,11.696146306605764,0.0],[122.373930410531401,11.696146106297098,0.0],[122.373930613788005,11.696055675925033,0.0],[122.373838858946328,11.696055475588603,0.0],[122.373747104106357,11.69605527522282,0.0],[122.373747307420885,11.695964844853396,0.0],[122.373655552612306,11.695964644459815,0.0],[122.373563797805545,11.695964444036949,0.0],[122.373564001177868,11.695874013670105,0.0],[122.373472246402542,11.695873813219444,0.0],[122.373380491628893,11.695873612739344,0.0],[122.373380695059083,11.695783182375193,0.0],[122.373288940316868,11.695782981867417,0.0],[122.373197185576316,11.695782781330289,0.0],[122.373197389064501,11.695692350968619,0.0],[122.373105634355426,11.695692150403696,0.0],[122.373105837871677,11.695601720043177,0.0],[122.373014083194008,11.695601519450477,0.0],[122.373014286738311,11.695511089090932,0.0],[122.372922532092218,11.695510888470523,0.0],[122.372922735664631,11.695420458111929,0.0],[122.372830981050001,11.695420257463796,0.0],[122.372831184650508,11.695329827106223,0.0],[122.372739430067284,11.695329626430297,0.0],[122.372739633695858,11.69523919607378,0.0],[122.372647879144168,11.695238995370129,0.0],[122.372648082800907,11.695148565014634,0.0],[122.372556328280666,11.695148364283227,0.0],[122.372556531965401,11.69505793392872,0.0],[122.372464777476566,11.69505773316947,0.0],[122.372373022989549,11.69505753238092,0.0],[122.372281268504111,11.695057331563017,0.0],[122.372189514020363,11.695057130715766,0.0],[122.372097759538406,11.695056929839211,0.0],[122.37200600505804,11.695056728933254,0.0],[122.372005801194504,11.695147159278157,0.0],[122.371914046686101,11.695146958341288,0.0],[122.371913842791145,11.695237388683953,0.0],[122.371913638894512,11.695327819026115,0.0],[122.371821884328156,11.695327618056618,0.0],[122.371821680400075,11.695418048396659,0.0],[122.371821476470345,11.695508478736047,0.0],[122.371821272538881,11.695598909074926,0.0],[122.371821068605655,11.695689339413251,0.0],[122.371820864670823,11.695779769750951,0.0],[122.371912619386109,11.695779970728331,0.0],[122.371912415479372,11.695870401067108,0.0],[122.37191221157093,11.695960831405259,0.0],[122.372003966347421,11.695961032356493,0.0],[122.372003762467017,11.696051462695619,0.0],[122.37200355858495,11.696141893034305,0.0],[122.372003354701292,11.696232323372252,0.0],[122.372095109568818,11.696232524299036,0.0],[122.372094905713197,11.696322954638056,0.0],[122.372094701855929,11.696413384976571,0.0],[122.372094497996954,11.696503815314447,0.0],[122.37218625295543,11.696504016216581,0.0],[122.372186049124522,11.696594446555562,0.0],[122.372185845292037,11.696684876893871,0.0],[122.372185641457733,11.696775307231672,0.0],[122.372277396507357,11.696775508109235,0.0],[122.372277192701205,11.696865938448077,0.0],[122.372276988893319,11.696956368786232,0.0],[122.372368744004206,11.69695656963763,0.0],[122.372460499116769,11.696956770459671,0.0],[122.372552254230925,11.696956971252408,0.0],[122.372644009346885,11.696957172015688,0.0],[122.372735764464537,11.696957372749711,0.0],[122.372827519583836,11.696957573454329,0.0],[122.372827723212978,11.696867143106475,0.0],[122.372919478304141,11.696867343780191,0.0],[122.37301123339698,11.696867544424503,0.0],[122.373102988491539,11.696867745039492,0.0],[122.373103192029703,11.696777314686303,0.0],[122.37319494709611,11.696777515270307,0.0],[122.373286702164251,11.696777715824908,0.0],[122.373378457234111,11.696777916350204,0.0],[122.373378660681141,11.696687485991696,0.0],[122.373470415722821,11.696687686486076,0.0],[122.373562170766235,11.696687886951066,0.0],[122.373653925811283,11.69668808738675,0.0],[122.37374568085815,11.696688287792981,0.0],[122.373745884184302,11.696597857427582,0.0],[122.373837639203003,11.696598057802829,0.0],[122.373929394223381,11.696598258148805,0.0],[122.373929597488356,11.696507827779687,0.0]]],[[[122.373556475280807,11.699219936861951,0.0],[122.373556678713712,11.699129506515723,0.0],[122.373556882144939,11.699039076168875,0.0],[122.37355708557449,11.698948645821551,0.0],[122.373465329786384,11.698948445316708,0.0],[122.373465126327091,11.69903887566249,0.0],[122.373464922866006,11.699129306007746,0.0],[122.37346471940333,11.699219736352383,0.0],[122.373464515938892,11.699310166696412,0.0],[122.373556271846212,11.699310367207572,0.0],[122.373556475280807,11.699219936861951,0.0]]],[[[122.376312190298222,11.69786948252719,0.0],[122.376220434817256,11.697869282922232,0.0],[122.376220637361001,11.697778852521378,0.0],[122.376128881911455,11.697778652888728,0.0],[122.376129084483381,11.697688222488852,0.0],[122.376037329065255,11.697688022828379,0.0],[122.376037531665332,11.697597592429467,0.0],[122.376037734263619,11.697507162030028,0.0],[122.376037936860314,11.697416731630057,0.0],[122.376129692189053,11.697416931285739,0.0],[122.376129894754342,11.697326500883571,0.0],[122.376130097317812,11.697236070480832,0.0],[122.376130299879733,11.697145640077554,0.0],[122.376130502439864,11.697055209673705,0.0],[122.376130704998374,11.696964779269214,0.0],[122.376164868490434,11.696964853593766,0.0],[122.3759007264985,11.696589572411636,0.0],[122.375633654285906,11.696240250675636,0.0],[122.375581795782267,11.696240137761935,0.0],[122.375490040850792,11.696239937950754,0.0],[122.375398285921065,11.696239738110171,0.0],[122.375398083137711,11.696330168506483,0.0],[122.375397880352608,11.696420598902291,0.0],[122.375397677565843,11.69651102929746,0.0],[122.375305922548407,11.696510829422758,0.0],[122.375305719730264,11.6966012598158,0.0],[122.375305516910387,11.696691690208304,0.0],[122.375305314088806,11.696782120600217,0.0],[122.375305111265533,11.696872550991573,0.0],[122.375304908440697,11.696962981382292,0.0],[122.375396663607063,11.696963181264882,0.0],[122.375396460810265,11.697053611656697,0.0],[122.375396258011776,11.697144042047857,0.0],[122.375488013239362,11.697144241904347,0.0],[122.37557976846864,11.697144441731446,0.0],[122.37557956572806,11.697234872125209,0.0],[122.375579362985803,11.697325302518431,0.0],[122.375487607697025,11.697325102688241,0.0],[122.375395852409824,11.697324902828527,0.0],[122.375304097124243,11.697324702939536,0.0],[122.375303894290937,11.697415133327425,0.0],[122.375212138977361,11.697414933407527,0.0],[122.375211936112592,11.697505363793303,0.0],[122.375211733246189,11.697595794178408,0.0],[122.375211530378039,11.697686224563007,0.0],[122.375211327508239,11.697776654947017,0.0],[122.375303082941002,11.6977768548733,0.0],[122.375302880099341,11.697867285258241,0.0],[122.37539463556358,11.697867485156838,0.0],[122.375394432749957,11.697957915542842,0.0],[122.375486188245688,11.697958115413586,0.0],[122.375485985460188,11.698048545800638,0.0],[122.375577740987353,11.698048745643643,0.0],[122.375669496516252,11.69804894545722,0.0],[122.375761252046772,11.698049145241503,0.0],[122.375761049349009,11.698139575632661,0.0],[122.375852804910991,11.698139775389139,0.0],[122.375944560474665,11.698139975116309,0.0],[122.375944357834811,11.69823040551015,0.0],[122.376036113429919,11.698230605209529,0.0],[122.376127869026746,11.698230804879513,0.0],[122.376127666444773,11.69832123527592,0.0],[122.376219422073078,11.698321434918164,0.0],[122.376311177703073,11.698321634530949,0.0],[122.376310975178939,11.69841206493002,0.0],[122.376402730840411,11.698412264515095,0.0],[122.376494486503475,11.698412464070847,0.0],[122.376494284037321,11.698502894472497,0.0],[122.376586039731933,11.698503094000351,0.0],[122.376677795428137,11.698503293499018,0.0],[122.376769551126017,11.698503492968152,0.0],[122.376861306825674,11.698503692408098,0.0],[122.376953062526866,11.698503891818509,0.0],[122.377044818229791,11.698504091199649,0.0],[122.377045020517244,11.698413660788582,0.0],[122.377045222802991,11.698323230376802,0.0],[122.377045425087047,11.698232799964588,0.0],[122.376953669473508,11.698232600588115,0.0],[122.376953871785645,11.698142170176894,0.0],[122.376862116203583,11.698141970772761,0.0],[122.376862318543857,11.698051540362501,0.0],[122.376770562993244,11.698051340930562,0.0],[122.376678807444307,11.698051141469229,0.0],[122.376587051896962,11.698050941978568,0.0],[122.376587254325003,11.697960511572486,0.0],[122.376495498809163,11.697960312054052,0.0],[122.376403743294986,11.697960112506259,0.0],[122.376403945780908,11.697869682102757,0.0],[122.376312190298222,11.69786948252719,0.0]]],[[[122.377502181753556,11.699138100582262,0.0],[122.377501979601689,11.699228530996763,0.0],[122.377501777448188,11.699318961410624,0.0],[122.377501575292996,11.699409391823979,0.0],[122.377501373136141,11.69949982223673,0.0],[122.377501170977567,11.699590252648871,0.0],[122.377500968817415,11.699680683060476,0.0],[122.377592724917633,11.699680882286017,0.0],[122.377684481019557,11.699681081482243,0.0],[122.377776237123157,11.699681280649056,0.0],[122.377867993228477,11.699681479786458,0.0],[122.377959749335446,11.699681678894592,0.0],[122.377959809754827,11.699654632125183,0.0],[122.377895455971313,11.699545872771239,0.0],[122.377594068872256,11.699079601003248,0.0],[122.377593937674988,11.699138299798344,0.0],[122.377502181753556,11.699138100582262,0.0]]]]}}
]
}
